{
  "features": [
    {
      "geometry": {
        "coordinates": [
          39.69777686183687,
          -4.0263661303674905
        ],
        "type": "Point"
      },
      "properties": {
        "id": "interchange-000",
        "junction_group": 0,
        "line_count": 2,
        "lines": "line-1,line-2",
        "platform_count": 2,
        "platforms": "line-1-0705-0966-s002171,line-2-0705-0966-s014948"
      },
      "type": "Feature"
    },
    {
      "geometry": {
        "coordinates": [
          39.6833680165736,
          -4.0249264010366055
        ],
        "type": "Point"
      },
      "properties": {
        "id": "interchange-001",
        "junction_group": 1,
        "line_count": 2,
        "lines": "line-1,line-6",
        "platform_count": 2,
        "platforms": "line-1-0697-0886-s003837,line-6-0697-0886-s026044"
      },
      "type": "Feature"
    },
    {
      "geometry": {
        "coordinates": [
          39.65846773085302,
          -3.9626131159342046
        ],
        "type": "Point"
      },
      "properties": {
        "id": "interchange-002",
        "junction_group": 2,
        "line_count": 3,
        "lines": "line-1,line-4,line-6",
        "platform_count": 4,
        "platforms": "line-1-0333-0725-s014324,line-1-0369-0771-s013035,line-4-0333-0725-s058466,line-6-0368-0770-s008600"
      },
      "type": "Feature"
    },
    {
      "geometry": {
        "coordinates": [
          39.60574036271774,
          -3.96409783680668
        ],
        "type": "Point"
      },
      "properties": {
        "id": "interchange-003",
        "junction_group": 3,
        "line_count": 2,
        "lines": "line-1,line-5",
        "platform_count": 2,
        "platforms": "line-1-0359-0455-s020443,line-5-0359-0455-s003809"
      },
      "type": "Feature"
    },
    {
      "geometry": {
        "coordinates": [
          39.62159009250733,
          -3.9964917467516106
        ],
        "type": "Point"
      },
      "properties": {
        "id": "interchange-004",
        "junction_group": 4,
        "line_count": 3,
        "lines": "line-1,line-5,line-6",
        "platform_count": 4,
        "platforms": "line-1-0548-0531-s025001,line-5-0530-0555-s008233,line-6-0530-0555-s002565,line-6-0548-0531-s001936"
      },
      "type": "Feature"
    },
    {
      "geometry": {
        "coordinates": [
          39.64763196137286,
          -4.035971383403449
        ],
        "type": "Point"
      },
      "properties": {
        "id": "interchange-005",
        "junction_group": 5,
        "line_count": 5,
        "lines": "line-1,line-3,line-4,line-5,line-6",
        "platform_count": 51,
        "platforms": "line-1-0630-0613-s027321,line-1-0670-0653-s028452,line-1-0671-0637-s028933,line-1-0672-0653-s028605,line-3-0745-0634-s006524,line-3-0745-0638-s006604,line-3-0747-0641-s006680,line-3-0748-0681-s007489,line-3-0748-0710-s008069,line-3-0750-0713-s008157,line-3-0753-0716-s008242,line-3-0758-0716-s008342,line-3-0777-0699-s008863,line-3-0801-0675-s009542,line-3-0808-0675-s010120,line-3-0809-0712-s010868,line-3-0809-0717-s010968,line-4-0670-0653-s047428,line-4-0725-0669-s039915,line-4-0748-0681-s045469,line-4-0748-0710-s041195,line-4-0750-0713-s041295,line-4-0752-0715-s041375,line-4-0758-0716-s041515,line-4-0796-0716-s042275,line-4-0801-0675-s044359,line-4-0804-0715-s042455,line-4-0808-0675-s044219,line-4-0809-0712-s042615,line-5-0630-0613-s010808,line-5-0671-0637-s011862,line-5-0725-0669-s013265,line-5-0748-0682-s013868,line-5-0777-0699-s014601,line-5-0804-0715-s015320,line-5-0809-0717-s015437,line-5-0814-0720-s015562,line-5-0816-0722-s015630,line-5-0831-0731-s016016,line-6-0745-0634-s039072,line-6-0745-0638-s038992,line-6-0747-0641-s038915,line-6-0748-0681-s038107,line-6-0748-0709-s037547,line-6-0749-0712-s037479,line-6-0752-0715-s037394,line-6-0758-0716-s037266,line-6-0796-0716-s036506,line-6-0809-0716-s036246,line-6-0814-0720-s036113,line-6-0831-0731-s035681"
      },
      "type": "Feature"
    },
    {
      "geometry": {
        "coordinates": [
          39.60321881479666,
          -4.016467991217651
        ],
        "type": "Point"
      },
      "properties": {
        "id": "interchange-006",
        "junction_group": 6,
        "line_count": 2,
        "lines": "line-1,line-6",
        "platform_count": 2,
        "platforms": "line-1-0650-0441-s033027,line-6-0650-0441-s111800"
      },
      "type": "Feature"
    },
    {
      "geometry": {
        "coordinates": [
          39.6853492327973,
          -4.045802476334449
        ],
        "type": "Point"
      },
      "properties": {
        "id": "interchange-007",
        "junction_group": 7,
        "line_count": 2,
        "lines": "line-2,line-3",
        "platform_count": 2,
        "platforms": "line-2-0813-0897-s012088,line-3-0813-0897-s015678"
      },
      "type": "Feature"
    },
    {
      "geometry": {
        "coordinates": [
          39.715427697284376,
          -3.9988313069143
        ],
        "type": "Point"
      },
      "properties": {
        "id": "interchange-008",
        "junction_group": 8,
        "line_count": 2,
        "lines": "line-2,line-6",
        "platform_count": 2,
        "platforms": "line-2-0552-1064-s019007,line-6-0552-1064-s020849"
      },
      "type": "Feature"
    },
    {
      "geometry": {
        "coordinates": [
          39.7267746629292,
          -3.981194622610949
        ],
        "type": "Point"
      },
      "properties": {
        "id": "interchange-009",
        "junction_group": 9,
        "line_count": 2,
        "lines": "line-2,line-6",
        "platform_count": 2,
        "platforms": "line-2-0454-1127-s021595,line-6-0454-1127-s017071"
      },
      "type": "Feature"
    },
    {
      "geometry": {
        "coordinates": [
          39.600337045744006,
          -4.042443107895717
        ],
        "type": "Point"
      },
      "properties": {
        "id": "interchange-010",
        "junction_group": 10,
        "line_count": 2,
        "lines": "line-3,line-6",
        "platform_count": 6,
        "platforms": "line-3-0779-0407-s000000,line-3-0802-0430-s001777,line-3-0802-0438-s001937,line-6-0779-0407-s107698,line-6-0802-0430-s108349,line-6-0802-0438-s108735"
      },
      "type": "Feature"
    },
    {
      "geometry": {
        "coordinates": [
          39.66967961357349,
          -4.045442544001728
        ],
        "type": "Point"
      },
      "properties": {
        "id": "interchange-011",
        "junction_group": 11,
        "line_count": 2,
        "lines": "line-3,line-6",
        "platform_count": 2,
        "platforms": "line-3-0811-0810-s012844,line-6-0811-0810-s029318"
      },
      "type": "Feature"
    },
    {
      "geometry": {
        "coordinates": [
          39.64248291813907,
          -4.078736284778461
        ],
        "type": "Point"
      },
      "properties": {
        "id": "interchange-012",
        "junction_group": 12,
        "line_count": 2,
        "lines": "line-4,line-6",
        "platform_count": 2,
        "platforms": "line-4-0996-0659-s000000,line-6-0996-0659-s071729"
      },
      "type": "Feature"
    },
    {
      "geometry": {
        "coordinates": [
          39.60177793027034,
          -4.098352596911781
        ],
        "type": "Point"
      },
      "properties": {
        "id": "interchange-013",
        "junction_group": 13,
        "line_count": 2,
        "lines": "line-4,line-6",
        "platform_count": 2,
        "platforms": "line-4-1105-0433-s008835,line-6-1105-0433-s078478"
      },
      "type": "Feature"
    },
    {
      "geometry": {
        "coordinates": [
          39.58790941670444,
          -4.1115415459607885
        ],
        "type": "Point"
      },
      "properties": {
        "id": "interchange-014",
        "junction_group": 14,
        "line_count": 2,
        "lines": "line-4,line-6",
        "platform_count": 7,
        "platforms": "line-4-1172-0366-s011515,line-4-1181-0346-s012095,line-4-1181-0361-s011795,line-6-1172-0366-s088159,line-6-1180-0346-s062387,line-6-1181-0346-s088633,line-6-1181-0361-s062695"
      },
      "type": "Feature"
    },
    {
      "geometry": {
        "coordinates": [
          39.56215360579635,
          -4.087914559262859
        ],
        "type": "Point"
      },
      "properties": {
        "id": "interchange-015",
        "junction_group": 15,
        "line_count": 2,
        "lines": "line-4,line-6",
        "platform_count": 2,
        "platforms": "line-4-1047-0213-s017435,line-6-1047-0213-s058625"
      },
      "type": "Feature"
    },
    {
      "geometry": {
        "coordinates": [
          39.54387238336858,
          -4.081165828024331
        ],
        "type": "Point"
      },
      "properties": {
        "id": "interchange-016",
        "junction_group": 16,
        "line_count": 2,
        "lines": "line-4,line-6",
        "platform_count": 8,
        "platforms": "line-4-0994-0096-s020835,line-4-0997-0099-s020715,line-4-1003-0105-s020475,line-4-1043-0145-s018875,line-6-0996-0098-s055903,line-6-0997-0099-s095098,line-6-1003-0105-s094928,line-6-1043-0145-s093797"
      },
      "type": "Feature"
    },
    {
      "geometry": {
        "coordinates": [
          39.54108066959882,
          -4.054980750818846
        ],
        "type": "Point"
      },
      "properties": {
        "id": "interchange-017",
        "junction_group": 17,
        "line_count": 2,
        "lines": "line-4,line-6",
        "platform_count": 2,
        "platforms": "line-4-0864-0096-s023435,line-6-0864-0096-s097783"
      },
      "type": "Feature"
    },
    {
      "geometry": {
        "coordinates": [
          39.54648398657254,
          -4.029065622862902
        ],
        "type": "Point"
      },
      "properties": {
        "id": "interchange-018",
        "junction_group": 18,
        "line_count": 2,
        "lines": "line-4,line-6",
        "platform_count": 2,
        "platforms": "line-4-0720-0126-s027355,line-6-0720-0126-s050002"
      },
      "type": "Feature"
    },
    {
      "geometry": {
        "coordinates": [
          39.56233371636214,
          -4.023126739372998
        ],
        "type": "Point"
      },
      "properties": {
        "id": "interchange-019",
        "junction_group": 19,
        "line_count": 2,
        "lines": "line-4,line-6",
        "platform_count": 2,
        "platforms": "line-4-0687-0214-s029775,line-6-0687-0214-s047969"
      },
      "type": "Feature"
    },
    {
      "geometry": {
        "coordinates": [
          39.587459140289965,
          -4.02627614728431
        ],
        "type": "Point"
      },
      "properties": {
        "id": "interchange-020",
        "junction_group": 20,
        "line_count": 2,
        "lines": "line-4,line-6",
        "platform_count": 2,
        "platforms": "line-4-0697-0367-s033315,line-6-0712-0340-s105803"
      },
      "type": "Feature"
    },
    {
      "geometry": {
        "coordinates": [
          39.603038704230876,
          -4.027625893532016
        ],
        "type": "Point"
      },
      "properties": {
        "id": "interchange-021",
        "junction_group": 21,
        "line_count": 2,
        "lines": "line-4,line-6",
        "platform_count": 2,
        "platforms": "line-4-0712-0440-s035075,line-6-0712-0440-s110552"
      },
      "type": "Feature"
    },
    {
      "geometry": {
        "coordinates": [
          39.65280925724442,
          -3.972916178958356
        ],
        "type": "Point"
      },
      "properties": {
        "id": "interchange-022",
        "junction_group": 22,
        "line_count": 2,
        "lines": "line-4,line-6",
        "platform_count": 3,
        "platforms": "line-4-0408-0717-s056900,line-6-0407-0717-s007070,line-6-0409-0715-s007002"
      },
      "type": "Feature"
    },
    {
      "geometry": {
        "coordinates": [
          39.66535695999451,
          -4.066858517798654
        ],
        "type": "Point"
      },
      "properties": {
        "id": "interchange-023",
        "junction_group": 23,
        "line_count": 2,
        "lines": "line-5,line-6",
        "platform_count": 2,
        "platforms": "line-5-0930-0786-s018562,line-6-0930-0786-s032462"
      },
      "type": "Feature"
    }
  ],
  "type": "FeatureCollection"
}
