{
  "features": [
    {
      "geometry": {
        "coordinates": [
          -9.544124157658958,
          30.371499215347516
        ],
        "type": "Point"
      },
      "properties": {
        "id": "interchange-000",
        "junction_group": 0,
        "line_count": 2,
        "lines": "line-1,line-3",
        "platform_count": 2,
        "platforms": "line-1-0863-0810-s008380,line-3-0863-0810-s006038"
      },
      "type": "Feature"
    },
    {
      "geometry": {
        "coordinates": [
          -9.565376885504469,
          30.418830317100387
        ],
        "type": "Point"
      },
      "properties": {
        "id": "interchange-001",
        "junction_group": 1,
        "line_count": 2,
        "lines": "line-2,line-3",
        "platform_count": 2,
        "platforms": "line-2-0600-0708-s016479,line-3-0600-0708-s012237"
      },
      "type": "Feature"
    }
  ],
  "type": "FeatureCollection"
}
