{
  "features": [
    {
      "geometry": {
        "coordinates": [
          42.97492355,
          14.81798484
        ],
        "type": "Point"
      },
      "properties": {
        "chainage_m": 0.0,
        "civil_class": "elevated",
        "investigation_flags": [
          "granular-density-and-groundwater-tests"
        ],
        "lat": 14.81798484,
        "line": "line-1",
        "lon": 42.97492355,
        "sample_id": "segment:line-1-civil-001:0000",
        "scope_id": "line-1-civil-001",
        "scope_type": "civil_segment"
      },
      "type": "Feature"
    },
    {
      "geometry": {
        "coordinates": [
          42.97213617,
          14.81019554
        ],
        "type": "Point"
      },
      "properties": {
        "chainage_m": 1002.371,
        "civil_class": "elevated",
        "investigation_flags": [
          "granular-density-and-groundwater-tests"
        ],
        "lat": 14.81019554,
        "line": "line-1",
        "lon": 42.97213617,
        "sample_id": "segment:line-1-civil-001:0001",
        "scope_id": "line-1-civil-001",
        "scope_type": "civil_segment"
      },
      "type": "Feature"
    },
    {
      "geometry": {
        "coordinates": [
          42.96934879,
          14.80239032
        ],
        "type": "Point"
      },
      "properties": {
        "chainage_m": 2004.742,
        "civil_class": "elevated",
        "investigation_flags": [
          "granular-density-and-groundwater-tests"
        ],
        "lat": 14.80239032,
        "line": "line-1",
        "lon": 42.96934879,
        "sample_id": "segment:line-1-civil-001:0002",
        "scope_id": "line-1-civil-001",
        "scope_type": "civil_segment"
      },
      "type": "Feature"
    },
    {
      "geometry": {
        "coordinates": [
          42.9665614,
          14.7944795
        ],
        "type": "Point"
      },
      "properties": {
        "chainage_m": 3007.113,
        "civil_class": "elevated",
        "investigation_flags": [
          "granular-density-and-groundwater-tests"
        ],
        "lat": 14.7944795,
        "line": "line-1",
        "lon": 42.9665614,
        "sample_id": "segment:line-1-civil-001:0003",
        "scope_id": "line-1-civil-001",
        "scope_type": "civil_segment"
      },
      "type": "Feature"
    },
    {
      "geometry": {
        "coordinates": [
          42.96468376,
          14.78883032
        ],
        "type": "Point"
      },
      "properties": {
        "chainage_m": 3730.8,
        "civil_class": "elevated",
        "investigation_flags": [
          "granular-density-and-groundwater-tests"
        ],
        "lat": 14.78883032,
        "line": "line-1",
        "lon": 42.96468376,
        "sample_id": "segment:line-1-civil-001:0004",
        "scope_id": "line-1-civil-001",
        "scope_type": "civil_segment"
      },
      "type": "Feature"
    },
    {
      "geometry": {
        "coordinates": [
          42.96385368,
          14.78674787
        ],
        "type": "Point"
      },
      "properties": {
        "chainage_m": 4009.484,
        "civil_class": "elevated",
        "investigation_flags": [
          "granular-density-and-groundwater-tests"
        ],
        "lat": 14.78674787,
        "line": "line-1",
        "lon": 42.96385368,
        "sample_id": "segment:line-1-civil-001:0005",
        "scope_id": "line-1-civil-001",
        "scope_type": "civil_segment"
      },
      "type": "Feature"
    },
    {
      "geometry": {
        "coordinates": [
          42.96105573,
          14.77899909
        ],
        "type": "Point"
      },
      "properties": {
        "chainage_m": 5011.855,
        "civil_class": "elevated",
        "investigation_flags": [
          "coverage-gap"
        ],
        "lat": 14.77899909,
        "line": "line-1",
        "lon": 42.96105573,
        "sample_id": "segment:line-1-civil-001:0006",
        "scope_id": "line-1-civil-001",
        "scope_type": "civil_segment"
      },
      "type": "Feature"
    },
    {
      "geometry": {
        "coordinates": [
          42.95835107,
          14.77116069
        ],
        "type": "Point"
      },
      "properties": {
        "chainage_m": 6014.226,
        "civil_class": "elevated",
        "investigation_flags": [
          "granular-density-and-groundwater-tests"
        ],
        "lat": 14.77116069,
        "line": "line-1",
        "lon": 42.95835107,
        "sample_id": "segment:line-1-civil-001:0007",
        "scope_id": "line-1-civil-001",
        "scope_type": "civil_segment"
      },
      "type": "Feature"
    },
    {
      "geometry": {
        "coordinates": [
          42.95551536,
          14.76337534
        ],
        "type": "Point"
      },
      "properties": {
        "chainage_m": 7016.597,
        "civil_class": "elevated",
        "investigation_flags": [
          "coverage-gap"
        ],
        "lat": 14.76337534,
        "line": "line-1",
        "lon": 42.95551536,
        "sample_id": "segment:line-1-civil-001:0008",
        "scope_id": "line-1-civil-001",
        "scope_type": "civil_segment"
      },
      "type": "Feature"
    },
    {
      "geometry": {
        "coordinates": [
          42.95429692,
          14.75985576
        ],
        "type": "Point"
      },
      "properties": {
        "chainage_m": 7461.6,
        "civil_class": "elevated",
        "investigation_flags": [
          "granular-density-and-groundwater-tests"
        ],
        "lat": 14.75985576,
        "line": "line-1",
        "lon": 42.95429692,
        "sample_id": "segment:line-1-civil-001:0009",
        "scope_id": "line-1-civil-001",
        "scope_type": "civil_segment"
      },
      "type": "Feature"
    },
    {
      "geometry": {
        "coordinates": [
          42.97287947,
          14.77065373
        ],
        "type": "Point"
      },
      "properties": {
        "chainage_m": 0.0,
        "civil_class": "elevated",
        "investigation_flags": [
          "coverage-gap"
        ],
        "lat": 14.77065373,
        "line": "line-2",
        "lon": 42.97287947,
        "sample_id": "segment:line-2-civil-002:0000",
        "scope_id": "line-2-civil-002",
        "scope_type": "civil_segment"
      },
      "type": "Feature"
    },
    {
      "geometry": {
        "coordinates": [
          42.96712008,
          14.77641149
        ],
        "type": "Point"
      },
      "properties": {
        "chainage_m": 1001.183,
        "civil_class": "elevated",
        "investigation_flags": [
          "granular-density-and-groundwater-tests"
        ],
        "lat": 14.77641149,
        "line": "line-2",
        "lon": 42.96712008,
        "sample_id": "segment:line-2-civil-002:0001",
        "scope_id": "line-2-civil-002",
        "scope_type": "civil_segment"
      },
      "type": "Feature"
    },
    {
      "geometry": {
        "coordinates": [
          42.96134423,
          14.78218519
        ],
        "type": "Point"
      },
      "properties": {
        "chainage_m": 2002.365,
        "civil_class": "elevated",
        "investigation_flags": [
          "coverage-gap"
        ],
        "lat": 14.78218519,
        "line": "line-2",
        "lon": 42.96134423,
        "sample_id": "segment:line-2-civil-002:0002",
        "scope_id": "line-2-civil-002",
        "scope_type": "civil_segment"
      },
      "type": "Feature"
    },
    {
      "geometry": {
        "coordinates": [
          42.95558467,
          14.78794311
        ],
        "type": "Point"
      },
      "properties": {
        "chainage_m": 3003.548,
        "civil_class": "elevated",
        "investigation_flags": [
          "coverage-gap"
        ],
        "lat": 14.78794311,
        "line": "line-2",
        "lon": 42.95558467,
        "sample_id": "segment:line-2-civil-002:0003",
        "scope_id": "line-2-civil-002",
        "scope_type": "civil_segment"
      },
      "type": "Feature"
    },
    {
      "geometry": {
        "coordinates": [
          42.94965129,
          14.79373652
        ],
        "type": "Point"
      },
      "properties": {
        "chainage_m": 4004.731,
        "civil_class": "elevated",
        "investigation_flags": [
          "coverage-gap"
        ],
        "lat": 14.79373652,
        "line": "line-2",
        "lon": 42.94965129,
        "sample_id": "segment:line-2-civil-002:0004",
        "scope_id": "line-2-civil-002",
        "scope_type": "civil_segment"
      },
      "type": "Feature"
    },
    {
      "geometry": {
        "coordinates": [
          42.94432073,
          14.79921182
        ],
        "type": "Point"
      },
      "properties": {
        "chainage_m": 4920.25,
        "civil_class": "elevated",
        "investigation_flags": [
          "coverage-gap"
        ],
        "lat": 14.79921182,
        "line": "line-2",
        "lon": 42.94432073,
        "sample_id": "segment:line-2-civil-002:0005",
        "scope_id": "line-2-civil-002",
        "scope_type": "civil_segment"
      },
      "type": "Feature"
    },
    {
      "geometry": {
        "coordinates": [
          42.94381125,
          14.79962829
        ],
        "type": "Point"
      },
      "properties": {
        "chainage_m": 5005.913,
        "civil_class": "elevated",
        "investigation_flags": [
          "granular-density-and-groundwater-tests"
        ],
        "lat": 14.79962829,
        "line": "line-2",
        "lon": 42.94381125,
        "sample_id": "segment:line-2-civil-002:0006",
        "scope_id": "line-2-civil-002",
        "scope_type": "civil_segment"
      },
      "type": "Feature"
    },
    {
      "geometry": {
        "coordinates": [
          42.93799761,
          14.80551552
        ],
        "type": "Point"
      },
      "properties": {
        "chainage_m": 6007.096,
        "civil_class": "elevated",
        "investigation_flags": [
          "coverage-gap"
        ],
        "lat": 14.80551552,
        "line": "line-2",
        "lon": 42.93799761,
        "sample_id": "segment:line-2-civil-002:0007",
        "scope_id": "line-2-civil-002",
        "scope_type": "civil_segment"
      },
      "type": "Feature"
    },
    {
      "geometry": {
        "coordinates": [
          42.93202964,
          14.81129531
        ],
        "type": "Point"
      },
      "properties": {
        "chainage_m": 7008.279,
        "civil_class": "elevated",
        "investigation_flags": [
          "coverage-gap"
        ],
        "lat": 14.81129531,
        "line": "line-2",
        "lon": 42.93202964,
        "sample_id": "segment:line-2-civil-002:0008",
        "scope_id": "line-2-civil-002",
        "scope_type": "civil_segment"
      },
      "type": "Feature"
    },
    {
      "geometry": {
        "coordinates": [
          42.92626966,
          14.81705364
        ],
        "type": "Point"
      },
      "properties": {
        "chainage_m": 8009.462,
        "civil_class": "elevated",
        "investigation_flags": [
          "coverage-gap"
        ],
        "lat": 14.81705364,
        "line": "line-2",
        "lon": 42.92626966,
        "sample_id": "segment:line-2-civil-002:0009",
        "scope_id": "line-2-civil-002",
        "scope_type": "civil_segment"
      },
      "type": "Feature"
    },
    {
      "geometry": {
        "coordinates": [
          42.92035566,
          14.82296114
        ],
        "type": "Point"
      },
      "properties": {
        "chainage_m": 9010.644,
        "civil_class": "elevated",
        "investigation_flags": [
          "coverage-gap"
        ],
        "lat": 14.82296114,
        "line": "line-2",
        "lon": 42.92035566,
        "sample_id": "segment:line-2-civil-002:0010",
        "scope_id": "line-2-civil-002",
        "scope_type": "civil_segment"
      },
      "type": "Feature"
    },
    {
      "geometry": {
        "coordinates": [
          42.91564522,
          14.82770301
        ],
        "type": "Point"
      },
      "properties": {
        "chainage_m": 9840.5,
        "civil_class": "elevated",
        "investigation_flags": [
          "granular-density-and-groundwater-tests"
        ],
        "lat": 14.82770301,
        "line": "line-2",
        "lon": 42.91564522,
        "sample_id": "segment:line-2-civil-002:0011",
        "scope_id": "line-2-civil-002",
        "scope_type": "civil_segment"
      },
      "type": "Feature"
    },
    {
      "geometry": {
        "coordinates": [
          42.99555018,
          14.80466734
        ],
        "type": "Point"
      },
      "properties": {
        "chainage_m": 0.0,
        "civil_class": "elevated",
        "investigation_flags": [
          "coverage-gap"
        ],
        "lat": 14.80466734,
        "line": "line-3",
        "lon": 42.99555018,
        "sample_id": "segment:line-3-civil-003:0000",
        "scope_id": "line-3-civil-003",
        "scope_type": "civil_segment"
      },
      "type": "Feature"
    },
    {
      "geometry": {
        "coordinates": [
          42.98725343,
          14.8070069
        ],
        "type": "Point"
      },
      "properties": {
        "chainage_m": 1000.401,
        "civil_class": "elevated",
        "investigation_flags": [
          "coverage-gap"
        ],
        "lat": 14.8070069,
        "line": "line-3",
        "lon": 42.98725343,
        "sample_id": "segment:line-3-civil-003:0001",
        "scope_id": "line-3-civil-003",
        "scope_type": "civil_segment"
      },
      "type": "Feature"
    },
    {
      "geometry": {
        "coordinates": [
          42.9790652,
          14.80934646
        ],
        "type": "Point"
      },
      "properties": {
        "chainage_m": 2000.801,
        "civil_class": "elevated",
        "investigation_flags": [
          "coverage-gap"
        ],
        "lat": 14.80934646,
        "line": "line-3",
        "lon": 42.9790652,
        "sample_id": "segment:line-3-civil-003:0002",
        "scope_id": "line-3-civil-003",
        "scope_type": "civil_segment"
      },
      "type": "Feature"
    },
    {
      "geometry": {
        "coordinates": [
          42.9708763,
          14.8116464
        ],
        "type": "Point"
      },
      "properties": {
        "chainage_m": 3001.202,
        "civil_class": "elevated",
        "investigation_flags": [
          "granular-density-and-groundwater-tests"
        ],
        "lat": 14.8116464,
        "line": "line-3",
        "lon": 42.9708763,
        "sample_id": "segment:line-3-civil-003:0003",
        "scope_id": "line-3-civil-003",
        "scope_type": "civil_segment"
      },
      "type": "Feature"
    },
    {
      "geometry": {
        "coordinates": [
          42.97031099,
          14.81183395
        ],
        "type": "Point"
      },
      "properties": {
        "chainage_m": 3070.65,
        "civil_class": "elevated",
        "investigation_flags": [
          "granular-density-and-groundwater-tests"
        ],
        "lat": 14.81183395,
        "line": "line-3",
        "lon": 42.97031099,
        "sample_id": "segment:line-3-civil-003:0004",
        "scope_id": "line-3-civil-003",
        "scope_type": "civil_segment"
      },
      "type": "Feature"
    },
    {
      "geometry": {
        "coordinates": [
          42.9626373,
          14.81386669
        ],
        "type": "Point"
      },
      "properties": {
        "chainage_m": 4001.602,
        "civil_class": "elevated",
        "investigation_flags": [
          "granular-density-and-groundwater-tests"
        ],
        "lat": 14.81386669,
        "line": "line-3",
        "lon": 42.9626373,
        "sample_id": "segment:line-3-civil-003:0005",
        "scope_id": "line-3-civil-003",
        "scope_type": "civil_segment"
      },
      "type": "Feature"
    },
    {
      "geometry": {
        "coordinates": [
          42.95445238,
          14.81621459
        ],
        "type": "Point"
      },
      "properties": {
        "chainage_m": 5002.003,
        "civil_class": "elevated",
        "investigation_flags": [
          "granular-density-and-groundwater-tests"
        ],
        "lat": 14.81621459,
        "line": "line-3",
        "lon": 42.95445238,
        "sample_id": "segment:line-3-civil-003:0006",
        "scope_id": "line-3-civil-003",
        "scope_type": "civil_segment"
      },
      "type": "Feature"
    },
    {
      "geometry": {
        "coordinates": [
          42.94614274,
          14.81852473
        ],
        "type": "Point"
      },
      "properties": {
        "chainage_m": 6002.403,
        "civil_class": "elevated",
        "investigation_flags": [
          "coverage-gap"
        ],
        "lat": 14.81852473,
        "line": "line-3",
        "lon": 42.94614274,
        "sample_id": "segment:line-3-civil-003:0007",
        "scope_id": "line-3-civil-003",
        "scope_type": "civil_segment"
      },
      "type": "Feature"
    },
    {
      "geometry": {
        "coordinates": [
          42.94500565,
          14.81888467
        ],
        "type": "Point"
      },
      "properties": {
        "chainage_m": 6141.3,
        "civil_class": "elevated",
        "investigation_flags": [
          "granular-density-and-groundwater-tests"
        ],
        "lat": 14.81888467,
        "line": "line-3",
        "lon": 42.94500565,
        "sample_id": "segment:line-3-civil-003:0008",
        "scope_id": "line-3-civil-003",
        "scope_type": "civil_segment"
      },
      "type": "Feature"
    },
    {
      "geometry": {
        "coordinates": [
          42.97492355,
          14.81798484
        ],
        "type": "Point"
      },
      "properties": {
        "chainage_m": 0.0,
        "civil_class": "station",
        "investigation_flags": [
          "granular-density-and-groundwater-tests"
        ],
        "lat": 14.81798484,
        "line": "line-1",
        "lon": 42.97492355,
        "sample_id": "station:line-1-0438-0661-s000000",
        "scope_id": "line-1-0438-0661-s000000",
        "scope_type": "station"
      },
      "type": "Feature"
    },
    {
      "geometry": {
        "coordinates": [
          42.9665614,
          14.79440927
        ],
        "type": "Point"
      },
      "properties": {
        "chainage_m": 3016.2,
        "civil_class": "station",
        "investigation_flags": [
          "granular-density-and-groundwater-tests"
        ],
        "lat": 14.79440927,
        "line": "line-1",
        "lon": 42.9665614,
        "sample_id": "station:line-1-0569-0616-s003016",
        "scope_id": "line-1-0569-0616-s003016",
        "scope_type": "station"
      },
      "type": "Feature"
    },
    {
      "geometry": {
        "coordinates": [
          42.96042916,
          14.77713252
        ],
        "type": "Point"
      },
      "properties": {
        "chainage_m": 5244.8,
        "civil_class": "station",
        "investigation_flags": [
          "granular-density-and-groundwater-tests"
        ],
        "lat": 14.77713252,
        "line": "line-1",
        "lon": 42.96042916,
        "sample_id": "station:line-1-0665-0583-s005245",
        "scope_id": "line-1-0665-0583-s005245",
        "scope_type": "station"
      },
      "type": "Feature"
    },
    {
      "geometry": {
        "coordinates": [
          42.95429692,
          14.75985576
        ],
        "type": "Point"
      },
      "properties": {
        "chainage_m": 7461.6,
        "civil_class": "station",
        "investigation_flags": [
          "granular-density-and-groundwater-tests"
        ],
        "lat": 14.75985576,
        "line": "line-1",
        "lon": 42.95429692,
        "sample_id": "station:line-1-0761-0550-s007462",
        "scope_id": "line-1-0761-0550-s007462",
        "scope_type": "station"
      },
      "type": "Feature"
    },
    {
      "geometry": {
        "coordinates": [
          42.91564522,
          14.82770301
        ],
        "type": "Point"
      },
      "properties": {
        "chainage_m": 9840.5,
        "civil_class": "station",
        "investigation_flags": [
          "granular-density-and-groundwater-tests"
        ],
        "lat": 14.82770301,
        "line": "line-2",
        "lon": 42.91564522,
        "sample_id": "station:line-2-0384-0342-s009841",
        "scope_id": "line-2-0384-0342-s009841",
        "scope_type": "station"
      },
      "type": "Feature"
    },
    {
      "geometry": {
        "coordinates": [
          42.92883883,
          14.81456548
        ],
        "type": "Point"
      },
      "properties": {
        "chainage_m": 7581.5,
        "civil_class": "station",
        "investigation_flags": [
          "coverage-gap"
        ],
        "lat": 14.81456548,
        "line": "line-2",
        "lon": 42.92883883,
        "sample_id": "station:line-2-0457-0413-s007581",
        "scope_id": "line-2-0457-0413-s007581",
        "scope_type": "station"
      },
      "type": "Feature"
    },
    {
      "geometry": {
        "coordinates": [
          42.94221827,
          14.80124798
        ],
        "type": "Point"
      },
      "properties": {
        "chainage_m": 5282.4,
        "civil_class": "station",
        "investigation_flags": [
          "granular-density-and-groundwater-tests"
        ],
        "lat": 14.80124798,
        "line": "line-2",
        "lon": 42.94221827,
        "sample_id": "station:line-2-0531-0485-s005282",
        "scope_id": "line-2-0531-0485-s005282",
        "scope_type": "station"
      },
      "type": "Feature"
    },
    {
      "geometry": {
        "coordinates": [
          42.95541188,
          14.78811045
        ],
        "type": "Point"
      },
      "properties": {
        "chainage_m": 3023.3,
        "civil_class": "station",
        "investigation_flags": [
          "coverage-gap"
        ],
        "lat": 14.78811045,
        "line": "line-2",
        "lon": 42.95541188,
        "sample_id": "station:line-2-0604-0556-s003023",
        "scope_id": "line-2-0604-0556-s003023",
        "scope_type": "station"
      },
      "type": "Feature"
    },
    {
      "geometry": {
        "coordinates": [
          42.97287947,
          14.77065373
        ],
        "type": "Point"
      },
      "properties": {
        "chainage_m": 0.0,
        "civil_class": "station",
        "investigation_flags": [
          "coverage-gap"
        ],
        "lat": 14.77065373,
        "line": "line-2",
        "lon": 42.97287947,
        "sample_id": "station:line-2-0701-0650-s000000",
        "scope_id": "line-2-0701-0650-s000000",
        "scope_type": "station"
      },
      "type": "Feature"
    },
    {
      "geometry": {
        "coordinates": [
          42.94500565,
          14.81888467
        ],
        "type": "Point"
      },
      "properties": {
        "chainage_m": 6141.3,
        "civil_class": "station",
        "investigation_flags": [
          "granular-density-and-groundwater-tests"
        ],
        "lat": 14.81888467,
        "line": "line-3",
        "lon": 42.94500565,
        "sample_id": "station:line-3-0433-0500-s006141",
        "scope_id": "line-3-0433-0500-s006141",
        "scope_type": "station"
      },
      "type": "Feature"
    },
    {
      "geometry": {
        "coordinates": [
          42.97083539,
          14.81168602
        ],
        "type": "Point"
      },
      "properties": {
        "chainage_m": 3006.5,
        "civil_class": "station",
        "investigation_flags": [
          "granular-density-and-groundwater-tests"
        ],
        "lat": 14.81168602,
        "line": "line-3",
        "lon": 42.97083539,
        "sample_id": "station:line-3-0473-0639-s003007",
        "scope_id": "line-3-0473-0639-s003007",
        "scope_type": "station"
      },
      "type": "Feature"
    },
    {
      "geometry": {
        "coordinates": [
          42.99555018,
          14.80466734
        ],
        "type": "Point"
      },
      "properties": {
        "chainage_m": 0.0,
        "civil_class": "station",
        "investigation_flags": [
          "coverage-gap"
        ],
        "lat": 14.80466734,
        "line": "line-3",
        "lon": 42.99555018,
        "sample_id": "station:line-3-0512-0772-s000000",
        "scope_id": "line-3-0512-0772-s000000",
        "scope_type": "station"
      },
      "type": "Feature"
    }
  ],
  "type": "FeatureCollection"
}
