{
  "features": [
    {
      "geometry": {
        "coordinates": [
          35.857479845795936,
          34.421971399776844
        ],
        "type": "Point"
      },
      "properties": {
        "id": "interchange-000",
        "junction_group": 0,
        "line_count": 2,
        "lines": "line-1,line-2",
        "platform_count": 2,
        "platforms": "line-1-0632-0587-s006348,line-2-0632-0587-s011374"
      },
      "type": "Feature"
    },
    {
      "geometry": {
        "coordinates": [
          35.84462740170749,
          34.412073260627004
        ],
        "type": "Point"
      },
      "properties": {
        "id": "interchange-001",
        "junction_group": 1,
        "line_count": 2,
        "lines": "line-2,line-3",
        "platform_count": 2,
        "platforms": "line-2-0687-0528-s013185,line-3-0687-0528-s004021"
      },
      "type": "Feature"
    }
  ],
  "type": "FeatureCollection"
}
