{
  "features": [
    {
      "geometry": {
        "coordinates": [
          44.333869867536265,
          31.955217219162797
        ],
        "type": "Point"
      },
      "properties": {
        "archetype": "main-heavy",
        "fleet_stalls": 4,
        "line": "line-1",
        "station": "line-1-0804-0726-s000000"
      },
      "type": "Feature"
    },
    {
      "geometry": {
        "coordinates": [
          44.308242539288656,
          32.09487096425872
        ],
        "type": "Point"
      },
      "properties": {
        "archetype": "main-heavy",
        "fleet_stalls": 8,
        "line": "line-2",
        "station": "line-2-0028-0605-s032209"
      },
      "type": "Feature"
    },
    {
      "geometry": {
        "coordinates": [
          44.346365837508245,
          32.05959759565202
        ],
        "type": "Point"
      },
      "properties": {
        "archetype": "main-heavy",
        "fleet_stalls": 5,
        "line": "line-3",
        "station": "line-3-0224-0785-s000000"
      },
      "type": "Feature"
    },
    {
      "geometry": {
        "coordinates": [
          44.407363114659574,
          32.0088471367383
        ],
        "type": "Point"
      },
      "properties": {
        "archetype": "main-heavy",
        "fleet_stalls": 6,
        "line": "line-4",
        "station": "line-4-0506-1073-s000000"
      },
      "type": "Feature"
    },
    {
      "geometry": {
        "coordinates": [
          44.22161793388971,
          31.956117049994603
        ],
        "type": "Point"
      },
      "properties": {
        "archetype": "main-heavy",
        "fleet_stalls": 5,
        "line": "line-5",
        "station": "line-5-0799-0196-s000000"
      },
      "type": "Feature"
    },
    {
      "geometry": {
        "coordinates": [
          44.28536856035691,
          32.020724903718104
        ],
        "type": "Point"
      },
      "properties": {
        "archetype": "main-heavy",
        "fleet_stalls": 2,
        "line": "line-6",
        "station": "line-6-0440-0497-s000000"
      },
      "type": "Feature"
    }
  ],
  "type": "FeatureCollection"
}
