{
  "features": [
    {
      "geometry": {
        "coordinates": [
          35.372540012335115,
          33.519329809595796
        ],
        "type": "Point"
      },
      "properties": {
        "id": "interchange-000",
        "junction_group": 0,
        "line_count": 2,
        "lines": "line-1,line-6",
        "platform_count": 2,
        "platforms": "line-1-0585-0374-s000000,line-6-0585-0374-s000000"
      },
      "type": "Feature"
    },
    {
      "geometry": {
        "coordinates": [
          35.3746959539195,
          33.528148151747466
        ],
        "type": "Point"
      },
      "properties": {
        "id": "interchange-001",
        "junction_group": 1,
        "line_count": 2,
        "lines": "line-1,line-2",
        "platform_count": 2,
        "platforms": "line-1-0536-0384-s001069,line-2-0536-0384-s001494"
      },
      "type": "Feature"
    },
    {
      "geometry": {
        "coordinates": [
          35.381379372831084,
          33.55802253536335
        ],
        "type": "Point"
      },
      "properties": {
        "id": "interchange-002",
        "junction_group": 2,
        "line_count": 2,
        "lines": "line-1,line-4",
        "platform_count": 2,
        "platforms": "line-1-0370-0415-s004651,line-4-0370-0415-s000000"
      },
      "type": "Feature"
    },
    {
      "geometry": {
        "coordinates": [
          35.38526006768297,
          33.522389234423926
        ],
        "type": "Point"
      },
      "properties": {
        "id": "interchange-003",
        "junction_group": 3,
        "line_count": 2,
        "lines": "line-2,line-5",
        "platform_count": 2,
        "platforms": "line-2-0568-0433-s002824,line-5-0568-0433-s000000"
      },
      "type": "Feature"
    }
  ],
  "type": "FeatureCollection"
}
