{
  "features": [
    {
      "geometry": {
        "coordinates": [
          44.867935704195105,
          31.984089911096717
        ],
        "type": "Point"
      },
      "properties": {
        "archetype": "main-heavy",
        "fleet_stalls": 9,
        "line": "line-1",
        "station": "line-1-0588-0273-s018018"
      },
      "type": "Feature"
    },
    {
      "geometry": {
        "coordinates": [
          44.91580944879507,
          32.02458229852788
        ],
        "type": "Point"
      },
      "properties": {
        "archetype": "main-heavy",
        "fleet_stalls": 5,
        "line": "line-2",
        "station": "line-2-0363-0499-s000000"
      },
      "type": "Feature"
    },
    {
      "geometry": {
        "coordinates": [
          44.94758405804284,
          31.960874275636183
        ],
        "type": "Point"
      },
      "properties": {
        "archetype": "main-heavy",
        "fleet_stalls": 6,
        "line": "line-3",
        "station": "line-3-0717-0649-s000000"
      },
      "type": "Feature"
    },
    {
      "geometry": {
        "coordinates": [
          44.93233224560392,
          31.993088219414755
        ],
        "type": "Point"
      },
      "properties": {
        "archetype": "main-heavy",
        "fleet_stalls": 3,
        "line": "line-4",
        "station": "line-4-0538-0577-s000000"
      },
      "type": "Feature"
    },
    {
      "geometry": {
        "coordinates": [
          44.88911877702695,
          31.98714933592485
        ],
        "type": "Point"
      },
      "properties": {
        "archetype": "main-heavy",
        "fleet_stalls": 3,
        "line": "line-5",
        "station": "line-5-0571-0373-s000000"
      },
      "type": "Feature"
    },
    {
      "geometry": {
        "coordinates": [
          44.96071756319859,
          31.99722744124105
        ],
        "type": "Point"
      },
      "properties": {
        "archetype": "main-heavy",
        "fleet_stalls": 3,
        "line": "line-6",
        "station": "line-6-0515-0711-s000000"
      },
      "type": "Feature"
    },
    {
      "geometry": {
        "coordinates": [
          44.83955038660043,
          31.94467732066372
        ],
        "type": "Point"
      },
      "properties": {
        "archetype": "main-heavy",
        "fleet_stalls": 3,
        "line": "line-7",
        "station": "line-7-0807-0139-s000000"
      },
      "type": "Feature"
    },
    {
      "geometry": {
        "coordinates": [
          44.911996495685344,
          32.01378432854624
        ],
        "type": "Point"
      },
      "properties": {
        "archetype": "main-heavy",
        "fleet_stalls": 5,
        "line": "line-8",
        "station": "line-8-0423-0481-s000000"
      },
      "type": "Feature"
    },
    {
      "geometry": {
        "coordinates": [
          44.961776716840184,
          31.99722744124105
        ],
        "type": "Point"
      },
      "properties": {
        "archetype": "main-heavy",
        "fleet_stalls": 4,
        "line": "line-9",
        "station": "line-9-0515-0716-s000000"
      },
      "type": "Feature"
    }
  ],
  "type": "FeatureCollection"
}
