{
  "features": [
    {
      "geometry": {
        "coordinates": [
          90.53347919874456,
          23.55418171903682
        ],
        "type": "Point"
      },
      "properties": {
        "anchor_kind": "amenity:hospital",
        "anchor_name": "Lab Aid Hospital",
        "archetype": "terminal",
        "chainage_m": 0.0,
        "corridor_offset_m": 0.0,
        "id": "line-1-0937-0722-s000000",
        "junction_group": null,
        "line": "line-1",
        "platform_length_m": 59.5
      },
      "type": "Feature"
    },
    {
      "geometry": {
        "coordinates": [
          90.51994859014472,
          23.56425982435302
        ],
        "type": "Point"
      },
      "properties": {
        "anchor_kind": "planning:residential",
        "anchor_name": "Residential planning stop; site release open",
        "archetype": "interchange-elevated",
        "chainage_m": 2325.1,
        "corridor_offset_m": 0.464,
        "id": "line-1-0881-0653-s002325",
        "junction_group": 0,
        "line": "line-1",
        "platform_length_m": 59.5
      },
      "type": "Feature"
    },
    {
      "geometry": {
        "coordinates": [
          90.51171256751874,
          23.573438098837418
        ],
        "type": "Point"
      },
      "properties": {
        "anchor_kind": "planning:residential",
        "anchor_name": "Residential planning stop; site release open",
        "archetype": "standard",
        "chainage_m": 4003.3,
        "corridor_offset_m": 0.535,
        "id": "line-1-0830-0611-s004003",
        "junction_group": null,
        "line": "line-1",
        "platform_length_m": 59.5
      },
      "type": "Feature"
    },
    {
      "geometry": {
        "coordinates": [
          90.50347654489276,
          23.58369617031998
        ],
        "type": "Point"
      },
      "properties": {
        "anchor_kind": "planning:residential",
        "anchor_name": "Residential planning stop; site release open",
        "archetype": "standard",
        "chainage_m": 5596.7,
        "corridor_offset_m": 0.382,
        "id": "line-1-0773-0569-s005597",
        "junction_group": null,
        "line": "line-1",
        "platform_length_m": 59.5
      },
      "type": "Feature"
    },
    {
      "geometry": {
        "coordinates": [
          90.49171079828422,
          23.600073091458803
        ],
        "type": "Point"
      },
      "properties": {
        "anchor_kind": null,
        "anchor_name": null,
        "archetype": "interchange",
        "chainage_m": 8054.4,
        "corridor_offset_m": 0.021,
        "id": "line-1-0682-0509-s008054",
        "junction_group": 1,
        "line": "line-1",
        "platform_length_m": 59.5
      },
      "type": "Feature"
    },
    {
      "geometry": {
        "coordinates": [
          90.48327867988144,
          23.61177089227225
        ],
        "type": "Point"
      },
      "properties": {
        "anchor_kind": "shop:mall",
        "anchor_name": "Dip Anika Trade International আনিকা ট্রেড ইন্টারন্যাশনাল ডিপ",
        "archetype": "standard",
        "chainage_m": 9780.9,
        "corridor_offset_m": 0.293,
        "id": "line-1-0617-0466-s009781",
        "junction_group": null,
        "line": "line-1",
        "platform_length_m": 59.5
      },
      "type": "Feature"
    },
    {
      "geometry": {
        "coordinates": [
          90.47504265725546,
          23.623468693085698
        ],
        "type": "Point"
      },
      "properties": {
        "anchor_kind": null,
        "anchor_name": null,
        "archetype": "interchange",
        "chainage_m": 11499.1,
        "corridor_offset_m": 0.644,
        "id": "line-1-0552-0424-s011499",
        "junction_group": 2,
        "line": "line-1",
        "platform_length_m": 59.5
      },
      "type": "Feature"
    },
    {
      "geometry": {
        "coordinates": [
          90.47131683749608,
          23.6285077457438
        ],
        "type": "Point"
      },
      "properties": {
        "anchor_kind": null,
        "anchor_name": null,
        "archetype": "interchange",
        "chainage_m": 12265.8,
        "corridor_offset_m": 13.386,
        "id": "line-1-0524-0405-s012266",
        "junction_group": 3,
        "line": "line-1",
        "platform_length_m": 59.5
      },
      "type": "Feature"
    },
    {
      "geometry": {
        "coordinates": [
          90.46661053885266,
          23.635166493899145
        ],
        "type": "Point"
      },
      "properties": {
        "anchor_kind": null,
        "anchor_name": null,
        "archetype": "interchange",
        "chainage_m": 13237.3,
        "corridor_offset_m": 0.973,
        "id": "line-1-0487-0381-s013237",
        "junction_group": 4,
        "line": "line-1",
        "platform_length_m": 59.5
      },
      "type": "Feature"
    },
    {
      "geometry": {
        "coordinates": [
          90.46425738953096,
          23.63822591872728
        ],
        "type": "Point"
      },
      "properties": {
        "anchor_kind": null,
        "anchor_name": null,
        "archetype": "interchange",
        "chainage_m": 13688.5,
        "corridor_offset_m": 0.963,
        "id": "line-1-0470-0369-s013688",
        "junction_group": 4,
        "line": "line-1",
        "platform_length_m": 59.5
      },
      "type": "Feature"
    },
    {
      "geometry": {
        "coordinates": [
          90.45739403734264,
          23.6477641255444
        ],
        "type": "Point"
      },
      "properties": {
        "anchor_kind": "planning:residential",
        "anchor_name": "Residential planning stop; site release open",
        "archetype": "standard",
        "chainage_m": 15097.0,
        "corridor_offset_m": 1.234,
        "id": "line-1-0417-0334-s015097",
        "junction_group": null,
        "line": "line-1",
        "platform_length_m": 59.5
      },
      "type": "Feature"
    },
    {
      "geometry": {
        "coordinates": [
          90.44386342874282,
          23.666660573012273
        ],
        "type": "Point"
      },
      "properties": {
        "anchor_kind": null,
        "anchor_name": null,
        "archetype": "interchange",
        "chainage_m": 17909.2,
        "corridor_offset_m": 1.724,
        "id": "line-1-0312-0265-s017909",
        "junction_group": 5,
        "line": "line-1",
        "platform_length_m": 59.5
      },
      "type": "Feature"
    },
    {
      "geometry": {
        "coordinates": [
          90.42974453281256,
          23.68123783248749
        ],
        "type": "Point"
      },
      "properties": {
        "anchor_kind": null,
        "anchor_name": null,
        "archetype": "interchange",
        "chainage_m": 20278.0,
        "corridor_offset_m": 1.695,
        "id": "line-1-0231-0193-s020278",
        "junction_group": 6,
        "line": "line-1",
        "platform_length_m": 59.5
      },
      "type": "Feature"
    },
    {
      "geometry": {
        "coordinates": [
          90.41797878620402,
          23.691855836302775
        ],
        "type": "Point"
      },
      "properties": {
        "anchor_kind": null,
        "anchor_name": null,
        "archetype": "interchange",
        "chainage_m": 21966.7,
        "corridor_offset_m": 1.623,
        "id": "line-1-0172-0133-s021967",
        "junction_group": 7,
        "line": "line-1",
        "platform_length_m": 59.5
      },
      "type": "Feature"
    },
    {
      "geometry": {
        "coordinates": [
          90.40993885935484,
          23.699774347622647
        ],
        "type": "Point"
      },
      "properties": {
        "anchor_kind": "planning:residential",
        "anchor_name": "Residential planning stop; site release open",
        "archetype": "standard",
        "chainage_m": 23186.4,
        "corridor_offset_m": 1.547,
        "id": "line-1-0128-0092-s023186",
        "junction_group": null,
        "line": "line-1",
        "platform_length_m": 59.5
      },
      "type": "Feature"
    },
    {
      "geometry": {
        "coordinates": [
          90.40131064517524,
          23.70787282510888
        ],
        "type": "Point"
      },
      "properties": {
        "anchor_kind": "amenity:hospital",
        "anchor_name": "Bardem Hospital Keraniganj Branch, Aganagar Brijghat, Keraniganj",
        "archetype": "interchange-elevated",
        "chainage_m": 24450.9,
        "corridor_offset_m": 1.481,
        "id": "line-1-0083-0048-s024451",
        "junction_group": 8,
        "line": "line-1",
        "platform_length_m": 59.5
      },
      "type": "Feature"
    },
    {
      "geometry": {
        "coordinates": [
          90.40189893250567,
          23.709132588273405
        ],
        "type": "Point"
      },
      "properties": {
        "anchor_kind": "public_transport:station",
        "anchor_name": "Babu Bazar Boat Terminal",
        "archetype": "interchange-elevated",
        "chainage_m": 24615.8,
        "corridor_offset_m": 1.499,
        "id": "line-1-0076-0051-s024616",
        "junction_group": 8,
        "line": "line-1",
        "platform_length_m": 59.5
      },
      "type": "Feature"
    },
    {
      "geometry": {
        "coordinates": [
          90.4154295411055,
          23.701574009286254
        ],
        "type": "Point"
      },
      "properties": {
        "anchor_kind": "planning:residential",
        "anchor_name": "Residential planning stop; site release open",
        "archetype": "standard",
        "chainage_m": 26388.6,
        "corridor_offset_m": 0.917,
        "id": "line-1-0118-0120-s026389",
        "junction_group": null,
        "line": "line-1",
        "platform_length_m": 59.5
      },
      "type": "Feature"
    },
    {
      "geometry": {
        "coordinates": [
          90.42582261727638,
          23.69095600547097
        ],
        "type": "Point"
      },
      "properties": {
        "anchor_kind": "planning:residential",
        "anchor_name": "Residential planning stop; site release open",
        "archetype": "standard",
        "chainage_m": 28007.6,
        "corridor_offset_m": 0.98,
        "id": "line-1-0177-0173-s028008",
        "junction_group": null,
        "line": "line-1",
        "platform_length_m": 59.5
      },
      "type": "Feature"
    },
    {
      "geometry": {
        "coordinates": [
          90.4154295411055,
          23.70067417845445
        ],
        "type": "Point"
      },
      "properties": {
        "anchor_kind": "planning:residential",
        "anchor_name": "Residential planning stop; site release open",
        "archetype": "standard",
        "chainage_m": 29679.8,
        "corridor_offset_m": 0.918,
        "id": "line-1-0123-0120-s029680",
        "junction_group": null,
        "line": "line-1",
        "platform_length_m": 59.5
      },
      "type": "Feature"
    },
    {
      "geometry": {
        "coordinates": [
          90.40484036915781,
          23.70841272360796
        ],
        "type": "Point"
      },
      "properties": {
        "anchor_kind": "planning:residential",
        "anchor_name": "Residential planning stop; site release open",
        "archetype": "interchange-elevated",
        "chainage_m": 31209.8,
        "corridor_offset_m": 0.543,
        "id": "line-1-0080-0066-s031210",
        "junction_group": 8,
        "line": "line-1",
        "platform_length_m": 59.5
      },
      "type": "Feature"
    },
    {
      "geometry": {
        "coordinates": [
          90.41189981712293,
          23.716871133426913
        ],
        "type": "Point"
      },
      "properties": {
        "anchor_kind": "place:suburb",
        "anchor_name": "নবাবপুর",
        "archetype": "depot-terminal",
        "chainage_m": 33485.2,
        "corridor_offset_m": 0.0,
        "id": "line-1-0033-0102-s033485",
        "junction_group": 9,
        "line": "line-1",
        "platform_length_m": 59.5
      },
      "type": "Feature"
    },
    {
      "geometry": {
        "coordinates": [
          90.41601782843593,
          23.71795093042508
        ],
        "type": "Point"
      },
      "properties": {
        "anchor_kind": "amenity:hospital",
        "anchor_name": "Nibedita General Hospital",
        "archetype": "terminal",
        "chainage_m": 0.0,
        "corridor_offset_m": 0.0,
        "id": "line-2-0027-0123-s000000",
        "junction_group": 9,
        "line": "line-2",
        "platform_length_m": 59.5
      },
      "type": "Feature"
    },
    {
      "geometry": {
        "coordinates": [
          90.42817576659809,
          23.712551945434257
        ],
        "type": "Point"
      },
      "properties": {
        "anchor_kind": "amenity:bus_station",
        "anchor_name": "Shyamoli Bus counter 6, Kamlapur Rd, Dhaka",
        "archetype": "interchange-elevated",
        "chainage_m": 1744.3,
        "corridor_offset_m": 0.171,
        "id": "line-2-0057-0185-s001744",
        "junction_group": 19,
        "line": "line-2",
        "platform_length_m": 59.5
      },
      "type": "Feature"
    },
    {
      "geometry": {
        "coordinates": [
          90.44719705694857,
          23.704453467948024
        ],
        "type": "Point"
      },
      "properties": {
        "anchor_kind": "amenity:hospital",
        "anchor_name": "Salman Hospital and Diagnosis center",
        "archetype": "interchange-elevated",
        "chainage_m": 4349.9,
        "corridor_offset_m": 0.483,
        "id": "line-2-0102-0282-s004350",
        "junction_group": 20,
        "line": "line-2",
        "platform_length_m": 59.5
      },
      "type": "Feature"
    },
    {
      "geometry": {
        "coordinates": [
          90.45543307957455,
          23.70049421228809
        ],
        "type": "Point"
      },
      "properties": {
        "anchor_kind": "planning:residential",
        "anchor_name": "Residential planning stop; site release open",
        "archetype": "standard",
        "chainage_m": 5594.8,
        "corridor_offset_m": 0.626,
        "id": "line-2-0124-0324-s005595",
        "junction_group": null,
        "line": "line-2",
        "platform_length_m": 59.5
      },
      "type": "Feature"
    },
    {
      "geometry": {
        "coordinates": [
          90.46876759239757,
          23.694015430299103
        ],
        "type": "Point"
      },
      "properties": {
        "anchor_kind": null,
        "anchor_name": null,
        "archetype": "interchange-elevated",
        "chainage_m": 7569.4,
        "corridor_offset_m": 0.826,
        "id": "line-2-0160-0392-s007569",
        "junction_group": 21,
        "line": "line-2",
        "platform_length_m": 59.5
      },
      "type": "Feature"
    },
    {
      "geometry": {
        "coordinates": [
          90.47347389104098,
          23.693115599467298
        ],
        "type": "Point"
      },
      "properties": {
        "anchor_kind": null,
        "anchor_name": null,
        "archetype": "interchange-elevated",
        "chainage_m": 8149.4,
        "corridor_offset_m": 1.058,
        "id": "line-2-0165-0416-s008149",
        "junction_group": 21,
        "line": "line-2",
        "platform_length_m": 59.5
      },
      "type": "Feature"
    },
    {
      "geometry": {
        "coordinates": [
          90.49073031940017,
          23.681597764820214
        ],
        "type": "Point"
      },
      "properties": {
        "anchor_kind": null,
        "anchor_name": null,
        "archetype": "interchange",
        "chainage_m": 10882.7,
        "corridor_offset_m": 0.728,
        "id": "line-2-0229-0504-s010883",
        "junction_group": 22,
        "line": "line-2",
        "platform_length_m": 59.5
      },
      "type": "Feature"
    },
    {
      "geometry": {
        "coordinates": [
          90.50426092800001,
          23.67115972717129
        ],
        "type": "Point"
      },
      "properties": {
        "anchor_kind": null,
        "anchor_name": null,
        "archetype": "interchange",
        "chainage_m": 12895.5,
        "corridor_offset_m": 0.48,
        "id": "line-2-0287-0573-s012896",
        "junction_group": 14,
        "line": "line-2",
        "platform_length_m": 59.5
      },
      "type": "Feature"
    },
    {
      "geometry": {
        "coordinates": [
          90.51916420703749,
          23.660001824856927
        ],
        "type": "Point"
      },
      "properties": {
        "anchor_kind": "planning:residential",
        "anchor_name": "Residential planning stop; site release open",
        "archetype": "standard",
        "chainage_m": 15116.6,
        "corridor_offset_m": 0.258,
        "id": "line-2-0349-0649-s015117",
        "junction_group": null,
        "line": "line-2",
        "platform_length_m": 59.5
      },
      "type": "Feature"
    },
    {
      "geometry": {
        "coordinates": [
          90.52975337898518,
          23.651903347370695
        ],
        "type": "Point"
      },
      "properties": {
        "anchor_kind": "planning:residential",
        "anchor_name": "Residential planning stop; site release open",
        "archetype": "standard",
        "chainage_m": 16710.0,
        "corridor_offset_m": 0.08,
        "id": "line-2-0394-0703-s016710",
        "junction_group": null,
        "line": "line-2",
        "platform_length_m": 59.5
      },
      "type": "Feature"
    },
    {
      "geometry": {
        "coordinates": [
          90.54112693404011,
          23.643444937551738
        ],
        "type": "Point"
      },
      "properties": {
        "anchor_kind": "planning:residential",
        "anchor_name": "Residential planning stop; site release open",
        "archetype": "standard",
        "chainage_m": 18388.2,
        "corridor_offset_m": 0.131,
        "id": "line-2-0441-0761-s018388",
        "junction_group": null,
        "line": "line-2",
        "platform_length_m": 59.5
      },
      "type": "Feature"
    },
    {
      "geometry": {
        "coordinates": [
          90.55975603283697,
          23.629767508908323
        ],
        "type": "Point"
      },
      "properties": {
        "anchor_kind": null,
        "anchor_name": null,
        "archetype": "interchange-elevated",
        "chainage_m": 21105.3,
        "corridor_offset_m": 0.352,
        "id": "line-2-0517-0856-s021105",
        "junction_group": 18,
        "line": "line-2",
        "platform_length_m": 59.5
      },
      "type": "Feature"
    },
    {
      "geometry": {
        "coordinates": [
          90.57387492876722,
          23.62364865925206
        ],
        "type": "Point"
      },
      "properties": {
        "anchor_kind": "amenity:marketplace",
        "anchor_name": "Chowdhurygaon Bazar",
        "archetype": "terminal",
        "chainage_m": 23075.8,
        "corridor_offset_m": 0.0,
        "id": "line-2-0551-0928-s023076",
        "junction_group": null,
        "line": "line-2",
        "platform_length_m": 59.5
      },
      "type": "Feature"
    },
    {
      "geometry": {
        "coordinates": [
          90.46053156977158,
          23.547163038548753
        ],
        "type": "Point"
      },
      "properties": {
        "anchor_kind": "amenity:marketplace",
        "anchor_name": null,
        "archetype": "terminal",
        "chainage_m": 0.0,
        "corridor_offset_m": 0.0,
        "id": "line-3-0976-0350-s000000",
        "junction_group": null,
        "line": "line-3",
        "platform_length_m": 59.5
      },
      "type": "Feature"
    },
    {
      "geometry": {
        "coordinates": [
          90.47876847701482,
          23.56084046719217
        ],
        "type": "Point"
      },
      "properties": {
        "anchor_kind": null,
        "anchor_name": null,
        "archetype": "interchange-elevated",
        "chainage_m": 2677.1,
        "corridor_offset_m": 1.624,
        "id": "line-3-0900-0443-s002677",
        "junction_group": 16,
        "line": "line-3",
        "platform_length_m": 59.5
      },
      "type": "Feature"
    },
    {
      "geometry": {
        "coordinates": [
          90.48151381789015,
          23.56947884317748
        ],
        "type": "Point"
      },
      "properties": {
        "anchor_kind": "planning:residential",
        "anchor_name": "Residential planning stop; site release open",
        "archetype": "standard",
        "chainage_m": 4001.9,
        "corridor_offset_m": 1.652,
        "id": "line-3-0852-0457-s004002",
        "junction_group": null,
        "line": "line-3",
        "platform_length_m": 59.5
      },
      "type": "Feature"
    },
    {
      "geometry": {
        "coordinates": [
          90.48543573342633,
          23.58225644098909
        ],
        "type": "Point"
      },
      "properties": {
        "anchor_kind": "planning:residential",
        "anchor_name": "Residential planning stop; site release open",
        "archetype": "standard",
        "chainage_m": 5604.2,
        "corridor_offset_m": 1.504,
        "id": "line-3-0781-0477-s005604",
        "junction_group": null,
        "line": "line-3",
        "platform_length_m": 59.5
      },
      "type": "Feature"
    },
    {
      "geometry": {
        "coordinates": [
          90.49171079828422,
          23.600073091458803
        ],
        "type": "Point"
      },
      "properties": {
        "anchor_kind": null,
        "anchor_name": null,
        "archetype": "interchange",
        "chainage_m": 7861.0,
        "corridor_offset_m": 1.258,
        "id": "line-3-0682-0509-s007861",
        "junction_group": 1,
        "line": "line-3",
        "platform_length_m": 59.5
      },
      "type": "Feature"
    },
    {
      "geometry": {
        "coordinates": [
          90.49602490537403,
          23.612490756937696
        ],
        "type": "Point"
      },
      "properties": {
        "anchor_kind": null,
        "anchor_name": null,
        "archetype": "interchange",
        "chainage_m": 9446.7,
        "corridor_offset_m": 1.109,
        "id": "line-3-0613-0531-s009447",
        "junction_group": 12,
        "line": "line-3",
        "platform_length_m": 59.5
      },
      "type": "Feature"
    },
    {
      "geometry": {
        "coordinates": [
          90.50053510824063,
          23.62616818558111
        ],
        "type": "Point"
      },
      "properties": {
        "anchor_kind": null,
        "anchor_name": null,
        "archetype": "interchange",
        "chainage_m": 11180.6,
        "corridor_offset_m": 0.83,
        "id": "line-3-0537-0554-s011181",
        "junction_group": 10,
        "line": "line-3",
        "platform_length_m": 59.5
      },
      "type": "Feature"
    },
    {
      "geometry": {
        "coordinates": [
          90.50367264066958,
          23.634806561566425
        ],
        "type": "Point"
      },
      "properties": {
        "anchor_kind": null,
        "anchor_name": null,
        "archetype": "interchange",
        "chainage_m": 12284.9,
        "corridor_offset_m": 0.766,
        "id": "line-3-0489-0570-s012285",
        "junction_group": 13,
        "line": "line-3",
        "platform_length_m": 59.5
      },
      "type": "Feature"
    },
    {
      "geometry": {
        "coordinates": [
          90.50720236465214,
          23.645244599215346
        ],
        "type": "Point"
      },
      "properties": {
        "anchor_kind": "planning:residential",
        "anchor_name": "Residential planning stop; site release open",
        "archetype": "standard",
        "chainage_m": 13605.7,
        "corridor_offset_m": 0.581,
        "id": "line-3-0431-0588-s013606",
        "junction_group": null,
        "line": "line-3",
        "platform_length_m": 59.5
      },
      "type": "Feature"
    },
    {
      "geometry": {
        "coordinates": [
          90.51171256751874,
          23.6587420616924
        ],
        "type": "Point"
      },
      "properties": {
        "anchor_kind": null,
        "anchor_name": null,
        "archetype": "interchange",
        "chainage_m": 15319.7,
        "corridor_offset_m": 0.412,
        "id": "line-3-0356-0611-s015320",
        "junction_group": 15,
        "line": "line-3",
        "platform_length_m": 59.5
      },
      "type": "Feature"
    },
    {
      "geometry": {
        "coordinates": [
          90.51857591970706,
          23.67835837382572
        ],
        "type": "Point"
      },
      "properties": {
        "anchor_kind": null,
        "anchor_name": null,
        "archetype": "interchange",
        "chainage_m": 17801.4,
        "corridor_offset_m": 0.183,
        "id": "line-3-0247-0646-s017801",
        "junction_group": 11,
        "line": "line-3",
        "platform_length_m": 59.5
      },
      "type": "Feature"
    },
    {
      "geometry": {
        "coordinates": [
          90.52171345213601,
          23.687536648310118
        ],
        "type": "Point"
      },
      "properties": {
        "anchor_kind": "amenity:college",
        "anchor_name": "Siddhirganj Reboti Mohan Pilot School and College",
        "archetype": "terminal",
        "chainage_m": 18953.9,
        "corridor_offset_m": 0.0,
        "id": "line-3-0196-0662-s018954",
        "junction_group": null,
        "line": "line-3",
        "platform_length_m": 59.5
      },
      "type": "Feature"
    },
    {
      "geometry": {
        "coordinates": [
          90.44719705694857,
          23.704453467948024
        ],
        "type": "Point"
      },
      "properties": {
        "anchor_kind": "amenity:hospital",
        "anchor_name": "Salman Hospital and Diagnosis center",
        "archetype": "terminal",
        "chainage_m": 0.0,
        "corridor_offset_m": 0.0,
        "id": "line-4-0102-0282-s000000",
        "junction_group": 20,
        "line": "line-4",
        "platform_length_m": 59.5
      },
      "type": "Feature"
    },
    {
      "geometry": {
        "coordinates": [
          90.4628847190933,
          23.711652114602455
        ],
        "type": "Point"
      },
      "properties": {
        "anchor_kind": null,
        "anchor_name": null,
        "archetype": "terminal",
        "chainage_m": 2001.7,
        "corridor_offset_m": 0.0,
        "id": "line-4-0062-0362-s002002",
        "junction_group": null,
        "line": "line-4",
        "platform_length_m": 59.5
      },
      "type": "Feature"
    },
    {
      "geometry": {
        "coordinates": [
          90.42817576659809,
          23.712551945434257
        ],
        "type": "Point"
      },
      "properties": {
        "anchor_kind": "amenity:hospital",
        "anchor_name": "Al-Karim General Hospital limited",
        "archetype": "terminal",
        "chainage_m": 0.0,
        "corridor_offset_m": 0.0,
        "id": "line-5-0057-0185-s000000",
        "junction_group": 19,
        "line": "line-5",
        "platform_length_m": 59.5
      },
      "type": "Feature"
    },
    {
      "geometry": {
        "coordinates": [
          90.43366644834875,
          23.693475531800022
        ],
        "type": "Point"
      },
      "properties": {
        "anchor_kind": "planning:residential-priority",
        "anchor_name": "Residential planning stop; site release open",
        "archetype": "standard",
        "chainage_m": 2446.5,
        "corridor_offset_m": 1.083,
        "id": "line-5-0163-0213-s002447",
        "junction_group": null,
        "line": "line-5",
        "platform_length_m": 59.5
      },
      "type": "Feature"
    },
    {
      "geometry": {
        "coordinates": [
          90.4479814400558,
          23.68879641147464
        ],
        "type": "Point"
      },
      "properties": {
        "anchor_kind": "amenity:bus_station",
        "anchor_name": "চেয়ারম্যান বাড়ি মোড়",
        "archetype": "terminal",
        "chainage_m": 4121.9,
        "corridor_offset_m": 0.0,
        "id": "line-5-0189-0286-s004122",
        "junction_group": null,
        "line": "line-5",
        "platform_length_m": 59.5
      },
      "type": "Feature"
    },
    {
      "geometry": {
        "coordinates": [
          90.49073031940017,
          23.681597764820214
        ],
        "type": "Point"
      },
      "properties": {
        "anchor_kind": null,
        "anchor_name": null,
        "archetype": "terminal",
        "chainage_m": 0.0,
        "corridor_offset_m": 0.0,
        "id": "line-6-0229-0504-s000000",
        "junction_group": 22,
        "line": "line-6",
        "platform_length_m": 59.5
      },
      "type": "Feature"
    },
    {
      "geometry": {
        "coordinates": [
          90.50190777867829,
          23.69329556563366
        ],
        "type": "Point"
      },
      "properties": {
        "anchor_kind": "planning:residential-priority",
        "anchor_name": "Residential planning stop; site release open",
        "archetype": "standard",
        "chainage_m": 1772.2,
        "corridor_offset_m": 0.015,
        "id": "line-6-0164-0561-s001772",
        "junction_group": null,
        "line": "line-6",
        "platform_length_m": 59.5
      },
      "type": "Feature"
    },
    {
      "geometry": {
        "coordinates": [
          90.49210298983785,
          23.707152960443437
        ],
        "type": "Point"
      },
      "properties": {
        "anchor_kind": null,
        "anchor_name": null,
        "archetype": "terminal",
        "chainage_m": 3901.0,
        "corridor_offset_m": 0.0,
        "id": "line-6-0087-0511-s003901",
        "junction_group": null,
        "line": "line-6",
        "platform_length_m": 59.5
      },
      "type": "Feature"
    },
    {
      "geometry": {
        "coordinates": [
          90.46876759239757,
          23.694015430299103
        ],
        "type": "Point"
      },
      "properties": {
        "anchor_kind": null,
        "anchor_name": null,
        "archetype": "terminal",
        "chainage_m": 0.0,
        "corridor_offset_m": 0.0,
        "id": "line-7-0160-0392-s000000",
        "junction_group": 21,
        "line": "line-7",
        "platform_length_m": 59.5
      },
      "type": "Feature"
    },
    {
      "geometry": {
        "coordinates": [
          90.46268862331648,
          23.679798103156607
        ],
        "type": "Point"
      },
      "properties": {
        "anchor_kind": "planning:residential-priority",
        "anchor_name": "Residential planning stop; site release open",
        "archetype": "standard",
        "chainage_m": 1865.1,
        "corridor_offset_m": 0.131,
        "id": "line-7-0239-0361-s001865",
        "junction_group": null,
        "line": "line-7",
        "platform_length_m": 59.5
      },
      "type": "Feature"
    },
    {
      "geometry": {
        "coordinates": [
          90.46778711351352,
          23.666660573012273
        ],
        "type": "Point"
      },
      "properties": {
        "anchor_kind": "planning:residential-priority",
        "anchor_name": "Residential planning stop; site release open",
        "archetype": "standard",
        "chainage_m": 3540.5,
        "corridor_offset_m": 0.352,
        "id": "line-7-0312-0387-s003540",
        "junction_group": null,
        "line": "line-7",
        "platform_length_m": 59.5
      },
      "type": "Feature"
    },
    {
      "geometry": {
        "coordinates": [
          90.48288648832782,
          23.644164802217183
        ],
        "type": "Point"
      },
      "properties": {
        "anchor_kind": null,
        "anchor_name": null,
        "archetype": "terminal",
        "chainage_m": 6678.4,
        "corridor_offset_m": 0.0,
        "id": "line-7-0437-0464-s006678",
        "junction_group": null,
        "line": "line-7",
        "platform_length_m": 59.5
      },
      "type": "Feature"
    },
    {
      "geometry": {
        "coordinates": [
          90.42974453281256,
          23.68123783248749
        ],
        "type": "Point"
      },
      "properties": {
        "anchor_kind": null,
        "anchor_name": null,
        "archetype": "terminal",
        "chainage_m": 0.0,
        "corridor_offset_m": 0.0,
        "id": "line-8-0231-0193-s000000",
        "junction_group": 6,
        "line": "line-8",
        "platform_length_m": 59.5
      },
      "type": "Feature"
    },
    {
      "geometry": {
        "coordinates": [
          90.41229200867654,
          23.686816783644673
        ],
        "type": "Point"
      },
      "properties": {
        "anchor_kind": null,
        "anchor_name": null,
        "archetype": "interchange",
        "chainage_m": 2136.2,
        "corridor_offset_m": 1.019,
        "id": "line-8-0200-0104-s002136",
        "junction_group": 17,
        "line": "line-8",
        "platform_length_m": 59.5
      },
      "type": "Feature"
    },
    {
      "geometry": {
        "coordinates": [
          90.40131064517524,
          23.70787282510888
        ],
        "type": "Point"
      },
      "properties": {
        "anchor_kind": "amenity:hospital",
        "anchor_name": "Bardem Hospital Keraniganj Branch, Aganagar Brijghat, Keraniganj",
        "archetype": "interchange-elevated",
        "chainage_m": 5141.0,
        "corridor_offset_m": 0.496,
        "id": "line-8-0083-0048-s005141",
        "junction_group": 8,
        "line": "line-8",
        "platform_length_m": 59.5
      },
      "type": "Feature"
    },
    {
      "geometry": {
        "coordinates": [
          90.40189893250567,
          23.709132588273405
        ],
        "type": "Point"
      },
      "properties": {
        "anchor_kind": "public_transport:station",
        "anchor_name": "Babu Bazar Boat Terminal",
        "archetype": "interchange-elevated",
        "chainage_m": 5305.8,
        "corridor_offset_m": 0.378,
        "id": "line-8-0076-0051-s005306",
        "junction_group": 8,
        "line": "line-8",
        "platform_length_m": 59.5
      },
      "type": "Feature"
    },
    {
      "geometry": {
        "coordinates": [
          90.39895749585354,
          23.717051099593277
        ],
        "type": "Point"
      },
      "properties": {
        "anchor_kind": "place:neighbourhood",
        "anchor_name": "বেচারাম দেউড়ি",
        "archetype": "terminal",
        "chainage_m": 6326.7,
        "corridor_offset_m": 0.0,
        "id": "line-8-0032-0036-s006327",
        "junction_group": null,
        "line": "line-8",
        "platform_length_m": 59.5
      },
      "type": "Feature"
    },
    {
      "geometry": {
        "coordinates": [
          90.47347389104098,
          23.693115599467298
        ],
        "type": "Point"
      },
      "properties": {
        "anchor_kind": "amenity:college",
        "anchor_name": "তামিরুল মিল্লাত মহিলা কামিল মাদরাসা",
        "archetype": "terminal",
        "chainage_m": 0.0,
        "corridor_offset_m": 0.0,
        "id": "line-9-0165-0416-s000000",
        "junction_group": 21,
        "line": "line-9",
        "platform_length_m": 59.5
      },
      "type": "Feature"
    },
    {
      "geometry": {
        "coordinates": [
          90.4779840939076,
          23.711652114602455
        ],
        "type": "Point"
      },
      "properties": {
        "anchor_kind": "planning:residential-priority",
        "anchor_name": "Residential planning stop; site release open",
        "archetype": "halt",
        "chainage_m": 2250.5,
        "corridor_offset_m": 1.379,
        "id": "line-9-0062-0439-s002251",
        "junction_group": null,
        "line": "line-9",
        "platform_length_m": 55.5
      },
      "type": "Feature"
    },
    {
      "geometry": {
        "coordinates": [
          90.49171079828422,
          23.719030727423245
        ],
        "type": "Point"
      },
      "properties": {
        "anchor_kind": "planning:residential",
        "anchor_name": "Residential planning stop; site release open",
        "archetype": "standard",
        "chainage_m": 3990.2,
        "corridor_offset_m": 0.621,
        "id": "line-9-0021-0509-s003990",
        "junction_group": null,
        "line": "line-9",
        "platform_length_m": 59.5
      },
      "type": "Feature"
    },
    {
      "geometry": {
        "coordinates": [
          90.50700626887533,
          23.711472148436094
        ],
        "type": "Point"
      },
      "properties": {
        "anchor_kind": null,
        "anchor_name": null,
        "archetype": "terminal",
        "chainage_m": 6070.7,
        "corridor_offset_m": 0.0,
        "id": "line-9-0063-0587-s006071",
        "junction_group": null,
        "line": "line-9",
        "platform_length_m": 59.5
      },
      "type": "Feature"
    },
    {
      "geometry": {
        "coordinates": [
          90.50053510824063,
          23.62616818558111
        ],
        "type": "Point"
      },
      "properties": {
        "anchor_kind": "railway:station",
        "anchor_name": "চাষাড়া",
        "archetype": "terminal",
        "chainage_m": 0.0,
        "corridor_offset_m": 0.0,
        "id": "line-10-0537-0554-s000000",
        "junction_group": 10,
        "line": "line-10",
        "platform_length_m": 59.5
      },
      "type": "Feature"
    },
    {
      "geometry": {
        "coordinates": [
          90.48739669119442,
          23.630307407407408
        ],
        "type": "Point"
      },
      "properties": {
        "anchor_kind": "planning:residential-priority",
        "anchor_name": "Residential planning stop; site release open",
        "archetype": "standard",
        "chainage_m": 1577.4,
        "corridor_offset_m": 0.183,
        "id": "line-10-0514-0487-s001577",
        "junction_group": null,
        "line": "line-10",
        "platform_length_m": 59.5
      },
      "type": "Feature"
    },
    {
      "geometry": {
        "coordinates": [
          90.47504265725546,
          23.623468693085698
        ],
        "type": "Point"
      },
      "properties": {
        "anchor_kind": null,
        "anchor_name": null,
        "archetype": "terminal",
        "chainage_m": 3152.2,
        "corridor_offset_m": 0.0,
        "id": "line-10-0552-0424-s003152",
        "junction_group": 2,
        "line": "line-10",
        "platform_length_m": 59.5
      },
      "type": "Feature"
    },
    {
      "geometry": {
        "coordinates": [
          90.51857591970706,
          23.67835837382572
        ],
        "type": "Point"
      },
      "properties": {
        "anchor_kind": null,
        "anchor_name": null,
        "archetype": "terminal",
        "chainage_m": 0.0,
        "corridor_offset_m": 0.0,
        "id": "line-11-0247-0646-s000000",
        "junction_group": 11,
        "line": "line-11",
        "platform_length_m": 59.5
      },
      "type": "Feature"
    },
    {
      "geometry": {
        "coordinates": [
          90.5303416663156,
          23.67547891516395
        ],
        "type": "Point"
      },
      "properties": {
        "anchor_kind": "planning:residential-priority",
        "anchor_name": "Residential planning stop; site release open",
        "archetype": "standard",
        "chainage_m": 1332.5,
        "corridor_offset_m": 0.76,
        "id": "line-11-0263-0706-s001333",
        "junction_group": null,
        "line": "line-11",
        "platform_length_m": 59.5
      },
      "type": "Feature"
    },
    {
      "geometry": {
        "coordinates": [
          90.54151912559372,
          23.689336309973726
        ],
        "type": "Point"
      },
      "properties": {
        "anchor_kind": "planning:residential-priority",
        "anchor_name": "Residential planning stop; site release open",
        "archetype": "standard",
        "chainage_m": 4158.5,
        "corridor_offset_m": 0.331,
        "id": "line-11-0186-0763-s004158",
        "junction_group": null,
        "line": "line-11",
        "platform_length_m": 59.5
      },
      "type": "Feature"
    },
    {
      "geometry": {
        "coordinates": [
          90.52249783524324,
          23.702653806284417
        ],
        "type": "Point"
      },
      "properties": {
        "anchor_kind": "amenity:bus_station",
        "anchor_name": "কাঁচপুর বাস স্টপ",
        "archetype": "terminal",
        "chainage_m": 6711.5,
        "corridor_offset_m": 0.0,
        "id": "line-11-0112-0666-s006712",
        "junction_group": null,
        "line": "line-11",
        "platform_length_m": 59.5
      },
      "type": "Feature"
    },
    {
      "geometry": {
        "coordinates": [
          90.49602490537403,
          23.612490756937696
        ],
        "type": "Point"
      },
      "properties": {
        "anchor_kind": null,
        "anchor_name": null,
        "archetype": "terminal",
        "chainage_m": 0.0,
        "corridor_offset_m": 0.0,
        "id": "line-12-0613-0531-s000000",
        "junction_group": 12,
        "line": "line-12",
        "platform_length_m": 59.5
      },
      "type": "Feature"
    },
    {
      "geometry": {
        "coordinates": [
          90.50798674775938,
          23.607991602778675
        ],
        "type": "Point"
      },
      "properties": {
        "anchor_kind": "planning:residential-priority",
        "anchor_name": "Residential planning stop; site release open",
        "archetype": "major",
        "chainage_m": 1596.0,
        "corridor_offset_m": 0.29,
        "id": "line-12-0638-0592-s001596",
        "junction_group": null,
        "line": "line-12",
        "platform_length_m": 59.5
      },
      "type": "Feature"
    },
    {
      "geometry": {
        "coordinates": [
          90.52171345213601,
          23.617169877263073
        ],
        "type": "Point"
      },
      "properties": {
        "anchor_kind": null,
        "anchor_name": null,
        "archetype": "terminal",
        "chainage_m": 3531.6,
        "corridor_offset_m": 0.0,
        "id": "line-12-0587-0662-s003532",
        "junction_group": null,
        "line": "line-12",
        "platform_length_m": 59.5
      },
      "type": "Feature"
    },
    {
      "geometry": {
        "coordinates": [
          90.51975249436792,
          23.56425982435302
        ],
        "type": "Point"
      },
      "properties": {
        "anchor_kind": null,
        "anchor_name": null,
        "archetype": "terminal",
        "chainage_m": 0.0,
        "corridor_offset_m": 0.0,
        "id": "line-13-0881-0652-s000000",
        "junction_group": 0,
        "line": "line-13",
        "platform_length_m": 59.5
      },
      "type": "Feature"
    },
    {
      "geometry": {
        "coordinates": [
          90.49700538425807,
          23.563359993521217
        ],
        "type": "Point"
      },
      "properties": {
        "anchor_kind": null,
        "anchor_name": null,
        "archetype": "terminal",
        "chainage_m": 2759.1,
        "corridor_offset_m": 0.0,
        "id": "line-13-0886-0536-s002759",
        "junction_group": null,
        "line": "line-13",
        "platform_length_m": 59.5
      },
      "type": "Feature"
    },
    {
      "geometry": {
        "coordinates": [
          90.50367264066958,
          23.634806561566425
        ],
        "type": "Point"
      },
      "properties": {
        "anchor_kind": null,
        "anchor_name": null,
        "archetype": "terminal",
        "chainage_m": 0.0,
        "corridor_offset_m": 0.0,
        "id": "line-14-0489-0570-s000000",
        "junction_group": 13,
        "line": "line-14",
        "platform_length_m": 59.5
      },
      "type": "Feature"
    },
    {
      "geometry": {
        "coordinates": [
          90.51798763237663,
          23.630307407407408
        ],
        "type": "Point"
      },
      "properties": {
        "anchor_kind": null,
        "anchor_name": null,
        "archetype": "terminal",
        "chainage_m": 3146.8,
        "corridor_offset_m": 0.0,
        "id": "line-14-0514-0643-s003147",
        "junction_group": null,
        "line": "line-14",
        "platform_length_m": 59.5
      },
      "type": "Feature"
    },
    {
      "geometry": {
        "coordinates": [
          90.50426092800001,
          23.67115972717129
        ],
        "type": "Point"
      },
      "properties": {
        "anchor_kind": null,
        "anchor_name": null,
        "archetype": "terminal",
        "chainage_m": 0.0,
        "corridor_offset_m": 0.0,
        "id": "line-15-0287-0573-s000000",
        "junction_group": 14,
        "line": "line-15",
        "platform_length_m": 59.5
      },
      "type": "Feature"
    },
    {
      "geometry": {
        "coordinates": [
          90.51171256751874,
          23.6587420616924
        ],
        "type": "Point"
      },
      "properties": {
        "anchor_kind": null,
        "anchor_name": null,
        "archetype": "terminal",
        "chainage_m": 2992.2,
        "corridor_offset_m": 0.0,
        "id": "line-15-0356-0611-s002992",
        "junction_group": 15,
        "line": "line-15",
        "platform_length_m": 59.5
      },
      "type": "Feature"
    },
    {
      "geometry": {
        "coordinates": [
          90.47876847701482,
          23.56084046719217
        ],
        "type": "Point"
      },
      "properties": {
        "anchor_kind": "place:neighbourhood",
        "anchor_name": "Jallapara",
        "archetype": "terminal",
        "chainage_m": 0.0,
        "corridor_offset_m": 0.0,
        "id": "line-16-0900-0443-s000000",
        "junction_group": 16,
        "line": "line-16",
        "platform_length_m": 59.5
      },
      "type": "Feature"
    },
    {
      "geometry": {
        "coordinates": [
          90.49229908561465,
          23.54950259871144
        ],
        "type": "Point"
      },
      "properties": {
        "anchor_kind": "planning:residential-priority",
        "anchor_name": "Residential planning stop; site release open",
        "archetype": "standard",
        "chainage_m": 1901.9,
        "corridor_offset_m": 0.566,
        "id": "line-16-0963-0512-s001902",
        "junction_group": null,
        "line": "line-16",
        "platform_length_m": 59.5
      },
      "type": "Feature"
    },
    {
      "geometry": {
        "coordinates": [
          90.48759278697123,
          23.536365068567108
        ],
        "type": "Point"
      },
      "properties": {
        "anchor_kind": null,
        "anchor_name": null,
        "archetype": "terminal",
        "chainage_m": 3560.7,
        "corridor_offset_m": 0.0,
        "id": "line-16-1036-0488-s003561",
        "junction_group": null,
        "line": "line-16",
        "platform_length_m": 59.5
      },
      "type": "Feature"
    },
    {
      "geometry": {
        "coordinates": [
          90.46425738953096,
          23.63822591872728
        ],
        "type": "Point"
      },
      "properties": {
        "anchor_kind": null,
        "anchor_name": null,
        "archetype": "terminal",
        "chainage_m": 0.0,
        "corridor_offset_m": 0.0,
        "id": "line-17-0470-0369-s000000",
        "junction_group": 4,
        "line": "line-17",
        "platform_length_m": 59.5
      },
      "type": "Feature"
    },
    {
      "geometry": {
        "coordinates": [
          90.46661053885266,
          23.635166493899145
        ],
        "type": "Point"
      },
      "properties": {
        "anchor_kind": null,
        "anchor_name": null,
        "archetype": "interchange",
        "chainage_m": 1677.4,
        "corridor_offset_m": 0.808,
        "id": "line-17-0487-0381-s001677",
        "junction_group": 4,
        "line": "line-17",
        "platform_length_m": 59.5
      },
      "type": "Feature"
    },
    {
      "geometry": {
        "coordinates": [
          90.47131683749608,
          23.6285077457438
        ],
        "type": "Point"
      },
      "properties": {
        "anchor_kind": null,
        "anchor_name": null,
        "archetype": "interchange",
        "chainage_m": 3007.5,
        "corridor_offset_m": 14.138,
        "id": "line-17-0524-0405-s003008",
        "junction_group": 3,
        "line": "line-17",
        "platform_length_m": 59.5
      },
      "type": "Feature"
    },
    {
      "geometry": {
        "coordinates": [
          90.46327691064691,
          23.62130909908937
        ],
        "type": "Point"
      },
      "properties": {
        "anchor_kind": null,
        "anchor_name": null,
        "archetype": "terminal",
        "chainage_m": 4153.0,
        "corridor_offset_m": 0.0,
        "id": "line-17-0564-0364-s004153",
        "junction_group": null,
        "line": "line-17",
        "platform_length_m": 59.5
      },
      "type": "Feature"
    },
    {
      "geometry": {
        "coordinates": [
          90.41797878620402,
          23.691855836302775
        ],
        "type": "Point"
      },
      "properties": {
        "anchor_kind": null,
        "anchor_name": null,
        "archetype": "terminal",
        "chainage_m": 0.0,
        "corridor_offset_m": 0.0,
        "id": "line-18-0172-0133-s000000",
        "junction_group": 7,
        "line": "line-18",
        "platform_length_m": 59.5
      },
      "type": "Feature"
    },
    {
      "geometry": {
        "coordinates": [
          90.41229200867654,
          23.686816783644673
        ],
        "type": "Point"
      },
      "properties": {
        "anchor_kind": "planning:residential",
        "anchor_name": "Residential planning stop; site release open",
        "archetype": "interchange",
        "chainage_m": 812.0,
        "corridor_offset_m": 0.195,
        "id": "line-18-0200-0104-s000812",
        "junction_group": 17,
        "line": "line-18",
        "platform_length_m": 59.5
      },
      "type": "Feature"
    },
    {
      "geometry": {
        "coordinates": [
          90.39974187896077,
          23.675298948997586
        ],
        "type": "Point"
      },
      "properties": {
        "anchor_kind": "planning:residential-priority",
        "anchor_name": "Residential planning stop; site release open",
        "archetype": "halt",
        "chainage_m": 2622.2,
        "corridor_offset_m": 0.757,
        "id": "line-18-0264-0040-s002622",
        "junction_group": null,
        "line": "line-18",
        "platform_length_m": 55.5
      },
      "type": "Feature"
    },
    {
      "geometry": {
        "coordinates": [
          90.40425208182738,
          23.662341385019616
        ],
        "type": "Point"
      },
      "properties": {
        "anchor_kind": "planning:residential-priority",
        "anchor_name": "Residential planning stop; site release open",
        "archetype": "halt",
        "chainage_m": 4252.7,
        "corridor_offset_m": 2.251,
        "id": "line-18-0336-0063-s004253",
        "junction_group": null,
        "line": "line-18",
        "platform_length_m": 55.5
      },
      "type": "Feature"
    },
    {
      "geometry": {
        "coordinates": [
          90.4154295411055,
          23.666660573012273
        ],
        "type": "Point"
      },
      "properties": {
        "anchor_kind": "planning:residential",
        "anchor_name": "Residential planning stop; site release open",
        "archetype": "halt",
        "chainage_m": 5591.5,
        "corridor_offset_m": 2.058,
        "id": "line-18-0312-0120-s005592",
        "junction_group": null,
        "line": "line-18",
        "platform_length_m": 55.5
      },
      "type": "Feature"
    },
    {
      "geometry": {
        "coordinates": [
          90.43111720325022,
          23.666660573012273
        ],
        "type": "Point"
      },
      "properties": {
        "anchor_kind": "planning:residential",
        "anchor_name": "Residential planning stop; site release open",
        "archetype": "standard",
        "chainage_m": 7191.5,
        "corridor_offset_m": 1.019,
        "id": "line-18-0312-0200-s007192",
        "junction_group": null,
        "line": "line-18",
        "platform_length_m": 59.5
      },
      "type": "Feature"
    },
    {
      "geometry": {
        "coordinates": [
          90.44386342874282,
          23.666660573012273
        ],
        "type": "Point"
      },
      "properties": {
        "anchor_kind": null,
        "anchor_name": null,
        "archetype": "interchange",
        "chainage_m": 8491.5,
        "corridor_offset_m": 0.174,
        "id": "line-18-0312-0265-s008492",
        "junction_group": 5,
        "line": "line-18",
        "platform_length_m": 59.5
      },
      "type": "Feature"
    },
    {
      "geometry": {
        "coordinates": [
          90.45268773869923,
          23.666660573012273
        ],
        "type": "Point"
      },
      "properties": {
        "anchor_kind": null,
        "anchor_name": null,
        "archetype": "terminal",
        "chainage_m": 9540.6,
        "corridor_offset_m": 0.0,
        "id": "line-18-0312-0310-s009541",
        "junction_group": null,
        "line": "line-18",
        "platform_length_m": 59.5
      },
      "type": "Feature"
    },
    {
      "geometry": {
        "coordinates": [
          90.55975603283697,
          23.629767508908323
        ],
        "type": "Point"
      },
      "properties": {
        "anchor_kind": null,
        "anchor_name": null,
        "archetype": "terminal",
        "chainage_m": 0.0,
        "corridor_offset_m": 0.0,
        "id": "line-19-0517-0856-s000000",
        "junction_group": 18,
        "line": "line-19",
        "platform_length_m": 59.5
      },
      "type": "Feature"
    },
    {
      "geometry": {
        "coordinates": [
          90.5670115765789,
          23.63894578339272
        ],
        "type": "Point"
      },
      "properties": {
        "anchor_kind": "planning:residential-priority",
        "anchor_name": "Residential planning stop; site release open",
        "archetype": "standard",
        "chainage_m": 1326.5,
        "corridor_offset_m": 0.711,
        "id": "line-19-0466-0893-s001327",
        "junction_group": null,
        "line": "line-19",
        "platform_length_m": 59.5
      },
      "type": "Feature"
    },
    {
      "geometry": {
        "coordinates": [
          90.59034697401918,
          23.64830402404348
        ],
        "type": "Point"
      },
      "properties": {
        "anchor_kind": "planning:residential-priority",
        "anchor_name": "Residential planning stop; site release open",
        "archetype": "halt",
        "chainage_m": 4149.0,
        "corridor_offset_m": 0.317,
        "id": "line-19-0414-1012-s004149",
        "junction_group": null,
        "line": "line-19",
        "platform_length_m": 55.5
      },
      "type": "Feature"
    },
    {
      "geometry": {
        "coordinates": [
          90.60466196572625,
          23.653343076701578
        ],
        "type": "Point"
      },
      "properties": {
        "anchor_kind": "tourism:attraction",
        "anchor_name": null,
        "archetype": "terminal",
        "chainage_m": 5881.0,
        "corridor_offset_m": 0.0,
        "id": "line-19-0386-1085-s005881",
        "junction_group": null,
        "line": "line-19",
        "platform_length_m": 59.5
      },
      "type": "Feature"
    }
  ],
  "type": "FeatureCollection"
}
