{
  "features": [
    {
      "geometry": {
        "coordinates": [
          30.957214471452655,
          31.127919659504016
        ],
        "type": "Point"
      },
      "properties": {
        "id": "interchange-000",
        "junction_group": 0,
        "line_count": 2,
        "lines": "line-1,line-3",
        "platform_count": 2,
        "platforms": "line-1-0279-0458-s005818,line-3-0291-0458-s000000"
      },
      "type": "Feature"
    },
    {
      "geometry": {
        "coordinates": [
          30.928885237764305,
          31.110282975200665
        ],
        "type": "Point"
      },
      "properties": {
        "id": "interchange-001",
        "junction_group": 1,
        "line_count": 2,
        "lines": "line-1,line-2",
        "platform_count": 2,
        "platforms": "line-1-0383-0323-s009620,line-2-0383-0323-s004601"
      },
      "type": "Feature"
    },
    {
      "geometry": {
        "coordinates": [
          30.950184624574437,
          31.087697221322394
        ],
        "type": "Point"
      },
      "properties": {
        "id": "interchange-002",
        "junction_group": 2,
        "line_count": 2,
        "lines": "line-2,line-3",
        "platform_count": 2,
        "platforms": "line-2-0512-0417-s008161,line-3-0505-0432-s004495"
      },
      "type": "Feature"
    }
  ],
  "type": "FeatureCollection"
}
