{
  "features": [
    {
      "geometry": {
        "coordinates": [
          68.16342491,
          27.48812196
        ],
        "type": "Point"
      },
      "properties": {
        "chainage_m": 0.0,
        "civil_class": "bridge",
        "investigation_flags": [
          "fine-soil-plasticity-and-shrink-swell-tests",
          "granular-density-and-groundwater-tests"
        ],
        "lat": 27.48812196,
        "line": "line-1",
        "lon": 68.16342491,
        "sample_id": "segment:line-1-civil-001:0000",
        "scope_id": "line-1-civil-001",
        "scope_type": "civil_segment"
      },
      "type": "Feature"
    },
    {
      "geometry": {
        "coordinates": [
          68.16342491,
          27.48821187
        ],
        "type": "Point"
      },
      "properties": {
        "chainage_m": 10.0,
        "civil_class": "bridge",
        "investigation_flags": [
          "fine-soil-plasticity-and-shrink-swell-tests",
          "granular-density-and-groundwater-tests"
        ],
        "lat": 27.48821187,
        "line": "line-1",
        "lon": 68.16342491,
        "sample_id": "segment:line-1-civil-001:0001",
        "scope_id": "line-1-civil-001",
        "scope_type": "civil_segment"
      },
      "type": "Feature"
    },
    {
      "geometry": {
        "coordinates": [
          68.16342491,
          27.48830179
        ],
        "type": "Point"
      },
      "properties": {
        "chainage_m": 20.0,
        "civil_class": "bridge",
        "investigation_flags": [
          "fine-soil-plasticity-and-shrink-swell-tests",
          "granular-density-and-groundwater-tests"
        ],
        "lat": 27.48830179,
        "line": "line-1",
        "lon": 68.16342491,
        "sample_id": "segment:line-1-civil-001:0002",
        "scope_id": "line-1-civil-001",
        "scope_type": "civil_segment"
      },
      "type": "Feature"
    },
    {
      "geometry": {
        "coordinates": [
          68.16342491,
          27.48830179
        ],
        "type": "Point"
      },
      "properties": {
        "chainage_m": 20.0,
        "civil_class": "elevated",
        "investigation_flags": [
          "fine-soil-plasticity-and-shrink-swell-tests",
          "granular-density-and-groundwater-tests"
        ],
        "lat": 27.48830179,
        "line": "line-1",
        "lon": 68.16342491,
        "sample_id": "segment:line-1-civil-002:0000",
        "scope_id": "line-1-civil-002",
        "scope_type": "civil_segment"
      },
      "type": "Feature"
    },
    {
      "geometry": {
        "coordinates": [
          68.16332361,
          27.48830192
        ],
        "type": "Point"
      },
      "properties": {
        "chainage_m": 30.0,
        "civil_class": "elevated",
        "investigation_flags": [
          "fine-soil-plasticity-and-shrink-swell-tests",
          "granular-density-and-groundwater-tests"
        ],
        "lat": 27.48830192,
        "line": "line-1",
        "lon": 68.16332361,
        "sample_id": "segment:line-1-civil-002:0001",
        "scope_id": "line-1-civil-002",
        "scope_type": "civil_segment"
      },
      "type": "Feature"
    },
    {
      "geometry": {
        "coordinates": [
          68.16322225,
          27.48830199
        ],
        "type": "Point"
      },
      "properties": {
        "chainage_m": 40.0,
        "civil_class": "elevated",
        "investigation_flags": [
          "fine-soil-plasticity-and-shrink-swell-tests",
          "granular-density-and-groundwater-tests"
        ],
        "lat": 27.48830199,
        "line": "line-1",
        "lon": 68.16322225,
        "sample_id": "segment:line-1-civil-002:0002",
        "scope_id": "line-1-civil-002",
        "scope_type": "civil_segment"
      },
      "type": "Feature"
    },
    {
      "geometry": {
        "coordinates": [
          68.16322225,
          27.48830199
        ],
        "type": "Point"
      },
      "properties": {
        "chainage_m": 40.0,
        "civil_class": "bridge",
        "investigation_flags": [
          "fine-soil-plasticity-and-shrink-swell-tests",
          "granular-density-and-groundwater-tests"
        ],
        "lat": 27.48830199,
        "line": "line-1",
        "lon": 68.16322225,
        "sample_id": "segment:line-1-civil-003:0000",
        "scope_id": "line-1-civil-003",
        "scope_type": "civil_segment"
      },
      "type": "Feature"
    },
    {
      "geometry": {
        "coordinates": [
          68.16322225,
          27.49732634
        ],
        "type": "Point"
      },
      "properties": {
        "chainage_m": 1041.585,
        "civil_class": "bridge",
        "investigation_flags": [
          "fine-soil-plasticity-and-shrink-swell-tests",
          "granular-density-and-groundwater-tests"
        ],
        "lat": 27.49732634,
        "line": "line-1",
        "lon": 68.16322225,
        "sample_id": "segment:line-1-civil-003:0001",
        "scope_id": "line-1-civil-003",
        "scope_type": "civil_segment"
      },
      "type": "Feature"
    },
    {
      "geometry": {
        "coordinates": [
          68.16690716,
          27.50435185
        ],
        "type": "Point"
      },
      "properties": {
        "chainage_m": 2043.171,
        "civil_class": "bridge",
        "investigation_flags": [
          "fine-soil-plasticity-and-shrink-swell-tests",
          "granular-density-and-groundwater-tests"
        ],
        "lat": 27.50435185,
        "line": "line-1",
        "lon": 68.16690716,
        "sample_id": "segment:line-1-civil-003:0002",
        "scope_id": "line-1-civil-003",
        "scope_type": "civil_segment"
      },
      "type": "Feature"
    },
    {
      "geometry": {
        "coordinates": [
          68.17253935,
          27.51097312
        ],
        "type": "Point"
      },
      "properties": {
        "chainage_m": 3044.756,
        "civil_class": "bridge",
        "investigation_flags": [
          "fine-soil-plasticity-and-shrink-swell-tests",
          "granular-density-and-groundwater-tests"
        ],
        "lat": 27.51097312,
        "line": "line-1",
        "lon": 68.17253935,
        "sample_id": "segment:line-1-civil-003:0003",
        "scope_id": "line-1-civil-003",
        "scope_type": "civil_segment"
      },
      "type": "Feature"
    },
    {
      "geometry": {
        "coordinates": [
          68.1784215,
          27.51781895
        ],
        "type": "Point"
      },
      "properties": {
        "chainage_m": 4046.341,
        "civil_class": "bridge",
        "investigation_flags": [
          "granular-density-and-groundwater-tests"
        ],
        "lat": 27.51781895,
        "line": "line-1",
        "lon": 68.1784215,
        "sample_id": "segment:line-1-civil-003:0004",
        "scope_id": "line-1-civil-003",
        "scope_type": "civil_segment"
      },
      "type": "Feature"
    },
    {
      "geometry": {
        "coordinates": [
          68.18166401,
          27.52160376
        ],
        "type": "Point"
      },
      "properties": {
        "chainage_m": 4634.85,
        "civil_class": "bridge",
        "investigation_flags": [
          "fine-soil-plasticity-and-shrink-swell-tests",
          "granular-density-and-groundwater-tests"
        ],
        "lat": 27.52160376,
        "line": "line-1",
        "lon": 68.18166401,
        "sample_id": "segment:line-1-civil-003:0005",
        "scope_id": "line-1-civil-003",
        "scope_type": "civil_segment"
      },
      "type": "Feature"
    },
    {
      "geometry": {
        "coordinates": [
          68.18380427,
          27.52421615
        ],
        "type": "Point"
      },
      "properties": {
        "chainage_m": 5047.927,
        "civil_class": "bridge",
        "investigation_flags": [
          "fine-soil-plasticity-and-shrink-swell-tests",
          "granular-density-and-groundwater-tests"
        ],
        "lat": 27.52421615,
        "line": "line-1",
        "lon": 68.18380427,
        "sample_id": "segment:line-1-civil-003:0006",
        "scope_id": "line-1-civil-003",
        "scope_type": "civil_segment"
      },
      "type": "Feature"
    },
    {
      "geometry": {
        "coordinates": [
          68.18907634,
          27.53033766
        ],
        "type": "Point"
      },
      "properties": {
        "chainage_m": 6049.512,
        "civil_class": "bridge",
        "investigation_flags": [
          "fine-soil-plasticity-and-shrink-swell-tests",
          "granular-density-and-groundwater-tests"
        ],
        "lat": 27.53033766,
        "line": "line-1",
        "lon": 68.18907634,
        "sample_id": "segment:line-1-civil-003:0007",
        "scope_id": "line-1-civil-003",
        "scope_type": "civil_segment"
      },
      "type": "Feature"
    },
    {
      "geometry": {
        "coordinates": [
          68.19463404,
          27.53698738
        ],
        "type": "Point"
      },
      "properties": {
        "chainage_m": 7051.097,
        "civil_class": "bridge",
        "investigation_flags": [
          "fine-soil-plasticity-and-shrink-swell-tests",
          "granular-density-and-groundwater-tests"
        ],
        "lat": 27.53698738,
        "line": "line-1",
        "lon": 68.19463404,
        "sample_id": "segment:line-1-civil-003:0008",
        "scope_id": "line-1-civil-003",
        "scope_type": "civil_segment"
      },
      "type": "Feature"
    },
    {
      "geometry": {
        "coordinates": [
          68.20039128,
          27.5437315
        ],
        "type": "Point"
      },
      "properties": {
        "chainage_m": 8052.683,
        "civil_class": "bridge",
        "investigation_flags": [
          "granular-density-and-groundwater-tests"
        ],
        "lat": 27.5437315,
        "line": "line-1",
        "lon": 68.20039128,
        "sample_id": "segment:line-1-civil-003:0009",
        "scope_id": "line-1-civil-003",
        "scope_type": "civil_segment"
      },
      "type": "Feature"
    },
    {
      "geometry": {
        "coordinates": [
          68.2055775,
          27.54992863
        ],
        "type": "Point"
      },
      "properties": {
        "chainage_m": 9054.268,
        "civil_class": "bridge",
        "investigation_flags": [
          "granular-density-and-groundwater-tests"
        ],
        "lat": 27.54992863,
        "line": "line-1",
        "lon": 68.2055775,
        "sample_id": "segment:line-1-civil-003:0010",
        "scope_id": "line-1-civil-003",
        "scope_type": "civil_segment"
      },
      "type": "Feature"
    },
    {
      "geometry": {
        "coordinates": [
          68.20658508,
          27.55092508
        ],
        "type": "Point"
      },
      "properties": {
        "chainage_m": 9229.7,
        "civil_class": "bridge",
        "investigation_flags": [
          "granular-density-and-groundwater-tests"
        ],
        "lat": 27.55092508,
        "line": "line-1",
        "lon": 68.20658508,
        "sample_id": "segment:line-1-civil-003:0011",
        "scope_id": "line-1-civil-003",
        "scope_type": "civil_segment"
      },
      "type": "Feature"
    },
    {
      "geometry": {
        "coordinates": [
          68.20658508,
          27.55092508
        ],
        "type": "Point"
      },
      "properties": {
        "chainage_m": 9229.7,
        "civil_class": "elevated",
        "investigation_flags": [
          "granular-density-and-groundwater-tests"
        ],
        "lat": 27.55092508,
        "line": "line-1",
        "lon": 68.20658508,
        "sample_id": "segment:line-1-civil-004:0000",
        "scope_id": "line-1-civil-004",
        "scope_type": "civil_segment"
      },
      "type": "Feature"
    },
    {
      "geometry": {
        "coordinates": [
          68.20659078,
          27.5510129
        ],
        "type": "Point"
      },
      "properties": {
        "chainage_m": 9239.7,
        "civil_class": "elevated",
        "investigation_flags": [
          "granular-density-and-groundwater-tests"
        ],
        "lat": 27.5510129,
        "line": "line-1",
        "lon": 68.20659078,
        "sample_id": "segment:line-1-civil-004:0001",
        "scope_id": "line-1-civil-004",
        "scope_type": "civil_segment"
      },
      "type": "Feature"
    },
    {
      "geometry": {
        "coordinates": [
          68.20659078,
          27.55110283
        ],
        "type": "Point"
      },
      "properties": {
        "chainage_m": 9249.7,
        "civil_class": "elevated",
        "investigation_flags": [
          "granular-density-and-groundwater-tests"
        ],
        "lat": 27.55110283,
        "line": "line-1",
        "lon": 68.20659078,
        "sample_id": "segment:line-1-civil-004:0002",
        "scope_id": "line-1-civil-004",
        "scope_type": "civil_segment"
      },
      "type": "Feature"
    },
    {
      "geometry": {
        "coordinates": [
          68.20659078,
          27.55110283
        ],
        "type": "Point"
      },
      "properties": {
        "chainage_m": 9249.7,
        "civil_class": "bridge",
        "investigation_flags": [
          "granular-density-and-groundwater-tests"
        ],
        "lat": 27.55110283,
        "line": "line-1",
        "lon": 68.20659078,
        "sample_id": "segment:line-1-civil-005:0000",
        "scope_id": "line-1-civil-005",
        "scope_type": "civil_segment"
      },
      "type": "Feature"
    },
    {
      "geometry": {
        "coordinates": [
          68.21185693,
          27.55722896
        ],
        "type": "Point"
      },
      "properties": {
        "chainage_m": 10251.103,
        "civil_class": "bridge",
        "investigation_flags": [
          "granular-density-and-groundwater-tests"
        ],
        "lat": 27.55722896,
        "line": "line-1",
        "lon": 68.21185693,
        "sample_id": "segment:line-1-civil-005:0001",
        "scope_id": "line-1-civil-005",
        "scope_type": "civil_segment"
      },
      "type": "Feature"
    },
    {
      "geometry": {
        "coordinates": [
          68.21716656,
          27.56352778
        ],
        "type": "Point"
      },
      "properties": {
        "chainage_m": 11252.507,
        "civil_class": "bridge",
        "investigation_flags": [
          "fine-soil-plasticity-and-shrink-swell-tests",
          "granular-density-and-groundwater-tests"
        ],
        "lat": 27.56352778,
        "line": "line-1",
        "lon": 68.21716656,
        "sample_id": "segment:line-1-civil-005:0002",
        "scope_id": "line-1-civil-005",
        "scope_type": "civil_segment"
      },
      "type": "Feature"
    },
    {
      "geometry": {
        "coordinates": [
          68.22239801,
          27.56968526
        ],
        "type": "Point"
      },
      "properties": {
        "chainage_m": 12253.91,
        "civil_class": "bridge",
        "investigation_flags": [
          "granular-density-and-groundwater-tests"
        ],
        "lat": 27.56968526,
        "line": "line-1",
        "lon": 68.22239801,
        "sample_id": "segment:line-1-civil-005:0003",
        "scope_id": "line-1-civil-005",
        "scope_type": "civil_segment"
      },
      "type": "Feature"
    },
    {
      "geometry": {
        "coordinates": [
          68.22766708,
          27.57580941
        ],
        "type": "Point"
      },
      "properties": {
        "chainage_m": 13255.314,
        "civil_class": "bridge",
        "investigation_flags": [
          "granular-density-and-groundwater-tests"
        ],
        "lat": 27.57580941,
        "line": "line-1",
        "lon": 68.22766708,
        "sample_id": "segment:line-1-civil-005:0004",
        "scope_id": "line-1-civil-005",
        "scope_type": "civil_segment"
      },
      "type": "Feature"
    },
    {
      "geometry": {
        "coordinates": [
          68.23336089,
          27.58262144
        ],
        "type": "Point"
      },
      "properties": {
        "chainage_m": 14256.717,
        "civil_class": "bridge",
        "investigation_flags": [
          "fine-soil-plasticity-and-shrink-swell-tests",
          "granular-density-and-groundwater-tests"
        ],
        "lat": 27.58262144,
        "line": "line-1",
        "lon": 68.23336089,
        "sample_id": "segment:line-1-civil-005:0005",
        "scope_id": "line-1-civil-005",
        "scope_type": "civil_segment"
      },
      "type": "Feature"
    },
    {
      "geometry": {
        "coordinates": [
          68.23716053,
          27.58692338
        ],
        "type": "Point"
      },
      "properties": {
        "chainage_m": 14911.7,
        "civil_class": "bridge",
        "investigation_flags": [
          "fine-soil-plasticity-and-shrink-swell-tests",
          "granular-density-and-groundwater-tests"
        ],
        "lat": 27.58692338,
        "line": "line-1",
        "lon": 68.23716053,
        "sample_id": "segment:line-1-civil-005:0006",
        "scope_id": "line-1-civil-005",
        "scope_type": "civil_segment"
      },
      "type": "Feature"
    },
    {
      "geometry": {
        "coordinates": [
          68.23895155,
          27.58908298
        ],
        "type": "Point"
      },
      "properties": {
        "chainage_m": 15258.121,
        "civil_class": "bridge",
        "investigation_flags": [
          "fine-soil-plasticity-and-shrink-swell-tests",
          "granular-density-and-groundwater-tests"
        ],
        "lat": 27.58908298,
        "line": "line-1",
        "lon": 68.23895155,
        "sample_id": "segment:line-1-civil-005:0007",
        "scope_id": "line-1-civil-005",
        "scope_type": "civil_segment"
      },
      "type": "Feature"
    },
    {
      "geometry": {
        "coordinates": [
          68.244185,
          27.59529305
        ],
        "type": "Point"
      },
      "properties": {
        "chainage_m": 16259.524,
        "civil_class": "bridge",
        "investigation_flags": [
          "granular-density-and-groundwater-tests"
        ],
        "lat": 27.59529305,
        "line": "line-1",
        "lon": 68.244185,
        "sample_id": "segment:line-1-civil-005:0008",
        "scope_id": "line-1-civil-005",
        "scope_type": "civil_segment"
      },
      "type": "Feature"
    },
    {
      "geometry": {
        "coordinates": [
          68.24965168,
          27.60176735
        ],
        "type": "Point"
      },
      "properties": {
        "chainage_m": 17260.927,
        "civil_class": "bridge",
        "investigation_flags": [
          "fine-soil-plasticity-and-shrink-swell-tests",
          "granular-density-and-groundwater-tests"
        ],
        "lat": 27.60176735,
        "line": "line-1",
        "lon": 68.24965168,
        "sample_id": "segment:line-1-civil-005:0009",
        "scope_id": "line-1-civil-005",
        "scope_type": "civil_segment"
      },
      "type": "Feature"
    },
    {
      "geometry": {
        "coordinates": [
          68.25543105,
          27.60865417
        ],
        "type": "Point"
      },
      "properties": {
        "chainage_m": 18262.331,
        "civil_class": "bridge",
        "investigation_flags": [
          "fine-soil-plasticity-and-shrink-swell-tests",
          "granular-density-and-groundwater-tests"
        ],
        "lat": 27.60865417,
        "line": "line-1",
        "lon": 68.25543105,
        "sample_id": "segment:line-1-civil-005:0010",
        "scope_id": "line-1-civil-005",
        "scope_type": "civil_segment"
      },
      "type": "Feature"
    },
    {
      "geometry": {
        "coordinates": [
          68.26108924,
          27.61516368
        ],
        "type": "Point"
      },
      "properties": {
        "chainage_m": 19263.734,
        "civil_class": "bridge",
        "investigation_flags": [
          "fine-soil-plasticity-and-shrink-swell-tests",
          "granular-density-and-groundwater-tests"
        ],
        "lat": 27.61516368,
        "line": "line-1",
        "lon": 68.26108924,
        "sample_id": "segment:line-1-civil-005:0011",
        "scope_id": "line-1-civil-005",
        "scope_type": "civil_segment"
      },
      "type": "Feature"
    },
    {
      "geometry": {
        "coordinates": [
          68.26698248,
          27.62010835
        ],
        "type": "Point"
      },
      "properties": {
        "chainage_m": 20265.138,
        "civil_class": "bridge",
        "investigation_flags": [
          "fine-soil-plasticity-and-shrink-swell-tests",
          "granular-density-and-groundwater-tests"
        ],
        "lat": 27.62010835,
        "line": "line-1",
        "lon": 68.26698248,
        "sample_id": "segment:line-1-civil-005:0012",
        "scope_id": "line-1-civil-005",
        "scope_type": "civil_segment"
      },
      "type": "Feature"
    },
    {
      "geometry": {
        "coordinates": [
          68.26900905,
          27.62129502
        ],
        "type": "Point"
      },
      "properties": {
        "chainage_m": 20573.7,
        "civil_class": "bridge",
        "investigation_flags": [
          "granular-density-and-groundwater-tests"
        ],
        "lat": 27.62129502,
        "line": "line-1",
        "lon": 68.26900905,
        "sample_id": "segment:line-1-civil-005:0013",
        "scope_id": "line-1-civil-005",
        "scope_type": "civil_segment"
      },
      "type": "Feature"
    },
    {
      "geometry": {
        "coordinates": [
          68.26900905,
          27.62129502
        ],
        "type": "Point"
      },
      "properties": {
        "chainage_m": 20573.7,
        "civil_class": "at-grade",
        "investigation_flags": [
          "granular-density-and-groundwater-tests"
        ],
        "lat": 27.62129502,
        "line": "line-1",
        "lon": 68.26900905,
        "sample_id": "segment:line-1-civil-006:0000",
        "scope_id": "line-1-civil-006",
        "scope_type": "civil_segment"
      },
      "type": "Feature"
    },
    {
      "geometry": {
        "coordinates": [
          68.26910834,
          27.62129692
        ],
        "type": "Point"
      },
      "properties": {
        "chainage_m": 20583.7,
        "civil_class": "at-grade",
        "investigation_flags": [
          "granular-density-and-groundwater-tests"
        ],
        "lat": 27.62129692,
        "line": "line-1",
        "lon": 68.26910834,
        "sample_id": "segment:line-1-civil-006:0001",
        "scope_id": "line-1-civil-006",
        "scope_type": "civil_segment"
      },
      "type": "Feature"
    },
    {
      "geometry": {
        "coordinates": [
          68.26920978,
          27.62129692
        ],
        "type": "Point"
      },
      "properties": {
        "chainage_m": 20593.7,
        "civil_class": "at-grade",
        "investigation_flags": [
          "granular-density-and-groundwater-tests"
        ],
        "lat": 27.62129692,
        "line": "line-1",
        "lon": 68.26920978,
        "sample_id": "segment:line-1-civil-006:0002",
        "scope_id": "line-1-civil-006",
        "scope_type": "civil_segment"
      },
      "type": "Feature"
    },
    {
      "geometry": {
        "coordinates": [
          68.26920978,
          27.62129692
        ],
        "type": "Point"
      },
      "properties": {
        "chainage_m": 20593.7,
        "civil_class": "bridge",
        "investigation_flags": [
          "granular-density-and-groundwater-tests"
        ],
        "lat": 27.62129692,
        "line": "line-1",
        "lon": 68.26920978,
        "sample_id": "segment:line-1-civil-007:0000",
        "scope_id": "line-1-civil-007",
        "scope_type": "civil_segment"
      },
      "type": "Feature"
    },
    {
      "geometry": {
        "coordinates": [
          68.27157094,
          27.6199217
        ],
        "type": "Point"
      },
      "properties": {
        "chainage_m": 20930.0,
        "civil_class": "bridge",
        "investigation_flags": [
          "fine-soil-plasticity-and-shrink-swell-tests",
          "granular-density-and-groundwater-tests"
        ],
        "lat": 27.6199217,
        "line": "line-1",
        "lon": 68.27157094,
        "sample_id": "segment:line-1-civil-007:0001",
        "scope_id": "line-1-civil-007",
        "scope_type": "civil_segment"
      },
      "type": "Feature"
    },
    {
      "geometry": {
        "coordinates": [
          68.27367015,
          27.61787756
        ],
        "type": "Point"
      },
      "properties": {
        "chainage_m": 21266.3,
        "civil_class": "bridge",
        "investigation_flags": [
          "fine-soil-plasticity-and-shrink-swell-tests",
          "granular-density-and-groundwater-tests"
        ],
        "lat": 27.61787756,
        "line": "line-1",
        "lon": 68.27367015,
        "sample_id": "segment:line-1-civil-007:0002",
        "scope_id": "line-1-civil-007",
        "scope_type": "civil_segment"
      },
      "type": "Feature"
    },
    {
      "geometry": {
        "coordinates": [
          68.21854753,
          27.55021028
        ],
        "type": "Point"
      },
      "properties": {
        "chainage_m": 0.0,
        "civil_class": "bridge",
        "investigation_flags": [
          "fine-soil-plasticity-and-shrink-swell-tests",
          "granular-density-and-groundwater-tests"
        ],
        "lat": 27.55021028,
        "line": "line-2",
        "lon": 68.21854753,
        "sample_id": "segment:line-2-civil-008:0000",
        "scope_id": "line-2-civil-008",
        "scope_type": "civil_segment"
      },
      "type": "Feature"
    },
    {
      "geometry": {
        "coordinates": [
          68.21956081,
          27.55416907
        ],
        "type": "Point"
      },
      "properties": {
        "chainage_m": 481.4,
        "civil_class": "bridge",
        "investigation_flags": [
          "granular-density-and-groundwater-tests"
        ],
        "lat": 27.55416907,
        "line": "line-2",
        "lon": 68.21956081,
        "sample_id": "segment:line-2-civil-008:0001",
        "scope_id": "line-2-civil-008",
        "scope_type": "civil_segment"
      },
      "type": "Feature"
    },
    {
      "geometry": {
        "coordinates": [
          68.22057338,
          27.55812815
        ],
        "type": "Point"
      },
      "properties": {
        "chainage_m": 962.8,
        "civil_class": "bridge",
        "investigation_flags": [
          "granular-density-and-groundwater-tests"
        ],
        "lat": 27.55812815,
        "line": "line-2",
        "lon": 68.22057338,
        "sample_id": "segment:line-2-civil-008:0002",
        "scope_id": "line-2-civil-008",
        "scope_type": "civil_segment"
      },
      "type": "Feature"
    },
    {
      "geometry": {
        "coordinates": [
          68.22057338,
          27.55812815
        ],
        "type": "Point"
      },
      "properties": {
        "chainage_m": 962.8,
        "civil_class": "elevated",
        "investigation_flags": [
          "granular-density-and-groundwater-tests"
        ],
        "lat": 27.55812815,
        "line": "line-2",
        "lon": 68.22057338,
        "sample_id": "segment:line-2-civil-009:0000",
        "scope_id": "line-2-civil-009",
        "scope_type": "civil_segment"
      },
      "type": "Feature"
    },
    {
      "geometry": {
        "coordinates": [
          68.2205741,
          27.5583078
        ],
        "type": "Point"
      },
      "properties": {
        "chainage_m": 982.8,
        "civil_class": "elevated",
        "investigation_flags": [
          "granular-density-and-groundwater-tests"
        ],
        "lat": 27.5583078,
        "line": "line-2",
        "lon": 68.2205741,
        "sample_id": "segment:line-2-civil-009:0001",
        "scope_id": "line-2-civil-009",
        "scope_type": "civil_segment"
      },
      "type": "Feature"
    },
    {
      "geometry": {
        "coordinates": [
          68.2205741,
          27.55848771
        ],
        "type": "Point"
      },
      "properties": {
        "chainage_m": 1002.8,
        "civil_class": "elevated",
        "investigation_flags": [
          "granular-density-and-groundwater-tests"
        ],
        "lat": 27.55848771,
        "line": "line-2",
        "lon": 68.2205741,
        "sample_id": "segment:line-2-civil-009:0002",
        "scope_id": "line-2-civil-009",
        "scope_type": "civil_segment"
      },
      "type": "Feature"
    },
    {
      "geometry": {
        "coordinates": [
          68.2205741,
          27.55848771
        ],
        "type": "Point"
      },
      "properties": {
        "chainage_m": 1002.8,
        "civil_class": "bridge",
        "investigation_flags": [
          "granular-density-and-groundwater-tests"
        ],
        "lat": 27.55848771,
        "line": "line-2",
        "lon": 68.2205741,
        "sample_id": "segment:line-2-civil-010:0000",
        "scope_id": "line-2-civil-010",
        "scope_type": "civil_segment"
      },
      "type": "Feature"
    },
    {
      "geometry": {
        "coordinates": [
          68.22260066,
          27.56665637
        ],
        "type": "Point"
      },
      "properties": {
        "chainage_m": 2005.246,
        "civil_class": "bridge",
        "investigation_flags": [
          "granular-density-and-groundwater-tests"
        ],
        "lat": 27.56665637,
        "line": "line-2",
        "lon": 68.22260066,
        "sample_id": "segment:line-2-civil-010:0001",
        "scope_id": "line-2-civil-010",
        "scope_type": "civil_segment"
      },
      "type": "Feature"
    },
    {
      "geometry": {
        "coordinates": [
          68.22394582,
          27.57192097
        ],
        "type": "Point"
      },
      "properties": {
        "chainage_m": 2645.35,
        "civil_class": "bridge",
        "investigation_flags": [
          "granular-density-and-groundwater-tests"
        ],
        "lat": 27.57192097,
        "line": "line-2",
        "lon": 68.22394582,
        "sample_id": "segment:line-2-civil-010:0002",
        "scope_id": "line-2-civil-010",
        "scope_type": "civil_segment"
      },
      "type": "Feature"
    },
    {
      "geometry": {
        "coordinates": [
          68.22467896,
          27.57491158
        ],
        "type": "Point"
      },
      "properties": {
        "chainage_m": 3007.691,
        "civil_class": "bridge",
        "investigation_flags": [
          "granular-density-and-groundwater-tests"
        ],
        "lat": 27.57491158,
        "line": "line-2",
        "lon": 68.22467896,
        "sample_id": "segment:line-2-civil-010:0003",
        "scope_id": "line-2-civil-010",
        "scope_type": "civil_segment"
      },
      "type": "Feature"
    },
    {
      "geometry": {
        "coordinates": [
          68.22670234,
          27.5831872
        ],
        "type": "Point"
      },
      "properties": {
        "chainage_m": 4010.137,
        "civil_class": "bridge",
        "investigation_flags": [
          "granular-density-and-groundwater-tests"
        ],
        "lat": 27.5831872,
        "line": "line-2",
        "lon": 68.22670234,
        "sample_id": "segment:line-2-civil-010:0004",
        "scope_id": "line-2-civil-010",
        "scope_type": "civil_segment"
      },
      "type": "Feature"
    },
    {
      "geometry": {
        "coordinates": [
          68.22726177,
          27.58548073
        ],
        "type": "Point"
      },
      "properties": {
        "chainage_m": 4287.9,
        "civil_class": "bridge",
        "investigation_flags": [
          "granular-density-and-groundwater-tests"
        ],
        "lat": 27.58548073,
        "line": "line-2",
        "lon": 68.22726177,
        "sample_id": "segment:line-2-civil-010:0005",
        "scope_id": "line-2-civil-010",
        "scope_type": "civil_segment"
      },
      "type": "Feature"
    },
    {
      "geometry": {
        "coordinates": [
          68.22726177,
          27.58548073
        ],
        "type": "Point"
      },
      "properties": {
        "chainage_m": 4287.9,
        "civil_class": "elevated",
        "investigation_flags": [
          "granular-density-and-groundwater-tests"
        ],
        "lat": 27.58548073,
        "line": "line-2",
        "lon": 68.22726177,
        "sample_id": "segment:line-2-civil-011:0000",
        "scope_id": "line-2-civil-011",
        "scope_type": "civil_segment"
      },
      "type": "Feature"
    },
    {
      "geometry": {
        "coordinates": [
          68.22928833,
          27.59375528
        ],
        "type": "Point"
      },
      "properties": {
        "chainage_m": 5290.367,
        "civil_class": "elevated",
        "investigation_flags": [
          "fine-soil-plasticity-and-shrink-swell-tests",
          "granular-density-and-groundwater-tests"
        ],
        "lat": 27.59375528,
        "line": "line-2",
        "lon": 68.22928833,
        "sample_id": "segment:line-2-civil-011:0001",
        "scope_id": "line-2-civil-011",
        "scope_type": "civil_segment"
      },
      "type": "Feature"
    },
    {
      "geometry": {
        "coordinates": [
          68.22969365,
          27.59510854
        ],
        "type": "Point"
      },
      "properties": {
        "chainage_m": 5457.35,
        "civil_class": "elevated",
        "investigation_flags": [
          "fine-soil-plasticity-and-shrink-swell-tests",
          "granular-density-and-groundwater-tests"
        ],
        "lat": 27.59510854,
        "line": "line-2",
        "lon": 68.22969365,
        "sample_id": "segment:line-2-civil-011:0002",
        "scope_id": "line-2-civil-011",
        "scope_type": "civil_segment"
      },
      "type": "Feature"
    },
    {
      "geometry": {
        "coordinates": [
          68.23144953,
          27.60198013
        ],
        "type": "Point"
      },
      "properties": {
        "chainage_m": 6292.834,
        "civil_class": "elevated",
        "investigation_flags": [
          "fine-soil-plasticity-and-shrink-swell-tests",
          "granular-density-and-groundwater-tests"
        ],
        "lat": 27.60198013,
        "line": "line-2",
        "lon": 68.23144953,
        "sample_id": "segment:line-2-civil-011:0003",
        "scope_id": "line-2-civil-011",
        "scope_type": "civil_segment"
      },
      "type": "Feature"
    },
    {
      "geometry": {
        "coordinates": [
          68.23212553,
          27.60473647
        ],
        "type": "Point"
      },
      "properties": {
        "chainage_m": 6626.8,
        "civil_class": "elevated",
        "investigation_flags": [
          "fine-soil-plasticity-and-shrink-swell-tests",
          "granular-density-and-groundwater-tests"
        ],
        "lat": 27.60473647,
        "line": "line-2",
        "lon": 68.23212553,
        "sample_id": "segment:line-2-civil-011:0004",
        "scope_id": "line-2-civil-011",
        "scope_type": "civil_segment"
      },
      "type": "Feature"
    },
    {
      "geometry": {
        "coordinates": [
          68.23212553,
          27.60473647
        ],
        "type": "Point"
      },
      "properties": {
        "chainage_m": 6626.8,
        "civil_class": "bridge",
        "investigation_flags": [
          "fine-soil-plasticity-and-shrink-swell-tests",
          "granular-density-and-groundwater-tests"
        ],
        "lat": 27.60473647,
        "line": "line-2",
        "lon": 68.23212553,
        "sample_id": "segment:line-2-civil-012:0000",
        "scope_id": "line-2-civil-012",
        "scope_type": "civil_segment"
      },
      "type": "Feature"
    },
    {
      "geometry": {
        "coordinates": [
          68.23212553,
          27.60500633
        ],
        "type": "Point"
      },
      "properties": {
        "chainage_m": 6656.8,
        "civil_class": "bridge",
        "investigation_flags": [
          "fine-soil-plasticity-and-shrink-swell-tests",
          "granular-density-and-groundwater-tests"
        ],
        "lat": 27.60500633,
        "line": "line-2",
        "lon": 68.23212553,
        "sample_id": "segment:line-2-civil-012:0001",
        "scope_id": "line-2-civil-012",
        "scope_type": "civil_segment"
      },
      "type": "Feature"
    },
    {
      "geometry": {
        "coordinates": [
          68.23212553,
          27.6052762
        ],
        "type": "Point"
      },
      "properties": {
        "chainage_m": 6686.8,
        "civil_class": "bridge",
        "investigation_flags": [
          "fine-soil-plasticity-and-shrink-swell-tests",
          "granular-density-and-groundwater-tests"
        ],
        "lat": 27.6052762,
        "line": "line-2",
        "lon": 68.23212553,
        "sample_id": "segment:line-2-civil-012:0002",
        "scope_id": "line-2-civil-012",
        "scope_type": "civil_segment"
      },
      "type": "Feature"
    },
    {
      "geometry": {
        "coordinates": [
          68.23212553,
          27.6052762
        ],
        "type": "Point"
      },
      "properties": {
        "chainage_m": 6686.8,
        "civil_class": "elevated",
        "investigation_flags": [
          "fine-soil-plasticity-and-shrink-swell-tests",
          "granular-density-and-groundwater-tests"
        ],
        "lat": 27.6052762,
        "line": "line-2",
        "lon": 68.23212553,
        "sample_id": "segment:line-2-civil-013:0000",
        "scope_id": "line-2-civil-013",
        "scope_type": "civil_segment"
      },
      "type": "Feature"
    },
    {
      "geometry": {
        "coordinates": [
          68.23394944,
          27.61206159
        ],
        "type": "Point"
      },
      "properties": {
        "chainage_m": 7527.2,
        "civil_class": "elevated",
        "investigation_flags": [
          "fine-soil-plasticity-and-shrink-swell-tests",
          "granular-density-and-groundwater-tests"
        ],
        "lat": 27.61206159,
        "line": "line-2",
        "lon": 68.23394944,
        "sample_id": "segment:line-2-civil-013:0001",
        "scope_id": "line-2-civil-013",
        "scope_type": "civil_segment"
      },
      "type": "Feature"
    },
    {
      "geometry": {
        "coordinates": [
          68.23420533,
          27.61342568
        ],
        "type": "Point"
      },
      "properties": {
        "chainage_m": 7689.24,
        "civil_class": "elevated",
        "investigation_flags": [
          "fine-soil-plasticity-and-shrink-swell-tests",
          "granular-density-and-groundwater-tests"
        ],
        "lat": 27.61342568,
        "line": "line-2",
        "lon": 68.23420533,
        "sample_id": "segment:line-2-civil-013:0002",
        "scope_id": "line-2-civil-013",
        "scope_type": "civil_segment"
      },
      "type": "Feature"
    },
    {
      "geometry": {
        "coordinates": [
          68.23576959,
          27.61895402
        ],
        "type": "Point"
      },
      "properties": {
        "chainage_m": 8367.6,
        "civil_class": "elevated",
        "investigation_flags": [
          "granular-density-and-groundwater-tests"
        ],
        "lat": 27.61895402,
        "line": "line-2",
        "lon": 68.23576959,
        "sample_id": "segment:line-2-civil-013:0003",
        "scope_id": "line-2-civil-013",
        "scope_type": "civil_segment"
      },
      "type": "Feature"
    },
    {
      "geometry": {
        "coordinates": [
          68.23576959,
          27.61895402
        ],
        "type": "Point"
      },
      "properties": {
        "chainage_m": 8367.6,
        "civil_class": "at-grade",
        "investigation_flags": [
          "granular-density-and-groundwater-tests"
        ],
        "lat": 27.61895402,
        "line": "line-2",
        "lon": 68.23576959,
        "sample_id": "segment:line-2-civil-014:0000",
        "scope_id": "line-2-civil-014",
        "scope_type": "civil_segment"
      },
      "type": "Feature"
    },
    {
      "geometry": {
        "coordinates": [
          68.23861054,
          27.62692783
        ],
        "type": "Point"
      },
      "properties": {
        "chainage_m": 9369.671,
        "civil_class": "at-grade",
        "investigation_flags": [
          "granular-density-and-groundwater-tests"
        ],
        "lat": 27.62692783,
        "line": "line-2",
        "lon": 68.23861054,
        "sample_id": "segment:line-2-civil-014:0001",
        "scope_id": "line-2-civil-014",
        "scope_type": "civil_segment"
      },
      "type": "Feature"
    },
    {
      "geometry": {
        "coordinates": [
          68.24165039,
          27.63482822
        ],
        "type": "Point"
      },
      "properties": {
        "chainage_m": 10371.742,
        "civil_class": "at-grade",
        "investigation_flags": [
          "fine-soil-plasticity-and-shrink-swell-tests",
          "granular-density-and-groundwater-tests"
        ],
        "lat": 27.63482822,
        "line": "line-2",
        "lon": 68.24165039,
        "sample_id": "segment:line-2-civil-014:0002",
        "scope_id": "line-2-civil-014",
        "scope_type": "civil_segment"
      },
      "type": "Feature"
    },
    {
      "geometry": {
        "coordinates": [
          68.24225836,
          27.63657802
        ],
        "type": "Point"
      },
      "properties": {
        "chainage_m": 10591.0,
        "civil_class": "at-grade",
        "investigation_flags": [
          "fine-soil-plasticity-and-shrink-swell-tests",
          "granular-density-and-groundwater-tests"
        ],
        "lat": 27.63657802,
        "line": "line-2",
        "lon": 68.24225836,
        "sample_id": "segment:line-2-civil-014:0003",
        "scope_id": "line-2-civil-014",
        "scope_type": "civil_segment"
      },
      "type": "Feature"
    },
    {
      "geometry": {
        "coordinates": [
          68.24470285,
          27.64272409
        ],
        "type": "Point"
      },
      "properties": {
        "chainage_m": 11373.812,
        "civil_class": "at-grade",
        "investigation_flags": [
          "fine-soil-plasticity-and-shrink-swell-tests",
          "granular-density-and-groundwater-tests"
        ],
        "lat": 27.64272409,
        "line": "line-2",
        "lon": 68.24470285,
        "sample_id": "segment:line-2-civil-014:0004",
        "scope_id": "line-2-civil-014",
        "scope_type": "civil_segment"
      },
      "type": "Feature"
    },
    {
      "geometry": {
        "coordinates": [
          68.24813541,
          27.65047961
        ],
        "type": "Point"
      },
      "properties": {
        "chainage_m": 12375.883,
        "civil_class": "at-grade",
        "investigation_flags": [
          "granular-density-and-groundwater-tests"
        ],
        "lat": 27.65047961,
        "line": "line-2",
        "lon": 68.24813541,
        "sample_id": "segment:line-2-civil-014:0005",
        "scope_id": "line-2-civil-014",
        "scope_type": "civil_segment"
      },
      "type": "Feature"
    },
    {
      "geometry": {
        "coordinates": [
          68.25056729,
          27.652791
        ],
        "type": "Point"
      },
      "properties": {
        "chainage_m": 12814.4,
        "civil_class": "at-grade",
        "investigation_flags": [
          "granular-density-and-groundwater-tests"
        ],
        "lat": 27.652791,
        "line": "line-2",
        "lon": 68.25056729,
        "sample_id": "segment:line-2-civil-014:0006",
        "scope_id": "line-2-civil-014",
        "scope_type": "civil_segment"
      },
      "type": "Feature"
    },
    {
      "geometry": {
        "coordinates": [
          68.27367015,
          27.61787756
        ],
        "type": "Point"
      },
      "properties": {
        "chainage_m": 21266.3,
        "civil_class": "station",
        "investigation_flags": [
          "fine-soil-plasticity-and-shrink-swell-tests",
          "granular-density-and-groundwater-tests"
        ],
        "lat": 27.61787756,
        "line": "line-1",
        "lon": 68.27367015,
        "sample_id": "station:line-1-0223-0854-s021266",
        "scope_id": "line-1-0223-0854-s021266",
        "scope_type": "station"
      },
      "type": "Feature"
    },
    {
      "geometry": {
        "coordinates": [
          68.24752744,
          27.59934105
        ],
        "type": "Point"
      },
      "properties": {
        "chainage_m": 16904.1,
        "civil_class": "station",
        "investigation_flags": [
          "fine-soil-plasticity-and-shrink-swell-tests",
          "granular-density-and-groundwater-tests"
        ],
        "lat": 27.59934105,
        "line": "line-1",
        "lon": 68.24752744,
        "sample_id": "station:line-1-0326-0725-s016904",
        "scope_id": "line-1-0326-0725-s016904",
        "scope_type": "station"
      },
      "type": "Feature"
    },
    {
      "geometry": {
        "coordinates": [
          68.2238166,
          27.57144629
        ],
        "type": "Point"
      },
      "properties": {
        "chainage_m": 12530.2,
        "civil_class": "station",
        "investigation_flags": [
          "granular-density-and-groundwater-tests"
        ],
        "lat": 27.57144629,
        "line": "line-1",
        "lon": 68.2238166,
        "sample_id": "station:line-1-0481-0608-s012530",
        "scope_id": "line-1-0481-0608-s012530",
        "scope_type": "station"
      },
      "type": "Feature"
    },
    {
      "geometry": {
        "coordinates": [
          68.21287314,
          27.55866869
        ],
        "type": "Point"
      },
      "properties": {
        "chainage_m": 10463.7,
        "civil_class": "station",
        "investigation_flags": [
          "granular-density-and-groundwater-tests"
        ],
        "lat": 27.55866869,
        "line": "line-1",
        "lon": 68.21287314,
        "sample_id": "station:line-1-0552-0554-s010464",
        "scope_id": "line-1-0552-0554-s010464",
        "scope_type": "station"
      },
      "type": "Feature"
    },
    {
      "geometry": {
        "coordinates": [
          68.19443138,
          27.53671282
        ],
        "type": "Point"
      },
      "properties": {
        "chainage_m": 7012.1,
        "civil_class": "station",
        "investigation_flags": [
          "fine-soil-plasticity-and-shrink-swell-tests",
          "granular-density-and-groundwater-tests"
        ],
        "lat": 27.53671282,
        "line": "line-1",
        "lon": 68.19443138,
        "sample_id": "station:line-1-0674-0463-s007012",
        "scope_id": "line-1-0674-0463-s007012",
        "scope_type": "station"
      },
      "type": "Feature"
    },
    {
      "geometry": {
        "coordinates": [
          68.17517899,
          27.51403708
        ],
        "type": "Point"
      },
      "properties": {
        "chainage_m": 3494.2,
        "civil_class": "station",
        "investigation_flags": [
          "fine-soil-plasticity-and-shrink-swell-tests",
          "granular-density-and-groundwater-tests"
        ],
        "lat": 27.51403708,
        "line": "line-1",
        "lon": 68.17517899,
        "sample_id": "station:line-1-0800-0368-s003494",
        "scope_id": "line-1-0800-0368-s003494",
        "scope_type": "station"
      },
      "type": "Feature"
    },
    {
      "geometry": {
        "coordinates": [
          68.16342491,
          27.48812196
        ],
        "type": "Point"
      },
      "properties": {
        "chainage_m": 0.0,
        "civil_class": "station",
        "investigation_flags": [
          "fine-soil-plasticity-and-shrink-swell-tests",
          "granular-density-and-groundwater-tests"
        ],
        "lat": 27.48812196,
        "line": "line-1",
        "lon": 68.16342491,
        "sample_id": "station:line-1-0944-0310-s000000",
        "scope_id": "line-1-0944-0310-s000000",
        "scope_type": "station"
      },
      "type": "Feature"
    },
    {
      "geometry": {
        "coordinates": [
          68.25056729,
          27.652791
        ],
        "type": "Point"
      },
      "properties": {
        "chainage_m": 12814.4,
        "civil_class": "station",
        "investigation_flags": [
          "granular-density-and-groundwater-tests"
        ],
        "lat": 27.652791,
        "line": "line-2",
        "lon": 68.25056729,
        "sample_id": "station:line-2-0029-0740-s012814",
        "scope_id": "line-2-0029-0740-s012814",
        "scope_type": "station"
      },
      "type": "Feature"
    },
    {
      "geometry": {
        "coordinates": [
          68.23435475,
          27.61355837
        ],
        "type": "Point"
      },
      "properties": {
        "chainage_m": 7709.6,
        "civil_class": "station",
        "investigation_flags": [
          "fine-soil-plasticity-and-shrink-swell-tests",
          "granular-density-and-groundwater-tests"
        ],
        "lat": 27.61355837,
        "line": "line-2",
        "lon": 68.23435475,
        "sample_id": "station:line-2-0247-0660-s007710",
        "scope_id": "line-2-0247-0660-s007710",
        "scope_type": "station"
      },
      "type": "Feature"
    },
    {
      "geometry": {
        "coordinates": [
          68.2238166,
          27.57144629
        ],
        "type": "Point"
      },
      "properties": {
        "chainage_m": 2587.1,
        "civil_class": "station",
        "investigation_flags": [
          "granular-density-and-groundwater-tests"
        ],
        "lat": 27.57144629,
        "line": "line-2",
        "lon": 68.2238166,
        "sample_id": "station:line-2-0481-0608-s002587",
        "scope_id": "line-2-0481-0608-s002587",
        "scope_type": "station"
      },
      "type": "Feature"
    },
    {
      "geometry": {
        "coordinates": [
          68.21854753,
          27.55021028
        ],
        "type": "Point"
      },
      "properties": {
        "chainage_m": 0.0,
        "civil_class": "station",
        "investigation_flags": [
          "fine-soil-plasticity-and-shrink-swell-tests",
          "granular-density-and-groundwater-tests"
        ],
        "lat": 27.55021028,
        "line": "line-2",
        "lon": 68.21854753,
        "sample_id": "station:line-2-0599-0582-s000000",
        "scope_id": "line-2-0599-0582-s000000",
        "scope_type": "station"
      },
      "type": "Feature"
    }
  ],
  "type": "FeatureCollection"
}
