{
  "features": [
    {
      "geometry": {
        "coordinates": [
          11.593375657139797,
          3.9840424000287946
        ],
        "type": "Point"
      },
      "properties": {
        "charger_bus_voltage_v": 650.0,
        "charger_contact_count": 8,
        "charger_efficiency": 0.98,
        "charger_max_current_a": 3300.0,
        "charger_max_kw": 2000.0,
        "grid_export_kw": 12000.0,
        "grid_import_kw": 12000.0,
        "line": "line-1",
        "pv_nameplate_kw": 5000.0,
        "station": "line-1-0366-1351-s000000",
        "storage_capacity_kwh": 40000.0,
        "storage_initial_soc": 0.6,
        "storage_max_charge_kw": 10000.0,
        "storage_max_discharge_kw": 10000.0,
        "storage_module_kwh": 500.0,
        "tier": "depot-main"
      },
      "type": "Feature"
    },
    {
      "geometry": {
        "coordinates": [
          11.578609246569716,
          3.9664057157254433
        ],
        "type": "Point"
      },
      "properties": {
        "charger_bus_voltage_v": 650.0,
        "charger_contact_count": 8,
        "charger_efficiency": 0.98,
        "charger_max_current_a": 3300.0,
        "charger_max_kw": 2000.0,
        "grid_export_kw": 2400.0,
        "grid_import_kw": 2400.0,
        "line": "line-1",
        "pv_nameplate_kw": 300.0,
        "station": "line-1-0464-1269-s002897",
        "storage_capacity_kwh": 2000.0,
        "storage_initial_soc": 0.5,
        "storage_max_charge_kw": 2000.0,
        "storage_max_discharge_kw": 2000.0,
        "storage_module_kwh": 500.0,
        "tier": "interchange"
      },
      "type": "Feature"
    },
    {
      "geometry": {
        "coordinates": [
          11.557179943425332,
          3.9410304862685814
        ],
        "type": "Point"
      },
      "properties": {
        "charger_bus_voltage_v": 650.0,
        "charger_contact_count": 8,
        "charger_efficiency": 0.98,
        "charger_max_current_a": 3300.0,
        "charger_max_kw": 2000.0,
        "grid_export_kw": 2000.0,
        "grid_import_kw": 2000.0,
        "line": "line-1",
        "pv_nameplate_kw": 300.0,
        "station": "line-1-0605-1150-s007019",
        "storage_capacity_kwh": 2000.0,
        "storage_initial_soc": 0.5,
        "storage_max_charge_kw": 2000.0,
        "storage_max_discharge_kw": 2000.0,
        "storage_module_kwh": 500.0,
        "tier": "standard"
      },
      "type": "Feature"
    },
    {
      "geometry": {
        "coordinates": [
          11.541333063789148,
          3.922314004967066
        ],
        "type": "Point"
      },
      "properties": {
        "charger_bus_voltage_v": 650.0,
        "charger_contact_count": 8,
        "charger_efficiency": 0.98,
        "charger_max_current_a": 3300.0,
        "charger_max_kw": 2000.0,
        "grid_export_kw": 2000.0,
        "grid_import_kw": 2000.0,
        "line": "line-1",
        "pv_nameplate_kw": 300.0,
        "station": "line-1-0709-1062-s010039",
        "storage_capacity_kwh": 2000.0,
        "storage_initial_soc": 0.5,
        "storage_max_charge_kw": 2000.0,
        "storage_max_discharge_kw": 2000.0,
        "storage_module_kwh": 500.0,
        "tier": "standard"
      },
      "type": "Feature"
    },
    {
      "geometry": {
        "coordinates": [
          11.53034829495043,
          3.909176474822733
        ],
        "type": "Point"
      },
      "properties": {
        "charger_bus_voltage_v": 650.0,
        "charger_contact_count": 8,
        "charger_efficiency": 0.98,
        "charger_max_current_a": 3300.0,
        "charger_max_kw": 2000.0,
        "grid_export_kw": 2000.0,
        "grid_import_kw": 2000.0,
        "line": "line-1",
        "pv_nameplate_kw": 300.0,
        "station": "line-1-0782-1001-s012157",
        "storage_capacity_kwh": 2000.0,
        "storage_initial_soc": 0.5,
        "storage_max_charge_kw": 2000.0,
        "storage_max_discharge_kw": 2000.0,
        "storage_module_kwh": 500.0,
        "tier": "standard"
      },
      "type": "Feature"
    },
    {
      "geometry": {
        "coordinates": [
          11.51972368246708,
          3.8963988770111215
        ],
        "type": "Point"
      },
      "properties": {
        "charger_bus_voltage_v": 650.0,
        "charger_contact_count": 8,
        "charger_efficiency": 0.98,
        "charger_max_current_a": 3300.0,
        "charger_max_kw": 2000.0,
        "grid_export_kw": 2400.0,
        "grid_import_kw": 2400.0,
        "line": "line-1",
        "pv_nameplate_kw": 300.0,
        "station": "line-1-0853-0942-s014253",
        "storage_capacity_kwh": 2000.0,
        "storage_initial_soc": 0.5,
        "storage_max_charge_kw": 2000.0,
        "storage_max_discharge_kw": 2000.0,
        "storage_module_kwh": 500.0,
        "tier": "interchange"
      },
      "type": "Feature"
    },
    {
      "geometry": {
        "coordinates": [
          11.512700633537408,
          3.8883003995248893
        ],
        "type": "Point"
      },
      "properties": {
        "charger_bus_voltage_v": 650.0,
        "charger_contact_count": 8,
        "charger_efficiency": 0.98,
        "charger_max_current_a": 3300.0,
        "charger_max_kw": 2000.0,
        "grid_export_kw": 2400.0,
        "grid_import_kw": 2400.0,
        "line": "line-1",
        "pv_nameplate_kw": 300.0,
        "station": "line-1-0898-0903-s015593",
        "storage_capacity_kwh": 2000.0,
        "storage_initial_soc": 0.5,
        "storage_max_charge_kw": 2000.0,
        "storage_max_discharge_kw": 2000.0,
        "storage_module_kwh": 500.0,
        "tier": "interchange"
      },
      "type": "Feature"
    },
    {
      "geometry": {
        "coordinates": [
          11.498474457500379,
          3.8712036137206205
        ],
        "type": "Point"
      },
      "properties": {
        "charger_bus_voltage_v": 650.0,
        "charger_contact_count": 8,
        "charger_efficiency": 0.98,
        "charger_max_current_a": 3300.0,
        "charger_max_kw": 2000.0,
        "grid_export_kw": 2400.0,
        "grid_import_kw": 2400.0,
        "line": "line-1",
        "pv_nameplate_kw": 300.0,
        "station": "line-1-0993-0824-s018370",
        "storage_capacity_kwh": 2000.0,
        "storage_initial_soc": 0.5,
        "storage_max_charge_kw": 2000.0,
        "storage_max_discharge_kw": 2000.0,
        "storage_module_kwh": 500.0,
        "tier": "interchange"
      },
      "type": "Feature"
    },
    {
      "geometry": {
        "coordinates": [
          11.481186952442725,
          3.850687470755498
        ],
        "type": "Point"
      },
      "properties": {
        "charger_bus_voltage_v": 650.0,
        "charger_contact_count": 8,
        "charger_efficiency": 0.98,
        "charger_max_current_a": 3300.0,
        "charger_max_kw": 2000.0,
        "grid_export_kw": 2400.0,
        "grid_import_kw": 2400.0,
        "line": "line-1",
        "pv_nameplate_kw": 300.0,
        "station": "line-1-1107-0728-s021692",
        "storage_capacity_kwh": 2000.0,
        "storage_initial_soc": 0.5,
        "storage_max_charge_kw": 2000.0,
        "storage_max_discharge_kw": 2000.0,
        "storage_module_kwh": 500.0,
        "tier": "interchange"
      },
      "type": "Feature"
    },
    {
      "geometry": {
        "coordinates": [
          11.405013883282432,
          3.7513461469243783
        ],
        "type": "Point"
      },
      "properties": {
        "charger_bus_voltage_v": 650.0,
        "charger_contact_count": 8,
        "charger_efficiency": 0.98,
        "charger_max_current_a": 3300.0,
        "charger_max_kw": 2000.0,
        "grid_export_kw": 3200.0,
        "grid_import_kw": 3200.0,
        "line": "line-1",
        "pv_nameplate_kw": 300.0,
        "station": "line-1-1659-0305-s038666",
        "storage_capacity_kwh": 2000.0,
        "storage_initial_soc": 0.6,
        "storage_max_charge_kw": 2000.0,
        "storage_max_discharge_kw": 2000.0,
        "storage_module_kwh": 500.0,
        "tier": "terminal"
      },
      "type": "Feature"
    },
    {
      "geometry": {
        "coordinates": [
          11.616425663883337,
          3.800296944174495
        ],
        "type": "Point"
      },
      "properties": {
        "charger_bus_voltage_v": 650.0,
        "charger_contact_count": 8,
        "charger_efficiency": 0.98,
        "charger_max_current_a": 3300.0,
        "charger_max_kw": 2000.0,
        "grid_export_kw": 3200.0,
        "grid_import_kw": 3200.0,
        "line": "line-2",
        "pv_nameplate_kw": 300.0,
        "station": "line-2-1387-1479-s000000",
        "storage_capacity_kwh": 2000.0,
        "storage_initial_soc": 0.6,
        "storage_max_charge_kw": 2000.0,
        "storage_max_discharge_kw": 2000.0,
        "storage_module_kwh": 500.0,
        "tier": "terminal"
      },
      "type": "Feature"
    },
    {
      "geometry": {
        "coordinates": [
          11.576988542970561,
          3.8391696361084113
        ],
        "type": "Point"
      },
      "properties": {
        "charger_bus_voltage_v": 650.0,
        "charger_contact_count": 8,
        "charger_efficiency": 0.98,
        "charger_max_current_a": 3300.0,
        "charger_max_kw": 2000.0,
        "grid_export_kw": 2000.0,
        "grid_import_kw": 2000.0,
        "line": "line-2",
        "pv_nameplate_kw": 300.0,
        "station": "line-2-1171-1260-s007001",
        "storage_capacity_kwh": 2000.0,
        "storage_initial_soc": 0.5,
        "storage_max_charge_kw": 2000.0,
        "storage_max_discharge_kw": 2000.0,
        "storage_module_kwh": 500.0,
        "tier": "standard"
      },
      "type": "Feature"
    },
    {
      "geometry": {
        "coordinates": [
          11.56492330506574,
          3.851047403088219
        ],
        "type": "Point"
      },
      "properties": {
        "charger_bus_voltage_v": 650.0,
        "charger_contact_count": 8,
        "charger_efficiency": 0.98,
        "charger_max_current_a": 3300.0,
        "charger_max_kw": 2000.0,
        "grid_export_kw": 2000.0,
        "grid_import_kw": 2000.0,
        "line": "line-2",
        "pv_nameplate_kw": 300.0,
        "station": "line-2-1105-1193-s008970",
        "storage_capacity_kwh": 2000.0,
        "storage_initial_soc": 0.5,
        "storage_max_charge_kw": 2000.0,
        "storage_max_discharge_kw": 2000.0,
        "storage_module_kwh": 500.0,
        "tier": "standard"
      },
      "type": "Feature"
    },
    {
      "geometry": {
        "coordinates": [
          11.553578379871654,
          3.862385271568945
        ],
        "type": "Point"
      },
      "properties": {
        "charger_bus_voltage_v": 650.0,
        "charger_contact_count": 8,
        "charger_efficiency": 0.98,
        "charger_max_current_a": 3300.0,
        "charger_max_kw": 2000.0,
        "grid_export_kw": 2400.0,
        "grid_import_kw": 2400.0,
        "line": "line-2",
        "pv_nameplate_kw": 300.0,
        "station": "line-2-1042-1130-s010939",
        "storage_capacity_kwh": 2000.0,
        "storage_initial_soc": 0.5,
        "storage_max_charge_kw": 2000.0,
        "storage_max_discharge_kw": 2000.0,
        "storage_module_kwh": 500.0,
        "tier": "interchange"
      },
      "type": "Feature"
    },
    {
      "geometry": {
        "coordinates": [
          11.55015689449566,
          3.8658046287297987
        ],
        "type": "Point"
      },
      "properties": {
        "charger_bus_voltage_v": 650.0,
        "charger_contact_count": 8,
        "charger_efficiency": 0.98,
        "charger_max_current_a": 3300.0,
        "charger_max_kw": 2000.0,
        "grid_export_kw": 2400.0,
        "grid_import_kw": 2400.0,
        "line": "line-2",
        "pv_nameplate_kw": 300.0,
        "station": "line-2-1023-1111-s011570",
        "storage_capacity_kwh": 2000.0,
        "storage_initial_soc": 0.5,
        "storage_max_charge_kw": 2000.0,
        "storage_max_discharge_kw": 2000.0,
        "storage_module_kwh": 500.0,
        "tier": "interchange"
      },
      "type": "Feature"
    },
    {
      "geometry": {
        "coordinates": [
          11.533229545793372,
          3.8825414822013458
        ],
        "type": "Point"
      },
      "properties": {
        "charger_bus_voltage_v": 650.0,
        "charger_contact_count": 8,
        "charger_efficiency": 0.98,
        "charger_max_current_a": 3300.0,
        "charger_max_kw": 2000.0,
        "grid_export_kw": 2400.0,
        "grid_import_kw": 2400.0,
        "line": "line-2",
        "pv_nameplate_kw": 300.0,
        "station": "line-2-0930-1017-s014666",
        "storage_capacity_kwh": 2000.0,
        "storage_initial_soc": 0.5,
        "storage_max_charge_kw": 2000.0,
        "storage_max_discharge_kw": 2000.0,
        "storage_module_kwh": 500.0,
        "tier": "interchange"
      },
      "type": "Feature"
    },
    {
      "geometry": {
        "coordinates": [
          11.519543604289396,
          3.896218910844761
        ],
        "type": "Point"
      },
      "properties": {
        "charger_bus_voltage_v": 650.0,
        "charger_contact_count": 8,
        "charger_efficiency": 0.98,
        "charger_max_current_a": 3300.0,
        "charger_max_kw": 2000.0,
        "grid_export_kw": 2400.0,
        "grid_import_kw": 2400.0,
        "line": "line-2",
        "pv_nameplate_kw": 300.0,
        "station": "line-2-0854-0941-s016956",
        "storage_capacity_kwh": 2000.0,
        "storage_initial_soc": 0.5,
        "storage_max_charge_kw": 2000.0,
        "storage_max_discharge_kw": 2000.0,
        "storage_module_kwh": 500.0,
        "tier": "interchange"
      },
      "type": "Feature"
    },
    {
      "geometry": {
        "coordinates": [
          11.504417037363948,
          3.911336068819062
        ],
        "type": "Point"
      },
      "properties": {
        "charger_bus_voltage_v": 650.0,
        "charger_contact_count": 8,
        "charger_efficiency": 0.98,
        "charger_max_current_a": 3300.0,
        "charger_max_kw": 2000.0,
        "grid_export_kw": 2000.0,
        "grid_import_kw": 2000.0,
        "line": "line-2",
        "pv_nameplate_kw": 300.0,
        "station": "line-2-0770-0857-s019625",
        "storage_capacity_kwh": 2000.0,
        "storage_initial_soc": 0.5,
        "storage_max_charge_kw": 2000.0,
        "storage_max_discharge_kw": 2000.0,
        "storage_module_kwh": 500.0,
        "tier": "standard"
      },
      "type": "Feature"
    },
    {
      "geometry": {
        "coordinates": [
          11.470742418137057,
          3.9448097757621565
        ],
        "type": "Point"
      },
      "properties": {
        "charger_bus_voltage_v": 650.0,
        "charger_contact_count": 8,
        "charger_efficiency": 0.98,
        "charger_max_current_a": 3300.0,
        "charger_max_kw": 2000.0,
        "grid_export_kw": 2400.0,
        "grid_import_kw": 2400.0,
        "line": "line-2",
        "pv_nameplate_kw": 300.0,
        "station": "line-2-0584-0670-s025506",
        "storage_capacity_kwh": 2000.0,
        "storage_initial_soc": 0.5,
        "storage_max_charge_kw": 2000.0,
        "storage_max_discharge_kw": 2000.0,
        "storage_module_kwh": 500.0,
        "tier": "interchange"
      },
      "type": "Feature"
    },
    {
      "geometry": {
        "coordinates": [
          11.369538482278703,
          4.032993197278912
        ],
        "type": "Point"
      },
      "properties": {
        "charger_bus_voltage_v": 650.0,
        "charger_contact_count": 8,
        "charger_efficiency": 0.98,
        "charger_max_current_a": 3300.0,
        "charger_max_kw": 2000.0,
        "grid_export_kw": 12000.0,
        "grid_import_kw": 12000.0,
        "line": "line-2",
        "pv_nameplate_kw": 5000.0,
        "station": "line-2-0094-0108-s043625",
        "storage_capacity_kwh": 40000.0,
        "storage_initial_soc": 0.6,
        "storage_max_charge_kw": 10000.0,
        "storage_max_discharge_kw": 10000.0,
        "storage_module_kwh": 500.0,
        "tier": "depot-main"
      },
      "type": "Feature"
    },
    {
      "geometry": {
        "coordinates": [
          11.666127240924094,
          3.854466760249073
        ],
        "type": "Point"
      },
      "properties": {
        "charger_bus_voltage_v": 650.0,
        "charger_contact_count": 8,
        "charger_efficiency": 0.98,
        "charger_max_current_a": 3300.0,
        "charger_max_kw": 2000.0,
        "grid_export_kw": 12000.0,
        "grid_import_kw": 12000.0,
        "line": "line-3",
        "pv_nameplate_kw": 5000.0,
        "station": "line-3-1086-1755-s000000",
        "storage_capacity_kwh": 40000.0,
        "storage_initial_soc": 0.6,
        "storage_max_charge_kw": 10000.0,
        "storage_max_discharge_kw": 10000.0,
        "storage_module_kwh": 500.0,
        "tier": "depot-main"
      },
      "type": "Feature"
    },
    {
      "geometry": {
        "coordinates": [
          11.595536595272003,
          3.8652647302307166
        ],
        "type": "Point"
      },
      "properties": {
        "charger_bus_voltage_v": 650.0,
        "charger_contact_count": 8,
        "charger_efficiency": 0.98,
        "charger_max_current_a": 3300.0,
        "charger_max_kw": 2000.0,
        "grid_export_kw": 2000.0,
        "grid_import_kw": 2000.0,
        "line": "line-3",
        "pv_nameplate_kw": 300.0,
        "station": "line-3-1026-1363-s010880",
        "storage_capacity_kwh": 2000.0,
        "storage_initial_soc": 0.5,
        "storage_max_charge_kw": 2000.0,
        "storage_max_discharge_kw": 2000.0,
        "storage_module_kwh": 500.0,
        "tier": "standard"
      },
      "type": "Feature"
    },
    {
      "geometry": {
        "coordinates": [
          11.564383070532688,
          3.8739031062160314
        ],
        "type": "Point"
      },
      "properties": {
        "charger_bus_voltage_v": 650.0,
        "charger_contact_count": 8,
        "charger_efficiency": 0.98,
        "charger_max_current_a": 3300.0,
        "charger_max_kw": 2000.0,
        "grid_export_kw": 2400.0,
        "grid_import_kw": 2400.0,
        "line": "line-3",
        "pv_nameplate_kw": 300.0,
        "station": "line-3-0978-1190-s014737",
        "storage_capacity_kwh": 2000.0,
        "storage_initial_soc": 0.5,
        "storage_max_charge_kw": 2000.0,
        "storage_max_discharge_kw": 2000.0,
        "storage_module_kwh": 500.0,
        "tier": "interchange"
      },
      "type": "Feature"
    },
    {
      "geometry": {
        "coordinates": [
          11.549616659962608,
          3.8780423280423277
        ],
        "type": "Point"
      },
      "properties": {
        "charger_bus_voltage_v": 650.0,
        "charger_contact_count": 8,
        "charger_efficiency": 0.98,
        "charger_max_current_a": 3300.0,
        "charger_max_kw": 2000.0,
        "grid_export_kw": 2400.0,
        "grid_import_kw": 2400.0,
        "line": "line-3",
        "pv_nameplate_kw": 300.0,
        "station": "line-3-0955-1108-s016591",
        "storage_capacity_kwh": 2000.0,
        "storage_initial_soc": 0.5,
        "storage_max_charge_kw": 2000.0,
        "storage_max_discharge_kw": 2000.0,
        "storage_module_kwh": 500.0,
        "tier": "major"
      },
      "type": "Feature"
    },
    {
      "geometry": {
        "coordinates": [
          11.533229545793372,
          3.8825414822013458
        ],
        "type": "Point"
      },
      "properties": {
        "charger_bus_voltage_v": 650.0,
        "charger_contact_count": 8,
        "charger_efficiency": 0.98,
        "charger_max_current_a": 3300.0,
        "charger_max_kw": 2000.0,
        "grid_export_kw": 2400.0,
        "grid_import_kw": 2400.0,
        "line": "line-3",
        "pv_nameplate_kw": 300.0,
        "station": "line-3-0930-1017-s018630",
        "storage_capacity_kwh": 2000.0,
        "storage_initial_soc": 0.5,
        "storage_max_charge_kw": 2000.0,
        "storage_max_discharge_kw": 2000.0,
        "storage_module_kwh": 500.0,
        "tier": "interchange"
      },
      "type": "Feature"
    },
    {
      "geometry": {
        "coordinates": [
          11.512700633537408,
          3.8883003995248893
        ],
        "type": "Point"
      },
      "properties": {
        "charger_bus_voltage_v": 650.0,
        "charger_contact_count": 8,
        "charger_efficiency": 0.98,
        "charger_max_current_a": 3300.0,
        "charger_max_kw": 2000.0,
        "grid_export_kw": 2400.0,
        "grid_import_kw": 2400.0,
        "line": "line-3",
        "pv_nameplate_kw": 300.0,
        "station": "line-3-0898-0903-s021199",
        "storage_capacity_kwh": 2000.0,
        "storage_initial_soc": 0.5,
        "storage_max_charge_kw": 2000.0,
        "storage_max_discharge_kw": 2000.0,
        "storage_module_kwh": 500.0,
        "tier": "interchange"
      },
      "type": "Feature"
    },
    {
      "geometry": {
        "coordinates": [
          11.501175630165637,
          3.8915397905193823
        ],
        "type": "Point"
      },
      "properties": {
        "charger_bus_voltage_v": 650.0,
        "charger_contact_count": 8,
        "charger_efficiency": 0.98,
        "charger_max_current_a": 3300.0,
        "charger_max_kw": 2000.0,
        "grid_export_kw": 2000.0,
        "grid_import_kw": 2000.0,
        "line": "line-3",
        "pv_nameplate_kw": 300.0,
        "station": "line-3-0880-0839-s022628",
        "storage_capacity_kwh": 2000.0,
        "storage_initial_soc": 0.5,
        "storage_max_charge_kw": 2000.0,
        "storage_max_discharge_kw": 2000.0,
        "storage_module_kwh": 500.0,
        "tier": "standard"
      },
      "type": "Feature"
    },
    {
      "geometry": {
        "coordinates": [
          11.471462730847794,
          3.899638268005615
        ],
        "type": "Point"
      },
      "properties": {
        "charger_bus_voltage_v": 650.0,
        "charger_contact_count": 8,
        "charger_efficiency": 0.98,
        "charger_max_current_a": 3300.0,
        "charger_max_kw": 2000.0,
        "grid_export_kw": 2000.0,
        "grid_import_kw": 2000.0,
        "line": "line-3",
        "pv_nameplate_kw": 300.0,
        "station": "line-3-0835-0674-s026312",
        "storage_capacity_kwh": 2000.0,
        "storage_initial_soc": 0.5,
        "storage_max_charge_kw": 2000.0,
        "storage_max_discharge_kw": 2000.0,
        "storage_module_kwh": 500.0,
        "tier": "standard"
      },
      "type": "Feature"
    },
    {
      "geometry": {
        "coordinates": [
          11.445531473261312,
          3.907376813159126
        ],
        "type": "Point"
      },
      "properties": {
        "charger_bus_voltage_v": 650.0,
        "charger_contact_count": 8,
        "charger_efficiency": 0.98,
        "charger_max_current_a": 3300.0,
        "charger_max_kw": 2000.0,
        "grid_export_kw": 3200.0,
        "grid_import_kw": 3200.0,
        "line": "line-3",
        "pv_nameplate_kw": 300.0,
        "station": "line-3-0792-0530-s030017",
        "storage_capacity_kwh": 2000.0,
        "storage_initial_soc": 0.6,
        "storage_max_charge_kw": 2000.0,
        "storage_max_discharge_kw": 2000.0,
        "storage_module_kwh": 500.0,
        "tier": "terminal"
      },
      "type": "Feature"
    },
    {
      "geometry": {
        "coordinates": [
          11.585632295499389,
          3.8620253392362236
        ],
        "type": "Point"
      },
      "properties": {
        "charger_bus_voltage_v": 650.0,
        "charger_contact_count": 8,
        "charger_efficiency": 0.98,
        "charger_max_current_a": 3300.0,
        "charger_max_kw": 2000.0,
        "grid_export_kw": 12000.0,
        "grid_import_kw": 12000.0,
        "line": "line-4",
        "pv_nameplate_kw": 5000.0,
        "station": "line-4-1044-1308-s000000",
        "storage_capacity_kwh": 40000.0,
        "storage_initial_soc": 0.6,
        "storage_max_charge_kw": 10000.0,
        "storage_max_discharge_kw": 10000.0,
        "storage_module_kwh": 500.0,
        "tier": "depot-main"
      },
      "type": "Feature"
    },
    {
      "geometry": {
        "coordinates": [
          11.556099474359229,
          3.8650847640643557
        ],
        "type": "Point"
      },
      "properties": {
        "charger_bus_voltage_v": 650.0,
        "charger_contact_count": 8,
        "charger_efficiency": 0.98,
        "charger_max_current_a": 3300.0,
        "charger_max_kw": 2000.0,
        "grid_export_kw": 2400.0,
        "grid_import_kw": 2400.0,
        "line": "line-4",
        "pv_nameplate_kw": 300.0,
        "station": "line-4-1027-1144-s003421",
        "storage_capacity_kwh": 2000.0,
        "storage_initial_soc": 0.5,
        "storage_max_charge_kw": 2000.0,
        "storage_max_discharge_kw": 2000.0,
        "storage_module_kwh": 500.0,
        "tier": "interchange"
      },
      "type": "Feature"
    },
    {
      "geometry": {
        "coordinates": [
          11.55015689449566,
          3.8658046287297987
        ],
        "type": "Point"
      },
      "properties": {
        "charger_bus_voltage_v": 650.0,
        "charger_contact_count": 8,
        "charger_efficiency": 0.98,
        "charger_max_current_a": 3300.0,
        "charger_max_kw": 2000.0,
        "grid_export_kw": 2400.0,
        "grid_import_kw": 2400.0,
        "line": "line-4",
        "pv_nameplate_kw": 300.0,
        "station": "line-4-1023-1111-s004114",
        "storage_capacity_kwh": 2000.0,
        "storage_initial_soc": 0.5,
        "storage_max_charge_kw": 2000.0,
        "storage_max_discharge_kw": 2000.0,
        "storage_module_kwh": 500.0,
        "tier": "interchange"
      },
      "type": "Feature"
    },
    {
      "geometry": {
        "coordinates": [
          11.533229545793372,
          3.867604290393406
        ],
        "type": "Point"
      },
      "properties": {
        "charger_bus_voltage_v": 650.0,
        "charger_contact_count": 8,
        "charger_efficiency": 0.98,
        "charger_max_current_a": 3300.0,
        "charger_max_kw": 2000.0,
        "grid_export_kw": 2400.0,
        "grid_import_kw": 2400.0,
        "line": "line-4",
        "pv_nameplate_kw": 300.0,
        "station": "line-4-1013-1017-s006077",
        "storage_capacity_kwh": 2000.0,
        "storage_initial_soc": 0.5,
        "storage_max_charge_kw": 2000.0,
        "storage_max_discharge_kw": 2000.0,
        "storage_module_kwh": 500.0,
        "tier": "major"
      },
      "type": "Feature"
    },
    {
      "geometry": {
        "coordinates": [
          11.515942040735718,
          3.869403952057013
        ],
        "type": "Point"
      },
      "properties": {
        "charger_bus_voltage_v": 650.0,
        "charger_contact_count": 8,
        "charger_efficiency": 0.98,
        "charger_max_current_a": 3300.0,
        "charger_max_kw": 2000.0,
        "grid_export_kw": 2400.0,
        "grid_import_kw": 2400.0,
        "line": "line-4",
        "pv_nameplate_kw": 300.0,
        "station": "line-4-1003-0921-s008080",
        "storage_capacity_kwh": 2000.0,
        "storage_initial_soc": 0.5,
        "storage_max_charge_kw": 2000.0,
        "storage_max_discharge_kw": 2000.0,
        "storage_module_kwh": 500.0,
        "tier": "major"
      },
      "type": "Feature"
    },
    {
      "geometry": {
        "coordinates": [
          11.498474457500379,
          3.8712036137206205
        ],
        "type": "Point"
      },
      "properties": {
        "charger_bus_voltage_v": 650.0,
        "charger_contact_count": 8,
        "charger_efficiency": 0.98,
        "charger_max_current_a": 3300.0,
        "charger_max_kw": 2000.0,
        "grid_export_kw": 2400.0,
        "grid_import_kw": 2400.0,
        "line": "line-4",
        "pv_nameplate_kw": 300.0,
        "station": "line-4-0993-0824-s010102",
        "storage_capacity_kwh": 2000.0,
        "storage_initial_soc": 0.5,
        "storage_max_charge_kw": 2000.0,
        "storage_max_discharge_kw": 2000.0,
        "storage_module_kwh": 500.0,
        "tier": "interchange"
      },
      "type": "Feature"
    },
    {
      "geometry": {
        "coordinates": [
          11.481367030620408,
          3.8730032753842276
        ],
        "type": "Point"
      },
      "properties": {
        "charger_bus_voltage_v": 650.0,
        "charger_contact_count": 8,
        "charger_efficiency": 0.98,
        "charger_max_current_a": 3300.0,
        "charger_max_kw": 2000.0,
        "grid_export_kw": 2000.0,
        "grid_import_kw": 2000.0,
        "line": "line-4",
        "pv_nameplate_kw": 300.0,
        "station": "line-4-0983-0729-s012085",
        "storage_capacity_kwh": 2000.0,
        "storage_initial_soc": 0.5,
        "storage_max_charge_kw": 2000.0,
        "storage_max_discharge_kw": 2000.0,
        "storage_module_kwh": 500.0,
        "tier": "standard"
      },
      "type": "Feature"
    },
    {
      "geometry": {
        "coordinates": [
          11.46209866560823,
          3.8751628693805564
        ],
        "type": "Point"
      },
      "properties": {
        "charger_bus_voltage_v": 650.0,
        "charger_contact_count": 8,
        "charger_efficiency": 0.98,
        "charger_max_current_a": 3300.0,
        "charger_max_kw": 2000.0,
        "grid_export_kw": 2000.0,
        "grid_import_kw": 2000.0,
        "line": "line-4",
        "pv_nameplate_kw": 300.0,
        "station": "line-4-0971-0622-s014325",
        "storage_capacity_kwh": 2000.0,
        "storage_initial_soc": 0.5,
        "storage_max_charge_kw": 2000.0,
        "storage_max_discharge_kw": 2000.0,
        "storage_module_kwh": 500.0,
        "tier": "standard"
      },
      "type": "Feature"
    },
    {
      "geometry": {
        "coordinates": [
          11.446251785972047,
          3.8769625310441636
        ],
        "type": "Point"
      },
      "properties": {
        "charger_bus_voltage_v": 650.0,
        "charger_contact_count": 8,
        "charger_efficiency": 0.98,
        "charger_max_current_a": 3300.0,
        "charger_max_kw": 2000.0,
        "grid_export_kw": 3200.0,
        "grid_import_kw": 3200.0,
        "line": "line-4",
        "pv_nameplate_kw": 300.0,
        "station": "line-4-0961-0534-s016577",
        "storage_capacity_kwh": 2000.0,
        "storage_initial_soc": 0.6,
        "storage_max_charge_kw": 2000.0,
        "storage_max_discharge_kw": 2000.0,
        "storage_module_kwh": 500.0,
        "tier": "terminal"
      },
      "type": "Feature"
    },
    {
      "geometry": {
        "coordinates": [
          11.525126027797597,
          3.973244430047151
        ],
        "type": "Point"
      },
      "properties": {
        "charger_bus_voltage_v": 650.0,
        "charger_contact_count": 8,
        "charger_efficiency": 0.98,
        "charger_max_current_a": 3300.0,
        "charger_max_kw": 2000.0,
        "grid_export_kw": 2000.0,
        "grid_import_kw": 2000.0,
        "line": "line-5",
        "pv_nameplate_kw": 300.0,
        "station": "line-5-0426-0972-s007011",
        "storage_capacity_kwh": 2000.0,
        "storage_initial_soc": 0.5,
        "storage_max_charge_kw": 2000.0,
        "storage_max_discharge_kw": 2000.0,
        "storage_module_kwh": 500.0,
        "tier": "standard"
      },
      "type": "Feature"
    },
    {
      "geometry": {
        "coordinates": [
          11.55249791080555,
          3.963346290897311
        ],
        "type": "Point"
      },
      "properties": {
        "charger_bus_voltage_v": 650.0,
        "charger_contact_count": 8,
        "charger_efficiency": 0.98,
        "charger_max_current_a": 3300.0,
        "charger_max_kw": 2000.0,
        "grid_export_kw": 2000.0,
        "grid_import_kw": 2000.0,
        "line": "line-5",
        "pv_nameplate_kw": 300.0,
        "station": "line-5-0481-1124-s010570",
        "storage_capacity_kwh": 2000.0,
        "storage_initial_soc": 0.5,
        "storage_max_charge_kw": 2000.0,
        "storage_max_discharge_kw": 2000.0,
        "storage_module_kwh": 500.0,
        "tier": "standard"
      },
      "type": "Feature"
    },
    {
      "geometry": {
        "coordinates": [
          11.578609246569716,
          3.9664057157254433
        ],
        "type": "Point"
      },
      "properties": {
        "charger_bus_voltage_v": 650.0,
        "charger_contact_count": 8,
        "charger_efficiency": 0.98,
        "charger_max_current_a": 3300.0,
        "charger_max_kw": 2000.0,
        "grid_export_kw": 2400.0,
        "grid_import_kw": 2400.0,
        "line": "line-5",
        "pv_nameplate_kw": 300.0,
        "station": "line-5-0464-1269-s014114",
        "storage_capacity_kwh": 2000.0,
        "storage_initial_soc": 0.5,
        "storage_max_charge_kw": 2000.0,
        "storage_max_discharge_kw": 2000.0,
        "storage_module_kwh": 500.0,
        "tier": "interchange"
      },
      "type": "Feature"
    },
    {
      "geometry": {
        "coordinates": [
          11.57230651035078,
          3.9174549184753262
        ],
        "type": "Point"
      },
      "properties": {
        "charger_bus_voltage_v": 650.0,
        "charger_contact_count": 8,
        "charger_efficiency": 0.98,
        "charger_max_current_a": 3300.0,
        "charger_max_kw": 2000.0,
        "grid_export_kw": 2000.0,
        "grid_import_kw": 2000.0,
        "line": "line-5",
        "pv_nameplate_kw": 300.0,
        "station": "line-5-0736-1234-s021039",
        "storage_capacity_kwh": 2000.0,
        "storage_initial_soc": 0.5,
        "storage_max_charge_kw": 2000.0,
        "storage_max_discharge_kw": 2000.0,
        "storage_module_kwh": 500.0,
        "tier": "standard"
      },
      "type": "Feature"
    },
    {
      "geometry": {
        "coordinates": [
          11.567804555908682,
          3.892259655184825
        ],
        "type": "Point"
      },
      "properties": {
        "charger_bus_voltage_v": 650.0,
        "charger_contact_count": 8,
        "charger_efficiency": 0.98,
        "charger_max_current_a": 3300.0,
        "charger_max_kw": 2000.0,
        "grid_export_kw": 2000.0,
        "grid_import_kw": 2000.0,
        "line": "line-5",
        "pv_nameplate_kw": 300.0,
        "station": "line-5-0876-1209-s024046",
        "storage_capacity_kwh": 2000.0,
        "storage_initial_soc": 0.5,
        "storage_max_charge_kw": 2000.0,
        "storage_max_discharge_kw": 2000.0,
        "storage_module_kwh": 500.0,
        "tier": "standard"
      },
      "type": "Feature"
    },
    {
      "geometry": {
        "coordinates": [
          11.564383070532688,
          3.8739031062160314
        ],
        "type": "Point"
      },
      "properties": {
        "charger_bus_voltage_v": 650.0,
        "charger_contact_count": 8,
        "charger_efficiency": 0.98,
        "charger_max_current_a": 3300.0,
        "charger_max_kw": 2000.0,
        "grid_export_kw": 2400.0,
        "grid_import_kw": 2400.0,
        "line": "line-5",
        "pv_nameplate_kw": 300.0,
        "station": "line-5-0978-1190-s026255",
        "storage_capacity_kwh": 2000.0,
        "storage_initial_soc": 0.5,
        "storage_max_charge_kw": 2000.0,
        "storage_max_discharge_kw": 2000.0,
        "storage_module_kwh": 500.0,
        "tier": "interchange"
      },
      "type": "Feature"
    },
    {
      "geometry": {
        "coordinates": [
          11.556099474359229,
          3.8650847640643557
        ],
        "type": "Point"
      },
      "properties": {
        "charger_bus_voltage_v": 650.0,
        "charger_contact_count": 8,
        "charger_efficiency": 0.98,
        "charger_max_current_a": 3300.0,
        "charger_max_kw": 2000.0,
        "grid_export_kw": 2400.0,
        "grid_import_kw": 2400.0,
        "line": "line-5",
        "pv_nameplate_kw": 300.0,
        "station": "line-5-1027-1144-s027815",
        "storage_capacity_kwh": 2000.0,
        "storage_initial_soc": 0.5,
        "storage_max_charge_kw": 2000.0,
        "storage_max_discharge_kw": 2000.0,
        "storage_module_kwh": 500.0,
        "tier": "interchange"
      },
      "type": "Feature"
    },
    {
      "geometry": {
        "coordinates": [
          11.553578379871654,
          3.862385271568945
        ],
        "type": "Point"
      },
      "properties": {
        "charger_bus_voltage_v": 650.0,
        "charger_contact_count": 8,
        "charger_efficiency": 0.98,
        "charger_max_current_a": 3300.0,
        "charger_max_kw": 2000.0,
        "grid_export_kw": 2400.0,
        "grid_import_kw": 2400.0,
        "line": "line-5",
        "pv_nameplate_kw": 300.0,
        "station": "line-5-1042-1130-s028278",
        "storage_capacity_kwh": 2000.0,
        "storage_initial_soc": 0.5,
        "storage_max_charge_kw": 2000.0,
        "storage_max_discharge_kw": 2000.0,
        "storage_module_kwh": 500.0,
        "tier": "interchange"
      },
      "type": "Feature"
    },
    {
      "geometry": {
        "coordinates": [
          11.550517050851028,
          3.847808012093726
        ],
        "type": "Point"
      },
      "properties": {
        "charger_bus_voltage_v": 650.0,
        "charger_contact_count": 8,
        "charger_efficiency": 0.98,
        "charger_max_current_a": 3300.0,
        "charger_max_kw": 2000.0,
        "grid_export_kw": 2000.0,
        "grid_import_kw": 2000.0,
        "line": "line-5",
        "pv_nameplate_kw": 300.0,
        "station": "line-5-1123-1113-s030051",
        "storage_capacity_kwh": 2000.0,
        "storage_initial_soc": 0.5,
        "storage_max_charge_kw": 2000.0,
        "storage_max_discharge_kw": 2000.0,
        "storage_module_kwh": 500.0,
        "tier": "standard"
      },
      "type": "Feature"
    },
    {
      "geometry": {
        "coordinates": [
          11.516842431624138,
          3.8218928841377817
        ],
        "type": "Point"
      },
      "properties": {
        "charger_bus_voltage_v": 650.0,
        "charger_contact_count": 8,
        "charger_efficiency": 0.98,
        "charger_max_current_a": 3300.0,
        "charger_max_kw": 2000.0,
        "grid_export_kw": 2000.0,
        "grid_import_kw": 2000.0,
        "line": "line-5",
        "pv_nameplate_kw": 300.0,
        "station": "line-5-1267-0926-s036864",
        "storage_capacity_kwh": 2000.0,
        "storage_initial_soc": 0.5,
        "storage_max_charge_kw": 2000.0,
        "storage_max_discharge_kw": 2000.0,
        "storage_module_kwh": 500.0,
        "tier": "standard"
      },
      "type": "Feature"
    },
    {
      "geometry": {
        "coordinates": [
          11.501175630165637,
          3.8397095346074934
        ],
        "type": "Point"
      },
      "properties": {
        "charger_bus_voltage_v": 650.0,
        "charger_contact_count": 8,
        "charger_efficiency": 0.98,
        "charger_max_current_a": 3300.0,
        "charger_max_kw": 2000.0,
        "grid_export_kw": 2000.0,
        "grid_import_kw": 2000.0,
        "line": "line-5",
        "pv_nameplate_kw": 300.0,
        "station": "line-5-1168-0839-s039881",
        "storage_capacity_kwh": 2000.0,
        "storage_initial_soc": 0.5,
        "storage_max_charge_kw": 2000.0,
        "storage_max_discharge_kw": 2000.0,
        "storage_module_kwh": 500.0,
        "tier": "standard"
      },
      "type": "Feature"
    },
    {
      "geometry": {
        "coordinates": [
          11.481186952442725,
          3.850687470755498
        ],
        "type": "Point"
      },
      "properties": {
        "charger_bus_voltage_v": 650.0,
        "charger_contact_count": 8,
        "charger_efficiency": 0.98,
        "charger_max_current_a": 3300.0,
        "charger_max_kw": 2000.0,
        "grid_export_kw": 2400.0,
        "grid_import_kw": 2400.0,
        "line": "line-5",
        "pv_nameplate_kw": 300.0,
        "station": "line-5-1107-0728-s042723",
        "storage_capacity_kwh": 2000.0,
        "storage_initial_soc": 0.5,
        "storage_max_charge_kw": 2000.0,
        "storage_max_discharge_kw": 2000.0,
        "storage_module_kwh": 500.0,
        "tier": "interchange"
      },
      "type": "Feature"
    },
    {
      "geometry": {
        "coordinates": [
          11.453815069434771,
          3.865624662563438
        ],
        "type": "Point"
      },
      "properties": {
        "charger_bus_voltage_v": 650.0,
        "charger_contact_count": 8,
        "charger_efficiency": 0.98,
        "charger_max_current_a": 3300.0,
        "charger_max_kw": 2000.0,
        "grid_export_kw": 2000.0,
        "grid_import_kw": 2000.0,
        "line": "line-5",
        "pv_nameplate_kw": 300.0,
        "station": "line-5-1024-0576-s046580",
        "storage_capacity_kwh": 2000.0,
        "storage_initial_soc": 0.5,
        "storage_max_charge_kw": 2000.0,
        "storage_max_discharge_kw": 2000.0,
        "storage_module_kwh": 500.0,
        "tier": "standard"
      },
      "type": "Feature"
    },
    {
      "geometry": {
        "coordinates": [
          11.446251785972047,
          3.8767825648778027
        ],
        "type": "Point"
      },
      "properties": {
        "charger_bus_voltage_v": 650.0,
        "charger_contact_count": 8,
        "charger_efficiency": 0.98,
        "charger_max_current_a": 3300.0,
        "charger_max_kw": 2000.0,
        "grid_export_kw": 2400.0,
        "grid_import_kw": 2400.0,
        "line": "line-5",
        "pv_nameplate_kw": 300.0,
        "station": "line-5-0962-0534-s048343",
        "storage_capacity_kwh": 2000.0,
        "storage_initial_soc": 0.5,
        "storage_max_charge_kw": 2000.0,
        "storage_max_discharge_kw": 2000.0,
        "storage_module_kwh": 500.0,
        "tier": "interchange"
      },
      "type": "Feature"
    },
    {
      "geometry": {
        "coordinates": [
          11.445531473261312,
          3.906836914660044
        ],
        "type": "Point"
      },
      "properties": {
        "charger_bus_voltage_v": 650.0,
        "charger_contact_count": 8,
        "charger_efficiency": 0.98,
        "charger_max_current_a": 3300.0,
        "charger_max_kw": 2000.0,
        "grid_export_kw": 2400.0,
        "grid_import_kw": 2400.0,
        "line": "line-5",
        "pv_nameplate_kw": 300.0,
        "station": "line-5-0795-0530-s051717",
        "storage_capacity_kwh": 2000.0,
        "storage_initial_soc": 0.5,
        "storage_max_charge_kw": 2000.0,
        "storage_max_discharge_kw": 2000.0,
        "storage_module_kwh": 500.0,
        "tier": "interchange"
      },
      "type": "Feature"
    },
    {
      "geometry": {
        "coordinates": [
          11.445531473261312,
          3.9075567793254864
        ],
        "type": "Point"
      },
      "properties": {
        "charger_bus_voltage_v": 650.0,
        "charger_contact_count": 8,
        "charger_efficiency": 0.98,
        "charger_max_current_a": 3300.0,
        "charger_max_kw": 2000.0,
        "grid_export_kw": 2400.0,
        "grid_import_kw": 2400.0,
        "line": "line-5",
        "pv_nameplate_kw": 300.0,
        "station": "line-5-0791-0530-s051797",
        "storage_capacity_kwh": 2000.0,
        "storage_initial_soc": 0.5,
        "storage_max_charge_kw": 2000.0,
        "storage_max_discharge_kw": 2000.0,
        "storage_module_kwh": 500.0,
        "tier": "interchange"
      },
      "type": "Feature"
    },
    {
      "geometry": {
        "coordinates": [
          11.45147405312488,
          3.9206943094698197
        ],
        "type": "Point"
      },
      "properties": {
        "charger_bus_voltage_v": 650.0,
        "charger_contact_count": 8,
        "charger_efficiency": 0.98,
        "charger_max_current_a": 3300.0,
        "charger_max_kw": 2000.0,
        "grid_export_kw": 2000.0,
        "grid_import_kw": 2000.0,
        "line": "line-5",
        "pv_nameplate_kw": 300.0,
        "station": "line-5-0718-0563-s053593",
        "storage_capacity_kwh": 2000.0,
        "storage_initial_soc": 0.5,
        "storage_max_charge_kw": 2000.0,
        "storage_max_discharge_kw": 2000.0,
        "storage_module_kwh": 500.0,
        "tier": "standard"
      },
      "type": "Feature"
    },
    {
      "geometry": {
        "coordinates": [
          11.470742418137057,
          3.9448097757621565
        ],
        "type": "Point"
      },
      "properties": {
        "charger_bus_voltage_v": 650.0,
        "charger_contact_count": 8,
        "charger_efficiency": 0.98,
        "charger_max_current_a": 3300.0,
        "charger_max_kw": 2000.0,
        "grid_export_kw": 2400.0,
        "grid_import_kw": 2400.0,
        "line": "line-5",
        "pv_nameplate_kw": 300.0,
        "station": "line-5-0584-0670-s057435",
        "storage_capacity_kwh": 2000.0,
        "storage_initial_soc": 0.5,
        "storage_max_charge_kw": 2000.0,
        "storage_max_discharge_kw": 2000.0,
        "storage_module_kwh": 500.0,
        "tier": "interchange"
      },
      "type": "Feature"
    },
    {
      "geometry": {
        "coordinates": [
          11.474704138046103,
          3.9899812835186985
        ],
        "type": "Point"
      },
      "properties": {
        "charger_bus_voltage_v": 650.0,
        "charger_contact_count": 8,
        "charger_efficiency": 0.98,
        "charger_max_current_a": 3300.0,
        "charger_max_kw": 2000.0,
        "grid_export_kw": 12000.0,
        "grid_import_kw": 12000.0,
        "line": "line-5",
        "pv_nameplate_kw": 5000.0,
        "station": "line-5-0333-0692-s000000",
        "storage_capacity_kwh": 40000.0,
        "storage_initial_soc": 0.6,
        "storage_max_charge_kw": 10000.0,
        "storage_max_discharge_kw": 10000.0,
        "storage_module_kwh": 500.0,
        "tier": "depot-main"
      },
      "type": "Feature"
    }
  ],
  "type": "FeatureCollection"
}
