{
  "features": [
    {
      "geometry": {
        "coordinates": [
          26.17129983166778,
          -29.094349649065975
        ],
        "type": "Point"
      },
      "properties": {
        "id": "interchange-000",
        "junction_group": 0,
        "line_count": 3,
        "lines": "line-1,line-2,line-3",
        "platform_count": 3,
        "platforms": "line-1-0601-0608-s019200,line-2-0601-0608-s011956,line-3-0601-0608-s010044"
      },
      "type": "Feature"
    },
    {
      "geometry": {
        "coordinates": [
          26.17839259122824,
          -29.07995235575712
        ],
        "type": "Point"
      },
      "properties": {
        "id": "interchange-001",
        "junction_group": 1,
        "line_count": 2,
        "lines": "line-1,line-3",
        "platform_count": 2,
        "platforms": "line-1-0521-0642-s021277,line-3-0521-0643-s008032"
      },
      "type": "Feature"
    }
  ],
  "type": "FeatureCollection"
}
