{
  "features": [
    {
      "geometry": {
        "coordinates": [
          47.13512757463798,
          31.84804916675665
        ],
        "type": "Point"
      },
      "properties": {
        "id": "interchange-000",
        "junction_group": 0,
        "line_count": 3,
        "lines": "line-1,line-2,line-3",
        "platform_count": 4,
        "platforms": "line-1-0541-0417-s005853,line-2-0541-0417-s004352,line-2-0592-0386-s003017,line-3-0590-0388-s006073"
      },
      "type": "Feature"
    },
    {
      "geometry": {
        "coordinates": [
          47.1467599140295,
          31.840130655436777
        ],
        "type": "Point"
      },
      "properties": {
        "id": "interchange-001",
        "junction_group": 1,
        "line_count": 2,
        "lines": "line-1,line-3",
        "platform_count": 2,
        "platforms": "line-1-0610-0457-s007623,line-3-0610-0457-s004516"
      },
      "type": "Feature"
    }
  ],
  "type": "FeatureCollection"
}
