{
  "features": [
    {
      "geometry": {
        "coordinates": [
          32.50192109866493,
          0.09468453370766297
        ],
        "type": "Point"
      },
      "properties": {
        "id": "interchange-000",
        "junction_group": 0,
        "line_count": 2,
        "lines": "line-1,line-3",
        "platform_count": 2,
        "platforms": "line-1-0129-0594-s003229,line-3-0138-0583-s009667"
      },
      "type": "Feature"
    },
    {
      "geometry": {
        "coordinates": [
          32.46539575170639,
          0.052554454162617434
        ],
        "type": "Point"
      },
      "properties": {
        "id": "interchange-001",
        "junction_group": 1,
        "line_count": 3,
        "lines": "line-1,line-2,line-3",
        "platform_count": 5,
        "platforms": "line-1-0354-0386-s011309,line-2-0354-0386-s003585,line-2-0382-0373-s002894,line-3-0354-0386-s002233,line-3-0394-0395-s001212"
      },
      "type": "Feature"
    }
  ],
  "type": "FeatureCollection"
}
