{
  "features": [
    {
      "geometry": {
        "coordinates": [
          32.52177378355878,
          0.11151137026239068
        ],
        "type": "Point"
      },
      "properties": {
        "anchor_kind": "amenity:hospital",
        "anchor_name": "Kitala Health Center 2",
        "archetype": "terminal",
        "chainage_m": 0.0,
        "corridor_offset_m": 0.0,
        "id": "line-1-0040-0699-s000000",
        "junction_group": null,
        "line": "line-1",
        "platform_length_m": 49.0
      },
      "type": "Feature"
    },
    {
      "geometry": {
        "coordinates": [
          32.51009573362122,
          0.10341289277615809
        ],
        "type": "Point"
      },
      "properties": {
        "anchor_kind": null,
        "anchor_name": null,
        "archetype": "standard",
        "chainage_m": 2005.7,
        "corridor_offset_m": 0.122,
        "id": "line-1-0085-0634-s002006",
        "junction_group": null,
        "line": "line-1",
        "platform_length_m": 49.0
      },
      "type": "Feature"
    },
    {
      "geometry": {
        "coordinates": [
          32.50290924135195,
          0.09549438145628622
        ],
        "type": "Point"
      },
      "properties": {
        "anchor_kind": "amenity:university",
        "anchor_name": "School of Business Administration",
        "archetype": "interchange-elevated",
        "chainage_m": 3228.8,
        "corridor_offset_m": 6.094,
        "id": "line-1-0129-0594-s003229",
        "junction_group": 0,
        "line": "line-1",
        "platform_length_m": 49.0
      },
      "type": "Feature"
    },
    {
      "geometry": {
        "coordinates": [
          32.487637945279765,
          0.0848763776410035
        ],
        "type": "Point"
      },
      "properties": {
        "anchor_kind": null,
        "anchor_name": null,
        "archetype": "standard",
        "chainage_m": 5628.4,
        "corridor_offset_m": 2.501,
        "id": "line-1-0188-0509-s005628",
        "junction_group": null,
        "line": "line-1",
        "platform_length_m": 49.0
      },
      "type": "Feature"
    },
    {
      "geometry": {
        "coordinates": [
          32.48099043993069,
          0.07479827232480293
        ],
        "type": "Point"
      },
      "properties": {
        "anchor_kind": "amenity:hospital",
        "anchor_name": "Entebbe Hospital Isolation (TB) Ward",
        "archetype": "standard",
        "chainage_m": 7637.5,
        "corridor_offset_m": 1.417,
        "id": "line-1-0244-0472-s007638",
        "junction_group": null,
        "line": "line-1",
        "platform_length_m": 49.0
      },
      "type": "Feature"
    },
    {
      "geometry": {
        "coordinates": [
          32.47613955764894,
          0.06885938883489903
        ],
        "type": "Point"
      },
      "properties": {
        "anchor_kind": "amenity:marketplace",
        "anchor_name": "Entebbe Central Market",
        "archetype": "major",
        "chainage_m": 8852.9,
        "corridor_offset_m": 0.786,
        "id": "line-1-0277-0445-s008853",
        "junction_group": null,
        "line": "line-1",
        "platform_length_m": 49.0
      },
      "type": "Feature"
    },
    {
      "geometry": {
        "coordinates": [
          32.47182766228738,
          0.06022101284958428
        ],
        "type": "Point"
      },
      "properties": {
        "anchor_kind": "amenity:hospital",
        "anchor_name": "Entebbe Hospital Private Patient Services",
        "archetype": "major",
        "chainage_m": 10063.5,
        "corridor_offset_m": 0.21,
        "id": "line-1-0325-0421-s010063",
        "junction_group": null,
        "line": "line-1",
        "platform_length_m": 49.0
      },
      "type": "Feature"
    },
    {
      "geometry": {
        "coordinates": [
          32.46553948155177,
          0.05500199402512328
        ],
        "type": "Point"
      },
      "properties": {
        "anchor_kind": null,
        "anchor_name": null,
        "archetype": "interchange-elevated",
        "chainage_m": 11309.2,
        "corridor_offset_m": 8.83,
        "id": "line-1-0354-0386-s011309",
        "junction_group": 1,
        "line": "line-1",
        "platform_length_m": 49.0
      },
      "type": "Feature"
    },
    {
      "geometry": {
        "coordinates": [
          32.45511906776134,
          0.05284240002879459
        ],
        "type": "Point"
      },
      "properties": {
        "anchor_kind": null,
        "anchor_name": null,
        "archetype": "standard",
        "chainage_m": 12696.3,
        "corridor_offset_m": 0.431,
        "id": "line-1-0366-0328-s012696",
        "junction_group": null,
        "line": "line-1",
        "platform_length_m": 49.0
      },
      "type": "Feature"
    },
    {
      "geometry": {
        "coordinates": [
          32.44290203090359,
          0.053562264694237485
        ],
        "type": "Point"
      },
      "properties": {
        "anchor_kind": null,
        "anchor_name": null,
        "archetype": "standard",
        "chainage_m": 14089.4,
        "corridor_offset_m": 0.307,
        "id": "line-1-0362-0260-s014089",
        "junction_group": null,
        "line": "line-1",
        "platform_length_m": 49.0
      },
      "type": "Feature"
    },
    {
      "geometry": {
        "coordinates": [
          32.43553587632759,
          0.06058094518230573
        ],
        "type": "Point"
      },
      "properties": {
        "anchor_kind": "aeroway:aerodrome",
        "anchor_name": null,
        "archetype": "terminal",
        "chainage_m": 15490.2,
        "corridor_offset_m": 0.0,
        "id": "line-1-0323-0219-s015490",
        "junction_group": null,
        "line": "line-1",
        "platform_length_m": 49.0
      },
      "type": "Feature"
    },
    {
      "geometry": {
        "coordinates": [
          32.44559696550456,
          0.04006480221718317
        ],
        "type": "Point"
      },
      "properties": {
        "anchor_kind": "aeroway:aerodrome",
        "anchor_name": "Entebbe International Airport",
        "archetype": "terminal",
        "chainage_m": 0.0,
        "corridor_offset_m": 0.0,
        "id": "line-2-0437-0275-s000000",
        "junction_group": null,
        "line": "line-2",
        "platform_length_m": 49.0
      },
      "type": "Feature"
    },
    {
      "geometry": {
        "coordinates": [
          32.45493940545461,
          0.04600368570708707
        ],
        "type": "Point"
      },
      "properties": {
        "anchor_kind": "aeroway:aerodrome",
        "anchor_name": "Uganda Air Force",
        "archetype": "major",
        "chainage_m": 1689.9,
        "corridor_offset_m": 5.37,
        "id": "line-2-0404-0327-s001690",
        "junction_group": null,
        "line": "line-2",
        "platform_length_m": 49.0
      },
      "type": "Feature"
    },
    {
      "geometry": {
        "coordinates": [
          32.46320387156426,
          0.049962941367023006
        ],
        "type": "Point"
      },
      "properties": {
        "anchor_kind": "amenity:hospital",
        "anchor_name": null,
        "archetype": "interchange-elevated",
        "chainage_m": 2893.6,
        "corridor_offset_m": 9.392,
        "id": "line-2-0382-0373-s002894",
        "junction_group": 1,
        "line": "line-2",
        "platform_length_m": 49.0
      },
      "type": "Feature"
    },
    {
      "geometry": {
        "coordinates": [
          32.46553948155177,
          0.05500199402512328
        ],
        "type": "Point"
      },
      "properties": {
        "anchor_kind": null,
        "anchor_name": null,
        "archetype": "interchange-elevated",
        "chainage_m": 3584.8,
        "corridor_offset_m": 5.623,
        "id": "line-2-0354-0386-s003585",
        "junction_group": 1,
        "line": "line-2",
        "platform_length_m": 49.0
      },
      "type": "Feature"
    },
    {
      "geometry": {
        "coordinates": [
          32.46086826157675,
          0.06508009934132383
        ],
        "type": "Point"
      },
      "properties": {
        "anchor_kind": null,
        "anchor_name": null,
        "archetype": "major",
        "chainage_m": 5311.3,
        "corridor_offset_m": 7.751,
        "id": "line-2-0298-0360-s005311",
        "junction_group": null,
        "line": "line-2",
        "platform_length_m": 49.0
      },
      "type": "Feature"
    },
    {
      "geometry": {
        "coordinates": [
          32.45781400236231,
          0.07407840765936005
        ],
        "type": "Point"
      },
      "properties": {
        "anchor_kind": "amenity:hospital",
        "anchor_name": null,
        "archetype": "major",
        "chainage_m": 6530.1,
        "corridor_offset_m": 4.422,
        "id": "line-2-0248-0343-s006530",
        "junction_group": null,
        "line": "line-2",
        "platform_length_m": 49.0
      },
      "type": "Feature"
    },
    {
      "geometry": {
        "coordinates": [
          32.44954953625266,
          0.07875752798473887
        ],
        "type": "Point"
      },
      "properties": {
        "anchor_kind": "amenity:marketplace",
        "anchor_name": "Nakiwogo Market",
        "archetype": "terminal",
        "chainage_m": 7888.9,
        "corridor_offset_m": 0.0,
        "id": "line-2-0222-0297-s007889",
        "junction_group": null,
        "line": "line-2",
        "platform_length_m": 49.0
      },
      "type": "Feature"
    },
    {
      "geometry": {
        "coordinates": [
          32.465359819245045,
          0.04078466688262607
        ],
        "type": "Point"
      },
      "properties": {
        "anchor_kind": "place:suburb",
        "anchor_name": "Bugonga",
        "archetype": "terminal",
        "chainage_m": 0.0,
        "corridor_offset_m": 0.0,
        "id": "line-3-0433-0385-s000000",
        "junction_group": null,
        "line": "line-3",
        "platform_length_m": 49.0
      },
      "type": "Feature"
    },
    {
      "geometry": {
        "coordinates": [
          32.46715644231236,
          0.04780334737069432
        ],
        "type": "Point"
      },
      "properties": {
        "anchor_kind": "amenity:hospital",
        "anchor_name": null,
        "archetype": "interchange-elevated",
        "chainage_m": 1212.0,
        "corridor_offset_m": 1.325,
        "id": "line-3-0394-0395-s001212",
        "junction_group": 1,
        "line": "line-3",
        "platform_length_m": 49.0
      },
      "type": "Feature"
    },
    {
      "geometry": {
        "coordinates": [
          32.46553948155177,
          0.05500199402512328
        ],
        "type": "Point"
      },
      "properties": {
        "anchor_kind": null,
        "anchor_name": null,
        "archetype": "interchange-elevated",
        "chainage_m": 2232.8,
        "corridor_offset_m": 0.965,
        "id": "line-3-0354-0386-s002233",
        "junction_group": 1,
        "line": "line-3",
        "platform_length_m": 49.0
      },
      "type": "Feature"
    },
    {
      "geometry": {
        "coordinates": [
          32.47865482994318,
          0.05788145268689487
        ],
        "type": "Point"
      },
      "properties": {
        "anchor_kind": null,
        "anchor_name": null,
        "archetype": "standard",
        "chainage_m": 4444.8,
        "corridor_offset_m": 2.801,
        "id": "line-3-0338-0459-s004445",
        "junction_group": null,
        "line": "line-3",
        "platform_length_m": 49.0
      },
      "type": "Feature"
    },
    {
      "geometry": {
        "coordinates": [
          32.49033287988074,
          0.07101898283122773
        ],
        "type": "Point"
      },
      "properties": {
        "anchor_kind": null,
        "anchor_name": null,
        "archetype": "standard",
        "chainage_m": 6459.8,
        "corridor_offset_m": 4.929,
        "id": "line-3-0265-0524-s006460",
        "junction_group": null,
        "line": "line-3",
        "platform_length_m": 49.0
      },
      "type": "Feature"
    },
    {
      "geometry": {
        "coordinates": [
          32.494465112935565,
          0.08703597163733218
        ],
        "type": "Point"
      },
      "properties": {
        "anchor_kind": null,
        "anchor_name": null,
        "archetype": "standard",
        "chainage_m": 8463.5,
        "corridor_offset_m": 6.17,
        "id": "line-3-0176-0547-s008463",
        "junction_group": null,
        "line": "line-3",
        "platform_length_m": 49.0
      },
      "type": "Feature"
    },
    {
      "geometry": {
        "coordinates": [
          32.50093295597791,
          0.09387468595903971
        ],
        "type": "Point"
      },
      "properties": {
        "anchor_kind": "amenity:marketplace",
        "anchor_name": "Abaita Ababiri Main market",
        "archetype": "interchange-elevated",
        "chainage_m": 9667.1,
        "corridor_offset_m": 6.153,
        "id": "line-3-0138-0583-s009667",
        "junction_group": 0,
        "line": "line-3",
        "platform_length_m": 49.0
      },
      "type": "Feature"
    },
    {
      "geometry": {
        "coordinates": [
          32.5088380974741,
          0.0924349566281539
        ],
        "type": "Point"
      },
      "properties": {
        "anchor_kind": "amenity:university",
        "anchor_name": "School of Sciences",
        "archetype": "major",
        "chainage_m": 10875.7,
        "corridor_offset_m": 4.983,
        "id": "line-3-0146-0627-s010876",
        "junction_group": null,
        "line": "line-3",
        "platform_length_m": 49.0
      },
      "type": "Feature"
    },
    {
      "geometry": {
        "coordinates": [
          32.53111622350882,
          0.11871001691681964
        ],
        "type": "Point"
      },
      "properties": {
        "anchor_kind": "amenity:university",
        "anchor_name": "University of Kisubi (UniK)",
        "archetype": "depot-terminal",
        "chainage_m": 15542.1,
        "corridor_offset_m": 0.0,
        "id": "line-3-0000-0751-s015542",
        "junction_group": null,
        "line": "line-3",
        "platform_length_m": 49.0
      },
      "type": "Feature"
    }
  ],
  "type": "FeatureCollection"
}
