{
  "features": [
    {
      "geometry": {
        "coordinates": [
          65.78569984,
          31.66564172
        ],
        "type": "Point"
      },
      "properties": {
        "chainage_m": 0.0,
        "civil_class": "elevated",
        "investigation_flags": [
          "fine-soil-plasticity-and-shrink-swell-tests",
          "granular-density-and-groundwater-tests"
        ],
        "lat": 31.66564172,
        "line": "line-1",
        "lon": 65.78569984,
        "sample_id": "segment:line-1-civil-001:0000",
        "scope_id": "line-1-civil-001",
        "scope_type": "civil_segment"
      },
      "type": "Feature"
    },
    {
      "geometry": {
        "coordinates": [
          65.77693146,
          31.66222237
        ],
        "type": "Point"
      },
      "properties": {
        "chainage_m": 999.838,
        "civil_class": "elevated",
        "investigation_flags": [
          "fine-soil-plasticity-and-shrink-swell-tests",
          "granular-density-and-groundwater-tests"
        ],
        "lat": 31.66222237,
        "line": "line-1",
        "lon": 65.77693146,
        "sample_id": "segment:line-1-civil-001:0001",
        "scope_id": "line-1-civil-001",
        "scope_type": "civil_segment"
      },
      "type": "Feature"
    },
    {
      "geometry": {
        "coordinates": [
          65.76818649,
          31.65878323
        ],
        "type": "Point"
      },
      "properties": {
        "chainage_m": 1999.676,
        "civil_class": "elevated",
        "investigation_flags": [
          "fine-soil-plasticity-and-shrink-swell-tests",
          "granular-density-and-groundwater-tests",
          "silt-moisture-frost-and-erosion-review"
        ],
        "lat": 31.65878323,
        "line": "line-1",
        "lon": 65.76818649,
        "sample_id": "segment:line-1-civil-001:0002",
        "scope_id": "line-1-civil-001",
        "scope_type": "civil_segment"
      },
      "type": "Feature"
    },
    {
      "geometry": {
        "coordinates": [
          65.75967273,
          31.65532089
        ],
        "type": "Point"
      },
      "properties": {
        "chainage_m": 2999.514,
        "civil_class": "elevated",
        "investigation_flags": [
          "fine-soil-plasticity-and-shrink-swell-tests",
          "granular-density-and-groundwater-tests"
        ],
        "lat": 31.65532089,
        "line": "line-1",
        "lon": 65.75967273,
        "sample_id": "segment:line-1-civil-001:0003",
        "scope_id": "line-1-civil-001",
        "scope_type": "civil_segment"
      },
      "type": "Feature"
    },
    {
      "geometry": {
        "coordinates": [
          65.75093915,
          31.65183125
        ],
        "type": "Point"
      },
      "properties": {
        "chainage_m": 3999.352,
        "civil_class": "elevated",
        "investigation_flags": [
          "fine-soil-plasticity-and-shrink-swell-tests",
          "granular-density-and-groundwater-tests"
        ],
        "lat": 31.65183125,
        "line": "line-1",
        "lon": 65.75093915,
        "sample_id": "segment:line-1-civil-001:0004",
        "scope_id": "line-1-civil-001",
        "scope_type": "civil_segment"
      },
      "type": "Feature"
    },
    {
      "geometry": {
        "coordinates": [
          65.74233586,
          31.64845274
        ],
        "type": "Point"
      },
      "properties": {
        "chainage_m": 4999.191,
        "civil_class": "elevated",
        "investigation_flags": [
          "granular-density-and-groundwater-tests"
        ],
        "lat": 31.64845274,
        "line": "line-1",
        "lon": 65.74233586,
        "sample_id": "segment:line-1-civil-001:0005",
        "scope_id": "line-1-civil-001",
        "scope_type": "civil_segment"
      },
      "type": "Feature"
    },
    {
      "geometry": {
        "coordinates": [
          65.73377748,
          31.64511252
        ],
        "type": "Point"
      },
      "properties": {
        "chainage_m": 5999.029,
        "civil_class": "elevated",
        "investigation_flags": [
          "fine-soil-plasticity-and-shrink-swell-tests",
          "granular-density-and-groundwater-tests"
        ],
        "lat": 31.64511252,
        "line": "line-1",
        "lon": 65.73377748,
        "sample_id": "segment:line-1-civil-001:0006",
        "scope_id": "line-1-civil-001",
        "scope_type": "civil_segment"
      },
      "type": "Feature"
    },
    {
      "geometry": {
        "coordinates": [
          65.72514162,
          31.64169447
        ],
        "type": "Point"
      },
      "properties": {
        "chainage_m": 6998.867,
        "civil_class": "elevated",
        "investigation_flags": [
          "fine-soil-plasticity-and-shrink-swell-tests",
          "granular-density-and-groundwater-tests"
        ],
        "lat": 31.64169447,
        "line": "line-1",
        "lon": 65.72514162,
        "sample_id": "segment:line-1-civil-001:0007",
        "scope_id": "line-1-civil-001",
        "scope_type": "civil_segment"
      },
      "type": "Feature"
    },
    {
      "geometry": {
        "coordinates": [
          65.72496675,
          31.64152626
        ],
        "type": "Point"
      },
      "properties": {
        "chainage_m": 7034.1,
        "civil_class": "elevated",
        "investigation_flags": [
          "fine-soil-plasticity-and-shrink-swell-tests",
          "granular-density-and-groundwater-tests"
        ],
        "lat": 31.64152626,
        "line": "line-1",
        "lon": 65.72496675,
        "sample_id": "segment:line-1-civil-001:0008",
        "scope_id": "line-1-civil-001",
        "scope_type": "civil_segment"
      },
      "type": "Feature"
    },
    {
      "geometry": {
        "coordinates": [
          65.71660827,
          31.63828687
        ],
        "type": "Point"
      },
      "properties": {
        "chainage_m": 7998.705,
        "civil_class": "elevated",
        "investigation_flags": [
          "fine-soil-plasticity-and-shrink-swell-tests",
          "granular-density-and-groundwater-tests"
        ],
        "lat": 31.63828687,
        "line": "line-1",
        "lon": 65.71660827,
        "sample_id": "segment:line-1-civil-001:0009",
        "scope_id": "line-1-civil-001",
        "scope_type": "civil_segment"
      },
      "type": "Feature"
    },
    {
      "geometry": {
        "coordinates": [
          65.70808894,
          31.63486751
        ],
        "type": "Point"
      },
      "properties": {
        "chainage_m": 8998.543,
        "civil_class": "elevated",
        "investigation_flags": [
          "fine-soil-plasticity-and-shrink-swell-tests",
          "granular-density-and-groundwater-tests"
        ],
        "lat": 31.63486751,
        "line": "line-1",
        "lon": 65.70808894,
        "sample_id": "segment:line-1-civil-001:0010",
        "scope_id": "line-1-civil-001",
        "scope_type": "civil_segment"
      },
      "type": "Feature"
    },
    {
      "geometry": {
        "coordinates": [
          65.69944648,
          31.63144815
        ],
        "type": "Point"
      },
      "properties": {
        "chainage_m": 9998.381,
        "civil_class": "elevated",
        "investigation_flags": [
          "fine-soil-plasticity-and-shrink-swell-tests",
          "granular-density-and-groundwater-tests"
        ],
        "lat": 31.63144815,
        "line": "line-1",
        "lon": 65.69944648,
        "sample_id": "segment:line-1-civil-001:0011",
        "scope_id": "line-1-civil-001",
        "scope_type": "civil_segment"
      },
      "type": "Feature"
    },
    {
      "geometry": {
        "coordinates": [
          65.69068088,
          31.62802879
        ],
        "type": "Point"
      },
      "properties": {
        "chainage_m": 10998.219,
        "civil_class": "elevated",
        "investigation_flags": [
          "fine-soil-plasticity-and-shrink-swell-tests",
          "granular-density-and-groundwater-tests"
        ],
        "lat": 31.62802879,
        "line": "line-1",
        "lon": 65.69068088,
        "sample_id": "segment:line-1-civil-001:0012",
        "scope_id": "line-1-civil-001",
        "scope_type": "civil_segment"
      },
      "type": "Feature"
    },
    {
      "geometry": {
        "coordinates": [
          65.68203897,
          31.62460944
        ],
        "type": "Point"
      },
      "properties": {
        "chainage_m": 11998.057,
        "civil_class": "elevated",
        "investigation_flags": [
          "fine-soil-plasticity-and-shrink-swell-tests",
          "granular-density-and-groundwater-tests"
        ],
        "lat": 31.62460944,
        "line": "line-1",
        "lon": 65.68203897,
        "sample_id": "segment:line-1-civil-001:0013",
        "scope_id": "line-1-civil-001",
        "scope_type": "civil_segment"
      },
      "type": "Feature"
    },
    {
      "geometry": {
        "coordinates": [
          65.67341141,
          31.62116094
        ],
        "type": "Point"
      },
      "properties": {
        "chainage_m": 12997.895,
        "civil_class": "elevated",
        "investigation_flags": [
          "fine-soil-plasticity-and-shrink-swell-tests",
          "granular-density-and-groundwater-tests"
        ],
        "lat": 31.62116094,
        "line": "line-1",
        "lon": 65.67341141,
        "sample_id": "segment:line-1-civil-001:0014",
        "scope_id": "line-1-civil-001",
        "scope_type": "civil_segment"
      },
      "type": "Feature"
    },
    {
      "geometry": {
        "coordinates": [
          65.66467978,
          31.61767297
        ],
        "type": "Point"
      },
      "properties": {
        "chainage_m": 13997.734,
        "civil_class": "elevated",
        "investigation_flags": [
          "fine-soil-plasticity-and-shrink-swell-tests",
          "silt-moisture-frost-and-erosion-review"
        ],
        "lat": 31.61767297,
        "line": "line-1",
        "lon": 65.66467978,
        "sample_id": "segment:line-1-civil-001:0015",
        "scope_id": "line-1-civil-001",
        "scope_type": "civil_segment"
      },
      "type": "Feature"
    },
    {
      "geometry": {
        "coordinates": [
          65.6639767,
          31.61759076
        ],
        "type": "Point"
      },
      "properties": {
        "chainage_m": 14068.2,
        "civil_class": "elevated",
        "investigation_flags": [
          "fine-soil-plasticity-and-shrink-swell-tests",
          "silt-moisture-frost-and-erosion-review"
        ],
        "lat": 31.61759076,
        "line": "line-1",
        "lon": 65.6639767,
        "sample_id": "segment:line-1-civil-001:0016",
        "scope_id": "line-1-civil-001",
        "scope_type": "civil_segment"
      },
      "type": "Feature"
    },
    {
      "geometry": {
        "coordinates": [
          65.6639767,
          31.61759076
        ],
        "type": "Point"
      },
      "properties": {
        "chainage_m": 14068.2,
        "civil_class": "at-grade",
        "investigation_flags": [
          "fine-soil-plasticity-and-shrink-swell-tests",
          "silt-moisture-frost-and-erosion-review"
        ],
        "lat": 31.61759076,
        "line": "line-1",
        "lon": 65.6639767,
        "sample_id": "segment:line-1-civil-002:0000",
        "scope_id": "line-1-civil-002",
        "scope_type": "civil_segment"
      },
      "type": "Feature"
    },
    {
      "geometry": {
        "coordinates": [
          65.65343743,
          31.61759076
        ],
        "type": "Point"
      },
      "properties": {
        "chainage_m": 15066.524,
        "civil_class": "at-grade",
        "investigation_flags": [
          "fine-soil-plasticity-and-shrink-swell-tests",
          "silt-moisture-frost-and-erosion-review"
        ],
        "lat": 31.61759076,
        "line": "line-1",
        "lon": 65.65343743,
        "sample_id": "segment:line-1-civil-002:0001",
        "scope_id": "line-1-civil-002",
        "scope_type": "civil_segment"
      },
      "type": "Feature"
    },
    {
      "geometry": {
        "coordinates": [
          65.64502948,
          31.61741079
        ],
        "type": "Point"
      },
      "properties": {
        "chainage_m": 15867.65,
        "civil_class": "at-grade",
        "investigation_flags": [
          "fine-soil-plasticity-and-shrink-swell-tests",
          "granular-density-and-groundwater-tests"
        ],
        "lat": 31.61741079,
        "line": "line-1",
        "lon": 65.64502948,
        "sample_id": "segment:line-1-civil-002:0002",
        "scope_id": "line-1-civil-002",
        "scope_type": "civil_segment"
      },
      "type": "Feature"
    },
    {
      "geometry": {
        "coordinates": [
          65.64294767,
          31.61741079
        ],
        "type": "Point"
      },
      "properties": {
        "chainage_m": 16064.848,
        "civil_class": "at-grade",
        "investigation_flags": [
          "fine-soil-plasticity-and-shrink-swell-tests",
          "granular-density-and-groundwater-tests"
        ],
        "lat": 31.61741079,
        "line": "line-1",
        "lon": 65.64294767,
        "sample_id": "segment:line-1-civil-002:0003",
        "scope_id": "line-1-civil-002",
        "scope_type": "civil_segment"
      },
      "type": "Feature"
    },
    {
      "geometry": {
        "coordinates": [
          65.63245794,
          31.61723082
        ],
        "type": "Point"
      },
      "properties": {
        "chainage_m": 17063.171,
        "civil_class": "at-grade",
        "investigation_flags": [
          "fine-soil-plasticity-and-shrink-swell-tests"
        ],
        "lat": 31.61723082,
        "line": "line-1",
        "lon": 65.63245794,
        "sample_id": "segment:line-1-civil-002:0004",
        "scope_id": "line-1-civil-002",
        "scope_type": "civil_segment"
      },
      "type": "Feature"
    },
    {
      "geometry": {
        "coordinates": [
          65.62639161,
          31.61705086
        ],
        "type": "Point"
      },
      "properties": {
        "chainage_m": 17667.1,
        "civil_class": "at-grade",
        "investigation_flags": [
          "fine-soil-plasticity-and-shrink-swell-tests",
          "granular-density-and-groundwater-tests"
        ],
        "lat": 31.61705086,
        "line": "line-1",
        "lon": 65.62639161,
        "sample_id": "segment:line-1-civil-002:0005",
        "scope_id": "line-1-civil-002",
        "scope_type": "civil_segment"
      },
      "type": "Feature"
    },
    {
      "geometry": {
        "coordinates": [
          65.79414001,
          31.59437512
        ],
        "type": "Point"
      },
      "properties": {
        "chainage_m": 0.0,
        "civil_class": "elevated",
        "investigation_flags": [
          "fine-soil-plasticity-and-shrink-swell-tests",
          "granular-density-and-groundwater-tests"
        ],
        "lat": 31.59437512,
        "line": "line-2",
        "lon": 65.79414001,
        "sample_id": "segment:line-2-civil-003:0000",
        "scope_id": "line-2-civil-003",
        "scope_type": "civil_segment"
      },
      "type": "Feature"
    },
    {
      "geometry": {
        "coordinates": [
          65.79142114,
          31.59741393
        ],
        "type": "Point"
      },
      "properties": {
        "chainage_m": 479.4,
        "civil_class": "elevated",
        "investigation_flags": [
          "fine-soil-plasticity-and-shrink-swell-tests",
          "granular-density-and-groundwater-tests"
        ],
        "lat": 31.59741393,
        "line": "line-2",
        "lon": 65.79142114,
        "sample_id": "segment:line-2-civil-003:0001",
        "scope_id": "line-2-civil-003",
        "scope_type": "civil_segment"
      },
      "type": "Feature"
    },
    {
      "geometry": {
        "coordinates": [
          65.7884429,
          31.60067743
        ],
        "type": "Point"
      },
      "properties": {
        "chainage_m": 958.8,
        "civil_class": "elevated",
        "investigation_flags": [
          "granular-density-and-groundwater-tests",
          "silt-moisture-frost-and-erosion-review"
        ],
        "lat": 31.60067743,
        "line": "line-2",
        "lon": 65.7884429,
        "sample_id": "segment:line-2-civil-003:0002",
        "scope_id": "line-2-civil-003",
        "scope_type": "civil_segment"
      },
      "type": "Feature"
    },
    {
      "geometry": {
        "coordinates": [
          65.7884429,
          31.60067743
        ],
        "type": "Point"
      },
      "properties": {
        "chainage_m": 958.8,
        "civil_class": "bridge",
        "investigation_flags": [
          "granular-density-and-groundwater-tests",
          "silt-moisture-frost-and-erosion-review"
        ],
        "lat": 31.60067743,
        "line": "line-2",
        "lon": 65.7884429,
        "sample_id": "segment:line-2-civil-004:0000",
        "scope_id": "line-2-civil-004",
        "scope_type": "civil_segment"
      },
      "type": "Feature"
    },
    {
      "geometry": {
        "coordinates": [
          65.7884429,
          31.6007674
        ],
        "type": "Point"
      },
      "properties": {
        "chainage_m": 968.8,
        "civil_class": "bridge",
        "investigation_flags": [
          "granular-density-and-groundwater-tests",
          "silt-moisture-frost-and-erosion-review"
        ],
        "lat": 31.6007674,
        "line": "line-2",
        "lon": 65.7884429,
        "sample_id": "segment:line-2-civil-004:0001",
        "scope_id": "line-2-civil-004",
        "scope_type": "civil_segment"
      },
      "type": "Feature"
    },
    {
      "geometry": {
        "coordinates": [
          65.78843886,
          31.6008539
        ],
        "type": "Point"
      },
      "properties": {
        "chainage_m": 978.8,
        "civil_class": "bridge",
        "investigation_flags": [
          "granular-density-and-groundwater-tests",
          "silt-moisture-frost-and-erosion-review"
        ],
        "lat": 31.6008539,
        "line": "line-2",
        "lon": 65.78843886,
        "sample_id": "segment:line-2-civil-004:0002",
        "scope_id": "line-2-civil-004",
        "scope_type": "civil_segment"
      },
      "type": "Feature"
    },
    {
      "geometry": {
        "coordinates": [
          65.78843886,
          31.6008539
        ],
        "type": "Point"
      },
      "properties": {
        "chainage_m": 978.8,
        "civil_class": "elevated",
        "investigation_flags": [
          "granular-density-and-groundwater-tests",
          "silt-moisture-frost-and-erosion-review"
        ],
        "lat": 31.6008539,
        "line": "line-2",
        "lon": 65.78843886,
        "sample_id": "segment:line-2-civil-005:0000",
        "scope_id": "line-2-civil-005",
        "scope_type": "civil_segment"
      },
      "type": "Feature"
    },
    {
      "geometry": {
        "coordinates": [
          65.78833321,
          31.6008539
        ],
        "type": "Point"
      },
      "properties": {
        "chainage_m": 988.8,
        "civil_class": "elevated",
        "investigation_flags": [
          "granular-density-and-groundwater-tests",
          "silt-moisture-frost-and-erosion-review"
        ],
        "lat": 31.6008539,
        "line": "line-2",
        "lon": 65.78833321,
        "sample_id": "segment:line-2-civil-005:0001",
        "scope_id": "line-2-civil-005",
        "scope_type": "civil_segment"
      },
      "type": "Feature"
    },
    {
      "geometry": {
        "coordinates": [
          65.78822882,
          31.60085652
        ],
        "type": "Point"
      },
      "properties": {
        "chainage_m": 998.8,
        "civil_class": "elevated",
        "investigation_flags": [
          "granular-density-and-groundwater-tests",
          "silt-moisture-frost-and-erosion-review"
        ],
        "lat": 31.60085652,
        "line": "line-2",
        "lon": 65.78822882,
        "sample_id": "segment:line-2-civil-005:0002",
        "scope_id": "line-2-civil-005",
        "scope_type": "civil_segment"
      },
      "type": "Feature"
    },
    {
      "geometry": {
        "coordinates": [
          65.78822882,
          31.60085652
        ],
        "type": "Point"
      },
      "properties": {
        "chainage_m": 998.8,
        "civil_class": "bridge",
        "investigation_flags": [
          "granular-density-and-groundwater-tests",
          "silt-moisture-frost-and-erosion-review"
        ],
        "lat": 31.60085652,
        "line": "line-2",
        "lon": 65.78822882,
        "sample_id": "segment:line-2-civil-006:0000",
        "scope_id": "line-2-civil-006",
        "scope_type": "civil_segment"
      },
      "type": "Feature"
    },
    {
      "geometry": {
        "coordinates": [
          65.78812321,
          31.6009466
        ],
        "type": "Point"
      },
      "properties": {
        "chainage_m": 1012.95,
        "civil_class": "bridge",
        "investigation_flags": [
          "granular-density-and-groundwater-tests",
          "silt-moisture-frost-and-erosion-review"
        ],
        "lat": 31.6009466,
        "line": "line-2",
        "lon": 65.78812321,
        "sample_id": "segment:line-2-civil-006:0001",
        "scope_id": "line-2-civil-006",
        "scope_type": "civil_segment"
      },
      "type": "Feature"
    },
    {
      "geometry": {
        "coordinates": [
          65.78802089,
          31.60103786
        ],
        "type": "Point"
      },
      "properties": {
        "chainage_m": 1027.1,
        "civil_class": "bridge",
        "investigation_flags": [
          "fine-soil-plasticity-and-shrink-swell-tests",
          "granular-density-and-groundwater-tests",
          "silt-moisture-frost-and-erosion-review"
        ],
        "lat": 31.60103786,
        "line": "line-2",
        "lon": 65.78802089,
        "sample_id": "segment:line-2-civil-006:0002",
        "scope_id": "line-2-civil-006",
        "scope_type": "civil_segment"
      },
      "type": "Feature"
    },
    {
      "geometry": {
        "coordinates": [
          65.78802089,
          31.60103786
        ],
        "type": "Point"
      },
      "properties": {
        "chainage_m": 1027.1,
        "civil_class": "elevated",
        "investigation_flags": [
          "fine-soil-plasticity-and-shrink-swell-tests",
          "granular-density-and-groundwater-tests",
          "silt-moisture-frost-and-erosion-review"
        ],
        "lat": 31.60103786,
        "line": "line-2",
        "lon": 65.78802089,
        "sample_id": "segment:line-2-civil-007:0000",
        "scope_id": "line-2-civil-007",
        "scope_type": "civil_segment"
      },
      "type": "Feature"
    },
    {
      "geometry": {
        "coordinates": [
          65.78253478,
          31.60715659
        ],
        "type": "Point"
      },
      "properties": {
        "chainage_m": 2027.672,
        "civil_class": "elevated",
        "investigation_flags": [
          "fine-soil-plasticity-and-shrink-swell-tests",
          "granular-density-and-groundwater-tests"
        ],
        "lat": 31.60715659,
        "line": "line-2",
        "lon": 65.78253478,
        "sample_id": "segment:line-2-civil-007:0001",
        "scope_id": "line-2-civil-007",
        "scope_type": "civil_segment"
      },
      "type": "Feature"
    },
    {
      "geometry": {
        "coordinates": [
          65.77675731,
          31.61370004
        ],
        "type": "Point"
      },
      "properties": {
        "chainage_m": 3028.244,
        "civil_class": "elevated",
        "investigation_flags": [
          "fine-soil-plasticity-and-shrink-swell-tests",
          "granular-density-and-groundwater-tests"
        ],
        "lat": 31.61370004,
        "line": "line-2",
        "lon": 65.77675731,
        "sample_id": "segment:line-2-civil-007:0002",
        "scope_id": "line-2-civil-007",
        "scope_type": "civil_segment"
      },
      "type": "Feature"
    },
    {
      "geometry": {
        "coordinates": [
          65.77098283,
          31.6202448
        ],
        "type": "Point"
      },
      "properties": {
        "chainage_m": 4028.815,
        "civil_class": "elevated",
        "investigation_flags": [
          "fine-soil-plasticity-and-shrink-swell-tests",
          "silt-moisture-frost-and-erosion-review"
        ],
        "lat": 31.6202448,
        "line": "line-2",
        "lon": 65.77098283,
        "sample_id": "segment:line-2-civil-007:0003",
        "scope_id": "line-2-civil-007",
        "scope_type": "civil_segment"
      },
      "type": "Feature"
    },
    {
      "geometry": {
        "coordinates": [
          65.76523243,
          31.62648159
        ],
        "type": "Point"
      },
      "properties": {
        "chainage_m": 5029.387,
        "civil_class": "elevated",
        "investigation_flags": [
          "fine-soil-plasticity-and-shrink-swell-tests",
          "granular-density-and-groundwater-tests"
        ],
        "lat": 31.62648159,
        "line": "line-2",
        "lon": 65.76523243,
        "sample_id": "segment:line-2-civil-007:0004",
        "scope_id": "line-2-civil-007",
        "scope_type": "civil_segment"
      },
      "type": "Feature"
    },
    {
      "geometry": {
        "coordinates": [
          65.75964114,
          31.63279762
        ],
        "type": "Point"
      },
      "properties": {
        "chainage_m": 6029.959,
        "civil_class": "elevated",
        "investigation_flags": [
          "fine-soil-plasticity-and-shrink-swell-tests",
          "granular-density-and-groundwater-tests",
          "silt-moisture-frost-and-erosion-review"
        ],
        "lat": 31.63279762,
        "line": "line-2",
        "lon": 65.75964114,
        "sample_id": "segment:line-2-civil-007:0005",
        "scope_id": "line-2-civil-007",
        "scope_type": "civil_segment"
      },
      "type": "Feature"
    },
    {
      "geometry": {
        "coordinates": [
          65.75389188,
          31.63914091
        ],
        "type": "Point"
      },
      "properties": {
        "chainage_m": 7030.531,
        "civil_class": "elevated",
        "investigation_flags": [
          "fine-soil-plasticity-and-shrink-swell-tests",
          "granular-density-and-groundwater-tests",
          "silt-moisture-frost-and-erosion-review"
        ],
        "lat": 31.63914091,
        "line": "line-2",
        "lon": 65.75389188,
        "sample_id": "segment:line-2-civil-007:0006",
        "scope_id": "line-2-civil-007",
        "scope_type": "civil_segment"
      },
      "type": "Feature"
    },
    {
      "geometry": {
        "coordinates": [
          65.75100761,
          31.64250074
        ],
        "type": "Point"
      },
      "properties": {
        "chainage_m": 7540.35,
        "civil_class": "elevated",
        "investigation_flags": [
          "fine-soil-plasticity-and-shrink-swell-tests",
          "granular-density-and-groundwater-tests",
          "silt-moisture-frost-and-erosion-review"
        ],
        "lat": 31.64250074,
        "line": "line-2",
        "lon": 65.75100761,
        "sample_id": "segment:line-2-civil-007:0007",
        "scope_id": "line-2-civil-007",
        "scope_type": "civil_segment"
      },
      "type": "Feature"
    },
    {
      "geometry": {
        "coordinates": [
          65.74829138,
          31.64553729
        ],
        "type": "Point"
      },
      "properties": {
        "chainage_m": 8031.102,
        "civil_class": "elevated",
        "investigation_flags": [
          "fine-soil-plasticity-and-shrink-swell-tests",
          "granular-density-and-groundwater-tests"
        ],
        "lat": 31.64553729,
        "line": "line-2",
        "lon": 65.74829138,
        "sample_id": "segment:line-2-civil-007:0008",
        "scope_id": "line-2-civil-007",
        "scope_type": "civil_segment"
      },
      "type": "Feature"
    },
    {
      "geometry": {
        "coordinates": [
          65.74265497,
          31.65194972
        ],
        "type": "Point"
      },
      "properties": {
        "chainage_m": 9031.674,
        "civil_class": "elevated",
        "investigation_flags": [
          "granular-density-and-groundwater-tests"
        ],
        "lat": 31.65194972,
        "line": "line-2",
        "lon": 65.74265497,
        "sample_id": "segment:line-2-civil-007:0009",
        "scope_id": "line-2-civil-007",
        "scope_type": "civil_segment"
      },
      "type": "Feature"
    },
    {
      "geometry": {
        "coordinates": [
          65.73685556,
          31.65817039
        ],
        "type": "Point"
      },
      "properties": {
        "chainage_m": 10032.246,
        "civil_class": "elevated",
        "investigation_flags": [
          "coverage-gap"
        ],
        "lat": 31.65817039,
        "line": "line-2",
        "lon": 65.73685556,
        "sample_id": "segment:line-2-civil-007:0010",
        "scope_id": "line-2-civil-007",
        "scope_type": "civil_segment"
      },
      "type": "Feature"
    },
    {
      "geometry": {
        "coordinates": [
          65.73107965,
          31.66471638
        ],
        "type": "Point"
      },
      "properties": {
        "chainage_m": 11032.818,
        "civil_class": "elevated",
        "investigation_flags": [
          "granular-density-and-groundwater-tests"
        ],
        "lat": 31.66471638,
        "line": "line-2",
        "lon": 65.73107965,
        "sample_id": "segment:line-2-civil-007:0011",
        "scope_id": "line-2-civil-007",
        "scope_type": "civil_segment"
      },
      "type": "Feature"
    },
    {
      "geometry": {
        "coordinates": [
          65.72528329,
          31.67122067
        ],
        "type": "Point"
      },
      "properties": {
        "chainage_m": 12033.39,
        "civil_class": "elevated",
        "investigation_flags": [
          "fine-soil-plasticity-and-shrink-swell-tests",
          "granular-density-and-groundwater-tests"
        ],
        "lat": 31.67122067,
        "line": "line-2",
        "lon": 65.72528329,
        "sample_id": "segment:line-2-civil-007:0012",
        "scope_id": "line-2-civil-007",
        "scope_type": "civil_segment"
      },
      "type": "Feature"
    },
    {
      "geometry": {
        "coordinates": [
          65.71981521,
          31.67738327
        ],
        "type": "Point"
      },
      "properties": {
        "chainage_m": 13033.961,
        "civil_class": "elevated",
        "investigation_flags": [
          "fine-soil-plasticity-and-shrink-swell-tests",
          "granular-density-and-groundwater-tests"
        ],
        "lat": 31.67738327,
        "line": "line-2",
        "lon": 65.71981521,
        "sample_id": "segment:line-2-civil-007:0013",
        "scope_id": "line-2-civil-007",
        "scope_type": "civil_segment"
      },
      "type": "Feature"
    },
    {
      "geometry": {
        "coordinates": [
          65.71388968,
          31.68387691
        ],
        "type": "Point"
      },
      "properties": {
        "chainage_m": 14034.533,
        "civil_class": "elevated",
        "investigation_flags": [
          "fine-soil-plasticity-and-shrink-swell-tests",
          "granular-density-and-groundwater-tests"
        ],
        "lat": 31.68387691,
        "line": "line-2",
        "lon": 65.71388968,
        "sample_id": "segment:line-2-civil-007:0014",
        "scope_id": "line-2-civil-007",
        "scope_type": "civil_segment"
      },
      "type": "Feature"
    },
    {
      "geometry": {
        "coordinates": [
          65.71374738,
          31.68399827
        ],
        "type": "Point"
      },
      "properties": {
        "chainage_m": 14053.6,
        "civil_class": "elevated",
        "investigation_flags": [
          "fine-soil-plasticity-and-shrink-swell-tests",
          "granular-density-and-groundwater-tests"
        ],
        "lat": 31.68399827,
        "line": "line-2",
        "lon": 65.71374738,
        "sample_id": "segment:line-2-civil-007:0015",
        "scope_id": "line-2-civil-007",
        "scope_type": "civil_segment"
      },
      "type": "Feature"
    },
    {
      "geometry": {
        "coordinates": [
          65.70129813,
          31.59059583
        ],
        "type": "Point"
      },
      "properties": {
        "chainage_m": 0.0,
        "civil_class": "elevated",
        "investigation_flags": [
          "fine-soil-plasticity-and-shrink-swell-tests",
          "granular-density-and-groundwater-tests"
        ],
        "lat": 31.59059583,
        "line": "line-3",
        "lon": 65.70129813,
        "sample_id": "segment:line-3-civil-008:0000",
        "scope_id": "line-3-civil-008",
        "scope_type": "civil_segment"
      },
      "type": "Feature"
    },
    {
      "geometry": {
        "coordinates": [
          65.70887226,
          31.59545492
        ],
        "type": "Point"
      },
      "properties": {
        "chainage_m": 1000.232,
        "civil_class": "elevated",
        "investigation_flags": [
          "fine-soil-plasticity-and-shrink-swell-tests",
          "granular-density-and-groundwater-tests"
        ],
        "lat": 31.59545492,
        "line": "line-3",
        "lon": 65.70887226,
        "sample_id": "segment:line-3-civil-008:0001",
        "scope_id": "line-3-civil-008",
        "scope_type": "civil_segment"
      },
      "type": "Feature"
    },
    {
      "geometry": {
        "coordinates": [
          65.71624899,
          31.600468
        ],
        "type": "Point"
      },
      "properties": {
        "chainage_m": 2000.464,
        "civil_class": "elevated",
        "investigation_flags": [
          "fine-soil-plasticity-and-shrink-swell-tests"
        ],
        "lat": 31.600468,
        "line": "line-3",
        "lon": 65.71624899,
        "sample_id": "segment:line-3-civil-008:0002",
        "scope_id": "line-3-civil-008",
        "scope_type": "civil_segment"
      },
      "type": "Feature"
    },
    {
      "geometry": {
        "coordinates": [
          65.72381122,
          31.60535306
        ],
        "type": "Point"
      },
      "properties": {
        "chainage_m": 3000.695,
        "civil_class": "elevated",
        "investigation_flags": [
          "fine-soil-plasticity-and-shrink-swell-tests",
          "granular-density-and-groundwater-tests"
        ],
        "lat": 31.60535306,
        "line": "line-3",
        "lon": 65.72381122,
        "sample_id": "segment:line-3-civil-008:0003",
        "scope_id": "line-3-civil-008",
        "scope_type": "civil_segment"
      },
      "type": "Feature"
    },
    {
      "geometry": {
        "coordinates": [
          65.73111334,
          31.61026639
        ],
        "type": "Point"
      },
      "properties": {
        "chainage_m": 4000.927,
        "civil_class": "elevated",
        "investigation_flags": [
          "fine-soil-plasticity-and-shrink-swell-tests",
          "silt-moisture-frost-and-erosion-review"
        ],
        "lat": 31.61026639,
        "line": "line-3",
        "lon": 65.73111334,
        "sample_id": "segment:line-3-civil-008:0004",
        "scope_id": "line-3-civil-008",
        "scope_type": "civil_segment"
      },
      "type": "Feature"
    },
    {
      "geometry": {
        "coordinates": [
          65.73875145,
          31.6152512
        ],
        "type": "Point"
      },
      "properties": {
        "chainage_m": 5001.159,
        "civil_class": "elevated",
        "investigation_flags": [
          "fine-soil-plasticity-and-shrink-swell-tests"
        ],
        "lat": 31.6152512,
        "line": "line-3",
        "lon": 65.73875145,
        "sample_id": "segment:line-3-civil-008:0005",
        "scope_id": "line-3-civil-008",
        "scope_type": "civil_segment"
      },
      "type": "Feature"
    },
    {
      "geometry": {
        "coordinates": [
          65.74202328,
          31.61741192
        ],
        "type": "Point"
      },
      "properties": {
        "chainage_m": 5457.55,
        "civil_class": "elevated",
        "investigation_flags": [
          "fine-soil-plasticity-and-shrink-swell-tests",
          "granular-density-and-groundwater-tests"
        ],
        "lat": 31.61741192,
        "line": "line-3",
        "lon": 65.74202328,
        "sample_id": "segment:line-3-civil-008:0006",
        "scope_id": "line-3-civil-008",
        "scope_type": "civil_segment"
      },
      "type": "Feature"
    },
    {
      "geometry": {
        "coordinates": [
          65.7459786,
          31.62006556
        ],
        "type": "Point"
      },
      "properties": {
        "chainage_m": 6001.391,
        "civil_class": "elevated",
        "investigation_flags": [
          "fine-soil-plasticity-and-shrink-swell-tests",
          "granular-density-and-groundwater-tests"
        ],
        "lat": 31.62006556,
        "line": "line-3",
        "lon": 65.7459786,
        "sample_id": "segment:line-3-civil-008:0007",
        "scope_id": "line-3-civil-008",
        "scope_type": "civil_segment"
      },
      "type": "Feature"
    },
    {
      "geometry": {
        "coordinates": [
          65.75358637,
          31.62511452
        ],
        "type": "Point"
      },
      "properties": {
        "chainage_m": 7001.622,
        "civil_class": "elevated",
        "investigation_flags": [
          "granular-density-and-groundwater-tests"
        ],
        "lat": 31.62511452,
        "line": "line-3",
        "lon": 65.75358637,
        "sample_id": "segment:line-3-civil-008:0008",
        "scope_id": "line-3-civil-008",
        "scope_type": "civil_segment"
      },
      "type": "Feature"
    },
    {
      "geometry": {
        "coordinates": [
          65.76098606,
          31.62982846
        ],
        "type": "Point"
      },
      "properties": {
        "chainage_m": 8001.854,
        "civil_class": "elevated",
        "investigation_flags": [
          "granular-density-and-groundwater-tests"
        ],
        "lat": 31.62982846,
        "line": "line-3",
        "lon": 65.76098606,
        "sample_id": "segment:line-3-civil-008:0009",
        "scope_id": "line-3-civil-008",
        "scope_type": "civil_segment"
      },
      "type": "Feature"
    },
    {
      "geometry": {
        "coordinates": [
          65.76844359,
          31.63490683
        ],
        "type": "Point"
      },
      "properties": {
        "chainage_m": 9002.086,
        "civil_class": "elevated",
        "investigation_flags": [
          "fine-soil-plasticity-and-shrink-swell-tests",
          "granular-density-and-groundwater-tests"
        ],
        "lat": 31.63490683,
        "line": "line-3",
        "lon": 65.76844359,
        "sample_id": "segment:line-3-civil-008:0010",
        "scope_id": "line-3-civil-008",
        "scope_type": "civil_segment"
      },
      "type": "Feature"
    },
    {
      "geometry": {
        "coordinates": [
          65.77591622,
          31.6397266
        ],
        "type": "Point"
      },
      "properties": {
        "chainage_m": 10002.318,
        "civil_class": "elevated",
        "investigation_flags": [
          "fine-soil-plasticity-and-shrink-swell-tests",
          "granular-density-and-groundwater-tests"
        ],
        "lat": 31.6397266,
        "line": "line-3",
        "lon": 65.77591622,
        "sample_id": "segment:line-3-civil-008:0011",
        "scope_id": "line-3-civil-008",
        "scope_type": "civil_segment"
      },
      "type": "Feature"
    },
    {
      "geometry": {
        "coordinates": [
          65.78274578,
          31.64422575
        ],
        "type": "Point"
      },
      "properties": {
        "chainage_m": 10915.1,
        "civil_class": "elevated",
        "investigation_flags": [
          "fine-soil-plasticity-and-shrink-swell-tests",
          "granular-density-and-groundwater-tests"
        ],
        "lat": 31.64422575,
        "line": "line-3",
        "lon": 65.78274578,
        "sample_id": "segment:line-3-civil-008:0012",
        "scope_id": "line-3-civil-008",
        "scope_type": "civil_segment"
      },
      "type": "Feature"
    },
    {
      "geometry": {
        "coordinates": [
          65.78569984,
          31.66564172
        ],
        "type": "Point"
      },
      "properties": {
        "chainage_m": 0.0,
        "civil_class": "station",
        "investigation_flags": [
          "fine-soil-plasticity-and-shrink-swell-tests",
          "granular-density-and-groundwater-tests"
        ],
        "lat": 31.66564172,
        "line": "line-1",
        "lon": 65.78569984,
        "sample_id": "station:line-1-0346-0781-s000000",
        "scope_id": "line-1-0346-0781-s000000",
        "scope_type": "station"
      },
      "type": "Feature"
    },
    {
      "geometry": {
        "coordinates": [
          65.75257217,
          31.65250419
        ],
        "type": "Point"
      },
      "properties": {
        "chainage_m": 3815.0,
        "civil_class": "station",
        "investigation_flags": [
          "fine-soil-plasticity-and-shrink-swell-tests",
          "granular-density-and-groundwater-tests"
        ],
        "lat": 31.65250419,
        "line": "line-1",
        "lon": 65.75257217,
        "sample_id": "station:line-1-0419-0624-s003815",
        "scope_id": "line-1-0419-0624-s003815",
        "scope_type": "station"
      },
      "type": "Feature"
    },
    {
      "geometry": {
        "coordinates": [
          65.72661864,
          31.64224612
        ],
        "type": "Point"
      },
      "properties": {
        "chainage_m": 6829.3,
        "civil_class": "station",
        "investigation_flags": [
          "fine-soil-plasticity-and-shrink-swell-tests",
          "granular-density-and-groundwater-tests"
        ],
        "lat": 31.64224612,
        "line": "line-1",
        "lon": 65.72661864,
        "sample_id": "station:line-1-0476-0501-s006829",
        "scope_id": "line-1-0476-0501-s006829",
        "scope_type": "station"
      },
      "type": "Feature"
    },
    {
      "geometry": {
        "coordinates": [
          65.70066512,
          31.63198805
        ],
        "type": "Point"
      },
      "properties": {
        "chainage_m": 9843.5,
        "civil_class": "station",
        "investigation_flags": [
          "fine-soil-plasticity-and-shrink-swell-tests",
          "granular-density-and-groundwater-tests"
        ],
        "lat": 31.63198805,
        "line": "line-1",
        "lon": 65.70066512,
        "sample_id": "station:line-1-0533-0378-s009843",
        "scope_id": "line-1-0533-0378-s009843",
        "scope_type": "station"
      },
      "type": "Feature"
    },
    {
      "geometry": {
        "coordinates": [
          65.67450059,
          31.62155001
        ],
        "type": "Point"
      },
      "properties": {
        "chainage_m": 12862.5,
        "civil_class": "station",
        "investigation_flags": [
          "fine-soil-plasticity-and-shrink-swell-tests",
          "granular-density-and-groundwater-tests"
        ],
        "lat": 31.62155001,
        "line": "line-1",
        "lon": 65.67450059,
        "sample_id": "station:line-1-0591-0254-s012863",
        "scope_id": "line-1-0591-0254-s012863",
        "scope_type": "station"
      },
      "type": "Feature"
    },
    {
      "geometry": {
        "coordinates": [
          65.62639161,
          31.61705086
        ],
        "type": "Point"
      },
      "properties": {
        "chainage_m": 17667.1,
        "civil_class": "station",
        "investigation_flags": [
          "fine-soil-plasticity-and-shrink-swell-tests",
          "granular-density-and-groundwater-tests"
        ],
        "lat": 31.61705086,
        "line": "line-1",
        "lon": 65.62639161,
        "sample_id": "station:line-1-0616-0026-s017667",
        "scope_id": "line-1-0616-0026-s017667",
        "scope_type": "station"
      },
      "type": "Feature"
    },
    {
      "geometry": {
        "coordinates": [
          65.71374738,
          31.68399827
        ],
        "type": "Point"
      },
      "properties": {
        "chainage_m": 14053.6,
        "civil_class": "station",
        "investigation_flags": [
          "fine-soil-plasticity-and-shrink-swell-tests",
          "granular-density-and-groundwater-tests"
        ],
        "lat": 31.68399827,
        "line": "line-2",
        "lon": 65.71374738,
        "sample_id": "station:line-2-0244-0440-s014054",
        "scope_id": "line-2-0244-0440-s014054",
        "scope_type": "station"
      },
      "type": "Feature"
    },
    {
      "geometry": {
        "coordinates": [
          65.73864589,
          31.65628348
        ],
        "type": "Point"
      },
      "properties": {
        "chainage_m": 9726.6,
        "civil_class": "station",
        "investigation_flags": [
          "fine-soil-plasticity-and-shrink-swell-tests",
          "granular-density-and-groundwater-tests"
        ],
        "lat": 31.65628348,
        "line": "line-2",
        "lon": 65.73864589,
        "sample_id": "station:line-2-0398-0558-s009727",
        "scope_id": "line-2-0398-0558-s009727",
        "scope_type": "station"
      },
      "type": "Feature"
    },
    {
      "geometry": {
        "coordinates": [
          65.75594824,
          31.6370271
        ],
        "type": "Point"
      },
      "properties": {
        "chainage_m": 6708.1,
        "civil_class": "station",
        "investigation_flags": [
          "fine-soil-plasticity-and-shrink-swell-tests",
          "granular-density-and-groundwater-tests"
        ],
        "lat": 31.6370271,
        "line": "line-2",
        "lon": 65.75594824,
        "sample_id": "station:line-2-0505-0640-s006708",
        "scope_id": "line-2-0505-0640-s006708",
        "scope_type": "station"
      },
      "type": "Feature"
    },
    {
      "geometry": {
        "coordinates": [
          65.77303959,
          31.61795069
        ],
        "type": "Point"
      },
      "properties": {
        "chainage_m": 3694.5,
        "civil_class": "station",
        "investigation_flags": [
          "fine-soil-plasticity-and-shrink-swell-tests",
          "silt-moisture-frost-and-erosion-review"
        ],
        "lat": 31.61795069,
        "line": "line-2",
        "lon": 65.77303959,
        "sample_id": "station:line-2-0611-0721-s003694",
        "scope_id": "line-2-0611-0721-s003694",
        "scope_type": "station"
      },
      "type": "Feature"
    },
    {
      "geometry": {
        "coordinates": [
          65.79414001,
          31.59437512
        ],
        "type": "Point"
      },
      "properties": {
        "chainage_m": 0.0,
        "civil_class": "station",
        "investigation_flags": [
          "fine-soil-plasticity-and-shrink-swell-tests",
          "granular-density-and-groundwater-tests"
        ],
        "lat": 31.59437512,
        "line": "line-2",
        "lon": 65.79414001,
        "sample_id": "station:line-2-0742-0821-s000000",
        "scope_id": "line-2-0742-0821-s000000",
        "scope_type": "station"
      },
      "type": "Feature"
    },
    {
      "geometry": {
        "coordinates": [
          65.78274578,
          31.64422575
        ],
        "type": "Point"
      },
      "properties": {
        "chainage_m": 10915.1,
        "civil_class": "station",
        "investigation_flags": [
          "fine-soil-plasticity-and-shrink-swell-tests",
          "granular-density-and-groundwater-tests"
        ],
        "lat": 31.64422575,
        "line": "line-3",
        "lon": 65.78274578,
        "sample_id": "station:line-3-0465-0767-s010915",
        "scope_id": "line-3-0465-0767-s010915",
        "scope_type": "station"
      },
      "type": "Feature"
    },
    {
      "geometry": {
        "coordinates": [
          65.76459941,
          31.63234798
        ],
        "type": "Point"
      },
      "properties": {
        "chainage_m": 8472.6,
        "civil_class": "station",
        "investigation_flags": [
          "fine-soil-plasticity-and-shrink-swell-tests",
          "silt-moisture-frost-and-erosion-review"
        ],
        "lat": 31.63234798,
        "line": "line-3",
        "lon": 65.76459941,
        "sample_id": "station:line-3-0531-0681-s008473",
        "scope_id": "line-3-0531-0681-s008473",
        "scope_type": "station"
      },
      "type": "Feature"
    },
    {
      "geometry": {
        "coordinates": [
          65.74603104,
          31.62011028
        ],
        "type": "Point"
      },
      "properties": {
        "chainage_m": 6008.7,
        "civil_class": "station",
        "investigation_flags": [
          "fine-soil-plasticity-and-shrink-swell-tests",
          "granular-density-and-groundwater-tests"
        ],
        "lat": 31.62011028,
        "line": "line-3",
        "lon": 65.74603104,
        "sample_id": "station:line-3-0599-0593-s006009",
        "scope_id": "line-3-0599-0593-s006009",
        "scope_type": "station"
      },
      "type": "Feature"
    },
    {
      "geometry": {
        "coordinates": [
          65.72387559,
          31.60535306
        ],
        "type": "Point"
      },
      "properties": {
        "chainage_m": 3006.8,
        "civil_class": "station",
        "investigation_flags": [
          "fine-soil-plasticity-and-shrink-swell-tests",
          "granular-density-and-groundwater-tests"
        ],
        "lat": 31.60535306,
        "line": "line-3",
        "lon": 65.72387559,
        "sample_id": "station:line-3-0681-0488-s003007",
        "scope_id": "line-3-0681-0488-s003007",
        "scope_type": "station"
      },
      "type": "Feature"
    },
    {
      "geometry": {
        "coordinates": [
          65.70129813,
          31.59059583
        ],
        "type": "Point"
      },
      "properties": {
        "chainage_m": 0.0,
        "civil_class": "station",
        "investigation_flags": [
          "fine-soil-plasticity-and-shrink-swell-tests",
          "granular-density-and-groundwater-tests"
        ],
        "lat": 31.59059583,
        "line": "line-3",
        "lon": 65.70129813,
        "sample_id": "station:line-3-0763-0381-s000000",
        "scope_id": "line-3-0763-0381-s000000",
        "scope_type": "station"
      },
      "type": "Feature"
    }
  ],
  "type": "FeatureCollection"
}
