{
  "features": [
    {
      "geometry": {
        "coordinates": [
          -6.916304583720223,
          32.853088896087534
        ],
        "type": "Point"
      },
      "properties": {
        "anchor_kind": "amenity:marketplace",
        "anchor_name": null,
        "archetype": "terminal",
        "chainage_m": 0.0,
        "corridor_offset_m": 0.0,
        "id": "line-1-0558-0329-s000000",
        "junction_group": null,
        "line": "line-1",
        "platform_length_m": 49.0
      },
      "type": "Feature"
    },
    {
      "geometry": {
        "coordinates": [
          -6.9115977577470655,
          32.86640639239823
        ],
        "type": "Point"
      },
      "properties": {
        "anchor_kind": null,
        "anchor_name": null,
        "archetype": "standard",
        "chainage_m": 2026.8,
        "corridor_offset_m": 3.832,
        "id": "line-1-0484-0351-s002027",
        "junction_group": null,
        "line": "line-1",
        "platform_length_m": 49.0
      },
      "type": "Feature"
    },
    {
      "geometry": {
        "coordinates": [
          -6.911383811111922,
          32.87576463304899
        ],
        "type": "Point"
      },
      "properties": {
        "anchor_kind": null,
        "anchor_name": null,
        "archetype": "major",
        "chainage_m": 3349.0,
        "corridor_offset_m": 6.73,
        "id": "line-1-0432-0352-s003349",
        "junction_group": null,
        "line": "line-1",
        "platform_length_m": 49.0
      },
      "type": "Feature"
    },
    {
      "geometry": {
        "coordinates": [
          -6.9071048784090525,
          32.88566277219883
        ],
        "type": "Point"
      },
      "properties": {
        "anchor_kind": null,
        "anchor_name": null,
        "archetype": "interchange-elevated",
        "chainage_m": 4934.7,
        "corridor_offset_m": 14.31,
        "id": "line-1-0377-0372-s004935",
        "junction_group": 0,
        "line": "line-1",
        "platform_length_m": 49.0
      },
      "type": "Feature"
    },
    {
      "geometry": {
        "coordinates": [
          -6.8891333610570005,
          32.887282467696075
        ],
        "type": "Point"
      },
      "properties": {
        "anchor_kind": null,
        "anchor_name": null,
        "archetype": "standard",
        "chainage_m": 6908.7,
        "corridor_offset_m": 2.746,
        "id": "line-1-0368-0456-s006909",
        "junction_group": null,
        "line": "line-1",
        "platform_length_m": 49.0
      },
      "type": "Feature"
    },
    {
      "geometry": {
        "coordinates": [
          -6.870306057164374,
          32.892141554187816
        ],
        "type": "Point"
      },
      "properties": {
        "anchor_kind": "public_transport:station",
        "anchor_name": "Sidi El Ghazouani",
        "archetype": "depot-terminal",
        "chainage_m": 8892.3,
        "corridor_offset_m": 0.0,
        "id": "line-1-0341-0544-s008892",
        "junction_group": null,
        "line": "line-1",
        "platform_length_m": 49.0
      },
      "type": "Feature"
    },
    {
      "geometry": {
        "coordinates": [
          -6.9041096255170435,
          32.89916023467588
        ],
        "type": "Point"
      },
      "properties": {
        "anchor_kind": "place:neighbourhood",
        "anchor_name": "Quartier Orange",
        "archetype": "terminal",
        "chainage_m": 0.0,
        "corridor_offset_m": 0.0,
        "id": "line-2-0302-0386-s000000",
        "junction_group": null,
        "line": "line-2",
        "platform_length_m": 49.0
      },
      "type": "Feature"
    },
    {
      "geometry": {
        "coordinates": [
          -6.9071048784090525,
          32.88566277219883
        ],
        "type": "Point"
      },
      "properties": {
        "anchor_kind": null,
        "anchor_name": null,
        "archetype": "interchange-elevated",
        "chainage_m": 1672.5,
        "corridor_offset_m": 10.167,
        "id": "line-2-0377-0372-s001673",
        "junction_group": 0,
        "line": "line-2",
        "platform_length_m": 49.0
      },
      "type": "Feature"
    },
    {
      "geometry": {
        "coordinates": [
          -6.9175882635310835,
          32.8826033473707
        ],
        "type": "Point"
      },
      "properties": {
        "anchor_kind": null,
        "anchor_name": null,
        "archetype": "standard",
        "chainage_m": 3071.4,
        "corridor_offset_m": 10.23,
        "id": "line-2-0394-0323-s003071",
        "junction_group": null,
        "line": "line-2",
        "platform_length_m": 49.0
      },
      "type": "Feature"
    },
    {
      "geometry": {
        "coordinates": [
          -6.924648502490818,
          32.87360503905266
        ],
        "type": "Point"
      },
      "properties": {
        "anchor_kind": null,
        "anchor_name": null,
        "archetype": "standard",
        "chainage_m": 4455.0,
        "corridor_offset_m": 4.871,
        "id": "line-2-0444-0290-s004455",
        "junction_group": null,
        "line": "line-2",
        "platform_length_m": 49.0
      },
      "type": "Feature"
    },
    {
      "geometry": {
        "coordinates": [
          -6.929355328463974,
          32.86460673073462
        ],
        "type": "Point"
      },
      "properties": {
        "anchor_kind": "place:neighbourhood",
        "anchor_name": "Hay Faraj",
        "archetype": "terminal",
        "chainage_m": 5703.6,
        "corridor_offset_m": 0.0,
        "id": "line-2-0494-0268-s005704",
        "junction_group": null,
        "line": "line-2",
        "platform_length_m": 49.0
      },
      "type": "Feature"
    },
    {
      "geometry": {
        "coordinates": [
          -6.91801615680137,
          32.897720505345
        ],
        "type": "Point"
      },
      "properties": {
        "anchor_kind": "amenity:marketplace",
        "anchor_name": "Marché Régional Hebdomadaire ( Dimanche )",
        "archetype": "terminal",
        "chainage_m": 0.0,
        "corridor_offset_m": 0.0,
        "id": "line-3-0310-0321-s000000",
        "junction_group": null,
        "line": "line-3",
        "platform_length_m": 49.0
      },
      "type": "Feature"
    },
    {
      "geometry": {
        "coordinates": [
          -6.9071048784090525,
          32.88566277219883
        ],
        "type": "Point"
      },
      "properties": {
        "anchor_kind": null,
        "anchor_name": null,
        "archetype": "interchange-elevated",
        "chainage_m": 2060.2,
        "corridor_offset_m": 11.43,
        "id": "line-3-0377-0372-s002060",
        "junction_group": 0,
        "line": "line-3",
        "platform_length_m": 49.0
      },
      "type": "Feature"
    },
    {
      "geometry": {
        "coordinates": [
          -6.904751465422474,
          32.870185681891805
        ],
        "type": "Point"
      },
      "properties": {
        "anchor_kind": "amenity:university",
        "anchor_name": "Faculté polydisciplinaires de Khouribga - Université Hassan 1er",
        "archetype": "terminal",
        "chainage_m": 4175.6,
        "corridor_offset_m": 0.0,
        "id": "line-3-0463-0383-s004176",
        "junction_group": null,
        "line": "line-3",
        "platform_length_m": 49.0
      },
      "type": "Feature"
    }
  ],
  "type": "FeatureCollection"
}
