{
  "features": [
    {
      "geometry": {
        "coordinates": [
          29.7276424640782,
          -2.6139540474390817
        ],
        "type": "Point"
      },
      "properties": {
        "id": "interchange-000",
        "junction_group": 0,
        "line_count": 2,
        "lines": "line-1,line-9",
        "platform_count": 2,
        "platforms": "line-1-0471-0310-s001400,line-9-0471-0310-s000000"
      },
      "type": "Feature"
    },
    {
      "geometry": {
        "coordinates": [
          29.733487488498625,
          -2.606575434618292
        ],
        "type": "Point"
      },
      "properties": {
        "id": "interchange-001",
        "junction_group": 1,
        "line_count": 2,
        "lines": "line-1,line-2",
        "platform_count": 2,
        "platforms": "line-1-0431-0343-s002556,line-2-0429-0342-s008795"
      },
      "type": "Feature"
    },
    {
      "geometry": {
        "coordinates": [
          29.76037460083257,
          -2.572561829176115
        ],
        "type": "Point"
      },
      "properties": {
        "id": "interchange-002",
        "junction_group": 2,
        "line_count": 2,
        "lines": "line-1,line-5",
        "platform_count": 2,
        "platforms": "line-1-0241-0492-s007930,line-5-0241-0492-s000000"
      },
      "type": "Feature"
    },
    {
      "geometry": {
        "coordinates": [
          29.77224449657866,
          -2.5495261598819425
        ],
        "type": "Point"
      },
      "properties": {
        "id": "interchange-003",
        "junction_group": 3,
        "line_count": 2,
        "lines": "line-1,line-10",
        "platform_count": 2,
        "platforms": "line-1-0113-0558-s011245,line-10-0113-0558-s002929"
      },
      "type": "Feature"
    },
    {
      "geometry": {
        "coordinates": [
          29.778179444451705,
          -2.541067750062988
        ],
        "type": "Point"
      },
      "properties": {
        "id": "interchange-004",
        "junction_group": 4,
        "line_count": 2,
        "lines": "line-1,line-10",
        "platform_count": 2,
        "platforms": "line-1-0066-0591-s012475,line-10-0066-0591-s000000"
      },
      "type": "Feature"
    },
    {
      "geometry": {
        "coordinates": [
          29.76451107965318,
          -2.5500660583810246
        ],
        "type": "Point"
      },
      "properties": {
        "id": "interchange-005",
        "junction_group": 5,
        "line_count": 2,
        "lines": "line-10,line-3",
        "platform_count": 2,
        "platforms": "line-10-0116-0515-s003930,line-3-0116-0515-s002553"
      },
      "type": "Feature"
    },
    {
      "geometry": {
        "coordinates": [
          29.729261086225392,
          -2.5747214231724436
        ],
        "type": "Point"
      },
      "properties": {
        "id": "interchange-006",
        "junction_group": 6,
        "line_count": 3,
        "lines": "line-11,line-3,line-5",
        "platform_count": 4,
        "platforms": "line-11-0242-0327-s000000,line-3-0242-0327-s008656,line-3-0264-0311-s009240,line-5-0264-0311-s004733"
      },
      "type": "Feature"
    },
    {
      "geometry": {
        "coordinates": [
          29.71343455856394,
          -2.584979494655005
        ],
        "type": "Point"
      },
      "properties": {
        "id": "interchange-007",
        "junction_group": 7,
        "line_count": 2,
        "lines": "line-12,line-2",
        "platform_count": 2,
        "platforms": "line-12-0310-0231-s000000,line-2-0310-0231-s012457"
      },
      "type": "Feature"
    },
    {
      "geometry": {
        "coordinates": [
          29.759565289758974,
          -2.6347401396537453
        ],
        "type": "Point"
      },
      "properties": {
        "id": "interchange-008",
        "junction_group": 8,
        "line_count": 2,
        "lines": "line-2,line-4",
        "platform_count": 2,
        "platforms": "line-2-0586-0487-s004008,line-4-0587-0488-s000000"
      },
      "type": "Feature"
    },
    {
      "geometry": {
        "coordinates": [
          29.74238991030819,
          -2.6162036245185907
        ],
        "type": "Point"
      },
      "properties": {
        "id": "interchange-009",
        "junction_group": 9,
        "line_count": 3,
        "lines": "line-2,line-6,line-8",
        "platform_count": 4,
        "platforms": "line-2-0482-0391-s007188,line-2-0485-0393-s007112,line-6-0485-0393-s000000,line-8-0482-0391-s000000"
      },
      "type": "Feature"
    },
    {
      "geometry": {
        "coordinates": [
          29.727462617172957,
          -2.600456584962027
        ],
        "type": "Point"
      },
      "properties": {
        "id": "interchange-010",
        "junction_group": 10,
        "line_count": 2,
        "lines": "line-2,line-9",
        "platform_count": 3,
        "platforms": "line-2-0396-0310-s009837,line-9-0396-0307-s002401,line-9-0396-0310-s002461"
      },
      "type": "Feature"
    },
    {
      "geometry": {
        "coordinates": [
          29.717930731195036,
          -2.5898385811467444
        ],
        "type": "Point"
      },
      "properties": {
        "id": "interchange-011",
        "junction_group": 11,
        "line_count": 2,
        "lines": "line-2,line-3",
        "platform_count": 2,
        "platforms": "line-2-0337-0256-s011642,line-3-0337-0256-s011279"
      },
      "type": "Feature"
    },
    {
      "geometry": {
        "coordinates": [
          29.748145011275994,
          -2.550965889212828
        ],
        "type": "Point"
      },
      "properties": {
        "id": "interchange-012",
        "junction_group": 12,
        "line_count": 2,
        "lines": "line-3,line-7",
        "platform_count": 2,
        "platforms": "line-3-0121-0424-s005151,line-7-0121-0424-s000000"
      },
      "type": "Feature"
    },
    {
      "geometry": {
        "coordinates": [
          29.73942243637167,
          -2.6353700212360076
        ],
        "type": "Point"
      },
      "properties": {
        "id": "interchange-013",
        "junction_group": 13,
        "line_count": 2,
        "lines": "line-4,line-6",
        "platform_count": 2,
        "platforms": "line-4-0588-0388-s002422,line-6-0592-0363-s002400"
      },
      "type": "Feature"
    }
  ],
  "type": "FeatureCollection"
}
