{
  "features": [
    {
      "geometry": {
        "coordinates": [
          25.250555379780973,
          0.4917615160349854
        ],
        "type": "Point"
      },
      "properties": {
        "archetype": "main-heavy",
        "fleet_stalls": 7,
        "line": "line-1",
        "station": "line-1-0931-1133-s022215"
      },
      "type": "Feature"
    },
    {
      "geometry": {
        "coordinates": [
          25.1761722062218,
          0.5250552568117194
        ],
        "type": "Point"
      },
      "properties": {
        "archetype": "main-heavy",
        "fleet_stalls": 2,
        "line": "line-2",
        "station": "line-2-0746-0719-s000559"
      },
      "type": "Feature"
    }
  ],
  "type": "FeatureCollection"
}
