{
  "features": [
    {
      "geometry": {
        "coordinates": [
          44.13300909266526,
          17.488963038548754
        ],
        "type": "Point"
      },
      "properties": {
        "archetype": "main-heavy",
        "fleet_stalls": 9,
        "line": "line-1",
        "station": "line-1-0976-0042-s000000"
      },
      "type": "Feature"
    },
    {
      "geometry": {
        "coordinates": [
          44.167872201914044,
          17.477805136234387
        ],
        "type": "Point"
      },
      "properties": {
        "archetype": "main-heavy",
        "fleet_stalls": 9,
        "line": "line-2",
        "station": "line-2-1038-0227-s020169"
      },
      "type": "Feature"
    },
    {
      "geometry": {
        "coordinates": [
          44.25323970726376,
          17.491662531044163
        ],
        "type": "Point"
      },
      "properties": {
        "archetype": "main-heavy",
        "fleet_stalls": 6,
        "line": "line-3",
        "station": "line-3-0961-0680-s000000"
      },
      "type": "Feature"
    },
    {
      "geometry": {
        "coordinates": [
          44.24513638997891,
          17.554110790771336
        ],
        "type": "Point"
      },
      "properties": {
        "archetype": "main-heavy",
        "fleet_stalls": 2,
        "line": "line-4",
        "station": "line-4-0614-0637-s000000"
      },
      "type": "Feature"
    },
    {
      "geometry": {
        "coordinates": [
          44.166364608000585,
          17.502280534859445
        ],
        "type": "Point"
      },
      "properties": {
        "archetype": "main-heavy",
        "fleet_stalls": 2,
        "line": "line-5",
        "station": "line-5-0902-0219-s000000"
      },
      "type": "Feature"
    },
    {
      "geometry": {
        "coordinates": [
          44.234771681823865,
          17.516857794334665
        ],
        "type": "Point"
      },
      "properties": {
        "archetype": "main-heavy",
        "fleet_stalls": 2,
        "line": "line-6",
        "station": "line-6-0821-0582-s000000"
      },
      "type": "Feature"
    },
    {
      "geometry": {
        "coordinates": [
          44.175410171481346,
          17.506779689018465
        ],
        "type": "Point"
      },
      "properties": {
        "archetype": "main-heavy",
        "fleet_stalls": 4,
        "line": "line-7",
        "station": "line-7-0877-0267-s000000"
      },
      "type": "Feature"
    },
    {
      "geometry": {
        "coordinates": [
          44.21875349649335,
          17.527475798149947
        ],
        "type": "Point"
      },
      "properties": {
        "archetype": "main-heavy",
        "fleet_stalls": 4,
        "line": "line-8",
        "station": "line-8-0762-0497-s000000"
      },
      "type": "Feature"
    },
    {
      "geometry": {
        "coordinates": [
          44.304121001843065,
          17.538453734297953
        ],
        "type": "Point"
      },
      "properties": {
        "archetype": "main-heavy",
        "fleet_stalls": 3,
        "line": "line-9",
        "station": "line-9-0701-0950-s000000"
      },
      "type": "Feature"
    },
    {
      "geometry": {
        "coordinates": [
          44.194255095399605,
          17.498861177698593
        ],
        "type": "Point"
      },
      "properties": {
        "archetype": "main-heavy",
        "fleet_stalls": 3,
        "line": "line-10",
        "station": "line-10-0921-0367-s000000"
      },
      "type": "Feature"
    },
    {
      "geometry": {
        "coordinates": [
          44.167872201914044,
          17.477805136234387
        ],
        "type": "Point"
      },
      "properties": {
        "archetype": "main-heavy",
        "fleet_stalls": 4,
        "line": "line-11",
        "station": "line-11-1038-0227-s000000"
      },
      "type": "Feature"
    },
    {
      "geometry": {
        "coordinates": [
          44.25832783672169,
          17.546372245617825
        ],
        "type": "Point"
      },
      "properties": {
        "archetype": "main-heavy",
        "fleet_stalls": 5,
        "line": "line-12",
        "station": "line-12-0657-0707-s000000"
      },
      "type": "Feature"
    },
    {
      "geometry": {
        "coordinates": [
          44.309209131300996,
          17.55357089227225
        ],
        "type": "Point"
      },
      "properties": {
        "archetype": "main-heavy",
        "fleet_stalls": 2,
        "line": "line-13",
        "station": "line-13-0617-0977-s000000"
      },
      "type": "Feature"
    }
  ],
  "type": "FeatureCollection"
}
