{
  "features": [
    {
      "geometry": {
        "coordinates": [
          13.089984326835134,
          11.9031639563762
        ],
        "type": "Point"
      },
      "properties": {
        "archetype": "main-heavy",
        "fleet_stalls": 8,
        "line": "line-1",
        "station": "line-1-0412-0475-s000000"
      },
      "type": "Feature"
    },
    {
      "geometry": {
        "coordinates": [
          13.082274670206164,
          11.809581549868625
        ],
        "type": "Point"
      },
      "properties": {
        "archetype": "main-heavy",
        "fleet_stalls": 8,
        "line": "line-2",
        "station": "line-2-0932-0433-s000000"
      },
      "type": "Feature"
    },
    {
      "geometry": {
        "coordinates": [
          13.100263869007096,
          11.743533966814239
        ],
        "type": "Point"
      },
      "properties": {
        "archetype": "main-heavy",
        "fleet_stalls": 8,
        "line": "line-3",
        "station": "line-3-1299-0531-s026319"
      },
      "type": "Feature"
    },
    {
      "geometry": {
        "coordinates": [
          13.107973525636067,
          11.854033192959722
        ],
        "type": "Point"
      },
      "properties": {
        "archetype": "main-heavy",
        "fleet_stalls": 7,
        "line": "line-4",
        "station": "line-4-0685-0573-s000000"
      },
      "type": "Feature"
    },
    {
      "geometry": {
        "coordinates": [
          13.094940534668044,
          11.868430486268581
        ],
        "type": "Point"
      },
      "properties": {
        "archetype": "main-heavy",
        "fleet_stalls": 5,
        "line": "line-5",
        "station": "line-5-0605-0502-s002394"
      },
      "type": "Feature"
    },
    {
      "geometry": {
        "coordinates": [
          13.175157676259955,
          11.826498369506533
        ],
        "type": "Point"
      },
      "properties": {
        "archetype": "main-heavy",
        "fleet_stalls": 2,
        "line": "line-6",
        "station": "line-6-0838-0939-s000000"
      },
      "type": "Feature"
    },
    {
      "geometry": {
        "coordinates": [
          13.174423423247672,
          11.842695324478997
        ],
        "type": "Point"
      },
      "properties": {
        "archetype": "main-heavy",
        "fleet_stalls": 3,
        "line": "line-7",
        "station": "line-7-0748-0935-s000000"
      },
      "type": "Feature"
    },
    {
      "geometry": {
        "coordinates": [
          13.17644261903145,
          11.84323522297808
        ],
        "type": "Point"
      },
      "properties": {
        "archetype": "main-heavy",
        "fleet_stalls": 3,
        "line": "line-8",
        "station": "line-8-0745-0946-s000000"
      },
      "type": "Feature"
    },
    {
      "geometry": {
        "coordinates": [
          13.207281245547334,
          11.854573091458805
        ],
        "type": "Point"
      },
      "properties": {
        "archetype": "main-heavy",
        "fleet_stalls": 3,
        "line": "line-9",
        "station": "line-9-0682-1114-s000000"
      },
      "type": "Feature"
    },
    {
      "geometry": {
        "coordinates": [
          13.183418022648139,
          11.819119756685742
        ],
        "type": "Point"
      },
      "properties": {
        "archetype": "main-heavy",
        "fleet_stalls": 3,
        "line": "line-10",
        "station": "line-10-0879-0984-s000000"
      },
      "type": "Feature"
    },
    {
      "geometry": {
        "coordinates": [
          13.193881128073171,
          11.849714004967066
        ],
        "type": "Point"
      },
      "properties": {
        "archetype": "main-heavy",
        "fleet_stalls": 4,
        "line": "line-11",
        "station": "line-11-0709-1041-s000000"
      },
      "type": "Feature"
    },
    {
      "geometry": {
        "coordinates": [
          13.198470209399938,
          11.805622294208689
        ],
        "type": "Point"
      },
      "properties": {
        "archetype": "main-heavy",
        "fleet_stalls": 2,
        "line": "line-12",
        "station": "line-12-0954-1066-s000000"
      },
      "type": "Feature"
    },
    {
      "geometry": {
        "coordinates": [
          13.205629176269698,
          11.89290588489364
        ],
        "type": "Point"
      },
      "properties": {
        "archetype": "main-heavy",
        "fleet_stalls": 3,
        "line": "line-13",
        "station": "line-13-0469-1105-s000000"
      },
      "type": "Feature"
    },
    {
      "geometry": {
        "coordinates": [
          13.140464221429587,
          11.799323478386063
        ],
        "type": "Point"
      },
      "properties": {
        "archetype": "main-heavy",
        "fleet_stalls": 2,
        "line": "line-14",
        "station": "line-14-0989-0750-s000000"
      },
      "type": "Feature"
    },
    {
      "geometry": {
        "coordinates": [
          13.218295040731578,
          11.808681719036821
        ],
        "type": "Point"
      },
      "properties": {
        "archetype": "main-heavy",
        "fleet_stalls": 3,
        "line": "line-15",
        "station": "line-15-0937-1174-s000000"
      },
      "type": "Feature"
    },
    {
      "geometry": {
        "coordinates": [
          13.209300441331111,
          11.886787035237374
        ],
        "type": "Point"
      },
      "properties": {
        "archetype": "main-heavy",
        "fleet_stalls": 2,
        "line": "line-16",
        "station": "line-16-0503-1125-s000000"
      },
      "type": "Feature"
    },
    {
      "geometry": {
        "coordinates": [
          13.218662167237719,
          11.821999215347514
        ],
        "type": "Point"
      },
      "properties": {
        "archetype": "main-heavy",
        "fleet_stalls": 2,
        "line": "line-17",
        "station": "line-17-0863-1176-s000000"
      },
      "type": "Feature"
    },
    {
      "geometry": {
        "coordinates": [
          13.197185266628443,
          11.906583313537054
        ],
        "type": "Point"
      },
      "properties": {
        "archetype": "main-heavy",
        "fleet_stalls": 3,
        "line": "line-18",
        "station": "line-18-0393-1059-s000000"
      },
      "type": "Feature"
    },
    {
      "geometry": {
        "coordinates": [
          13.147072498540133,
          11.841615527480833
        ],
        "type": "Point"
      },
      "properties": {
        "archetype": "main-heavy",
        "fleet_stalls": 3,
        "line": "line-19",
        "station": "line-19-0754-0786-s000000"
      },
      "type": "Feature"
    },
    {
      "geometry": {
        "coordinates": [
          13.218111477478507,
          11.872929640427598
        ],
        "type": "Point"
      },
      "properties": {
        "archetype": "main-heavy",
        "fleet_stalls": 3,
        "line": "line-20",
        "station": "line-20-0580-1173-s000000"
      },
      "type": "Feature"
    },
    {
      "geometry": {
        "coordinates": [
          13.220130673262284,
          11.829197862001942
        ],
        "type": "Point"
      },
      "properties": {
        "archetype": "main-heavy",
        "fleet_stalls": 2,
        "line": "line-21",
        "station": "line-21-0823-1184-s000000"
      },
      "type": "Feature"
    },
    {
      "geometry": {
        "coordinates": [
          13.162308248545004,
          11.871129978763992
        ],
        "type": "Point"
      },
      "properties": {
        "archetype": "main-heavy",
        "fleet_stalls": 2,
        "line": "line-22",
        "station": "line-22-0590-0869-s000000"
      },
      "type": "Feature"
    },
    {
      "geometry": {
        "coordinates": [
          13.217927914225436,
          11.797343850556095
        ],
        "type": "Point"
      },
      "properties": {
        "archetype": "main-heavy",
        "fleet_stalls": 4,
        "line": "line-23",
        "station": "line-23-1000-1172-s000000"
      },
      "type": "Feature"
    }
  ],
  "type": "FeatureCollection"
}
