{
  "features": [
    {
      "geometry": {
        "coordinates": [
          37.21238297872409,
          19.552480534859445
        ],
        "type": "Point"
      },
      "properties": {
        "archetype": "main-heavy",
        "fleet_stalls": 6,
        "line": "line-1",
        "station": "line-1-0902-0530-s011181"
      },
      "type": "Feature"
    },
    {
      "geometry": {
        "coordinates": [
          37.19006741131463,
          19.63508500521902
        ],
        "type": "Point"
      },
      "properties": {
        "archetype": "main-heavy",
        "fleet_stalls": 4,
        "line": "line-2",
        "station": "line-2-0443-0413-s000000"
      },
      "type": "Feature"
    },
    {
      "geometry": {
        "coordinates": [
          37.239657561113425,
          19.626806561566426
        ],
        "type": "Point"
      },
      "properties": {
        "archetype": "main-heavy",
        "fleet_stalls": 4,
        "line": "line-3",
        "station": "line-3-0489-0673-s000000"
      },
      "type": "Feature"
    },
    {
      "geometry": {
        "coordinates": [
          37.20055763531053,
          19.599991602778676
        ],
        "type": "Point"
      },
      "properties": {
        "archetype": "main-heavy",
        "fleet_stalls": 3,
        "line": "line-4",
        "station": "line-4-0638-0468-s000000"
      },
      "type": "Feature"
    },
    {
      "geometry": {
        "coordinates": [
          37.19617081436679,
          19.614568862253897
        ],
        "type": "Point"
      },
      "properties": {
        "archetype": "main-heavy",
        "fleet_stalls": 4,
        "line": "line-5",
        "station": "line-5-0557-0445-s000000"
      },
      "type": "Feature"
    },
    {
      "geometry": {
        "coordinates": [
          37.22153808330233,
          19.586854072634345
        ],
        "type": "Point"
      },
      "properties": {
        "archetype": "main-heavy",
        "fleet_stalls": 4,
        "line": "line-6",
        "station": "line-6-0711-0578-s000000"
      },
      "type": "Feature"
    },
    {
      "geometry": {
        "coordinates": [
          37.193119112840705,
          19.62518686606918
        ],
        "type": "Point"
      },
      "properties": {
        "archetype": "main-heavy",
        "fleet_stalls": 4,
        "line": "line-7",
        "station": "line-7-0498-0429-s000000"
      },
      "type": "Feature"
    }
  ],
  "type": "FeatureCollection"
}
