{
  "features": [
    {
      "geometry": {
        "coordinates": [
          31.631496489212076,
          -7.956419223985891
        ],
        "type": "Point"
      },
      "properties": {
        "archetype": "main-heavy",
        "fleet_stalls": 2,
        "line": "line-1",
        "station": "line-1-0318-0457-s000000"
      },
      "type": "Feature"
    },
    {
      "geometry": {
        "coordinates": [
          31.626235509568033,
          -7.947780848000575
        ],
        "type": "Point"
      },
      "properties": {
        "archetype": "main-heavy",
        "fleet_stalls": 2,
        "line": "line-2",
        "station": "line-2-0270-0428-s004130"
      },
      "type": "Feature"
    },
    {
      "geometry": {
        "coordinates": [
          31.614443658641726,
          -7.949040611165101
        ],
        "type": "Point"
      },
      "properties": {
        "archetype": "main-heavy",
        "fleet_stalls": 2,
        "line": "line-3",
        "station": "line-3-0277-0363-s000000"
      },
      "type": "Feature"
    },
    {
      "geometry": {
        "coordinates": [
          31.621881595379858,
          -7.971896314292913
        ],
        "type": "Point"
      },
      "properties": {
        "archetype": "main-heavy",
        "fleet_stalls": 2,
        "line": "line-4",
        "station": "line-4-0404-0404-s000000"
      },
      "type": "Feature"
    },
    {
      "geometry": {
        "coordinates": [
          31.614443658641726,
          -7.955159460821365
        ],
        "type": "Point"
      },
      "properties": {
        "archetype": "main-heavy",
        "fleet_stalls": 2,
        "line": "line-5",
        "station": "line-5-0311-0363-s000000"
      },
      "type": "Feature"
    },
    {
      "geometry": {
        "coordinates": [
          31.61498789791525,
          -7.943641626174279
        ],
        "type": "Point"
      },
      "properties": {
        "archetype": "main-heavy",
        "fleet_stalls": 2,
        "line": "line-6",
        "station": "line-6-0247-0366-s000000"
      },
      "type": "Feature"
    }
  ],
  "type": "FeatureCollection"
}
