{
  "features": [
    {
      "geometry": {
        "coordinates": [
          80.0273317713882,
          9.64911095993953
        ],
        "type": "Point"
      },
      "properties": {
        "anchor_kind": "amenity:hospital",
        "anchor_name": "Holy Cross Health Centre",
        "archetype": "terminal",
        "chainage_m": 0.0,
        "corridor_offset_m": 0.0,
        "id": "line-1-0619-0561-s000000",
        "junction_group": null,
        "line": "line-1",
        "platform_length_m": 59.5
      },
      "type": "Feature"
    },
    {
      "geometry": {
        "coordinates": [
          80.02769626567633,
          9.664768016412914
        ],
        "type": "Point"
      },
      "properties": {
        "anchor_kind": null,
        "anchor_name": null,
        "archetype": "interchange",
        "chainage_m": 1756.6,
        "corridor_offset_m": 1.347,
        "id": "line-1-0532-0563-s001757",
        "junction_group": 0,
        "line": "line-1",
        "platform_length_m": 59.5
      },
      "type": "Feature"
    },
    {
      "geometry": {
        "coordinates": [
          80.02806075996443,
          9.675925918727279
        ],
        "type": "Point"
      },
      "properties": {
        "anchor_kind": "amenity:college",
        "anchor_name": "Pehekam Sip Piyasa",
        "archetype": "major",
        "chainage_m": 3013.1,
        "corridor_offset_m": 1.131,
        "id": "line-1-0470-0565-s003013",
        "junction_group": null,
        "line": "line-1",
        "platform_length_m": 59.5
      },
      "type": "Feature"
    },
    {
      "geometry": {
        "coordinates": [
          80.0286075013966,
          9.699501486520534
        ],
        "type": "Point"
      },
      "properties": {
        "anchor_kind": null,
        "anchor_name": null,
        "archetype": "standard",
        "chainage_m": 5669.7,
        "corridor_offset_m": 2.274,
        "id": "line-1-0339-0568-s005670",
        "junction_group": null,
        "line": "line-1",
        "platform_length_m": 59.5
      },
      "type": "Feature"
    },
    {
      "geometry": {
        "coordinates": [
          80.02933648997283,
          9.72325702048015
        ],
        "type": "Point"
      },
      "properties": {
        "anchor_kind": "public_transport:station",
        "anchor_name": "Inuvil",
        "archetype": "standard",
        "chainage_m": 8342.8,
        "corridor_offset_m": 1.711,
        "id": "line-1-0207-0572-s008343",
        "junction_group": null,
        "line": "line-1",
        "platform_length_m": 59.5
      },
      "type": "Feature"
    },
    {
      "geometry": {
        "coordinates": [
          80.02878974854066,
          9.743053298779829
        ],
        "type": "Point"
      },
      "properties": {
        "anchor_kind": "place:town",
        "anchor_name": "Chunnakam",
        "archetype": "terminal",
        "chainage_m": 10992.8,
        "corridor_offset_m": 0.0,
        "id": "line-1-0097-0569-s010993",
        "junction_group": null,
        "line": "line-1",
        "platform_length_m": 59.5
      },
      "type": "Feature"
    },
    {
      "geometry": {
        "coordinates": [
          80.08309939746975,
          9.662608422416586
        ],
        "type": "Point"
      },
      "properties": {
        "anchor_kind": "place:town",
        "anchor_name": "Navatkuli",
        "archetype": "terminal",
        "chainage_m": 0.0,
        "corridor_offset_m": 0.0,
        "id": "line-2-0544-0867-s000000",
        "junction_group": null,
        "line": "line-2",
        "platform_length_m": 59.5
      },
      "type": "Feature"
    },
    {
      "geometry": {
        "coordinates": [
          80.04555648579394,
          9.676825749559082
        ],
        "type": "Point"
      },
      "properties": {
        "anchor_kind": null,
        "anchor_name": null,
        "archetype": "interchange",
        "chainage_m": 4821.3,
        "corridor_offset_m": 2.248,
        "id": "line-2-0465-0661-s004821",
        "junction_group": 1,
        "line": "line-2",
        "platform_length_m": 59.5
      },
      "type": "Feature"
    },
    {
      "geometry": {
        "coordinates": [
          80.02204660421054,
          9.685824057877118
        ],
        "type": "Point"
      },
      "properties": {
        "anchor_kind": "amenity:university",
        "anchor_name": "University Of Jaffna",
        "archetype": "major",
        "chainage_m": 7839.0,
        "corridor_offset_m": 3.798,
        "id": "line-2-0415-0532-s007839",
        "junction_group": null,
        "line": "line-2",
        "platform_length_m": 59.5
      },
      "type": "Feature"
    },
    {
      "geometry": {
        "coordinates": [
          79.97757830106055,
          9.702740877515028
        ],
        "type": "Point"
      },
      "properties": {
        "anchor_kind": null,
        "anchor_name": null,
        "archetype": "halt",
        "chainage_m": 13556.3,
        "corridor_offset_m": 1.119,
        "id": "line-2-0321-0288-s013556",
        "junction_group": null,
        "line": "line-2",
        "platform_length_m": 55.5
      },
      "type": "Feature"
    },
    {
      "geometry": {
        "coordinates": [
          79.94459156798617,
          9.721637324982904
        ],
        "type": "Point"
      },
      "properties": {
        "anchor_kind": "amenity:hospital",
        "anchor_name": null,
        "archetype": "depot-terminal",
        "chainage_m": 19255.6,
        "corridor_offset_m": 0.0,
        "id": "line-2-0216-0107-s019256",
        "junction_group": null,
        "line": "line-2",
        "platform_length_m": 59.5
      },
      "type": "Feature"
    },
    {
      "geometry": {
        "coordinates": [
          80.10752051477344,
          9.744493028110716
        ],
        "type": "Point"
      },
      "properties": {
        "anchor_kind": "amenity:hospital",
        "anchor_name": "Primary Medical Care Unit (PMCU) Puttur",
        "archetype": "terminal",
        "chainage_m": 0.0,
        "corridor_offset_m": 0.0,
        "id": "line-3-0089-1001-s000000",
        "junction_group": null,
        "line": "line-3",
        "platform_length_m": 59.5
      },
      "type": "Feature"
    },
    {
      "geometry": {
        "coordinates": [
          80.08929580036771,
          9.724336817478314
        ],
        "type": "Point"
      },
      "properties": {
        "anchor_kind": null,
        "anchor_name": null,
        "archetype": "halt",
        "chainage_m": 3495.9,
        "corridor_offset_m": 0.587,
        "id": "line-3-0201-0901-s003496",
        "junction_group": null,
        "line": "line-3",
        "platform_length_m": 55.5
      },
      "type": "Feature"
    },
    {
      "geometry": {
        "coordinates": [
          80.0696131088095,
          9.704720505344996
        ],
        "type": "Point"
      },
      "properties": {
        "anchor_kind": "amenity:hospital",
        "anchor_name": "Divisional Hospital Kopay",
        "archetype": "standard",
        "chainage_m": 7002.1,
        "corridor_offset_m": 0.901,
        "id": "line-3-0310-0793-s007002",
        "junction_group": null,
        "line": "line-3",
        "platform_length_m": 59.5
      },
      "type": "Feature"
    },
    {
      "geometry": {
        "coordinates": [
          80.04519199150583,
          9.679525242054494
        ],
        "type": "Point"
      },
      "properties": {
        "anchor_kind": null,
        "anchor_name": null,
        "archetype": "interchange",
        "chainage_m": 11380.8,
        "corridor_offset_m": 1.433,
        "id": "line-3-0450-0659-s011381",
        "junction_group": 1,
        "line": "line-3",
        "platform_length_m": 59.5
      },
      "type": "Feature"
    },
    {
      "geometry": {
        "coordinates": [
          80.02824300710849,
          9.661708591584782
        ],
        "type": "Point"
      },
      "properties": {
        "anchor_kind": null,
        "anchor_name": null,
        "archetype": "interchange",
        "chainage_m": 14435.8,
        "corridor_offset_m": 1.286,
        "id": "line-3-0549-0566-s014436",
        "junction_group": 0,
        "line": "line-3",
        "platform_length_m": 59.5
      },
      "type": "Feature"
    },
    {
      "geometry": {
        "coordinates": [
          80.01949514419374,
          9.652530317100386
        ],
        "type": "Point"
      },
      "properties": {
        "anchor_kind": "amenity:hospital",
        "anchor_name": "Divisional Hospital Gurunagar",
        "archetype": "terminal",
        "chainage_m": 16005.8,
        "corridor_offset_m": 0.0,
        "id": "line-3-0600-0518-s016006",
        "junction_group": null,
        "line": "line-3",
        "platform_length_m": 59.5
      },
      "type": "Feature"
    }
  ],
  "type": "FeatureCollection"
}
