{
  "features": [
    {
      "geometry": {
        "coordinates": [
          40.07952093,
          -3.17274602
        ],
        "type": "Point"
      },
      "properties": {
        "chainage_m": 0.0,
        "civil_class": "elevated",
        "investigation_flags": [
          "acidic-soil-durability-testing",
          "fine-soil-plasticity-and-shrink-swell-tests",
          "granular-density-and-groundwater-tests"
        ],
        "lat": -3.17274602,
        "line": "line-1",
        "lon": 40.07952093,
        "sample_id": "segment:line-1-civil-001:0000",
        "scope_id": "line-1-civil-001",
        "scope_type": "civil_segment"
      },
      "type": "Feature"
    },
    {
      "geometry": {
        "coordinates": [
          40.07952093,
          -3.17283595
        ],
        "type": "Point"
      },
      "properties": {
        "chainage_m": 10.0,
        "civil_class": "elevated",
        "investigation_flags": [
          "acidic-soil-durability-testing",
          "fine-soil-plasticity-and-shrink-swell-tests",
          "granular-density-and-groundwater-tests"
        ],
        "lat": -3.17283595,
        "line": "line-1",
        "lon": 40.07952093,
        "sample_id": "segment:line-1-civil-001:0001",
        "scope_id": "line-1-civil-001",
        "scope_type": "civil_segment"
      },
      "type": "Feature"
    },
    {
      "geometry": {
        "coordinates": [
          40.07952093,
          -3.17292588
        ],
        "type": "Point"
      },
      "properties": {
        "chainage_m": 20.0,
        "civil_class": "elevated",
        "investigation_flags": [
          "acidic-soil-durability-testing",
          "fine-soil-plasticity-and-shrink-swell-tests",
          "granular-density-and-groundwater-tests"
        ],
        "lat": -3.17292588,
        "line": "line-1",
        "lon": 40.07952093,
        "sample_id": "segment:line-1-civil-001:0002",
        "scope_id": "line-1-civil-001",
        "scope_type": "civil_segment"
      },
      "type": "Feature"
    },
    {
      "geometry": {
        "coordinates": [
          40.07952093,
          -3.17292588
        ],
        "type": "Point"
      },
      "properties": {
        "chainage_m": 20.0,
        "civil_class": "at-grade",
        "investigation_flags": [
          "acidic-soil-durability-testing",
          "fine-soil-plasticity-and-shrink-swell-tests",
          "granular-density-and-groundwater-tests"
        ],
        "lat": -3.17292588,
        "line": "line-1",
        "lon": 40.07952093,
        "sample_id": "segment:line-1-civil-002:0000",
        "scope_id": "line-1-civil-002",
        "scope_type": "civil_segment"
      },
      "type": "Feature"
    },
    {
      "geometry": {
        "coordinates": [
          40.08011387,
          -3.17387893
        ],
        "type": "Point"
      },
      "properties": {
        "chainage_m": 153.15,
        "civil_class": "at-grade",
        "investigation_flags": [
          "acidic-soil-durability-testing",
          "fine-soil-plasticity-and-shrink-swell-tests",
          "granular-density-and-groundwater-tests"
        ],
        "lat": -3.17387893,
        "line": "line-1",
        "lon": 40.08011387,
        "sample_id": "segment:line-1-civil-002:0001",
        "scope_id": "line-1-civil-002",
        "scope_type": "civil_segment"
      },
      "type": "Feature"
    },
    {
      "geometry": {
        "coordinates": [
          40.08096073,
          -3.17472588
        ],
        "type": "Point"
      },
      "properties": {
        "chainage_m": 286.3,
        "civil_class": "at-grade",
        "investigation_flags": [
          "fine-soil-plasticity-and-shrink-swell-tests",
          "granular-density-and-groundwater-tests"
        ],
        "lat": -3.17472588,
        "line": "line-1",
        "lon": 40.08096073,
        "sample_id": "segment:line-1-civil-002:0002",
        "scope_id": "line-1-civil-002",
        "scope_type": "civil_segment"
      },
      "type": "Feature"
    },
    {
      "geometry": {
        "coordinates": [
          40.08096073,
          -3.17472588
        ],
        "type": "Point"
      },
      "properties": {
        "chainage_m": 286.3,
        "civil_class": "elevated",
        "investigation_flags": [
          "fine-soil-plasticity-and-shrink-swell-tests",
          "granular-density-and-groundwater-tests"
        ],
        "lat": -3.17472588,
        "line": "line-1",
        "lon": 40.08096073,
        "sample_id": "segment:line-1-civil-003:0000",
        "scope_id": "line-1-civil-003",
        "scope_type": "civil_segment"
      },
      "type": "Feature"
    },
    {
      "geometry": {
        "coordinates": [
          40.08618218,
          -3.18084774
        ],
        "type": "Point"
      },
      "properties": {
        "chainage_m": 1288.893,
        "civil_class": "elevated",
        "investigation_flags": [
          "acidic-soil-durability-testing",
          "fine-soil-plasticity-and-shrink-swell-tests",
          "granular-density-and-groundwater-tests"
        ],
        "lat": -3.18084774,
        "line": "line-1",
        "lon": 40.08618218,
        "sample_id": "segment:line-1-civil-003:0001",
        "scope_id": "line-1-civil-003",
        "scope_type": "civil_segment"
      },
      "type": "Feature"
    },
    {
      "geometry": {
        "coordinates": [
          40.09157733,
          -3.18700274
        ],
        "type": "Point"
      },
      "properties": {
        "chainage_m": 2291.486,
        "civil_class": "elevated",
        "investigation_flags": [
          "acidic-soil-durability-testing",
          "granular-density-and-groundwater-tests"
        ],
        "lat": -3.18700274,
        "line": "line-1",
        "lon": 40.09157733,
        "sample_id": "segment:line-1-civil-003:0002",
        "scope_id": "line-1-civil-003",
        "scope_type": "civil_segment"
      },
      "type": "Feature"
    },
    {
      "geometry": {
        "coordinates": [
          40.09675206,
          -3.19303849
        ],
        "type": "Point"
      },
      "properties": {
        "chainage_m": 3294.08,
        "civil_class": "elevated",
        "investigation_flags": [
          "acidic-soil-durability-testing",
          "fine-soil-plasticity-and-shrink-swell-tests",
          "granular-density-and-groundwater-tests"
        ],
        "lat": -3.19303849,
        "line": "line-1",
        "lon": 40.09675206,
        "sample_id": "segment:line-1-civil-003:0003",
        "scope_id": "line-1-civil-003",
        "scope_type": "civil_segment"
      },
      "type": "Feature"
    },
    {
      "geometry": {
        "coordinates": [
          40.10185172,
          -3.19920105
        ],
        "type": "Point"
      },
      "properties": {
        "chainage_m": 4296.673,
        "civil_class": "elevated",
        "investigation_flags": [
          "acidic-soil-durability-testing",
          "granular-density-and-groundwater-tests"
        ],
        "lat": -3.19920105,
        "line": "line-1",
        "lon": 40.10185172,
        "sample_id": "segment:line-1-civil-003:0004",
        "scope_id": "line-1-civil-003",
        "scope_type": "civil_segment"
      },
      "type": "Feature"
    },
    {
      "geometry": {
        "coordinates": [
          40.10291753,
          -3.20028444
        ],
        "type": "Point"
      },
      "properties": {
        "chainage_m": 4488.45,
        "civil_class": "elevated",
        "investigation_flags": [
          "acidic-soil-durability-testing",
          "granular-density-and-groundwater-tests"
        ],
        "lat": -3.20028444,
        "line": "line-1",
        "lon": 40.10291753,
        "sample_id": "segment:line-1-civil-003:0005",
        "scope_id": "line-1-civil-003",
        "scope_type": "civil_segment"
      },
      "type": "Feature"
    },
    {
      "geometry": {
        "coordinates": [
          40.10703876,
          -3.20512599
        ],
        "type": "Point"
      },
      "properties": {
        "chainage_m": 5299.266,
        "civil_class": "elevated",
        "investigation_flags": [
          "acidic-soil-durability-testing",
          "granular-density-and-groundwater-tests"
        ],
        "lat": -3.20512599,
        "line": "line-1",
        "lon": 40.10703876,
        "sample_id": "segment:line-1-civil-003:0006",
        "scope_id": "line-1-civil-003",
        "scope_type": "civil_segment"
      },
      "type": "Feature"
    },
    {
      "geometry": {
        "coordinates": [
          40.11233483,
          -3.21132248
        ],
        "type": "Point"
      },
      "properties": {
        "chainage_m": 6301.859,
        "civil_class": "elevated",
        "investigation_flags": [
          "acidic-soil-durability-testing",
          "granular-density-and-groundwater-tests"
        ],
        "lat": -3.21132248,
        "line": "line-1",
        "lon": 40.11233483,
        "sample_id": "segment:line-1-civil-003:0007",
        "scope_id": "line-1-civil-003",
        "scope_type": "civil_segment"
      },
      "type": "Feature"
    },
    {
      "geometry": {
        "coordinates": [
          40.11760876,
          -3.21731687
        ],
        "type": "Point"
      },
      "properties": {
        "chainage_m": 7304.453,
        "civil_class": "elevated",
        "investigation_flags": [
          "acidic-soil-durability-testing",
          "granular-density-and-groundwater-tests"
        ],
        "lat": -3.21731687,
        "line": "line-1",
        "lon": 40.11760876,
        "sample_id": "segment:line-1-civil-003:0008",
        "scope_id": "line-1-civil-003",
        "scope_type": "civil_segment"
      },
      "type": "Feature"
    },
    {
      "geometry": {
        "coordinates": [
          40.12290487,
          -3.22351339
        ],
        "type": "Point"
      },
      "properties": {
        "chainage_m": 8307.046,
        "civil_class": "elevated",
        "investigation_flags": [
          "acidic-soil-durability-testing",
          "granular-density-and-groundwater-tests"
        ],
        "lat": -3.22351339,
        "line": "line-1",
        "lon": 40.12290487,
        "sample_id": "segment:line-1-civil-003:0009",
        "scope_id": "line-1-civil-003",
        "scope_type": "civil_segment"
      },
      "type": "Feature"
    },
    {
      "geometry": {
        "coordinates": [
          40.12486737,
          -3.22583604
        ],
        "type": "Point"
      },
      "properties": {
        "chainage_m": 8690.6,
        "civil_class": "elevated",
        "investigation_flags": [
          "acidic-soil-durability-testing",
          "granular-density-and-groundwater-tests"
        ],
        "lat": -3.22583604,
        "line": "line-1",
        "lon": 40.12486737,
        "sample_id": "segment:line-1-civil-003:0010",
        "scope_id": "line-1-civil-003",
        "scope_type": "civil_segment"
      },
      "type": "Feature"
    },
    {
      "geometry": {
        "coordinates": [
          40.09877518,
          -3.22853554
        ],
        "type": "Point"
      },
      "properties": {
        "chainage_m": 0.0,
        "civil_class": "elevated",
        "investigation_flags": [
          "acidic-soil-durability-testing",
          "granular-density-and-groundwater-tests"
        ],
        "lat": -3.22853554,
        "line": "line-2",
        "lon": 40.09877518,
        "sample_id": "segment:line-2-civil-004:0000",
        "scope_id": "line-2-civil-004",
        "scope_type": "civil_segment"
      },
      "type": "Feature"
    },
    {
      "geometry": {
        "coordinates": [
          40.10057464,
          -3.22034965
        ],
        "type": "Point"
      },
      "properties": {
        "chainage_m": 1004.665,
        "civil_class": "elevated",
        "investigation_flags": [
          "acidic-soil-durability-testing",
          "granular-density-and-groundwater-tests"
        ],
        "lat": -3.22034965,
        "line": "line-2",
        "lon": 40.10057464,
        "sample_id": "segment:line-2-civil-004:0001",
        "scope_id": "line-2-civil-004",
        "scope_type": "civil_segment"
      },
      "type": "Feature"
    },
    {
      "geometry": {
        "coordinates": [
          40.1023741,
          -3.21205808
        ],
        "type": "Point"
      },
      "properties": {
        "chainage_m": 2009.33,
        "civil_class": "elevated",
        "investigation_flags": [
          "acidic-soil-durability-testing",
          "granular-density-and-groundwater-tests"
        ],
        "lat": -3.21205808,
        "line": "line-2",
        "lon": 40.1023741,
        "sample_id": "segment:line-2-civil-004:0002",
        "scope_id": "line-2-civil-004",
        "scope_type": "civil_segment"
      },
      "type": "Feature"
    },
    {
      "geometry": {
        "coordinates": [
          40.10417356,
          -3.20376652
        ],
        "type": "Point"
      },
      "properties": {
        "chainage_m": 3013.994,
        "civil_class": "elevated",
        "investigation_flags": [
          "acidic-soil-durability-testing",
          "granular-density-and-groundwater-tests"
        ],
        "lat": -3.20376652,
        "line": "line-2",
        "lon": 40.10417356,
        "sample_id": "segment:line-2-civil-004:0003",
        "scope_id": "line-2-civil-004",
        "scope_type": "civil_segment"
      },
      "type": "Feature"
    },
    {
      "geometry": {
        "coordinates": [
          40.1047134,
          -3.20161419
        ],
        "type": "Point"
      },
      "properties": {
        "chainage_m": 3286.8,
        "civil_class": "elevated",
        "investigation_flags": [
          "acidic-soil-durability-testing",
          "granular-density-and-groundwater-tests"
        ],
        "lat": -3.20161419,
        "line": "line-2",
        "lon": 40.1047134,
        "sample_id": "segment:line-2-civil-004:0004",
        "scope_id": "line-2-civil-004",
        "scope_type": "civil_segment"
      },
      "type": "Feature"
    },
    {
      "geometry": {
        "coordinates": [
          40.10597302,
          -3.19555273
        ],
        "type": "Point"
      },
      "properties": {
        "chainage_m": 4018.659,
        "civil_class": "elevated",
        "investigation_flags": [
          "acidic-soil-durability-testing",
          "granular-density-and-groundwater-tests"
        ],
        "lat": -3.19555273,
        "line": "line-2",
        "lon": 40.10597302,
        "sample_id": "segment:line-2-civil-004:0005",
        "scope_id": "line-2-civil-004",
        "scope_type": "civil_segment"
      },
      "type": "Feature"
    },
    {
      "geometry": {
        "coordinates": [
          40.10777248,
          -3.18726119
        ],
        "type": "Point"
      },
      "properties": {
        "chainage_m": 5023.324,
        "civil_class": "elevated",
        "investigation_flags": [
          "acidic-soil-durability-testing",
          "granular-density-and-groundwater-tests"
        ],
        "lat": -3.18726119,
        "line": "line-2",
        "lon": 40.10777248,
        "sample_id": "segment:line-2-civil-004:0006",
        "scope_id": "line-2-civil-004",
        "scope_type": "civil_segment"
      },
      "type": "Feature"
    },
    {
      "geometry": {
        "coordinates": [
          40.10957195,
          -3.17896966
        ],
        "type": "Point"
      },
      "properties": {
        "chainage_m": 6027.989,
        "civil_class": "elevated",
        "investigation_flags": [
          "acidic-soil-durability-testing",
          "granular-density-and-groundwater-tests"
        ],
        "lat": -3.17896966,
        "line": "line-2",
        "lon": 40.10957195,
        "sample_id": "segment:line-2-civil-004:0007",
        "scope_id": "line-2-civil-004",
        "scope_type": "civil_segment"
      },
      "type": "Feature"
    },
    {
      "geometry": {
        "coordinates": [
          40.11047168,
          -3.17454001
        ],
        "type": "Point"
      },
      "properties": {
        "chainage_m": 6573.6,
        "civil_class": "elevated",
        "investigation_flags": [
          "acidic-soil-durability-testing",
          "granular-density-and-groundwater-tests"
        ],
        "lat": -3.17454001,
        "line": "line-2",
        "lon": 40.11047168,
        "sample_id": "segment:line-2-civil-004:0008",
        "scope_id": "line-2-civil-004",
        "scope_type": "civil_segment"
      },
      "type": "Feature"
    },
    {
      "geometry": {
        "coordinates": [
          40.11047168,
          -3.17454001
        ],
        "type": "Point"
      },
      "properties": {
        "chainage_m": 6573.6,
        "civil_class": "at-grade",
        "investigation_flags": [
          "acidic-soil-durability-testing",
          "granular-density-and-groundwater-tests"
        ],
        "lat": -3.17454001,
        "line": "line-2",
        "lon": 40.11047168,
        "sample_id": "segment:line-2-civil-005:0000",
        "scope_id": "line-2-civil-005",
        "scope_type": "civil_segment"
      },
      "type": "Feature"
    },
    {
      "geometry": {
        "coordinates": [
          40.11011685,
          -3.16662211
        ],
        "type": "Point"
      },
      "properties": {
        "chainage_m": 7486.15,
        "civil_class": "at-grade",
        "investigation_flags": [
          "acidic-soil-durability-testing",
          "granular-density-and-groundwater-tests"
        ],
        "lat": -3.16662211,
        "line": "line-2",
        "lon": 40.11011685,
        "sample_id": "segment:line-2-civil-005:0001",
        "scope_id": "line-2-civil-005",
        "scope_type": "civil_segment"
      },
      "type": "Feature"
    },
    {
      "geometry": {
        "coordinates": [
          40.11047168,
          -3.16594773
        ],
        "type": "Point"
      },
      "properties": {
        "chainage_m": 7577.468,
        "civil_class": "at-grade",
        "investigation_flags": [
          "acidic-soil-durability-testing",
          "granular-density-and-groundwater-tests"
        ],
        "lat": -3.16594773,
        "line": "line-2",
        "lon": 40.11047168,
        "sample_id": "segment:line-2-civil-005:0002",
        "scope_id": "line-2-civil-005",
        "scope_type": "civil_segment"
      },
      "type": "Feature"
    },
    {
      "geometry": {
        "coordinates": [
          40.10597302,
          -3.16068544
        ],
        "type": "Point"
      },
      "properties": {
        "chainage_m": 8398.7,
        "civil_class": "at-grade",
        "investigation_flags": [
          "granular-density-and-groundwater-tests"
        ],
        "lat": -3.16068544,
        "line": "line-2",
        "lon": 40.10597302,
        "sample_id": "segment:line-2-civil-005:0003",
        "scope_id": "line-2-civil-005",
        "scope_type": "civil_segment"
      },
      "type": "Feature"
    },
    {
      "geometry": {
        "coordinates": [
          40.10597302,
          -3.16068544
        ],
        "type": "Point"
      },
      "properties": {
        "chainage_m": 8398.7,
        "civil_class": "bridge",
        "investigation_flags": [
          "granular-density-and-groundwater-tests"
        ],
        "lat": -3.16068544,
        "line": "line-2",
        "lon": 40.10597302,
        "sample_id": "segment:line-2-civil-006:0000",
        "scope_id": "line-2-civil-006",
        "scope_type": "civil_segment"
      },
      "type": "Feature"
    },
    {
      "geometry": {
        "coordinates": [
          40.10597302,
          -3.15803976
        ],
        "type": "Point"
      },
      "properties": {
        "chainage_m": 8692.85,
        "civil_class": "bridge",
        "investigation_flags": [
          "acidic-soil-durability-testing",
          "fine-soil-plasticity-and-shrink-swell-tests",
          "granular-density-and-groundwater-tests"
        ],
        "lat": -3.15803976,
        "line": "line-2",
        "lon": 40.10597302,
        "sample_id": "segment:line-2-civil-006:0001",
        "scope_id": "line-2-civil-006",
        "scope_type": "civil_segment"
      },
      "type": "Feature"
    },
    {
      "geometry": {
        "coordinates": [
          40.10615297,
          -3.15546927
        ],
        "type": "Point"
      },
      "properties": {
        "chainage_m": 8987.0,
        "civil_class": "bridge",
        "investigation_flags": [
          "acidic-soil-durability-testing",
          "granular-density-and-groundwater-tests"
        ],
        "lat": -3.15546927,
        "line": "line-2",
        "lon": 40.10615297,
        "sample_id": "segment:line-2-civil-006:0002",
        "scope_id": "line-2-civil-006",
        "scope_type": "civil_segment"
      },
      "type": "Feature"
    },
    {
      "geometry": {
        "coordinates": [
          40.11964893,
          -3.15762887
        ],
        "type": "Point"
      },
      "properties": {
        "chainage_m": 0.0,
        "civil_class": "bridge",
        "investigation_flags": [
          "acidic-soil-durability-testing",
          "granular-density-and-groundwater-tests"
        ],
        "lat": -3.15762887,
        "line": "line-3",
        "lon": 40.11964893,
        "sample_id": "segment:line-3-civil-007:0000",
        "scope_id": "line-3-civil-007",
        "scope_type": "civil_segment"
      },
      "type": "Feature"
    },
    {
      "geometry": {
        "coordinates": [
          40.11964893,
          -3.16014823
        ],
        "type": "Point"
      },
      "properties": {
        "chainage_m": 280.0,
        "civil_class": "bridge",
        "investigation_flags": [
          "acidic-soil-durability-testing",
          "fine-soil-plasticity-and-shrink-swell-tests",
          "granular-density-and-groundwater-tests"
        ],
        "lat": -3.16014823,
        "line": "line-3",
        "lon": 40.11964893,
        "sample_id": "segment:line-3-civil-007:0001",
        "scope_id": "line-3-civil-007",
        "scope_type": "civil_segment"
      },
      "type": "Feature"
    },
    {
      "geometry": {
        "coordinates": [
          40.11964893,
          -3.16266759
        ],
        "type": "Point"
      },
      "properties": {
        "chainage_m": 560.0,
        "civil_class": "bridge",
        "investigation_flags": [
          "acidic-soil-durability-testing",
          "granular-density-and-groundwater-tests"
        ],
        "lat": -3.16266759,
        "line": "line-3",
        "lon": 40.11964893,
        "sample_id": "segment:line-3-civil-007:0002",
        "scope_id": "line-3-civil-007",
        "scope_type": "civil_segment"
      },
      "type": "Feature"
    },
    {
      "geometry": {
        "coordinates": [
          40.11964893,
          -3.16266759
        ],
        "type": "Point"
      },
      "properties": {
        "chainage_m": 560.0,
        "civil_class": "at-grade",
        "investigation_flags": [
          "acidic-soil-durability-testing",
          "granular-density-and-groundwater-tests"
        ],
        "lat": -3.16266759,
        "line": "line-3",
        "lon": 40.11964893,
        "sample_id": "segment:line-3-civil-008:0000",
        "scope_id": "line-3-civil-008",
        "scope_type": "civil_segment"
      },
      "type": "Feature"
    },
    {
      "geometry": {
        "coordinates": [
          40.11964893,
          -3.16869606
        ],
        "type": "Point"
      },
      "properties": {
        "chainage_m": 1230.0,
        "civil_class": "at-grade",
        "investigation_flags": [
          "acidic-soil-durability-testing",
          "granular-density-and-groundwater-tests"
        ],
        "lat": -3.16869606,
        "line": "line-3",
        "lon": 40.11964893,
        "sample_id": "segment:line-3-civil-008:0001",
        "scope_id": "line-3-civil-008",
        "scope_type": "civil_segment"
      },
      "type": "Feature"
    },
    {
      "geometry": {
        "coordinates": [
          40.11964893,
          -3.17171101
        ],
        "type": "Point"
      },
      "properties": {
        "chainage_m": 1565.079,
        "civil_class": "at-grade",
        "investigation_flags": [
          "acidic-soil-durability-testing",
          "granular-density-and-groundwater-tests"
        ],
        "lat": -3.17171101,
        "line": "line-3",
        "lon": 40.11964893,
        "sample_id": "segment:line-3-civil-008:0002",
        "scope_id": "line-3-civil-008",
        "scope_type": "civil_segment"
      },
      "type": "Feature"
    },
    {
      "geometry": {
        "coordinates": [
          40.11964893,
          -3.17472453
        ],
        "type": "Point"
      },
      "properties": {
        "chainage_m": 1900.0,
        "civil_class": "at-grade",
        "investigation_flags": [
          "acidic-soil-durability-testing",
          "granular-density-and-groundwater-tests"
        ],
        "lat": -3.17472453,
        "line": "line-3",
        "lon": 40.11964893,
        "sample_id": "segment:line-3-civil-008:0003",
        "scope_id": "line-3-civil-008",
        "scope_type": "civil_segment"
      },
      "type": "Feature"
    },
    {
      "geometry": {
        "coordinates": [
          40.11964893,
          -3.17472453
        ],
        "type": "Point"
      },
      "properties": {
        "chainage_m": 1900.0,
        "civil_class": "elevated",
        "investigation_flags": [
          "acidic-soil-durability-testing",
          "granular-density-and-groundwater-tests"
        ],
        "lat": -3.17472453,
        "line": "line-3",
        "lon": 40.11964893,
        "sample_id": "segment:line-3-civil-009:0000",
        "scope_id": "line-3-civil-009",
        "scope_type": "civil_segment"
      },
      "type": "Feature"
    },
    {
      "geometry": {
        "coordinates": [
          40.12036872,
          -3.18346719
        ],
        "type": "Point"
      },
      "properties": {
        "chainage_m": 2904.693,
        "civil_class": "elevated",
        "investigation_flags": [
          "fine-soil-plasticity-and-shrink-swell-tests",
          "granular-density-and-groundwater-tests"
        ],
        "lat": -3.18346719,
        "line": "line-3",
        "lon": 40.12036872,
        "sample_id": "segment:line-3-civil-009:0001",
        "scope_id": "line-3-civil-009",
        "scope_type": "civil_segment"
      },
      "type": "Feature"
    },
    {
      "geometry": {
        "coordinates": [
          40.1210885,
          -3.19220985
        ],
        "type": "Point"
      },
      "properties": {
        "chainage_m": 3909.387,
        "civil_class": "elevated",
        "investigation_flags": [
          "fine-soil-plasticity-and-shrink-swell-tests",
          "granular-density-and-groundwater-tests"
        ],
        "lat": -3.19220985,
        "line": "line-3",
        "lon": 40.1210885,
        "sample_id": "segment:line-3-civil-009:0002",
        "scope_id": "line-3-civil-009",
        "scope_type": "civil_segment"
      },
      "type": "Feature"
    },
    {
      "geometry": {
        "coordinates": [
          40.12135786,
          -3.19560173
        ],
        "type": "Point"
      },
      "properties": {
        "chainage_m": 4304.55,
        "civil_class": "elevated",
        "investigation_flags": [
          "fine-soil-plasticity-and-shrink-swell-tests",
          "granular-density-and-groundwater-tests"
        ],
        "lat": -3.19560173,
        "line": "line-3",
        "lon": 40.12135786,
        "sample_id": "segment:line-3-civil-009:0003",
        "scope_id": "line-3-civil-009",
        "scope_type": "civil_segment"
      },
      "type": "Feature"
    },
    {
      "geometry": {
        "coordinates": [
          40.12180829,
          -3.20084683
        ],
        "type": "Point"
      },
      "properties": {
        "chainage_m": 4914.08,
        "civil_class": "elevated",
        "investigation_flags": [
          "fine-soil-plasticity-and-shrink-swell-tests",
          "granular-density-and-groundwater-tests"
        ],
        "lat": -3.20084683,
        "line": "line-3",
        "lon": 40.12180829,
        "sample_id": "segment:line-3-civil-009:0004",
        "scope_id": "line-3-civil-009",
        "scope_type": "civil_segment"
      },
      "type": "Feature"
    },
    {
      "geometry": {
        "coordinates": [
          40.12252807,
          -3.2095895
        ],
        "type": "Point"
      },
      "properties": {
        "chainage_m": 5918.774,
        "civil_class": "elevated",
        "investigation_flags": [
          "fine-soil-plasticity-and-shrink-swell-tests",
          "granular-density-and-groundwater-tests"
        ],
        "lat": -3.2095895,
        "line": "line-3",
        "lon": 40.12252807,
        "sample_id": "segment:line-3-civil-009:0005",
        "scope_id": "line-3-civil-009",
        "scope_type": "civil_segment"
      },
      "type": "Feature"
    },
    {
      "geometry": {
        "coordinates": [
          40.12306791,
          -3.2164778
        ],
        "type": "Point"
      },
      "properties": {
        "chainage_m": 6709.1,
        "civil_class": "elevated",
        "investigation_flags": [
          "fine-soil-plasticity-and-shrink-swell-tests",
          "granular-density-and-groundwater-tests"
        ],
        "lat": -3.2164778,
        "line": "line-3",
        "lon": 40.12306791,
        "sample_id": "segment:line-3-civil-009:0006",
        "scope_id": "line-3-civil-009",
        "scope_type": "civil_segment"
      },
      "type": "Feature"
    },
    {
      "geometry": {
        "coordinates": [
          40.07952093,
          -3.17274602
        ],
        "type": "Point"
      },
      "properties": {
        "chainage_m": 0.0,
        "civil_class": "station",
        "investigation_flags": [
          "acidic-soil-durability-testing",
          "fine-soil-plasticity-and-shrink-swell-tests",
          "granular-density-and-groundwater-tests"
        ],
        "lat": -3.17274602,
        "line": "line-1",
        "lon": 40.07952093,
        "sample_id": "station:line-1-0117-0168-s000000",
        "scope_id": "line-1-0117-0168-s000000",
        "scope_type": "station"
      },
      "type": "Feature"
    },
    {
      "geometry": {
        "coordinates": [
          40.09805539,
          -3.1947019
        ],
        "type": "Point"
      },
      "properties": {
        "chainage_m": 3551.0,
        "civil_class": "station",
        "investigation_flags": [
          "acidic-soil-durability-testing",
          "granular-density-and-groundwater-tests"
        ],
        "lat": -3.1947019,
        "line": "line-1",
        "lon": 40.09805539,
        "sample_id": "station:line-1-0239-0271-s003551",
        "scope_id": "line-1-0239-0271-s003551",
        "scope_type": "station"
      },
      "type": "Feature"
    },
    {
      "geometry": {
        "coordinates": [
          40.11533022,
          -3.21485811
        ],
        "type": "Point"
      },
      "properties": {
        "chainage_m": 6890.9,
        "civil_class": "station",
        "investigation_flags": [
          "acidic-soil-durability-testing",
          "granular-density-and-groundwater-tests"
        ],
        "lat": -3.21485811,
        "line": "line-1",
        "lon": 40.11533022,
        "sample_id": "station:line-1-0351-0367-s006891",
        "scope_id": "line-1-0351-0367-s006891",
        "scope_type": "station"
      },
      "type": "Feature"
    },
    {
      "geometry": {
        "coordinates": [
          40.12486737,
          -3.22583604
        ],
        "type": "Point"
      },
      "properties": {
        "chainage_m": 8690.6,
        "civil_class": "station",
        "investigation_flags": [
          "acidic-soil-durability-testing",
          "granular-density-and-groundwater-tests"
        ],
        "lat": -3.22583604,
        "line": "line-1",
        "lon": 40.12486737,
        "sample_id": "station:line-1-0412-0420-s008691",
        "scope_id": "line-1-0412-0420-s008691",
        "scope_type": "station"
      },
      "type": "Feature"
    },
    {
      "geometry": {
        "coordinates": [
          40.10615297,
          -3.15546927
        ],
        "type": "Point"
      },
      "properties": {
        "chainage_m": 8987.0,
        "civil_class": "station",
        "investigation_flags": [
          "acidic-soil-durability-testing",
          "granular-density-and-groundwater-tests"
        ],
        "lat": -3.15546927,
        "line": "line-2",
        "lon": 40.10615297,
        "sample_id": "station:line-2-0021-0316-s008987",
        "scope_id": "line-2-0021-0316-s008987",
        "scope_type": "station"
      },
      "type": "Feature"
    },
    {
      "geometry": {
        "coordinates": [
          40.10417356,
          -3.20388017
        ],
        "type": "Point"
      },
      "properties": {
        "chainage_m": 3000.2,
        "civil_class": "station",
        "investigation_flags": [
          "acidic-soil-durability-testing",
          "granular-density-and-groundwater-tests"
        ],
        "lat": -3.20388017,
        "line": "line-2",
        "lon": 40.10417356,
        "sample_id": "station:line-2-0290-0305-s003000",
        "scope_id": "line-2-0290-0305-s003000",
        "scope_type": "station"
      },
      "type": "Feature"
    },
    {
      "geometry": {
        "coordinates": [
          40.09877518,
          -3.22853554
        ],
        "type": "Point"
      },
      "properties": {
        "chainage_m": 0.0,
        "civil_class": "station",
        "investigation_flags": [
          "acidic-soil-durability-testing",
          "granular-density-and-groundwater-tests"
        ],
        "lat": -3.22853554,
        "line": "line-2",
        "lon": 40.09877518,
        "sample_id": "station:line-2-0427-0275-s000000",
        "scope_id": "line-2-0427-0275-s000000",
        "scope_type": "station"
      },
      "type": "Feature"
    },
    {
      "geometry": {
        "coordinates": [
          40.11964893,
          -3.15762887
        ],
        "type": "Point"
      },
      "properties": {
        "chainage_m": 0.0,
        "civil_class": "station",
        "investigation_flags": [
          "acidic-soil-durability-testing",
          "granular-density-and-groundwater-tests"
        ],
        "lat": -3.15762887,
        "line": "line-3",
        "lon": 40.11964893,
        "sample_id": "station:line-3-0033-0391-s000000",
        "scope_id": "line-3-0033-0391-s000000",
        "scope_type": "station"
      },
      "type": "Feature"
    },
    {
      "geometry": {
        "coordinates": [
          40.12306791,
          -3.2164778
        ],
        "type": "Point"
      },
      "properties": {
        "chainage_m": 6709.1,
        "civil_class": "station",
        "investigation_flags": [
          "fine-soil-plasticity-and-shrink-swell-tests",
          "granular-density-and-groundwater-tests"
        ],
        "lat": -3.2164778,
        "line": "line-3",
        "lon": 40.12306791,
        "sample_id": "station:line-3-0360-0410-s006709",
        "scope_id": "line-3-0360-0410-s006709",
        "scope_type": "station"
      },
      "type": "Feature"
    }
  ],
  "type": "FeatureCollection"
}
