{
  "features": [
    {
      "geometry": {
        "coordinates": [
          47.11038242,
          31.89358061
        ],
        "type": "Point"
      },
      "properties": {
        "chainage_m": 0.0,
        "civil_class": "elevated",
        "investigation_flags": [
          "coverage-gap"
        ],
        "lat": 31.89358061,
        "line": "line-1",
        "lon": 47.11038242,
        "sample_id": "segment:line-1-civil-001:0000",
        "scope_id": "line-1-civil-001",
        "scope_type": "civil_segment"
      },
      "type": "Feature"
    },
    {
      "geometry": {
        "coordinates": [
          47.11524685,
          31.88649572
        ],
        "type": "Point"
      },
      "properties": {
        "chainage_m": 1000.897,
        "civil_class": "elevated",
        "investigation_flags": [
          "fine-soil-plasticity-and-shrink-swell-tests",
          "silt-moisture-frost-and-erosion-review"
        ],
        "lat": 31.88649572,
        "line": "line-1",
        "lon": 47.11524685,
        "sample_id": "segment:line-1-civil-001:0001",
        "scope_id": "line-1-civil-001",
        "scope_type": "civil_segment"
      },
      "type": "Feature"
    },
    {
      "geometry": {
        "coordinates": [
          47.11998404,
          31.87947155
        ],
        "type": "Point"
      },
      "properties": {
        "chainage_m": 2001.794,
        "civil_class": "elevated",
        "investigation_flags": [
          "fine-soil-plasticity-and-shrink-swell-tests",
          "granular-density-and-groundwater-tests"
        ],
        "lat": 31.87947155,
        "line": "line-1",
        "lon": 47.11998404,
        "sample_id": "segment:line-1-civil-001:0002",
        "scope_id": "line-1-civil-001",
        "scope_type": "civil_segment"
      },
      "type": "Feature"
    },
    {
      "geometry": {
        "coordinates": [
          47.12243775,
          31.87582918
        ],
        "type": "Point"
      },
      "properties": {
        "chainage_m": 2514.2,
        "civil_class": "elevated",
        "investigation_flags": [
          "granular-density-and-groundwater-tests"
        ],
        "lat": 31.87582918,
        "line": "line-1",
        "lon": 47.12243775,
        "sample_id": "segment:line-1-civil-001:0003",
        "scope_id": "line-1-civil-001",
        "scope_type": "civil_segment"
      },
      "type": "Feature"
    },
    {
      "geometry": {
        "coordinates": [
          47.12476422,
          31.87235727
        ],
        "type": "Point"
      },
      "properties": {
        "chainage_m": 3002.692,
        "civil_class": "elevated",
        "investigation_flags": [
          "fine-soil-plasticity-and-shrink-swell-tests",
          "granular-density-and-groundwater-tests"
        ],
        "lat": 31.87235727,
        "line": "line-1",
        "lon": 47.12476422,
        "sample_id": "segment:line-1-civil-001:0004",
        "scope_id": "line-1-civil-001",
        "scope_type": "civil_segment"
      },
      "type": "Feature"
    },
    {
      "geometry": {
        "coordinates": [
          47.12949731,
          31.86543768
        ],
        "type": "Point"
      },
      "properties": {
        "chainage_m": 4003.589,
        "civil_class": "elevated",
        "investigation_flags": [
          "fine-soil-plasticity-and-shrink-swell-tests",
          "granular-density-and-groundwater-tests"
        ],
        "lat": 31.86543768,
        "line": "line-1",
        "lon": 47.12949731,
        "sample_id": "segment:line-1-civil-001:0005",
        "scope_id": "line-1-civil-001",
        "scope_type": "civil_segment"
      },
      "type": "Feature"
    },
    {
      "geometry": {
        "coordinates": [
          47.13432833,
          31.85844743
        ],
        "type": "Point"
      },
      "properties": {
        "chainage_m": 5004.486,
        "civil_class": "elevated",
        "investigation_flags": [
          "granular-density-and-groundwater-tests"
        ],
        "lat": 31.85844743,
        "line": "line-1",
        "lon": 47.13432833,
        "sample_id": "segment:line-1-civil-001:0006",
        "scope_id": "line-1-civil-001",
        "scope_type": "civil_segment"
      },
      "type": "Feature"
    },
    {
      "geometry": {
        "coordinates": [
          47.13449308,
          31.85829032
        ],
        "type": "Point"
      },
      "properties": {
        "chainage_m": 5028.4,
        "civil_class": "elevated",
        "investigation_flags": [
          "granular-density-and-groundwater-tests"
        ],
        "lat": 31.85829032,
        "line": "line-1",
        "lon": 47.13449308,
        "sample_id": "segment:line-1-civil-001:0007",
        "scope_id": "line-1-civil-001",
        "scope_type": "civil_segment"
      },
      "type": "Feature"
    },
    {
      "geometry": {
        "coordinates": [
          47.13449308,
          31.85829032
        ],
        "type": "Point"
      },
      "properties": {
        "chainage_m": 5028.4,
        "civil_class": "bridge",
        "investigation_flags": [
          "granular-density-and-groundwater-tests"
        ],
        "lat": 31.85829032,
        "line": "line-1",
        "lon": 47.13449308,
        "sample_id": "segment:line-1-civil-002:0000",
        "scope_id": "line-1-civil-002",
        "scope_type": "civil_segment"
      },
      "type": "Feature"
    },
    {
      "geometry": {
        "coordinates": [
          47.13636809,
          31.855452
        ],
        "type": "Point"
      },
      "properties": {
        "chainage_m": 5440.55,
        "civil_class": "bridge",
        "investigation_flags": [
          "fine-soil-plasticity-and-shrink-swell-tests",
          "silt-moisture-frost-and-erosion-review"
        ],
        "lat": 31.855452,
        "line": "line-1",
        "lon": 47.13636809,
        "sample_id": "segment:line-1-civil-002:0001",
        "scope_id": "line-1-civil-002",
        "scope_type": "civil_segment"
      },
      "type": "Feature"
    },
    {
      "geometry": {
        "coordinates": [
          47.13824593,
          31.8525337
        ],
        "type": "Point"
      },
      "properties": {
        "chainage_m": 5852.7,
        "civil_class": "bridge",
        "investigation_flags": [
          "fine-soil-plasticity-and-shrink-swell-tests",
          "granular-density-and-groundwater-tests"
        ],
        "lat": 31.8525337,
        "line": "line-1",
        "lon": 47.13824593,
        "sample_id": "segment:line-1-civil-002:0002",
        "scope_id": "line-1-civil-002",
        "scope_type": "civil_segment"
      },
      "type": "Feature"
    },
    {
      "geometry": {
        "coordinates": [
          47.13824593,
          31.8525337
        ],
        "type": "Point"
      },
      "properties": {
        "chainage_m": 5852.7,
        "civil_class": "elevated",
        "investigation_flags": [
          "fine-soil-plasticity-and-shrink-swell-tests",
          "granular-density-and-groundwater-tests"
        ],
        "lat": 31.8525337,
        "line": "line-1",
        "lon": 47.13824593,
        "sample_id": "segment:line-1-civil-003:0000",
        "scope_id": "line-1-civil-003",
        "scope_type": "civil_segment"
      },
      "type": "Feature"
    },
    {
      "geometry": {
        "coordinates": [
          47.13835748,
          31.85245784
        ],
        "type": "Point"
      },
      "properties": {
        "chainage_m": 5866.85,
        "civil_class": "elevated",
        "investigation_flags": [
          "fine-soil-plasticity-and-shrink-swell-tests",
          "granular-density-and-groundwater-tests"
        ],
        "lat": 31.85245784,
        "line": "line-1",
        "lon": 47.13835748,
        "sample_id": "segment:line-1-civil-003:0001",
        "scope_id": "line-1-civil-003",
        "scope_type": "civil_segment"
      },
      "type": "Feature"
    },
    {
      "geometry": {
        "coordinates": [
          47.13848117,
          31.85238599
        ],
        "type": "Point"
      },
      "properties": {
        "chainage_m": 5881.0,
        "civil_class": "elevated",
        "investigation_flags": [
          "fine-soil-plasticity-and-shrink-swell-tests",
          "granular-density-and-groundwater-tests"
        ],
        "lat": 31.85238599,
        "line": "line-1",
        "lon": 47.13848117,
        "sample_id": "segment:line-1-civil-003:0002",
        "scope_id": "line-1-civil-003",
        "scope_type": "civil_segment"
      },
      "type": "Feature"
    },
    {
      "geometry": {
        "coordinates": [
          47.13848117,
          31.85238599
        ],
        "type": "Point"
      },
      "properties": {
        "chainage_m": 5881.0,
        "civil_class": "bridge",
        "investigation_flags": [
          "fine-soil-plasticity-and-shrink-swell-tests",
          "granular-density-and-groundwater-tests"
        ],
        "lat": 31.85238599,
        "line": "line-1",
        "lon": 47.13848117,
        "sample_id": "segment:line-1-civil-004:0000",
        "scope_id": "line-1-civil-004",
        "scope_type": "civil_segment"
      },
      "type": "Feature"
    },
    {
      "geometry": {
        "coordinates": [
          47.14325448,
          31.84527308
        ],
        "type": "Point"
      },
      "properties": {
        "chainage_m": 6881.803,
        "civil_class": "bridge",
        "investigation_flags": [
          "granular-density-and-groundwater-tests",
          "silt-moisture-frost-and-erosion-review"
        ],
        "lat": 31.84527308,
        "line": "line-1",
        "lon": 47.14325448,
        "sample_id": "segment:line-1-civil-004:0001",
        "scope_id": "line-1-civil-004",
        "scope_type": "civil_segment"
      },
      "type": "Feature"
    },
    {
      "geometry": {
        "coordinates": [
          47.14337596,
          31.84514495
        ],
        "type": "Point"
      },
      "properties": {
        "chainage_m": 6900.8,
        "civil_class": "bridge",
        "investigation_flags": [
          "granular-density-and-groundwater-tests",
          "silt-moisture-frost-and-erosion-review"
        ],
        "lat": 31.84514495,
        "line": "line-1",
        "lon": 47.14337596,
        "sample_id": "segment:line-1-civil-004:0002",
        "scope_id": "line-1-civil-004",
        "scope_type": "civil_segment"
      },
      "type": "Feature"
    },
    {
      "geometry": {
        "coordinates": [
          47.1480289,
          31.83827477
        ],
        "type": "Point"
      },
      "properties": {
        "chainage_m": 7882.606,
        "civil_class": "bridge",
        "investigation_flags": [
          "fine-soil-plasticity-and-shrink-swell-tests",
          "silt-moisture-frost-and-erosion-review"
        ],
        "lat": 31.83827477,
        "line": "line-1",
        "lon": 47.1480289,
        "sample_id": "segment:line-1-civil-004:0003",
        "scope_id": "line-1-civil-004",
        "scope_type": "civil_segment"
      },
      "type": "Feature"
    },
    {
      "geometry": {
        "coordinates": [
          47.14821028,
          31.83799668
        ],
        "type": "Point"
      },
      "properties": {
        "chainage_m": 7920.6,
        "civil_class": "bridge",
        "investigation_flags": [
          "fine-soil-plasticity-and-shrink-swell-tests",
          "granular-density-and-groundwater-tests",
          "silt-moisture-frost-and-erosion-review"
        ],
        "lat": 31.83799668,
        "line": "line-1",
        "lon": 47.14821028,
        "sample_id": "segment:line-1-civil-004:0004",
        "scope_id": "line-1-civil-004",
        "scope_type": "civil_segment"
      },
      "type": "Feature"
    },
    {
      "geometry": {
        "coordinates": [
          47.14821028,
          31.83799668
        ],
        "type": "Point"
      },
      "properties": {
        "chainage_m": 7920.6,
        "civil_class": "elevated",
        "investigation_flags": [
          "fine-soil-plasticity-and-shrink-swell-tests",
          "granular-density-and-groundwater-tests",
          "silt-moisture-frost-and-erosion-review"
        ],
        "lat": 31.83799668,
        "line": "line-1",
        "lon": 47.14821028,
        "sample_id": "segment:line-1-civil-005:0000",
        "scope_id": "line-1-civil-005",
        "scope_type": "civil_segment"
      },
      "type": "Feature"
    },
    {
      "geometry": {
        "coordinates": [
          47.15289333,
          31.83095487
        ],
        "type": "Point"
      },
      "properties": {
        "chainage_m": 8921.261,
        "civil_class": "elevated",
        "investigation_flags": [
          "fine-soil-plasticity-and-shrink-swell-tests",
          "granular-density-and-groundwater-tests",
          "silt-moisture-frost-and-erosion-review"
        ],
        "lat": 31.83095487,
        "line": "line-1",
        "lon": 47.15289333,
        "sample_id": "segment:line-1-civil-005:0001",
        "scope_id": "line-1-civil-005",
        "scope_type": "civil_segment"
      },
      "type": "Feature"
    },
    {
      "geometry": {
        "coordinates": [
          47.15772137,
          31.82396467
        ],
        "type": "Point"
      },
      "properties": {
        "chainage_m": 9921.923,
        "civil_class": "elevated",
        "investigation_flags": [
          "granular-density-and-groundwater-tests",
          "silt-moisture-frost-and-erosion-review"
        ],
        "lat": 31.82396467,
        "line": "line-1",
        "lon": 47.15772137,
        "sample_id": "segment:line-1-civil-005:0002",
        "scope_id": "line-1-civil-005",
        "scope_type": "civil_segment"
      },
      "type": "Feature"
    },
    {
      "geometry": {
        "coordinates": [
          47.16255128,
          31.81697536
        ],
        "type": "Point"
      },
      "properties": {
        "chainage_m": 10922.584,
        "civil_class": "elevated",
        "investigation_flags": [
          "coverage-gap"
        ],
        "lat": 31.81697536,
        "line": "line-1",
        "lon": 47.16255128,
        "sample_id": "segment:line-1-civil-005:0003",
        "scope_id": "line-1-civil-005",
        "scope_type": "civil_segment"
      },
      "type": "Feature"
    },
    {
      "geometry": {
        "coordinates": [
          47.16727513,
          31.80994868
        ],
        "type": "Point"
      },
      "properties": {
        "chainage_m": 11923.246,
        "civil_class": "elevated",
        "investigation_flags": [
          "coverage-gap"
        ],
        "lat": 31.80994868,
        "line": "line-1",
        "lon": 47.16727513,
        "sample_id": "segment:line-1-civil-005:0004",
        "scope_id": "line-1-civil-005",
        "scope_type": "civil_segment"
      },
      "type": "Feature"
    },
    {
      "geometry": {
        "coordinates": [
          47.16735099,
          31.80983179
        ],
        "type": "Point"
      },
      "properties": {
        "chainage_m": 11939.2,
        "civil_class": "elevated",
        "investigation_flags": [
          "coverage-gap"
        ],
        "lat": 31.80983179,
        "line": "line-1",
        "lon": 47.16735099,
        "sample_id": "segment:line-1-civil-005:0005",
        "scope_id": "line-1-civil-005",
        "scope_type": "civil_segment"
      },
      "type": "Feature"
    },
    {
      "geometry": {
        "coordinates": [
          47.17197365,
          31.80301884
        ],
        "type": "Point"
      },
      "properties": {
        "chainage_m": 12923.907,
        "civil_class": "elevated",
        "investigation_flags": [
          "fine-soil-plasticity-and-shrink-swell-tests",
          "granular-density-and-groundwater-tests"
        ],
        "lat": 31.80301884,
        "line": "line-1",
        "lon": 47.17197365,
        "sample_id": "segment:line-1-civil-005:0006",
        "scope_id": "line-1-civil-005",
        "scope_type": "civil_segment"
      },
      "type": "Feature"
    },
    {
      "geometry": {
        "coordinates": [
          47.1767925,
          31.79592067
        ],
        "type": "Point"
      },
      "properties": {
        "chainage_m": 13924.568,
        "civil_class": "elevated",
        "investigation_flags": [
          "fine-soil-plasticity-and-shrink-swell-tests",
          "granular-density-and-groundwater-tests"
        ],
        "lat": 31.79592067,
        "line": "line-1",
        "lon": 47.1767925,
        "sample_id": "segment:line-1-civil-005:0007",
        "scope_id": "line-1-civil-005",
        "scope_type": "civil_segment"
      },
      "type": "Feature"
    },
    {
      "geometry": {
        "coordinates": [
          47.18157049,
          31.78891386
        ],
        "type": "Point"
      },
      "properties": {
        "chainage_m": 14925.23,
        "civil_class": "elevated",
        "investigation_flags": [
          "fine-soil-plasticity-and-shrink-swell-tests",
          "granular-density-and-groundwater-tests"
        ],
        "lat": 31.78891386,
        "line": "line-1",
        "lon": 47.18157049,
        "sample_id": "segment:line-1-civil-005:0008",
        "scope_id": "line-1-civil-005",
        "scope_type": "civil_segment"
      },
      "type": "Feature"
    },
    {
      "geometry": {
        "coordinates": [
          47.18648706,
          31.78185081
        ],
        "type": "Point"
      },
      "properties": {
        "chainage_m": 15925.891,
        "civil_class": "elevated",
        "investigation_flags": [
          "fine-soil-plasticity-and-shrink-swell-tests",
          "granular-density-and-groundwater-tests"
        ],
        "lat": 31.78185081,
        "line": "line-1",
        "lon": 47.18648706,
        "sample_id": "segment:line-1-civil-005:0009",
        "scope_id": "line-1-civil-005",
        "scope_type": "civil_segment"
      },
      "type": "Feature"
    },
    {
      "geometry": {
        "coordinates": [
          47.18672558,
          31.78164785
        ],
        "type": "Point"
      },
      "properties": {
        "chainage_m": 15957.8,
        "civil_class": "elevated",
        "investigation_flags": [
          "fine-soil-plasticity-and-shrink-swell-tests",
          "granular-density-and-groundwater-tests"
        ],
        "lat": 31.78164785,
        "line": "line-1",
        "lon": 47.18672558,
        "sample_id": "segment:line-1-civil-005:0010",
        "scope_id": "line-1-civil-005",
        "scope_type": "civil_segment"
      },
      "type": "Feature"
    },
    {
      "geometry": {
        "coordinates": [
          47.18672558,
          31.78164785
        ],
        "type": "Point"
      },
      "properties": {
        "chainage_m": 15957.8,
        "civil_class": "at-grade",
        "investigation_flags": [
          "fine-soil-plasticity-and-shrink-swell-tests",
          "granular-density-and-groundwater-tests"
        ],
        "lat": 31.78164785,
        "line": "line-1",
        "lon": 47.18672558,
        "sample_id": "segment:line-1-civil-006:0000",
        "scope_id": "line-1-civil-006",
        "scope_type": "civil_segment"
      },
      "type": "Feature"
    },
    {
      "geometry": {
        "coordinates": [
          47.19132893,
          31.77381992
        ],
        "type": "Point"
      },
      "properties": {
        "chainage_m": 16958.894,
        "civil_class": "at-grade",
        "investigation_flags": [
          "fine-soil-plasticity-and-shrink-swell-tests",
          "granular-density-and-groundwater-tests"
        ],
        "lat": 31.77381992,
        "line": "line-1",
        "lon": 47.19132893,
        "sample_id": "segment:line-1-civil-006:0001",
        "scope_id": "line-1-civil-006",
        "scope_type": "civil_segment"
      },
      "type": "Feature"
    },
    {
      "geometry": {
        "coordinates": [
          47.19615241,
          31.76597111
        ],
        "type": "Point"
      },
      "properties": {
        "chainage_m": 17959.988,
        "civil_class": "at-grade",
        "investigation_flags": [
          "fine-soil-plasticity-and-shrink-swell-tests",
          "granular-density-and-groundwater-tests"
        ],
        "lat": 31.76597111,
        "line": "line-1",
        "lon": 47.19615241,
        "sample_id": "segment:line-1-civil-006:0002",
        "scope_id": "line-1-civil-006",
        "scope_type": "civil_segment"
      },
      "type": "Feature"
    },
    {
      "geometry": {
        "coordinates": [
          47.19732477,
          31.76397595
        ],
        "type": "Point"
      },
      "properties": {
        "chainage_m": 18207.8,
        "civil_class": "at-grade",
        "investigation_flags": [
          "fine-soil-plasticity-and-shrink-swell-tests",
          "granular-density-and-groundwater-tests"
        ],
        "lat": 31.76397595,
        "line": "line-1",
        "lon": 47.19732477,
        "sample_id": "segment:line-1-civil-006:0003",
        "scope_id": "line-1-civil-006",
        "scope_type": "civil_segment"
      },
      "type": "Feature"
    },
    {
      "geometry": {
        "coordinates": [
          47.20104354,
          31.75800717
        ],
        "type": "Point"
      },
      "properties": {
        "chainage_m": 18961.082,
        "civil_class": "at-grade",
        "investigation_flags": [
          "fine-soil-plasticity-and-shrink-swell-tests",
          "granular-density-and-groundwater-tests"
        ],
        "lat": 31.75800717,
        "line": "line-1",
        "lon": 47.20104354,
        "sample_id": "segment:line-1-civil-006:0004",
        "scope_id": "line-1-civil-006",
        "scope_type": "civil_segment"
      },
      "type": "Feature"
    },
    {
      "geometry": {
        "coordinates": [
          47.2059007,
          31.75010102
        ],
        "type": "Point"
      },
      "properties": {
        "chainage_m": 19962.175,
        "civil_class": "at-grade",
        "investigation_flags": [
          "fine-soil-plasticity-and-shrink-swell-tests",
          "granular-density-and-groundwater-tests"
        ],
        "lat": 31.75010102,
        "line": "line-1",
        "lon": 47.2059007,
        "sample_id": "segment:line-1-civil-006:0005",
        "scope_id": "line-1-civil-006",
        "scope_type": "civil_segment"
      },
      "type": "Feature"
    },
    {
      "geometry": {
        "coordinates": [
          47.20851706,
          31.74636828
        ],
        "type": "Point"
      },
      "properties": {
        "chainage_m": 20457.8,
        "civil_class": "at-grade",
        "investigation_flags": [
          "fine-soil-plasticity-and-shrink-swell-tests",
          "granular-density-and-groundwater-tests"
        ],
        "lat": 31.74636828,
        "line": "line-1",
        "lon": 47.20851706,
        "sample_id": "segment:line-1-civil-006:0006",
        "scope_id": "line-1-civil-006",
        "scope_type": "civil_segment"
      },
      "type": "Feature"
    },
    {
      "geometry": {
        "coordinates": [
          47.11715032,
          31.822314
        ],
        "type": "Point"
      },
      "properties": {
        "chainage_m": 0.0,
        "civil_class": "bridge",
        "investigation_flags": [
          "fine-soil-plasticity-and-shrink-swell-tests",
          "granular-density-and-groundwater-tests",
          "silt-moisture-frost-and-erosion-review"
        ],
        "lat": 31.822314,
        "line": "line-2",
        "lon": 47.11715032,
        "sample_id": "segment:line-2-civil-007:0000",
        "scope_id": "line-2-civil-007",
        "scope_type": "civil_segment"
      },
      "type": "Feature"
    },
    {
      "geometry": {
        "coordinates": [
          47.12117556,
          31.82825289
        ],
        "type": "Point"
      },
      "properties": {
        "chainage_m": 840.85,
        "civil_class": "bridge",
        "investigation_flags": [
          "fine-soil-plasticity-and-shrink-swell-tests",
          "granular-density-and-groundwater-tests",
          "silt-moisture-frost-and-erosion-review"
        ],
        "lat": 31.82825289,
        "line": "line-2",
        "lon": 47.12117556,
        "sample_id": "segment:line-2-civil-007:0001",
        "scope_id": "line-2-civil-007",
        "scope_type": "civil_segment"
      },
      "type": "Feature"
    },
    {
      "geometry": {
        "coordinates": [
          47.12198038,
          31.82930343
        ],
        "type": "Point"
      },
      "properties": {
        "chainage_m": 1000.363,
        "civil_class": "bridge",
        "investigation_flags": [
          "fine-soil-plasticity-and-shrink-swell-tests",
          "granular-density-and-groundwater-tests"
        ],
        "lat": 31.82930343,
        "line": "line-2",
        "lon": 47.12198038,
        "sample_id": "segment:line-2-civil-007:0002",
        "scope_id": "line-2-civil-007",
        "scope_type": "civil_segment"
      },
      "type": "Feature"
    },
    {
      "geometry": {
        "coordinates": [
          47.12539871,
          31.83402297
        ],
        "type": "Point"
      },
      "properties": {
        "chainage_m": 1681.7,
        "civil_class": "bridge",
        "investigation_flags": [
          "fine-soil-plasticity-and-shrink-swell-tests",
          "granular-density-and-groundwater-tests"
        ],
        "lat": 31.83402297,
        "line": "line-2",
        "lon": 47.12539871,
        "sample_id": "segment:line-2-civil-007:0003",
        "scope_id": "line-2-civil-007",
        "scope_type": "civil_segment"
      },
      "type": "Feature"
    },
    {
      "geometry": {
        "coordinates": [
          47.12539871,
          31.83402297
        ],
        "type": "Point"
      },
      "properties": {
        "chainage_m": 1681.7,
        "civil_class": "elevated",
        "investigation_flags": [
          "fine-soil-plasticity-and-shrink-swell-tests",
          "granular-density-and-groundwater-tests"
        ],
        "lat": 31.83402297,
        "line": "line-2",
        "lon": 47.12539871,
        "sample_id": "segment:line-2-civil-008:0000",
        "scope_id": "line-2-civil-008",
        "scope_type": "civil_segment"
      },
      "type": "Feature"
    },
    {
      "geometry": {
        "coordinates": [
          47.12543887,
          31.83422594
        ],
        "type": "Point"
      },
      "properties": {
        "chainage_m": 1705.8,
        "civil_class": "elevated",
        "investigation_flags": [
          "fine-soil-plasticity-and-shrink-swell-tests",
          "granular-density-and-groundwater-tests"
        ],
        "lat": 31.83422594,
        "line": "line-2",
        "lon": 47.12543887,
        "sample_id": "segment:line-2-civil-008:0001",
        "scope_id": "line-2-civil-008",
        "scope_type": "civil_segment"
      },
      "type": "Feature"
    },
    {
      "geometry": {
        "coordinates": [
          47.12561021,
          31.83438242
        ],
        "type": "Point"
      },
      "properties": {
        "chainage_m": 1729.9,
        "civil_class": "elevated",
        "investigation_flags": [
          "fine-soil-plasticity-and-shrink-swell-tests",
          "granular-density-and-groundwater-tests"
        ],
        "lat": 31.83438242,
        "line": "line-2",
        "lon": 47.12561021,
        "sample_id": "segment:line-2-civil-008:0002",
        "scope_id": "line-2-civil-008",
        "scope_type": "civil_segment"
      },
      "type": "Feature"
    },
    {
      "geometry": {
        "coordinates": [
          47.12561021,
          31.83438242
        ],
        "type": "Point"
      },
      "properties": {
        "chainage_m": 1729.9,
        "civil_class": "bridge",
        "investigation_flags": [
          "fine-soil-plasticity-and-shrink-swell-tests",
          "granular-density-and-groundwater-tests"
        ],
        "lat": 31.83438242,
        "line": "line-2",
        "lon": 47.12561021,
        "sample_id": "segment:line-2-civil-009:0000",
        "scope_id": "line-2-civil-009",
        "scope_type": "civil_segment"
      },
      "type": "Feature"
    },
    {
      "geometry": {
        "coordinates": [
          47.13044944,
          31.84136898
        ],
        "type": "Point"
      },
      "properties": {
        "chainage_m": 2730.319,
        "civil_class": "bridge",
        "investigation_flags": [
          "fine-soil-plasticity-and-shrink-swell-tests",
          "granular-density-and-groundwater-tests",
          "silt-moisture-frost-and-erosion-review"
        ],
        "lat": 31.84136898,
        "line": "line-2",
        "lon": 47.13044944,
        "sample_id": "segment:line-2-civil-009:0001",
        "scope_id": "line-2-civil-009",
        "scope_type": "civil_segment"
      },
      "type": "Feature"
    },
    {
      "geometry": {
        "coordinates": [
          47.13183458,
          31.84344744
        ],
        "type": "Point"
      },
      "properties": {
        "chainage_m": 3027.05,
        "civil_class": "bridge",
        "investigation_flags": [
          "fine-soil-plasticity-and-shrink-swell-tests",
          "granular-density-and-groundwater-tests",
          "silt-moisture-frost-and-erosion-review"
        ],
        "lat": 31.84344744,
        "line": "line-2",
        "lon": 47.13183458,
        "sample_id": "segment:line-2-civil-009:0002",
        "scope_id": "line-2-civil-009",
        "scope_type": "civil_segment"
      },
      "type": "Feature"
    },
    {
      "geometry": {
        "coordinates": [
          47.13529868,
          31.84819476
        ],
        "type": "Point"
      },
      "properties": {
        "chainage_m": 3730.739,
        "civil_class": "bridge",
        "investigation_flags": [
          "granular-density-and-groundwater-tests",
          "silt-moisture-frost-and-erosion-review"
        ],
        "lat": 31.84819476,
        "line": "line-2",
        "lon": 47.13529868,
        "sample_id": "segment:line-2-civil-009:0003",
        "scope_id": "line-2-civil-009",
        "scope_type": "civil_segment"
      },
      "type": "Feature"
    },
    {
      "geometry": {
        "coordinates": [
          47.13808853,
          31.8523449
        ],
        "type": "Point"
      },
      "properties": {
        "chainage_m": 4324.2,
        "civil_class": "bridge",
        "investigation_flags": [
          "fine-soil-plasticity-and-shrink-swell-tests",
          "granular-density-and-groundwater-tests"
        ],
        "lat": 31.8523449,
        "line": "line-2",
        "lon": 47.13808853,
        "sample_id": "segment:line-2-civil-009:0004",
        "scope_id": "line-2-civil-009",
        "scope_type": "civil_segment"
      },
      "type": "Feature"
    },
    {
      "geometry": {
        "coordinates": [
          47.13808853,
          31.8523449
        ],
        "type": "Point"
      },
      "properties": {
        "chainage_m": 4324.2,
        "civil_class": "elevated",
        "investigation_flags": [
          "fine-soil-plasticity-and-shrink-swell-tests",
          "granular-density-and-groundwater-tests"
        ],
        "lat": 31.8523449,
        "line": "line-2",
        "lon": 47.13808853,
        "sample_id": "segment:line-2-civil-010:0000",
        "scope_id": "line-2-civil-010",
        "scope_type": "civil_segment"
      },
      "type": "Feature"
    },
    {
      "geometry": {
        "coordinates": [
          47.13831512,
          31.85261966
        ],
        "type": "Point"
      },
      "properties": {
        "chainage_m": 4362.45,
        "civil_class": "elevated",
        "investigation_flags": [
          "fine-soil-plasticity-and-shrink-swell-tests",
          "granular-density-and-groundwater-tests"
        ],
        "lat": 31.85261966,
        "line": "line-2",
        "lon": 47.13831512,
        "sample_id": "segment:line-2-civil-010:0001",
        "scope_id": "line-2-civil-010",
        "scope_type": "civil_segment"
      },
      "type": "Feature"
    },
    {
      "geometry": {
        "coordinates": [
          47.13851153,
          31.85287338
        ],
        "type": "Point"
      },
      "properties": {
        "chainage_m": 4400.7,
        "civil_class": "elevated",
        "investigation_flags": [
          "fine-soil-plasticity-and-shrink-swell-tests",
          "granular-density-and-groundwater-tests"
        ],
        "lat": 31.85287338,
        "line": "line-2",
        "lon": 47.13851153,
        "sample_id": "segment:line-2-civil-010:0002",
        "scope_id": "line-2-civil-010",
        "scope_type": "civil_segment"
      },
      "type": "Feature"
    },
    {
      "geometry": {
        "coordinates": [
          47.13851153,
          31.85287338
        ],
        "type": "Point"
      },
      "properties": {
        "chainage_m": 4400.7,
        "civil_class": "bridge",
        "investigation_flags": [
          "fine-soil-plasticity-and-shrink-swell-tests",
          "granular-density-and-groundwater-tests"
        ],
        "lat": 31.85287338,
        "line": "line-2",
        "lon": 47.13851153,
        "sample_id": "segment:line-2-civil-011:0000",
        "scope_id": "line-2-civil-011",
        "scope_type": "civil_segment"
      },
      "type": "Feature"
    },
    {
      "geometry": {
        "coordinates": [
          47.13872302,
          31.85319651
        ],
        "type": "Point"
      },
      "properties": {
        "chainage_m": 4444.85,
        "civil_class": "bridge",
        "investigation_flags": [
          "fine-soil-plasticity-and-shrink-swell-tests",
          "granular-density-and-groundwater-tests"
        ],
        "lat": 31.85319651,
        "line": "line-2",
        "lon": 47.13872302,
        "sample_id": "segment:line-2-civil-011:0001",
        "scope_id": "line-2-civil-011",
        "scope_type": "civil_segment"
      },
      "type": "Feature"
    },
    {
      "geometry": {
        "coordinates": [
          47.13893452,
          31.85341405
        ],
        "type": "Point"
      },
      "properties": {
        "chainage_m": 4489.0,
        "civil_class": "bridge",
        "investigation_flags": [
          "fine-soil-plasticity-and-shrink-swell-tests",
          "granular-density-and-groundwater-tests"
        ],
        "lat": 31.85341405,
        "line": "line-2",
        "lon": 47.13893452,
        "sample_id": "segment:line-2-civil-011:0002",
        "scope_id": "line-2-civil-011",
        "scope_type": "civil_segment"
      },
      "type": "Feature"
    },
    {
      "geometry": {
        "coordinates": [
          47.13893452,
          31.85341405
        ],
        "type": "Point"
      },
      "properties": {
        "chainage_m": 4489.0,
        "civil_class": "elevated",
        "investigation_flags": [
          "fine-soil-plasticity-and-shrink-swell-tests",
          "granular-density-and-groundwater-tests"
        ],
        "lat": 31.85341405,
        "line": "line-2",
        "lon": 47.13893452,
        "sample_id": "segment:line-2-civil-012:0000",
        "scope_id": "line-2-civil-012",
        "scope_type": "civil_segment"
      },
      "type": "Feature"
    },
    {
      "geometry": {
        "coordinates": [
          47.1390121,
          31.85351416
        ],
        "type": "Point"
      },
      "properties": {
        "chainage_m": 4503.15,
        "civil_class": "elevated",
        "investigation_flags": [
          "granular-density-and-groundwater-tests"
        ],
        "lat": 31.85351416,
        "line": "line-2",
        "lon": 47.1390121,
        "sample_id": "segment:line-2-civil-012:0001",
        "scope_id": "line-2-civil-012",
        "scope_type": "civil_segment"
      },
      "type": "Feature"
    },
    {
      "geometry": {
        "coordinates": [
          47.13911798,
          31.85360426
        ],
        "type": "Point"
      },
      "properties": {
        "chainage_m": 4517.3,
        "civil_class": "elevated",
        "investigation_flags": [
          "granular-density-and-groundwater-tests"
        ],
        "lat": 31.85360426,
        "line": "line-2",
        "lon": 47.13911798,
        "sample_id": "segment:line-2-civil-012:0002",
        "scope_id": "line-2-civil-012",
        "scope_type": "civil_segment"
      },
      "type": "Feature"
    },
    {
      "geometry": {
        "coordinates": [
          47.13911798,
          31.85360426
        ],
        "type": "Point"
      },
      "properties": {
        "chainage_m": 4517.3,
        "civil_class": "bridge",
        "investigation_flags": [
          "granular-density-and-groundwater-tests"
        ],
        "lat": 31.85360426,
        "line": "line-2",
        "lon": 47.13911798,
        "sample_id": "segment:line-2-civil-013:0000",
        "scope_id": "line-2-civil-013",
        "scope_type": "civil_segment"
      },
      "type": "Feature"
    },
    {
      "geometry": {
        "coordinates": [
          47.13914602,
          31.85368436
        ],
        "type": "Point"
      },
      "properties": {
        "chainage_m": 4527.3,
        "civil_class": "bridge",
        "investigation_flags": [
          "granular-density-and-groundwater-tests"
        ],
        "lat": 31.85368436,
        "line": "line-2",
        "lon": 47.13914602,
        "sample_id": "segment:line-2-civil-013:0001",
        "scope_id": "line-2-civil-013",
        "scope_type": "civil_segment"
      },
      "type": "Feature"
    },
    {
      "geometry": {
        "coordinates": [
          47.13914602,
          31.85377439
        ],
        "type": "Point"
      },
      "properties": {
        "chainage_m": 4537.3,
        "civil_class": "bridge",
        "investigation_flags": [
          "granular-density-and-groundwater-tests"
        ],
        "lat": 31.85377439,
        "line": "line-2",
        "lon": 47.13914602,
        "sample_id": "segment:line-2-civil-013:0002",
        "scope_id": "line-2-civil-013",
        "scope_type": "civil_segment"
      },
      "type": "Feature"
    },
    {
      "geometry": {
        "coordinates": [
          47.13914602,
          31.85377439
        ],
        "type": "Point"
      },
      "properties": {
        "chainage_m": 4537.3,
        "civil_class": "elevated",
        "investigation_flags": [
          "granular-density-and-groundwater-tests"
        ],
        "lat": 31.85377439,
        "line": "line-2",
        "lon": 47.13914602,
        "sample_id": "segment:line-2-civil-014:0000",
        "scope_id": "line-2-civil-014",
        "scope_type": "civil_segment"
      },
      "type": "Feature"
    },
    {
      "geometry": {
        "coordinates": [
          47.13922394,
          31.85387439
        ],
        "type": "Point"
      },
      "properties": {
        "chainage_m": 4551.45,
        "civil_class": "elevated",
        "investigation_flags": [
          "granular-density-and-groundwater-tests"
        ],
        "lat": 31.85387439,
        "line": "line-2",
        "lon": 47.13922394,
        "sample_id": "segment:line-2-civil-014:0001",
        "scope_id": "line-2-civil-014",
        "scope_type": "civil_segment"
      },
      "type": "Feature"
    },
    {
      "geometry": {
        "coordinates": [
          47.13932982,
          31.85396448
        ],
        "type": "Point"
      },
      "properties": {
        "chainage_m": 4565.6,
        "civil_class": "elevated",
        "investigation_flags": [
          "granular-density-and-groundwater-tests"
        ],
        "lat": 31.85396448,
        "line": "line-2",
        "lon": 47.13932982,
        "sample_id": "segment:line-2-civil-014:0002",
        "scope_id": "line-2-civil-014",
        "scope_type": "civil_segment"
      },
      "type": "Feature"
    },
    {
      "geometry": {
        "coordinates": [
          47.13932982,
          31.85396448
        ],
        "type": "Point"
      },
      "properties": {
        "chainage_m": 4565.6,
        "civil_class": "bridge",
        "investigation_flags": [
          "granular-density-and-groundwater-tests"
        ],
        "lat": 31.85396448,
        "line": "line-2",
        "lon": 47.13932982,
        "sample_id": "segment:line-2-civil-015:0000",
        "scope_id": "line-2-civil-015",
        "scope_type": "civil_segment"
      },
      "type": "Feature"
    },
    {
      "geometry": {
        "coordinates": [
          47.1402035,
          31.85526839
        ],
        "type": "Point"
      },
      "properties": {
        "chainage_m": 4744.6,
        "civil_class": "bridge",
        "investigation_flags": [
          "granular-density-and-groundwater-tests",
          "silt-moisture-frost-and-erosion-review"
        ],
        "lat": 31.85526839,
        "line": "line-2",
        "lon": 47.1402035,
        "sample_id": "segment:line-2-civil-015:0001",
        "scope_id": "line-2-civil-015",
        "scope_type": "civil_segment"
      },
      "type": "Feature"
    },
    {
      "geometry": {
        "coordinates": [
          47.14102374,
          31.85648566
        ],
        "type": "Point"
      },
      "properties": {
        "chainage_m": 4923.6,
        "civil_class": "bridge",
        "investigation_flags": [
          "granular-density-and-groundwater-tests"
        ],
        "lat": 31.85648566,
        "line": "line-2",
        "lon": 47.14102374,
        "sample_id": "segment:line-2-civil-015:0002",
        "scope_id": "line-2-civil-015",
        "scope_type": "civil_segment"
      },
      "type": "Feature"
    },
    {
      "geometry": {
        "coordinates": [
          47.14102374,
          31.85648566
        ],
        "type": "Point"
      },
      "properties": {
        "chainage_m": 4923.6,
        "civil_class": "elevated",
        "investigation_flags": [
          "granular-density-and-groundwater-tests"
        ],
        "lat": 31.85648566,
        "line": "line-2",
        "lon": 47.14102374,
        "sample_id": "segment:line-2-civil-016:0000",
        "scope_id": "line-2-civil-016",
        "scope_type": "civil_segment"
      },
      "type": "Feature"
    },
    {
      "geometry": {
        "coordinates": [
          47.14591393,
          31.86334931
        ],
        "type": "Point"
      },
      "properties": {
        "chainage_m": 5924.134,
        "civil_class": "elevated",
        "investigation_flags": [
          "fine-soil-plasticity-and-shrink-swell-tests",
          "granular-density-and-groundwater-tests",
          "silt-moisture-frost-and-erosion-review"
        ],
        "lat": 31.86334931,
        "line": "line-2",
        "lon": 47.14591393,
        "sample_id": "segment:line-2-civil-016:0001",
        "scope_id": "line-2-civil-016",
        "scope_type": "civil_segment"
      },
      "type": "Feature"
    },
    {
      "geometry": {
        "coordinates": [
          47.15074758,
          31.87033878
        ],
        "type": "Point"
      },
      "properties": {
        "chainage_m": 6924.667,
        "civil_class": "elevated",
        "investigation_flags": [
          "fine-soil-plasticity-and-shrink-swell-tests",
          "granular-density-and-groundwater-tests"
        ],
        "lat": 31.87033878,
        "line": "line-2",
        "lon": 47.15074758,
        "sample_id": "segment:line-2-civil-016:0002",
        "scope_id": "line-2-civil-016",
        "scope_type": "civil_segment"
      },
      "type": "Feature"
    },
    {
      "geometry": {
        "coordinates": [
          47.15289333,
          31.87352004
        ],
        "type": "Point"
      },
      "properties": {
        "chainage_m": 7385.35,
        "civil_class": "elevated",
        "investigation_flags": [
          "fine-soil-plasticity-and-shrink-swell-tests",
          "granular-density-and-groundwater-tests"
        ],
        "lat": 31.87352004,
        "line": "line-2",
        "lon": 47.15289333,
        "sample_id": "segment:line-2-civil-016:0003",
        "scope_id": "line-2-civil-016",
        "scope_type": "civil_segment"
      },
      "type": "Feature"
    },
    {
      "geometry": {
        "coordinates": [
          47.15563978,
          31.87720369
        ],
        "type": "Point"
      },
      "properties": {
        "chainage_m": 7925.201,
        "civil_class": "elevated",
        "investigation_flags": [
          "coverage-gap"
        ],
        "lat": 31.87720369,
        "line": "line-2",
        "lon": 47.15563978,
        "sample_id": "segment:line-2-civil-016:0004",
        "scope_id": "line-2-civil-016",
        "scope_type": "civil_segment"
      },
      "type": "Feature"
    },
    {
      "geometry": {
        "coordinates": [
          47.16050722,
          31.88428571
        ],
        "type": "Point"
      },
      "properties": {
        "chainage_m": 8925.735,
        "civil_class": "elevated",
        "investigation_flags": [
          "coverage-gap"
        ],
        "lat": 31.88428571,
        "line": "line-2",
        "lon": 47.16050722,
        "sample_id": "segment:line-2-civil-016:0005",
        "scope_id": "line-2-civil-016",
        "scope_type": "civil_segment"
      },
      "type": "Feature"
    },
    {
      "geometry": {
        "coordinates": [
          47.16494866,
          31.89070115
        ],
        "type": "Point"
      },
      "properties": {
        "chainage_m": 9847.1,
        "civil_class": "elevated",
        "investigation_flags": [
          "fine-soil-plasticity-and-shrink-swell-tests",
          "granular-density-and-groundwater-tests"
        ],
        "lat": 31.89070115,
        "line": "line-2",
        "lon": 47.16494866,
        "sample_id": "segment:line-2-civil-016:0006",
        "scope_id": "line-2-civil-016",
        "scope_type": "civil_segment"
      },
      "type": "Feature"
    },
    {
      "geometry": {
        "coordinates": [
          47.18927083,
          31.82987258
        ],
        "type": "Point"
      },
      "properties": {
        "chainage_m": 0.0,
        "civil_class": "elevated",
        "investigation_flags": [
          "fine-soil-plasticity-and-shrink-swell-tests",
          "silt-moisture-frost-and-erosion-review"
        ],
        "lat": 31.82987258,
        "line": "line-3",
        "lon": 47.18927083,
        "sample_id": "segment:line-3-civil-017:0000",
        "scope_id": "line-3-civil-017",
        "scope_type": "civil_segment"
      },
      "type": "Feature"
    },
    {
      "geometry": {
        "coordinates": [
          47.18673286,
          31.83050321
        ],
        "type": "Point"
      },
      "properties": {
        "chainage_m": 274.85,
        "civil_class": "elevated",
        "investigation_flags": [
          "fine-soil-plasticity-and-shrink-swell-tests"
        ],
        "lat": 31.83050321,
        "line": "line-3",
        "lon": 47.18673286,
        "sample_id": "segment:line-3-civil-017:0001",
        "scope_id": "line-3-civil-017",
        "scope_type": "civil_segment"
      },
      "type": "Feature"
    },
    {
      "geometry": {
        "coordinates": [
          47.18419314,
          31.83113235
        ],
        "type": "Point"
      },
      "properties": {
        "chainage_m": 549.7,
        "civil_class": "elevated",
        "investigation_flags": [
          "fine-soil-plasticity-and-shrink-swell-tests"
        ],
        "lat": 31.83113235,
        "line": "line-3",
        "lon": 47.18419314,
        "sample_id": "segment:line-3-civil-017:0002",
        "scope_id": "line-3-civil-017",
        "scope_type": "civil_segment"
      },
      "type": "Feature"
    },
    {
      "geometry": {
        "coordinates": [
          47.18419314,
          31.83113235
        ],
        "type": "Point"
      },
      "properties": {
        "chainage_m": 549.7,
        "civil_class": "bridge",
        "investigation_flags": [
          "fine-soil-plasticity-and-shrink-swell-tests"
        ],
        "lat": 31.83113235,
        "line": "line-3",
        "lon": 47.18419314,
        "sample_id": "segment:line-3-civil-018:0000",
        "scope_id": "line-3-civil-018",
        "scope_type": "civil_segment"
      },
      "type": "Feature"
    },
    {
      "geometry": {
        "coordinates": [
          47.17473737,
          31.83342099
        ],
        "type": "Point"
      },
      "properties": {
        "chainage_m": 1548.92,
        "civil_class": "bridge",
        "investigation_flags": [
          "granular-density-and-groundwater-tests"
        ],
        "lat": 31.83342099,
        "line": "line-3",
        "lon": 47.17473737,
        "sample_id": "segment:line-3-civil-018:0001",
        "scope_id": "line-3-civil-018",
        "scope_type": "civil_segment"
      },
      "type": "Feature"
    },
    {
      "geometry": {
        "coordinates": [
          47.17467237,
          31.83347191
        ],
        "type": "Point"
      },
      "properties": {
        "chainage_m": 1557.4,
        "civil_class": "bridge",
        "investigation_flags": [
          "granular-density-and-groundwater-tests"
        ],
        "lat": 31.83347191,
        "line": "line-3",
        "lon": 47.17467237,
        "sample_id": "segment:line-3-civil-018:0002",
        "scope_id": "line-3-civil-018",
        "scope_type": "civil_segment"
      },
      "type": "Feature"
    },
    {
      "geometry": {
        "coordinates": [
          47.16528093,
          31.8357087
        ],
        "type": "Point"
      },
      "properties": {
        "chainage_m": 2548.14,
        "civil_class": "bridge",
        "investigation_flags": [
          "fine-soil-plasticity-and-shrink-swell-tests",
          "granular-density-and-groundwater-tests",
          "silt-moisture-frost-and-erosion-review"
        ],
        "lat": 31.8357087,
        "line": "line-3",
        "lon": 47.16528093,
        "sample_id": "segment:line-3-civil-018:0003",
        "scope_id": "line-3-civil-018",
        "scope_type": "civil_segment"
      },
      "type": "Feature"
    },
    {
      "geometry": {
        "coordinates": [
          47.16515137,
          31.83581147
        ],
        "type": "Point"
      },
      "properties": {
        "chainage_m": 2565.1,
        "civil_class": "bridge",
        "investigation_flags": [
          "fine-soil-plasticity-and-shrink-swell-tests",
          "granular-density-and-groundwater-tests",
          "silt-moisture-frost-and-erosion-review"
        ],
        "lat": 31.83581147,
        "line": "line-3",
        "lon": 47.16515137,
        "sample_id": "segment:line-3-civil-018:0004",
        "scope_id": "line-3-civil-018",
        "scope_type": "civil_segment"
      },
      "type": "Feature"
    },
    {
      "geometry": {
        "coordinates": [
          47.16515137,
          31.83581147
        ],
        "type": "Point"
      },
      "properties": {
        "chainage_m": 2565.1,
        "civil_class": "elevated",
        "investigation_flags": [
          "fine-soil-plasticity-and-shrink-swell-tests",
          "granular-density-and-groundwater-tests",
          "silt-moisture-frost-and-erosion-review"
        ],
        "lat": 31.83581147,
        "line": "line-3",
        "lon": 47.16515137,
        "sample_id": "segment:line-3-civil-019:0000",
        "scope_id": "line-3-civil-019",
        "scope_type": "civil_segment"
      },
      "type": "Feature"
    },
    {
      "geometry": {
        "coordinates": [
          47.16493974,
          31.83581147
        ],
        "type": "Point"
      },
      "properties": {
        "chainage_m": 2585.1,
        "civil_class": "elevated",
        "investigation_flags": [
          "fine-soil-plasticity-and-shrink-swell-tests",
          "granular-density-and-groundwater-tests",
          "silt-moisture-frost-and-erosion-review"
        ],
        "lat": 31.83581147,
        "line": "line-3",
        "lon": 47.16493974,
        "sample_id": "segment:line-3-civil-019:0001",
        "scope_id": "line-3-civil-019",
        "scope_type": "civil_segment"
      },
      "type": "Feature"
    },
    {
      "geometry": {
        "coordinates": [
          47.16472811,
          31.83581147
        ],
        "type": "Point"
      },
      "properties": {
        "chainage_m": 2605.1,
        "civil_class": "elevated",
        "investigation_flags": [
          "fine-soil-plasticity-and-shrink-swell-tests",
          "granular-density-and-groundwater-tests",
          "silt-moisture-frost-and-erosion-review"
        ],
        "lat": 31.83581147,
        "line": "line-3",
        "lon": 47.16472811,
        "sample_id": "segment:line-3-civil-019:0002",
        "scope_id": "line-3-civil-019",
        "scope_type": "civil_segment"
      },
      "type": "Feature"
    },
    {
      "geometry": {
        "coordinates": [
          47.16472811,
          31.83581147
        ],
        "type": "Point"
      },
      "properties": {
        "chainage_m": 2605.1,
        "civil_class": "bridge",
        "investigation_flags": [
          "fine-soil-plasticity-and-shrink-swell-tests",
          "granular-density-and-groundwater-tests",
          "silt-moisture-frost-and-erosion-review"
        ],
        "lat": 31.83581147,
        "line": "line-3",
        "lon": 47.16472811,
        "sample_id": "segment:line-3-civil-020:0000",
        "scope_id": "line-3-civil-020",
        "scope_type": "civil_segment"
      },
      "type": "Feature"
    },
    {
      "geometry": {
        "coordinates": [
          47.16216125,
          31.83638366
        ],
        "type": "Point"
      },
      "properties": {
        "chainage_m": 2874.1,
        "civil_class": "bridge",
        "investigation_flags": [
          "fine-soil-plasticity-and-shrink-swell-tests",
          "granular-density-and-groundwater-tests",
          "silt-moisture-frost-and-erosion-review"
        ],
        "lat": 31.83638366,
        "line": "line-3",
        "lon": 47.16216125,
        "sample_id": "segment:line-3-civil-020:0001",
        "scope_id": "line-3-civil-020",
        "scope_type": "civil_segment"
      },
      "type": "Feature"
    },
    {
      "geometry": {
        "coordinates": [
          47.15965024,
          31.83707123
        ],
        "type": "Point"
      },
      "properties": {
        "chainage_m": 3143.1,
        "civil_class": "bridge",
        "investigation_flags": [
          "fine-soil-plasticity-and-shrink-swell-tests",
          "granular-density-and-groundwater-tests",
          "silt-moisture-frost-and-erosion-review"
        ],
        "lat": 31.83707123,
        "line": "line-3",
        "lon": 47.15965024,
        "sample_id": "segment:line-3-civil-020:0002",
        "scope_id": "line-3-civil-020",
        "scope_type": "civil_segment"
      },
      "type": "Feature"
    },
    {
      "geometry": {
        "coordinates": [
          47.15965024,
          31.83707123
        ],
        "type": "Point"
      },
      "properties": {
        "chainage_m": 3143.1,
        "civil_class": "elevated",
        "investigation_flags": [
          "fine-soil-plasticity-and-shrink-swell-tests",
          "granular-density-and-groundwater-tests",
          "silt-moisture-frost-and-erosion-review"
        ],
        "lat": 31.83707123,
        "line": "line-3",
        "lon": 47.15965024,
        "sample_id": "segment:line-3-civil-021:0000",
        "scope_id": "line-3-civil-021",
        "scope_type": "civil_segment"
      },
      "type": "Feature"
    },
    {
      "geometry": {
        "coordinates": [
          47.15391936,
          31.83851096
        ],
        "type": "Point"
      },
      "properties": {
        "chainage_m": 3751.1,
        "civil_class": "elevated",
        "investigation_flags": [
          "fine-soil-plasticity-and-shrink-swell-tests",
          "granular-density-and-groundwater-tests",
          "silt-moisture-frost-and-erosion-review"
        ],
        "lat": 31.83851096,
        "line": "line-3",
        "lon": 47.15391936,
        "sample_id": "segment:line-3-civil-021:0001",
        "scope_id": "line-3-civil-021",
        "scope_type": "civil_segment"
      },
      "type": "Feature"
    },
    {
      "geometry": {
        "coordinates": [
          47.15019677,
          31.83936578
        ],
        "type": "Point"
      },
      "properties": {
        "chainage_m": 4142.352,
        "civil_class": "elevated",
        "investigation_flags": [
          "fine-soil-plasticity-and-shrink-swell-tests",
          "granular-density-and-groundwater-tests",
          "silt-moisture-frost-and-erosion-review"
        ],
        "lat": 31.83936578,
        "line": "line-3",
        "lon": 47.15019677,
        "sample_id": "segment:line-3-civil-021:0002",
        "scope_id": "line-3-civil-021",
        "scope_type": "civil_segment"
      },
      "type": "Feature"
    },
    {
      "geometry": {
        "coordinates": [
          47.14822947,
          31.83978002
        ],
        "type": "Point"
      },
      "properties": {
        "chainage_m": 4359.1,
        "civil_class": "elevated",
        "investigation_flags": [
          "fine-soil-plasticity-and-shrink-swell-tests",
          "silt-moisture-frost-and-erosion-review"
        ],
        "lat": 31.83978002,
        "line": "line-3",
        "lon": 47.14822947,
        "sample_id": "segment:line-3-civil-021:0003",
        "scope_id": "line-3-civil-021",
        "scope_type": "civil_segment"
      },
      "type": "Feature"
    },
    {
      "geometry": {
        "coordinates": [
          47.14822947,
          31.83978002
        ],
        "type": "Point"
      },
      "properties": {
        "chainage_m": 4359.1,
        "civil_class": "bridge",
        "investigation_flags": [
          "fine-soil-plasticity-and-shrink-swell-tests",
          "silt-moisture-frost-and-erosion-review"
        ],
        "lat": 31.83978002,
        "line": "line-3",
        "lon": 47.14822947,
        "sample_id": "segment:line-3-civil-022:0000",
        "scope_id": "line-3-civil-022",
        "scope_type": "civil_segment"
      },
      "type": "Feature"
    },
    {
      "geometry": {
        "coordinates": [
          47.14284834,
          31.84111952
        ],
        "type": "Point"
      },
      "properties": {
        "chainage_m": 4931.2,
        "civil_class": "bridge",
        "investigation_flags": [
          "fine-soil-plasticity-and-shrink-swell-tests",
          "granular-density-and-groundwater-tests",
          "silt-moisture-frost-and-erosion-review"
        ],
        "lat": 31.84111952,
        "line": "line-3",
        "lon": 47.14284834,
        "sample_id": "segment:line-3-civil-022:0001",
        "scope_id": "line-3-civil-022",
        "scope_type": "civil_segment"
      },
      "type": "Feature"
    },
    {
      "geometry": {
        "coordinates": [
          47.13881154,
          31.84211028
        ],
        "type": "Point"
      },
      "properties": {
        "chainage_m": 5358.414,
        "civil_class": "bridge",
        "investigation_flags": [
          "fine-soil-plasticity-and-shrink-swell-tests",
          "granular-density-and-groundwater-tests",
          "silt-moisture-frost-and-erosion-review"
        ],
        "lat": 31.84211028,
        "line": "line-3",
        "lon": 47.13881154,
        "sample_id": "segment:line-3-civil-022:0002",
        "scope_id": "line-3-civil-022",
        "scope_type": "civil_segment"
      },
      "type": "Feature"
    },
    {
      "geometry": {
        "coordinates": [
          47.13745405,
          31.84247021
        ],
        "type": "Point"
      },
      "properties": {
        "chainage_m": 5503.3,
        "civil_class": "bridge",
        "investigation_flags": [
          "fine-soil-plasticity-and-shrink-swell-tests",
          "granular-density-and-groundwater-tests",
          "silt-moisture-frost-and-erosion-review"
        ],
        "lat": 31.84247021,
        "line": "line-3",
        "lon": 47.13745405,
        "sample_id": "segment:line-3-civil-022:0003",
        "scope_id": "line-3-civil-022",
        "scope_type": "civil_segment"
      },
      "type": "Feature"
    },
    {
      "geometry": {
        "coordinates": [
          47.13745405,
          31.84247021
        ],
        "type": "Point"
      },
      "properties": {
        "chainage_m": 5503.3,
        "civil_class": "elevated",
        "investigation_flags": [
          "fine-soil-plasticity-and-shrink-swell-tests",
          "granular-density-and-groundwater-tests",
          "silt-moisture-frost-and-erosion-review"
        ],
        "lat": 31.84247021,
        "line": "line-3",
        "lon": 47.13745405,
        "sample_id": "segment:line-3-civil-023:0000",
        "scope_id": "line-3-civil-023",
        "scope_type": "civil_segment"
      },
      "type": "Feature"
    },
    {
      "geometry": {
        "coordinates": [
          47.13709306,
          31.84247022
        ],
        "type": "Point"
      },
      "properties": {
        "chainage_m": 5537.45,
        "civil_class": "elevated",
        "investigation_flags": [
          "fine-soil-plasticity-and-shrink-swell-tests",
          "granular-density-and-groundwater-tests",
          "silt-moisture-frost-and-erosion-review"
        ],
        "lat": 31.84247022,
        "line": "line-3",
        "lon": 47.13709306,
        "sample_id": "segment:line-3-civil-023:0001",
        "scope_id": "line-3-civil-023",
        "scope_type": "civil_segment"
      },
      "type": "Feature"
    },
    {
      "geometry": {
        "coordinates": [
          47.13681919,
          31.84265018
        ],
        "type": "Point"
      },
      "properties": {
        "chainage_m": 5571.6,
        "civil_class": "elevated",
        "investigation_flags": [
          "fine-soil-plasticity-and-shrink-swell-tests",
          "granular-density-and-groundwater-tests",
          "silt-moisture-frost-and-erosion-review"
        ],
        "lat": 31.84265018,
        "line": "line-3",
        "lon": 47.13681919,
        "sample_id": "segment:line-3-civil-023:0002",
        "scope_id": "line-3-civil-023",
        "scope_type": "civil_segment"
      },
      "type": "Feature"
    },
    {
      "geometry": {
        "coordinates": [
          47.13681919,
          31.84265018
        ],
        "type": "Point"
      },
      "properties": {
        "chainage_m": 5571.6,
        "civil_class": "bridge",
        "investigation_flags": [
          "fine-soil-plasticity-and-shrink-swell-tests",
          "granular-density-and-groundwater-tests",
          "silt-moisture-frost-and-erosion-review"
        ],
        "lat": 31.84265018,
        "line": "line-3",
        "lon": 47.13681919,
        "sample_id": "segment:line-3-civil-024:0000",
        "scope_id": "line-3-civil-024",
        "scope_type": "civil_segment"
      },
      "type": "Feature"
    },
    {
      "geometry": {
        "coordinates": [
          47.12744208,
          31.84480978
        ],
        "type": "Point"
      },
      "properties": {
        "chainage_m": 6570.936,
        "civil_class": "bridge",
        "investigation_flags": [
          "fine-soil-plasticity-and-shrink-swell-tests",
          "granular-density-and-groundwater-tests",
          "silt-moisture-frost-and-erosion-review"
        ],
        "lat": 31.84480978,
        "line": "line-3",
        "lon": 47.12744208,
        "sample_id": "segment:line-3-civil-024:0001",
        "scope_id": "line-3-civil-024",
        "scope_type": "civil_segment"
      },
      "type": "Feature"
    },
    {
      "geometry": {
        "coordinates": [
          47.11800578,
          31.84714128
        ],
        "type": "Point"
      },
      "properties": {
        "chainage_m": 7570.272,
        "civil_class": "bridge",
        "investigation_flags": [
          "fine-soil-plasticity-and-shrink-swell-tests",
          "granular-density-and-groundwater-tests"
        ],
        "lat": 31.84714128,
        "line": "line-3",
        "lon": 47.11800578,
        "sample_id": "segment:line-3-civil-024:0002",
        "scope_id": "line-3-civil-024",
        "scope_type": "civil_segment"
      },
      "type": "Feature"
    },
    {
      "geometry": {
        "coordinates": [
          47.1153604,
          31.84777258
        ],
        "type": "Point"
      },
      "properties": {
        "chainage_m": 7849.4,
        "civil_class": "bridge",
        "investigation_flags": [
          "fine-soil-plasticity-and-shrink-swell-tests",
          "granular-density-and-groundwater-tests"
        ],
        "lat": 31.84777258,
        "line": "line-3",
        "lon": 47.1153604,
        "sample_id": "segment:line-3-civil-024:0003",
        "scope_id": "line-3-civil-024",
        "scope_type": "civil_segment"
      },
      "type": "Feature"
    },
    {
      "geometry": {
        "coordinates": [
          47.10854843,
          31.84942977
        ],
        "type": "Point"
      },
      "properties": {
        "chainage_m": 8569.608,
        "civil_class": "bridge",
        "investigation_flags": [
          "fine-soil-plasticity-and-shrink-swell-tests",
          "granular-density-and-groundwater-tests"
        ],
        "lat": 31.84942977,
        "line": "line-3",
        "lon": 47.10854843,
        "sample_id": "segment:line-3-civil-024:0004",
        "scope_id": "line-3-civil-024",
        "scope_type": "civil_segment"
      },
      "type": "Feature"
    },
    {
      "geometry": {
        "coordinates": [
          47.09905709,
          31.85164849
        ],
        "type": "Point"
      },
      "properties": {
        "chainage_m": 9568.944,
        "civil_class": "bridge",
        "investigation_flags": [
          "fine-soil-plasticity-and-shrink-swell-tests",
          "granular-density-and-groundwater-tests"
        ],
        "lat": 31.85164849,
        "line": "line-3",
        "lon": 47.09905709,
        "sample_id": "segment:line-3-civil-024:0005",
        "scope_id": "line-3-civil-024",
        "scope_type": "civil_segment"
      },
      "type": "Feature"
    },
    {
      "geometry": {
        "coordinates": [
          47.09388842,
          31.85290825
        ],
        "type": "Point"
      },
      "properties": {
        "chainage_m": 10127.2,
        "civil_class": "bridge",
        "investigation_flags": [
          "fine-soil-plasticity-and-shrink-swell-tests",
          "granular-density-and-groundwater-tests"
        ],
        "lat": 31.85290825,
        "line": "line-3",
        "lon": 47.09388842,
        "sample_id": "segment:line-3-civil-024:0006",
        "scope_id": "line-3-civil-024",
        "scope_type": "civil_segment"
      },
      "type": "Feature"
    },
    {
      "geometry": {
        "coordinates": [
          47.09388842,
          31.85290825
        ],
        "type": "Point"
      },
      "properties": {
        "chainage_m": 10127.2,
        "civil_class": "bridge",
        "investigation_flags": [
          "fine-soil-plasticity-and-shrink-swell-tests",
          "granular-density-and-groundwater-tests"
        ],
        "lat": 31.85290825,
        "line": "line-3",
        "lon": 47.09388842,
        "sample_id": "segment:line-3-civil-025:0000",
        "scope_id": "line-3-civil-025",
        "scope_type": "civil_segment"
      },
      "type": "Feature"
    },
    {
      "geometry": {
        "coordinates": [
          47.09166631,
          31.85290825
        ],
        "type": "Point"
      },
      "properties": {
        "chainage_m": 10337.2,
        "civil_class": "bridge",
        "investigation_flags": [
          "fine-soil-plasticity-and-shrink-swell-tests",
          "granular-density-and-groundwater-tests"
        ],
        "lat": 31.85290825,
        "line": "line-3",
        "lon": 47.09166631,
        "sample_id": "segment:line-3-civil-025:0001",
        "scope_id": "line-3-civil-025",
        "scope_type": "civil_segment"
      },
      "type": "Feature"
    },
    {
      "geometry": {
        "coordinates": [
          47.08944421,
          31.85290825
        ],
        "type": "Point"
      },
      "properties": {
        "chainage_m": 10547.2,
        "civil_class": "bridge",
        "investigation_flags": [
          "fine-soil-plasticity-and-shrink-swell-tests",
          "granular-density-and-groundwater-tests"
        ],
        "lat": 31.85290825,
        "line": "line-3",
        "lon": 47.08944421,
        "sample_id": "segment:line-3-civil-025:0002",
        "scope_id": "line-3-civil-025",
        "scope_type": "civil_segment"
      },
      "type": "Feature"
    },
    {
      "geometry": {
        "coordinates": [
          47.11038242,
          31.89358061
        ],
        "type": "Point"
      },
      "properties": {
        "chainage_m": 0.0,
        "civil_class": "station",
        "investigation_flags": [
          "coverage-gap"
        ],
        "lat": 31.89358061,
        "line": "line-1",
        "lon": 47.11038242,
        "sample_id": "station:line-1-0313-0285-s000000",
        "scope_id": "line-1-0313-0285-s000000",
        "scope_type": "station"
      },
      "type": "Feature"
    },
    {
      "geometry": {
        "coordinates": [
          47.12476422,
          31.8723446
        ],
        "type": "Point"
      },
      "properties": {
        "chainage_m": 3005.3,
        "civil_class": "station",
        "investigation_flags": [
          "fine-soil-plasticity-and-shrink-swell-tests",
          "granular-density-and-groundwater-tests"
        ],
        "lat": 31.8723446,
        "line": "line-1",
        "lon": 47.12476422,
        "sample_id": "station:line-1-0431-0353-s003005",
        "scope_id": "line-1-0431-0353-s003005",
        "scope_type": "station"
      },
      "type": "Feature"
    },
    {
      "geometry": {
        "coordinates": [
          47.13914602,
          31.85146852
        ],
        "type": "Point"
      },
      "properties": {
        "chainage_m": 6005.8,
        "civil_class": "station",
        "investigation_flags": [
          "granular-density-and-groundwater-tests",
          "silt-moisture-frost-and-erosion-review"
        ],
        "lat": 31.85146852,
        "line": "line-1",
        "lon": 47.13914602,
        "sample_id": "station:line-1-0547-0421-s006006",
        "scope_id": "line-1-0547-0421-s006006",
        "scope_type": "station"
      },
      "type": "Feature"
    },
    {
      "geometry": {
        "coordinates": [
          47.15331632,
          31.83041248
        ],
        "type": "Point"
      },
      "properties": {
        "chainage_m": 9006.3,
        "civil_class": "station",
        "investigation_flags": [
          "granular-density-and-groundwater-tests"
        ],
        "lat": 31.83041248,
        "line": "line-1",
        "lon": 47.15331632,
        "sample_id": "station:line-1-0664-0488-s009006",
        "scope_id": "line-1-0664-0488-s009006",
        "scope_type": "station"
      },
      "type": "Feature"
    },
    {
      "geometry": {
        "coordinates": [
          47.16769812,
          31.80917647
        ],
        "type": "Point"
      },
      "properties": {
        "chainage_m": 12023.4,
        "civil_class": "station",
        "investigation_flags": [
          "coverage-gap"
        ],
        "lat": 31.80917647,
        "line": "line-1",
        "lon": 47.16769812,
        "sample_id": "station:line-1-0782-0556-s012023",
        "scope_id": "line-1-0782-0556-s012023",
        "scope_type": "station"
      },
      "type": "Feature"
    },
    {
      "geometry": {
        "coordinates": [
          47.18800184,
          31.77948206
        ],
        "type": "Point"
      },
      "properties": {
        "chainage_m": 16247.5,
        "civil_class": "station",
        "investigation_flags": [
          "fine-soil-plasticity-and-shrink-swell-tests",
          "granular-density-and-groundwater-tests"
        ],
        "lat": 31.77948206,
        "line": "line-1",
        "lon": 47.18800184,
        "sample_id": "station:line-1-0947-0652-s016248",
        "scope_id": "line-1-0947-0652-s016248",
        "scope_type": "station"
      },
      "type": "Feature"
    },
    {
      "geometry": {
        "coordinates": [
          47.20851706,
          31.74636828
        ],
        "type": "Point"
      },
      "properties": {
        "chainage_m": 20457.8,
        "civil_class": "station",
        "investigation_flags": [
          "fine-soil-plasticity-and-shrink-swell-tests",
          "granular-density-and-groundwater-tests"
        ],
        "lat": 31.74636828,
        "line": "line-1",
        "lon": 47.20851706,
        "sample_id": "station:line-1-1131-0749-s020458",
        "scope_id": "line-1-1131-0749-s020458",
        "scope_type": "station"
      },
      "type": "Feature"
    },
    {
      "geometry": {
        "coordinates": [
          47.16494866,
          31.89070115
        ],
        "type": "Point"
      },
      "properties": {
        "chainage_m": 9847.1,
        "civil_class": "station",
        "investigation_flags": [
          "fine-soil-plasticity-and-shrink-swell-tests",
          "granular-density-and-groundwater-tests"
        ],
        "lat": 31.89070115,
        "line": "line-2",
        "lon": 47.16494866,
        "sample_id": "station:line-2-0329-0543-s009847",
        "scope_id": "line-2-0329-0543-s009847",
        "scope_type": "station"
      },
      "type": "Feature"
    },
    {
      "geometry": {
        "coordinates": [
          47.15564279,
          31.87720369
        ],
        "type": "Point"
      },
      "properties": {
        "chainage_m": 7924.1,
        "civil_class": "station",
        "investigation_flags": [
          "coverage-gap"
        ],
        "lat": 31.87720369,
        "line": "line-2",
        "lon": 47.15564279,
        "sample_id": "station:line-2-0404-0499-s007924",
        "scope_id": "line-2-0404-0499-s007924",
        "scope_type": "station"
      },
      "type": "Feature"
    },
    {
      "geometry": {
        "coordinates": [
          47.14633692,
          31.86406616
        ],
        "type": "Point"
      },
      "properties": {
        "chainage_m": 6017.5,
        "civil_class": "station",
        "investigation_flags": [
          "fine-soil-plasticity-and-shrink-swell-tests",
          "silt-moisture-frost-and-erosion-review"
        ],
        "lat": 31.86406616,
        "line": "line-2",
        "lon": 47.14633692,
        "sample_id": "station:line-2-0477-0455-s006018",
        "scope_id": "line-2-0477-0455-s006018",
        "scope_type": "station"
      },
      "type": "Feature"
    },
    {
      "geometry": {
        "coordinates": [
          47.13174362,
          31.84337005
        ],
        "type": "Point"
      },
      "properties": {
        "chainage_m": 3017.1,
        "civil_class": "station",
        "investigation_flags": [
          "fine-soil-plasticity-and-shrink-swell-tests",
          "granular-density-and-groundwater-tests",
          "silt-moisture-frost-and-erosion-review"
        ],
        "lat": 31.84337005,
        "line": "line-2",
        "lon": 47.13174362,
        "sample_id": "station:line-2-0592-0386-s003017",
        "scope_id": "line-2-0592-0386-s003017",
        "scope_type": "station"
      },
      "type": "Feature"
    },
    {
      "geometry": {
        "coordinates": [
          47.11715032,
          31.822314
        ],
        "type": "Point"
      },
      "properties": {
        "chainage_m": 0.0,
        "civil_class": "station",
        "investigation_flags": [
          "fine-soil-plasticity-and-shrink-swell-tests",
          "granular-density-and-groundwater-tests",
          "silt-moisture-frost-and-erosion-review"
        ],
        "lat": 31.822314,
        "line": "line-2",
        "lon": 47.11715032,
        "sample_id": "station:line-2-0709-0317-s000000",
        "scope_id": "line-2-0709-0317-s000000",
        "scope_type": "station"
      },
      "type": "Feature"
    },
    {
      "geometry": {
        "coordinates": [
          47.08944421,
          31.85290825
        ],
        "type": "Point"
      },
      "properties": {
        "chainage_m": 10547.2,
        "civil_class": "station",
        "investigation_flags": [
          "fine-soil-plasticity-and-shrink-swell-tests",
          "granular-density-and-groundwater-tests"
        ],
        "lat": 31.85290825,
        "line": "line-3",
        "lon": 47.08944421,
        "sample_id": "station:line-3-0539-0186-s010547",
        "scope_id": "line-3-0539-0186-s010547",
        "scope_type": "station"
      },
      "type": "Feature"
    },
    {
      "geometry": {
        "coordinates": [
          47.11355487,
          31.84822913
        ],
        "type": "Point"
      },
      "properties": {
        "chainage_m": 8040.1,
        "civil_class": "station",
        "investigation_flags": [
          "fine-soil-plasticity-and-shrink-swell-tests",
          "granular-density-and-groundwater-tests"
        ],
        "lat": 31.84822913,
        "line": "line-3",
        "lon": 47.11355487,
        "sample_id": "station:line-3-0565-0300-s008040",
        "scope_id": "line-3-0565-0300-s008040",
        "scope_type": "station"
      },
      "type": "Feature"
    },
    {
      "geometry": {
        "coordinates": [
          47.13724255,
          31.84247022
        ],
        "type": "Point"
      },
      "properties": {
        "chainage_m": 5523.3,
        "civil_class": "station",
        "investigation_flags": [
          "fine-soil-plasticity-and-shrink-swell-tests",
          "granular-density-and-groundwater-tests",
          "silt-moisture-frost-and-erosion-review"
        ],
        "lat": 31.84247022,
        "line": "line-3",
        "lon": 47.13724255,
        "sample_id": "station:line-3-0597-0412-s005523",
        "scope_id": "line-3-0597-0412-s005523",
        "scope_type": "station"
      },
      "type": "Feature"
    },
    {
      "geometry": {
        "coordinates": [
          47.16093022,
          31.8367113
        ],
        "type": "Point"
      },
      "properties": {
        "chainage_m": 3006.5,
        "civil_class": "station",
        "investigation_flags": [
          "fine-soil-plasticity-and-shrink-swell-tests",
          "granular-density-and-groundwater-tests",
          "silt-moisture-frost-and-erosion-review"
        ],
        "lat": 31.8367113,
        "line": "line-3",
        "lon": 47.16093022,
        "sample_id": "station:line-3-0629-0524-s003007",
        "scope_id": "line-3-0629-0524-s003007",
        "scope_type": "station"
      },
      "type": "Feature"
    },
    {
      "geometry": {
        "coordinates": [
          47.18927083,
          31.82987258
        ],
        "type": "Point"
      },
      "properties": {
        "chainage_m": 0.0,
        "civil_class": "station",
        "investigation_flags": [
          "fine-soil-plasticity-and-shrink-swell-tests",
          "silt-moisture-frost-and-erosion-review"
        ],
        "lat": 31.82987258,
        "line": "line-3",
        "lon": 47.18927083,
        "sample_id": "station:line-3-0667-0658-s000000",
        "scope_id": "line-3-0667-0658-s000000",
        "scope_type": "station"
      },
      "type": "Feature"
    }
  ],
  "type": "FeatureCollection"
}
