{
  "features": [
    {
      "geometry": {
        "coordinates": [
          16.31355493834416,
          -9.526134013605443
        ],
        "type": "Point"
      },
      "properties": {
        "id": "interchange-000",
        "junction_group": 0,
        "line_count": 2,
        "lines": "line-1,line-2",
        "platform_count": 2,
        "platforms": "line-1-0473-0396-s001582,line-2-0471-0405-s005792"
      },
      "type": "Feature"
    },
    {
      "geometry": {
        "coordinates": [
          16.340973312959612,
          -9.54035134074794
        ],
        "type": "Point"
      },
      "properties": {
        "id": "interchange-001",
        "junction_group": 1,
        "line_count": 2,
        "lines": "line-1,line-2",
        "platform_count": 2,
        "platforms": "line-1-0551-0551-s005982,line-2-0551-0551-s001810"
      },
      "type": "Feature"
    }
  ],
  "type": "FeatureCollection"
}
