{
  "features": [
    {
      "geometry": {
        "coordinates": [
          68.16342490597447,
          27.4881219558723
        ],
        "type": "Point"
      },
      "properties": {
        "charger_bus_voltage_v": 650.0,
        "charger_contact_count": 4,
        "charger_efficiency": 0.98,
        "charger_max_current_a": 1650.0,
        "charger_max_kw": 1000.0,
        "grid_export_kw": 1600.0,
        "grid_import_kw": 1600.0,
        "line": "line-1",
        "pv_nameplate_kw": 300.0,
        "station": "line-1-0944-0310-s000000",
        "storage_capacity_kwh": 1000.0,
        "storage_initial_soc": 0.6,
        "storage_max_charge_kw": 1000.0,
        "storage_max_discharge_kw": 1000.0,
        "storage_module_kwh": 500.0,
        "tier": "terminal"
      },
      "type": "Feature"
    },
    {
      "geometry": {
        "coordinates": [
          68.190986217448,
          27.532573598963396
        ],
        "type": "Point"
      },
      "properties": {
        "charger_bus_voltage_v": 650.0,
        "charger_contact_count": 4,
        "charger_efficiency": 0.98,
        "charger_max_current_a": 1650.0,
        "charger_max_kw": 1000.0,
        "grid_export_kw": 1200.0,
        "grid_import_kw": 1200.0,
        "line": "line-1",
        "pv_nameplate_kw": 300.0,
        "station": "line-1-0697-0446-s006411",
        "storage_capacity_kwh": 1000.0,
        "storage_initial_soc": 0.5,
        "storage_max_charge_kw": 1000.0,
        "storage_max_discharge_kw": 1000.0,
        "storage_module_kwh": 500.0,
        "tier": "interchange"
      },
      "type": "Feature"
    },
    {
      "geometry": {
        "coordinates": [
          68.20051108244252,
          27.54373150127776
        ],
        "type": "Point"
      },
      "properties": {
        "charger_bus_voltage_v": 650.0,
        "charger_contact_count": 4,
        "charger_efficiency": 0.98,
        "charger_max_current_a": 1650.0,
        "charger_max_kw": 1000.0,
        "grid_export_kw": 1200.0,
        "grid_import_kw": 1200.0,
        "line": "line-1",
        "pv_nameplate_kw": 300.0,
        "station": "line-1-0635-0493-s008064",
        "storage_capacity_kwh": 1000.0,
        "storage_initial_soc": 0.5,
        "storage_max_charge_kw": 1000.0,
        "storage_max_discharge_kw": 1000.0,
        "storage_module_kwh": 500.0,
        "tier": "interchange"
      },
      "type": "Feature"
    },
    {
      "geometry": {
        "coordinates": [
          68.20496952988677,
          27.549310452434945
        ],
        "type": "Point"
      },
      "properties": {
        "charger_bus_voltage_v": 650.0,
        "charger_contact_count": 4,
        "charger_efficiency": 0.98,
        "charger_max_current_a": 1650.0,
        "charger_max_kw": 1000.0,
        "grid_export_kw": 1200.0,
        "grid_import_kw": 1200.0,
        "line": "line-1",
        "pv_nameplate_kw": 300.0,
        "station": "line-1-0604-0515-s008948",
        "storage_capacity_kwh": 1000.0,
        "storage_initial_soc": 0.5,
        "storage_max_charge_kw": 1000.0,
        "storage_max_discharge_kw": 1000.0,
        "storage_module_kwh": 500.0,
        "tier": "interchange"
      },
      "type": "Feature"
    },
    {
      "geometry": {
        "coordinates": [
          68.2128731412652,
          27.5586686930857
        ],
        "type": "Point"
      },
      "properties": {
        "charger_bus_voltage_v": 650.0,
        "charger_contact_count": 4,
        "charger_efficiency": 0.98,
        "charger_max_current_a": 1650.0,
        "charger_max_kw": 1000.0,
        "grid_export_kw": 1200.0,
        "grid_import_kw": 1200.0,
        "line": "line-1",
        "pv_nameplate_kw": 300.0,
        "station": "line-1-0552-0554-s010464",
        "storage_capacity_kwh": 1000.0,
        "storage_initial_soc": 0.5,
        "storage_max_charge_kw": 1000.0,
        "storage_max_discharge_kw": 1000.0,
        "storage_module_kwh": 500.0,
        "tier": "major"
      },
      "type": "Feature"
    },
    {
      "geometry": {
        "coordinates": [
          68.22381660317382,
          27.571446290897313
        ],
        "type": "Point"
      },
      "properties": {
        "charger_bus_voltage_v": 650.0,
        "charger_contact_count": 4,
        "charger_efficiency": 0.98,
        "charger_max_current_a": 1650.0,
        "charger_max_kw": 1000.0,
        "grid_export_kw": 1200.0,
        "grid_import_kw": 1200.0,
        "line": "line-1",
        "pv_nameplate_kw": 300.0,
        "station": "line-1-0481-0608-s012530",
        "storage_capacity_kwh": 1000.0,
        "storage_initial_soc": 0.5,
        "storage_max_charge_kw": 1000.0,
        "storage_max_discharge_kw": 1000.0,
        "storage_module_kwh": 500.0,
        "tier": "interchange"
      },
      "type": "Feature"
    },
    {
      "geometry": {
        "coordinates": [
          68.24144773624879,
          27.591962433862435
        ],
        "type": "Point"
      },
      "properties": {
        "charger_bus_voltage_v": 650.0,
        "charger_contact_count": 4,
        "charger_efficiency": 0.98,
        "charger_max_current_a": 1650.0,
        "charger_max_kw": 1000.0,
        "grid_export_kw": 1200.0,
        "grid_import_kw": 1200.0,
        "line": "line-1",
        "pv_nameplate_kw": 300.0,
        "station": "line-1-0367-0695-s015730",
        "storage_capacity_kwh": 1000.0,
        "storage_initial_soc": 0.5,
        "storage_max_charge_kw": 1000.0,
        "storage_max_discharge_kw": 1000.0,
        "storage_module_kwh": 500.0,
        "tier": "interchange"
      },
      "type": "Feature"
    },
    {
      "geometry": {
        "coordinates": [
          68.27367015186856,
          27.61787756181838
        ],
        "type": "Point"
      },
      "properties": {
        "charger_bus_voltage_v": 650.0,
        "charger_contact_count": 4,
        "charger_efficiency": 0.98,
        "charger_max_current_a": 1650.0,
        "charger_max_kw": 1000.0,
        "grid_export_kw": 6000.0,
        "grid_import_kw": 6000.0,
        "line": "line-1",
        "pv_nameplate_kw": 5000.0,
        "station": "line-1-0223-0854-s021266",
        "storage_capacity_kwh": 40000.0,
        "storage_initial_soc": 0.6,
        "storage_max_charge_kw": 10000.0,
        "storage_max_discharge_kw": 10000.0,
        "storage_module_kwh": 500.0,
        "tier": "depot-main"
      },
      "type": "Feature"
    },
    {
      "geometry": {
        "coordinates": [
          68.21854752892152,
          27.550210283266747
        ],
        "type": "Point"
      },
      "properties": {
        "charger_bus_voltage_v": 650.0,
        "charger_contact_count": 4,
        "charger_efficiency": 0.98,
        "charger_max_current_a": 1650.0,
        "charger_max_kw": 1000.0,
        "grid_export_kw": 6000.0,
        "grid_import_kw": 6000.0,
        "line": "line-2",
        "pv_nameplate_kw": 5000.0,
        "station": "line-2-0599-0582-s000000",
        "storage_capacity_kwh": 40000.0,
        "storage_initial_soc": 0.6,
        "storage_max_charge_kw": 10000.0,
        "storage_max_discharge_kw": 10000.0,
        "storage_module_kwh": 500.0,
        "tier": "depot-main"
      },
      "type": "Feature"
    },
    {
      "geometry": {
        "coordinates": [
          68.22077675264364,
          27.55884865925206
        ],
        "type": "Point"
      },
      "properties": {
        "charger_bus_voltage_v": 650.0,
        "charger_contact_count": 4,
        "charger_efficiency": 0.98,
        "charger_max_current_a": 1650.0,
        "charger_max_kw": 1000.0,
        "grid_export_kw": 1200.0,
        "grid_import_kw": 1200.0,
        "line": "line-2",
        "pv_nameplate_kw": 300.0,
        "station": "line-2-0551-0593-s001051",
        "storage_capacity_kwh": 1000.0,
        "storage_initial_soc": 0.5,
        "storage_max_charge_kw": 1000.0,
        "storage_max_discharge_kw": 1000.0,
        "storage_module_kwh": 500.0,
        "tier": "interchange"
      },
      "type": "Feature"
    },
    {
      "geometry": {
        "coordinates": [
          68.22381660317382,
          27.571446290897313
        ],
        "type": "Point"
      },
      "properties": {
        "charger_bus_voltage_v": 650.0,
        "charger_contact_count": 4,
        "charger_efficiency": 0.98,
        "charger_max_current_a": 1650.0,
        "charger_max_kw": 1000.0,
        "grid_export_kw": 1200.0,
        "grid_import_kw": 1200.0,
        "line": "line-2",
        "pv_nameplate_kw": 300.0,
        "station": "line-2-0481-0608-s002587",
        "storage_capacity_kwh": 1000.0,
        "storage_initial_soc": 0.5,
        "storage_max_charge_kw": 1000.0,
        "storage_max_discharge_kw": 1000.0,
        "storage_module_kwh": 500.0,
        "tier": "interchange"
      },
      "type": "Feature"
    },
    {
      "geometry": {
        "coordinates": [
          68.22604582689593,
          27.58080453154807
        ],
        "type": "Point"
      },
      "properties": {
        "charger_bus_voltage_v": 650.0,
        "charger_contact_count": 4,
        "charger_efficiency": 0.98,
        "charger_max_current_a": 1650.0,
        "charger_max_kw": 1000.0,
        "grid_export_kw": 1200.0,
        "grid_import_kw": 1200.0,
        "line": "line-2",
        "pv_nameplate_kw": 300.0,
        "station": "line-2-0429-0619-s003718",
        "storage_capacity_kwh": 1000.0,
        "storage_initial_soc": 0.5,
        "storage_max_charge_kw": 1000.0,
        "storage_max_discharge_kw": 1000.0,
        "storage_module_kwh": 500.0,
        "tier": "interchange"
      },
      "type": "Feature"
    },
    {
      "geometry": {
        "coordinates": [
          68.22928833412811,
          27.593942061692402
        ],
        "type": "Point"
      },
      "properties": {
        "charger_bus_voltage_v": 650.0,
        "charger_contact_count": 4,
        "charger_efficiency": 0.98,
        "charger_max_current_a": 1650.0,
        "charger_max_kw": 1000.0,
        "grid_export_kw": 1200.0,
        "grid_import_kw": 1200.0,
        "line": "line-2",
        "pv_nameplate_kw": 300.0,
        "station": "line-2-0356-0635-s005311",
        "storage_capacity_kwh": 1000.0,
        "storage_initial_soc": 0.5,
        "storage_max_charge_kw": 1000.0,
        "storage_max_discharge_kw": 1000.0,
        "storage_module_kwh": 500.0,
        "tier": "interchange"
      },
      "type": "Feature"
    },
    {
      "geometry": {
        "coordinates": [
          68.25056728783929,
          27.65279099809236
        ],
        "type": "Point"
      },
      "properties": {
        "charger_bus_voltage_v": 650.0,
        "charger_contact_count": 4,
        "charger_efficiency": 0.98,
        "charger_max_current_a": 1650.0,
        "charger_max_kw": 1000.0,
        "grid_export_kw": 1600.0,
        "grid_import_kw": 1600.0,
        "line": "line-2",
        "pv_nameplate_kw": 300.0,
        "station": "line-2-0029-0740-s012814",
        "storage_capacity_kwh": 1000.0,
        "storage_initial_soc": 0.6,
        "storage_max_charge_kw": 1000.0,
        "storage_max_discharge_kw": 1000.0,
        "storage_module_kwh": 500.0,
        "tier": "terminal"
      },
      "type": "Feature"
    },
    {
      "geometry": {
        "coordinates": [
          68.20051108244252,
          27.54373150127776
        ],
        "type": "Point"
      },
      "properties": {
        "charger_bus_voltage_v": 650.0,
        "charger_contact_count": 4,
        "charger_efficiency": 0.98,
        "charger_max_current_a": 1650.0,
        "charger_max_kw": 1000.0,
        "grid_export_kw": 6000.0,
        "grid_import_kw": 6000.0,
        "line": "line-3",
        "pv_nameplate_kw": 5000.0,
        "station": "line-3-0635-0493-s000000",
        "storage_capacity_kwh": 40000.0,
        "storage_initial_soc": 0.6,
        "storage_max_charge_kw": 10000.0,
        "storage_max_discharge_kw": 10000.0,
        "storage_module_kwh": 500.0,
        "tier": "depot-main"
      },
      "type": "Feature"
    },
    {
      "geometry": {
        "coordinates": [
          68.2146970515833,
          27.534373260627003
        ],
        "type": "Point"
      },
      "properties": {
        "charger_bus_voltage_v": 650.0,
        "charger_contact_count": 4,
        "charger_efficiency": 0.98,
        "charger_max_current_a": 1650.0,
        "charger_max_kw": 1000.0,
        "grid_export_kw": 1000.0,
        "grid_import_kw": 1000.0,
        "line": "line-3",
        "pv_nameplate_kw": 300.0,
        "station": "line-3-0687-0563-s001831",
        "storage_capacity_kwh": 1000.0,
        "storage_initial_soc": 0.5,
        "storage_max_charge_kw": 1000.0,
        "storage_max_discharge_kw": 1000.0,
        "storage_module_kwh": 500.0,
        "tier": "standard"
      },
      "type": "Feature"
    },
    {
      "geometry": {
        "coordinates": [
          68.22949099083013,
          27.53869244861966
        ],
        "type": "Point"
      },
      "properties": {
        "charger_bus_voltage_v": 650.0,
        "charger_contact_count": 4,
        "charger_efficiency": 0.98,
        "charger_max_current_a": 1650.0,
        "charger_max_kw": 1000.0,
        "grid_export_kw": 1000.0,
        "grid_import_kw": 1000.0,
        "line": "line-3",
        "pv_nameplate_kw": 300.0,
        "station": "line-3-0663-0636-s003490",
        "storage_capacity_kwh": 1000.0,
        "storage_initial_soc": 0.5,
        "storage_max_charge_kw": 1000.0,
        "storage_max_discharge_kw": 1000.0,
        "storage_module_kwh": 500.0,
        "tier": "standard"
      },
      "type": "Feature"
    },
    {
      "geometry": {
        "coordinates": [
          68.2345574083804,
          27.556689065255732
        ],
        "type": "Point"
      },
      "properties": {
        "charger_bus_voltage_v": 650.0,
        "charger_contact_count": 4,
        "charger_efficiency": 0.98,
        "charger_max_current_a": 1650.0,
        "charger_max_kw": 1000.0,
        "grid_export_kw": 1600.0,
        "grid_import_kw": 1600.0,
        "line": "line-3",
        "pv_nameplate_kw": 300.0,
        "station": "line-3-0563-0661-s005697",
        "storage_capacity_kwh": 1000.0,
        "storage_initial_soc": 0.6,
        "storage_max_charge_kw": 1000.0,
        "storage_max_discharge_kw": 1000.0,
        "storage_module_kwh": 500.0,
        "tier": "terminal"
      },
      "type": "Feature"
    },
    {
      "geometry": {
        "coordinates": [
          68.20496952988677,
          27.549310452434945
        ],
        "type": "Point"
      },
      "properties": {
        "charger_bus_voltage_v": 650.0,
        "charger_contact_count": 4,
        "charger_efficiency": 0.98,
        "charger_max_current_a": 1650.0,
        "charger_max_kw": 1000.0,
        "grid_export_kw": 6000.0,
        "grid_import_kw": 6000.0,
        "line": "line-4",
        "pv_nameplate_kw": 5000.0,
        "station": "line-4-0604-0515-s000000",
        "storage_capacity_kwh": 40000.0,
        "storage_initial_soc": 0.6,
        "storage_max_charge_kw": 10000.0,
        "storage_max_discharge_kw": 10000.0,
        "storage_module_kwh": 500.0,
        "tier": "depot-main"
      },
      "type": "Feature"
    },
    {
      "geometry": {
        "coordinates": [
          68.20659078350286,
          27.5586686930857
        ],
        "type": "Point"
      },
      "properties": {
        "charger_bus_voltage_v": 650.0,
        "charger_contact_count": 4,
        "charger_efficiency": 0.98,
        "charger_max_current_a": 1650.0,
        "charger_max_kw": 1000.0,
        "grid_export_kw": 1200.0,
        "grid_import_kw": 1200.0,
        "line": "line-4",
        "pv_nameplate_kw": 300.0,
        "station": "line-4-0552-0523-s001631",
        "storage_capacity_kwh": 1000.0,
        "storage_initial_soc": 0.5,
        "storage_max_charge_kw": 1000.0,
        "storage_max_discharge_kw": 1000.0,
        "storage_module_kwh": 500.0,
        "tier": "major"
      },
      "type": "Feature"
    },
    {
      "geometry": {
        "coordinates": [
          68.19949779893247,
          27.570366493899147
        ],
        "type": "Point"
      },
      "properties": {
        "charger_bus_voltage_v": 650.0,
        "charger_contact_count": 4,
        "charger_efficiency": 0.98,
        "charger_max_current_a": 1650.0,
        "charger_max_kw": 1000.0,
        "grid_export_kw": 1000.0,
        "grid_import_kw": 1000.0,
        "line": "line-4",
        "pv_nameplate_kw": 300.0,
        "station": "line-4-0487-0488-s003237",
        "storage_capacity_kwh": 1000.0,
        "storage_initial_soc": 0.5,
        "storage_max_charge_kw": 1000.0,
        "storage_max_discharge_kw": 1000.0,
        "storage_module_kwh": 500.0,
        "tier": "standard"
      },
      "type": "Feature"
    },
    {
      "geometry": {
        "coordinates": [
          68.18409588957961,
          27.57504561422453
        ],
        "type": "Point"
      },
      "properties": {
        "charger_bus_voltage_v": 650.0,
        "charger_contact_count": 4,
        "charger_efficiency": 0.98,
        "charger_max_current_a": 1650.0,
        "charger_max_kw": 1000.0,
        "grid_export_kw": 1600.0,
        "grid_import_kw": 1600.0,
        "line": "line-4",
        "pv_nameplate_kw": 300.0,
        "station": "line-4-0461-0412-s004973",
        "storage_capacity_kwh": 1000.0,
        "storage_initial_soc": 0.6,
        "storage_max_charge_kw": 1000.0,
        "storage_max_discharge_kw": 1000.0,
        "storage_module_kwh": 500.0,
        "tier": "terminal"
      },
      "type": "Feature"
    },
    {
      "geometry": {
        "coordinates": [
          68.22928833412811,
          27.593942061692402
        ],
        "type": "Point"
      },
      "properties": {
        "charger_bus_voltage_v": 650.0,
        "charger_contact_count": 4,
        "charger_efficiency": 0.98,
        "charger_max_current_a": 1650.0,
        "charger_max_kw": 1000.0,
        "grid_export_kw": 6000.0,
        "grid_import_kw": 6000.0,
        "line": "line-5",
        "pv_nameplate_kw": 5000.0,
        "station": "line-5-0356-0635-s000000",
        "storage_capacity_kwh": 40000.0,
        "storage_initial_soc": 0.6,
        "storage_max_charge_kw": 10000.0,
        "storage_max_discharge_kw": 10000.0,
        "storage_module_kwh": 500.0,
        "tier": "depot-main"
      },
      "type": "Feature"
    },
    {
      "geometry": {
        "coordinates": [
          68.20963063403303,
          27.597541385019618
        ],
        "type": "Point"
      },
      "properties": {
        "charger_bus_voltage_v": 650.0,
        "charger_contact_count": 4,
        "charger_efficiency": 0.98,
        "charger_max_current_a": 1650.0,
        "charger_max_kw": 1000.0,
        "grid_export_kw": 1000.0,
        "grid_import_kw": 1000.0,
        "line": "line-5",
        "pv_nameplate_kw": 300.0,
        "station": "line-5-0336-0538-s002106",
        "storage_capacity_kwh": 1000.0,
        "storage_initial_soc": 0.5,
        "storage_max_charge_kw": 1000.0,
        "storage_max_discharge_kw": 1000.0,
        "storage_module_kwh": 500.0,
        "tier": "standard"
      },
      "type": "Feature"
    },
    {
      "geometry": {
        "coordinates": [
          68.19199950095805,
          27.594481960191484
        ],
        "type": "Point"
      },
      "properties": {
        "charger_bus_voltage_v": 650.0,
        "charger_contact_count": 4,
        "charger_efficiency": 0.98,
        "charger_max_current_a": 1650.0,
        "charger_max_kw": 1000.0,
        "grid_export_kw": 1000.0,
        "grid_import_kw": 1000.0,
        "line": "line-5",
        "pv_nameplate_kw": 300.0,
        "station": "line-5-0353-0451-s003987",
        "storage_capacity_kwh": 1000.0,
        "storage_initial_soc": 0.5,
        "storage_max_charge_kw": 1000.0,
        "storage_max_discharge_kw": 1000.0,
        "storage_module_kwh": 500.0,
        "tier": "standard"
      },
      "type": "Feature"
    },
    {
      "geometry": {
        "coordinates": [
          68.17943478543336,
          27.589982806032467
        ],
        "type": "Point"
      },
      "properties": {
        "charger_bus_voltage_v": 650.0,
        "charger_contact_count": 4,
        "charger_efficiency": 0.98,
        "charger_max_current_a": 1650.0,
        "charger_max_kw": 1000.0,
        "grid_export_kw": 1000.0,
        "grid_import_kw": 1000.0,
        "line": "line-5",
        "pv_nameplate_kw": 300.0,
        "station": "line-5-0378-0389-s005434",
        "storage_capacity_kwh": 1000.0,
        "storage_initial_soc": 0.5,
        "storage_max_charge_kw": 1000.0,
        "storage_max_discharge_kw": 1000.0,
        "storage_module_kwh": 500.0,
        "tier": "standard"
      },
      "type": "Feature"
    },
    {
      "geometry": {
        "coordinates": [
          68.16849132352475,
          27.57522558039089
        ],
        "type": "Point"
      },
      "properties": {
        "charger_bus_voltage_v": 650.0,
        "charger_contact_count": 4,
        "charger_efficiency": 0.98,
        "charger_max_current_a": 1650.0,
        "charger_max_kw": 1000.0,
        "grid_export_kw": 1600.0,
        "grid_import_kw": 1600.0,
        "line": "line-5",
        "pv_nameplate_kw": 300.0,
        "station": "line-5-0460-0335-s007521",
        "storage_capacity_kwh": 1000.0,
        "storage_initial_soc": 0.6,
        "storage_max_charge_kw": 1000.0,
        "storage_max_discharge_kw": 1000.0,
        "storage_module_kwh": 500.0,
        "tier": "terminal"
      },
      "type": "Feature"
    },
    {
      "geometry": {
        "coordinates": [
          68.24144773624879,
          27.591962433862435
        ],
        "type": "Point"
      },
      "properties": {
        "charger_bus_voltage_v": 650.0,
        "charger_contact_count": 4,
        "charger_efficiency": 0.98,
        "charger_max_current_a": 1650.0,
        "charger_max_kw": 1000.0,
        "grid_export_kw": 6000.0,
        "grid_import_kw": 6000.0,
        "line": "line-6",
        "pv_nameplate_kw": 5000.0,
        "station": "line-6-0367-0695-s000000",
        "storage_capacity_kwh": 40000.0,
        "storage_initial_soc": 0.6,
        "storage_max_charge_kw": 10000.0,
        "storage_max_discharge_kw": 10000.0,
        "storage_module_kwh": 500.0,
        "tier": "depot-main"
      },
      "type": "Feature"
    },
    {
      "geometry": {
        "coordinates": [
          68.26049746623784,
          27.579184836050825
        ],
        "type": "Point"
      },
      "properties": {
        "charger_bus_voltage_v": 650.0,
        "charger_contact_count": 4,
        "charger_efficiency": 0.98,
        "charger_max_current_a": 1650.0,
        "charger_max_kw": 1000.0,
        "grid_export_kw": 1000.0,
        "grid_import_kw": 1000.0,
        "line": "line-6",
        "pv_nameplate_kw": 300.0,
        "station": "line-6-0438-0789-s002468",
        "storage_capacity_kwh": 1000.0,
        "storage_initial_soc": 0.5,
        "storage_max_charge_kw": 1000.0,
        "storage_max_discharge_kw": 1000.0,
        "storage_module_kwh": 500.0,
        "tier": "standard"
      },
      "type": "Feature"
    },
    {
      "geometry": {
        "coordinates": [
          68.27549406218667,
          27.583863956376202
        ],
        "type": "Point"
      },
      "properties": {
        "charger_bus_voltage_v": 650.0,
        "charger_contact_count": 4,
        "charger_efficiency": 0.98,
        "charger_max_current_a": 1650.0,
        "charger_max_kw": 1000.0,
        "grid_export_kw": 1600.0,
        "grid_import_kw": 1600.0,
        "line": "line-6",
        "pv_nameplate_kw": 300.0,
        "station": "line-6-0412-0863-s004164",
        "storage_capacity_kwh": 1000.0,
        "storage_initial_soc": 0.6,
        "storage_max_charge_kw": 1000.0,
        "storage_max_discharge_kw": 1000.0,
        "storage_module_kwh": 500.0,
        "tier": "terminal"
      },
      "type": "Feature"
    },
    {
      "geometry": {
        "coordinates": [
          68.190986217448,
          27.532573598963396
        ],
        "type": "Point"
      },
      "properties": {
        "charger_bus_voltage_v": 650.0,
        "charger_contact_count": 4,
        "charger_efficiency": 0.98,
        "charger_max_current_a": 1650.0,
        "charger_max_kw": 1000.0,
        "grid_export_kw": 6000.0,
        "grid_import_kw": 6000.0,
        "line": "line-7",
        "pv_nameplate_kw": 5000.0,
        "station": "line-7-0697-0446-s000000",
        "storage_capacity_kwh": 40000.0,
        "storage_initial_soc": 0.6,
        "storage_max_charge_kw": 10000.0,
        "storage_max_discharge_kw": 10000.0,
        "storage_module_kwh": 500.0,
        "tier": "depot-main"
      },
      "type": "Feature"
    },
    {
      "geometry": {
        "coordinates": [
          68.20882000722499,
          27.520875798149948
        ],
        "type": "Point"
      },
      "properties": {
        "charger_bus_voltage_v": 650.0,
        "charger_contact_count": 4,
        "charger_efficiency": 0.98,
        "charger_max_current_a": 1650.0,
        "charger_max_kw": 1000.0,
        "grid_export_kw": 1000.0,
        "grid_import_kw": 1000.0,
        "line": "line-7",
        "pv_nameplate_kw": 300.0,
        "station": "line-7-0762-0534-s002298",
        "storage_capacity_kwh": 1000.0,
        "storage_initial_soc": 0.5,
        "storage_max_charge_kw": 1000.0,
        "storage_max_discharge_kw": 1000.0,
        "storage_module_kwh": 500.0,
        "tier": "standard"
      },
      "type": "Feature"
    },
    {
      "geometry": {
        "coordinates": [
          68.2345574083804,
          27.525374952308965
        ],
        "type": "Point"
      },
      "properties": {
        "charger_bus_voltage_v": 650.0,
        "charger_contact_count": 4,
        "charger_efficiency": 0.98,
        "charger_max_current_a": 1650.0,
        "charger_max_kw": 1000.0,
        "grid_export_kw": 1600.0,
        "grid_import_kw": 1600.0,
        "line": "line-7",
        "pv_nameplate_kw": 300.0,
        "station": "line-7-0737-0661-s005069",
        "storage_capacity_kwh": 1000.0,
        "storage_initial_soc": 0.6,
        "storage_max_charge_kw": 1000.0,
        "storage_max_discharge_kw": 1000.0,
        "storage_module_kwh": 500.0,
        "tier": "terminal"
      },
      "type": "Feature"
    },
    {
      "geometry": {
        "coordinates": [
          68.22604582689593,
          27.58080453154807
        ],
        "type": "Point"
      },
      "properties": {
        "charger_bus_voltage_v": 650.0,
        "charger_contact_count": 4,
        "charger_efficiency": 0.98,
        "charger_max_current_a": 1650.0,
        "charger_max_kw": 1000.0,
        "grid_export_kw": 6000.0,
        "grid_import_kw": 6000.0,
        "line": "line-8",
        "pv_nameplate_kw": 5000.0,
        "station": "line-8-0429-0619-s000000",
        "storage_capacity_kwh": 40000.0,
        "storage_initial_soc": 0.6,
        "storage_max_charge_kw": 10000.0,
        "storage_max_discharge_kw": 10000.0,
        "storage_module_kwh": 500.0,
        "tier": "depot-main"
      },
      "type": "Feature"
    },
    {
      "geometry": {
        "coordinates": [
          68.21023860413906,
          27.58332405787712
        ],
        "type": "Point"
      },
      "properties": {
        "charger_bus_voltage_v": 650.0,
        "charger_contact_count": 4,
        "charger_efficiency": 0.98,
        "charger_max_current_a": 1650.0,
        "charger_max_kw": 1000.0,
        "grid_export_kw": 1600.0,
        "grid_import_kw": 1600.0,
        "line": "line-8",
        "pv_nameplate_kw": 300.0,
        "station": "line-8-0415-0541-s002430",
        "storage_capacity_kwh": 1000.0,
        "storage_initial_soc": 0.6,
        "storage_max_charge_kw": 1000.0,
        "storage_max_discharge_kw": 1000.0,
        "storage_module_kwh": 500.0,
        "tier": "terminal"
      },
      "type": "Feature"
    },
    {
      "geometry": {
        "coordinates": [
          68.22077675264364,
          27.55884865925206
        ],
        "type": "Point"
      },
      "properties": {
        "charger_bus_voltage_v": 650.0,
        "charger_contact_count": 4,
        "charger_efficiency": 0.98,
        "charger_max_current_a": 1650.0,
        "charger_max_kw": 1000.0,
        "grid_export_kw": 6000.0,
        "grid_import_kw": 6000.0,
        "line": "line-9",
        "pv_nameplate_kw": 5000.0,
        "station": "line-9-0551-0593-s000000",
        "storage_capacity_kwh": 40000.0,
        "storage_initial_soc": 0.6,
        "storage_max_charge_kw": 10000.0,
        "storage_max_discharge_kw": 10000.0,
        "storage_module_kwh": 500.0,
        "tier": "depot-main"
      },
      "type": "Feature"
    },
    {
      "geometry": {
        "coordinates": [
          68.24306898986487,
          27.554529471259404
        ],
        "type": "Point"
      },
      "properties": {
        "charger_bus_voltage_v": 650.0,
        "charger_contact_count": 4,
        "charger_efficiency": 0.98,
        "charger_max_current_a": 1650.0,
        "charger_max_kw": 1000.0,
        "grid_export_kw": 1000.0,
        "grid_import_kw": 1000.0,
        "line": "line-9",
        "pv_nameplate_kw": 300.0,
        "station": "line-9-0575-0703-s002399",
        "storage_capacity_kwh": 1000.0,
        "storage_initial_soc": 0.5,
        "storage_max_charge_kw": 1000.0,
        "storage_max_discharge_kw": 1000.0,
        "storage_module_kwh": 500.0,
        "tier": "standard"
      },
      "type": "Feature"
    },
    {
      "geometry": {
        "coordinates": [
          68.25664698889962,
          27.552369877263075
        ],
        "type": "Point"
      },
      "properties": {
        "charger_bus_voltage_v": 650.0,
        "charger_contact_count": 4,
        "charger_efficiency": 0.98,
        "charger_max_current_a": 1650.0,
        "charger_max_kw": 1000.0,
        "grid_export_kw": 1600.0,
        "grid_import_kw": 1600.0,
        "line": "line-9",
        "pv_nameplate_kw": 300.0,
        "station": "line-9-0587-0770-s003885",
        "storage_capacity_kwh": 1000.0,
        "storage_initial_soc": 0.6,
        "storage_max_charge_kw": 1000.0,
        "storage_max_discharge_kw": 1000.0,
        "storage_module_kwh": 500.0,
        "tier": "terminal"
      },
      "type": "Feature"
    }
  ],
  "type": "FeatureCollection"
}
