{
  "features": [
    {
      "geometry": {
        "coordinates": [
          68.16342490597447,
          27.4881219558723
        ],
        "type": "Point"
      },
      "properties": {
        "anchor_kind": "public_transport:station",
        "anchor_name": "مشوری شریف",
        "archetype": "terminal",
        "chainage_m": 0.0,
        "corridor_offset_m": 0.0,
        "id": "line-1-0944-0310-s000000",
        "junction_group": null,
        "line": "line-1",
        "platform_length_m": 59.5
      },
      "type": "Feature"
    },
    {
      "geometry": {
        "coordinates": [
          68.16869398022676,
          27.50647850484109
        ],
        "type": "Point"
      },
      "properties": {
        "anchor_kind": "planning:residential",
        "anchor_name": "Residential planning stop; site release open",
        "archetype": "halt",
        "chainage_m": 2389.1,
        "corridor_offset_m": 0.911,
        "id": "line-1-0842-0336-s002389",
        "junction_group": null,
        "line": "line-1",
        "platform_length_m": 55.5
      },
      "type": "Feature"
    },
    {
      "geometry": {
        "coordinates": [
          68.17801618851928,
          27.517456440989093
        ],
        "type": "Point"
      },
      "properties": {
        "anchor_kind": "planning:residential",
        "anchor_name": "Residential planning stop; site release open",
        "archetype": "halt",
        "chainage_m": 3990.2,
        "corridor_offset_m": 0.869,
        "id": "line-1-0781-0382-s003990",
        "junction_group": null,
        "line": "line-1",
        "platform_length_m": 55.5
      },
      "type": "Feature"
    },
    {
      "geometry": {
        "coordinates": [
          68.190986217448,
          27.532573598963396
        ],
        "type": "Point"
      },
      "properties": {
        "anchor_kind": null,
        "anchor_name": null,
        "archetype": "interchange",
        "chainage_m": 6411.3,
        "corridor_offset_m": 0.771,
        "id": "line-1-0697-0446-s006411",
        "junction_group": 0,
        "line": "line-1",
        "platform_length_m": 59.5
      },
      "type": "Feature"
    },
    {
      "geometry": {
        "coordinates": [
          68.20051108244252,
          27.54373150127776
        ],
        "type": "Point"
      },
      "properties": {
        "anchor_kind": null,
        "anchor_name": null,
        "archetype": "interchange",
        "chainage_m": 8064.1,
        "corridor_offset_m": 0.736,
        "id": "line-1-0635-0493-s008064",
        "junction_group": 1,
        "line": "line-1",
        "platform_length_m": 59.5
      },
      "type": "Feature"
    },
    {
      "geometry": {
        "coordinates": [
          68.20496952988677,
          27.549310452434945
        ],
        "type": "Point"
      },
      "properties": {
        "anchor_kind": null,
        "anchor_name": null,
        "archetype": "interchange",
        "chainage_m": 8948.3,
        "corridor_offset_m": 0.803,
        "id": "line-1-0604-0515-s008948",
        "junction_group": 2,
        "line": "line-1",
        "platform_length_m": 59.5
      },
      "type": "Feature"
    },
    {
      "geometry": {
        "coordinates": [
          68.2128731412652,
          27.5586686930857
        ],
        "type": "Point"
      },
      "properties": {
        "anchor_kind": null,
        "anchor_name": null,
        "archetype": "major",
        "chainage_m": 10463.7,
        "corridor_offset_m": 0.756,
        "id": "line-1-0552-0554-s010464",
        "junction_group": null,
        "line": "line-1",
        "platform_length_m": 59.5
      },
      "type": "Feature"
    },
    {
      "geometry": {
        "coordinates": [
          68.22381660317382,
          27.571446290897313
        ],
        "type": "Point"
      },
      "properties": {
        "anchor_kind": null,
        "anchor_name": null,
        "archetype": "interchange",
        "chainage_m": 12530.2,
        "corridor_offset_m": 0.708,
        "id": "line-1-0481-0608-s012530",
        "junction_group": 3,
        "line": "line-1",
        "platform_length_m": 59.5
      },
      "type": "Feature"
    },
    {
      "geometry": {
        "coordinates": [
          68.24144773624879,
          27.591962433862435
        ],
        "type": "Point"
      },
      "properties": {
        "anchor_kind": null,
        "anchor_name": null,
        "archetype": "interchange",
        "chainage_m": 15730.1,
        "corridor_offset_m": 0.619,
        "id": "line-1-0367-0695-s015730",
        "junction_group": 4,
        "line": "line-1",
        "platform_length_m": 59.5
      },
      "type": "Feature"
    },
    {
      "geometry": {
        "coordinates": [
          68.2562416754956,
          27.609599118165786
        ],
        "type": "Point"
      },
      "properties": {
        "anchor_kind": "planning:residential",
        "anchor_name": "Residential planning stop; site release open",
        "archetype": "halt",
        "chainage_m": 18400.3,
        "corridor_offset_m": 0.582,
        "id": "line-1-0269-0768-s018400",
        "junction_group": null,
        "line": "line-1",
        "platform_length_m": 55.5
      },
      "type": "Feature"
    },
    {
      "geometry": {
        "coordinates": [
          68.26313200336398,
          27.617517629485658
        ],
        "type": "Point"
      },
      "properties": {
        "anchor_kind": "planning:residential",
        "anchor_name": "Residential planning stop; site release open",
        "archetype": "halt",
        "chainage_m": 19655.7,
        "corridor_offset_m": 0.527,
        "id": "line-1-0225-0802-s019656",
        "junction_group": null,
        "line": "line-1",
        "platform_length_m": 55.5
      },
      "type": "Feature"
    },
    {
      "geometry": {
        "coordinates": [
          68.27367015186856,
          27.61787756181838
        ],
        "type": "Point"
      },
      "properties": {
        "anchor_kind": "public_transport:station",
        "anchor_name": "مہوتا",
        "archetype": "depot-terminal",
        "chainage_m": 21266.3,
        "corridor_offset_m": 0.0,
        "id": "line-1-0223-0854-s021266",
        "junction_group": null,
        "line": "line-1",
        "platform_length_m": 59.5
      },
      "type": "Feature"
    },
    {
      "geometry": {
        "coordinates": [
          68.21854752892152,
          27.550210283266747
        ],
        "type": "Point"
      },
      "properties": {
        "anchor_kind": "amenity:college",
        "anchor_name": "New Sindh Science College",
        "archetype": "terminal",
        "chainage_m": 0.0,
        "corridor_offset_m": 0.0,
        "id": "line-2-0599-0582-s000000",
        "junction_group": null,
        "line": "line-2",
        "platform_length_m": 59.5
      },
      "type": "Feature"
    },
    {
      "geometry": {
        "coordinates": [
          68.22077675264364,
          27.55884865925206
        ],
        "type": "Point"
      },
      "properties": {
        "anchor_kind": null,
        "anchor_name": null,
        "archetype": "interchange",
        "chainage_m": 1051.1,
        "corridor_offset_m": 0.088,
        "id": "line-2-0551-0593-s001051",
        "junction_group": 5,
        "line": "line-2",
        "platform_length_m": 59.5
      },
      "type": "Feature"
    },
    {
      "geometry": {
        "coordinates": [
          68.22381660317382,
          27.571446290897313
        ],
        "type": "Point"
      },
      "properties": {
        "anchor_kind": null,
        "anchor_name": null,
        "archetype": "interchange",
        "chainage_m": 2587.1,
        "corridor_offset_m": 0.173,
        "id": "line-2-0481-0608-s002587",
        "junction_group": 3,
        "line": "line-2",
        "platform_length_m": 59.5
      },
      "type": "Feature"
    },
    {
      "geometry": {
        "coordinates": [
          68.22604582689593,
          27.58080453154807
        ],
        "type": "Point"
      },
      "properties": {
        "anchor_kind": null,
        "anchor_name": null,
        "archetype": "interchange",
        "chainage_m": 3718.2,
        "corridor_offset_m": 0.286,
        "id": "line-2-0429-0619-s003718",
        "junction_group": 6,
        "line": "line-2",
        "platform_length_m": 59.5
      },
      "type": "Feature"
    },
    {
      "geometry": {
        "coordinates": [
          68.22928833412811,
          27.593942061692402
        ],
        "type": "Point"
      },
      "properties": {
        "anchor_kind": null,
        "anchor_name": null,
        "archetype": "interchange",
        "chainage_m": 5310.8,
        "corridor_offset_m": 0.344,
        "id": "line-2-0356-0635-s005311",
        "junction_group": 7,
        "line": "line-2",
        "platform_length_m": 59.5
      },
      "type": "Feature"
    },
    {
      "geometry": {
        "coordinates": [
          68.23334146816833,
          27.609419151999425
        ],
        "type": "Point"
      },
      "properties": {
        "anchor_kind": "planning:residential",
        "anchor_name": "Residential planning stop; site release open",
        "archetype": "halt",
        "chainage_m": 7208.2,
        "corridor_offset_m": 0.44,
        "id": "line-2-0270-0655-s007208",
        "junction_group": null,
        "line": "line-2",
        "platform_length_m": 55.5
      },
      "type": "Feature"
    },
    {
      "geometry": {
        "coordinates": [
          68.23698928880454,
          27.622376715977396
        ],
        "type": "Point"
      },
      "properties": {
        "anchor_kind": "planning:residential",
        "anchor_name": "Residential planning stop; site release open",
        "archetype": "halt",
        "chainage_m": 8797.3,
        "corridor_offset_m": 0.514,
        "id": "line-2-0198-0673-s008797",
        "junction_group": null,
        "line": "line-2",
        "platform_length_m": 55.5
      },
      "type": "Feature"
    },
    {
      "geometry": {
        "coordinates": [
          68.24165039295079,
          27.63497434762265
        ],
        "type": "Point"
      },
      "properties": {
        "anchor_kind": "planning:residential",
        "anchor_name": "Residential planning stop; site release open",
        "archetype": "halt",
        "chainage_m": 10387.8,
        "corridor_offset_m": 0.484,
        "id": "line-2-0128-0696-s010388",
        "junction_group": null,
        "line": "line-2",
        "platform_length_m": 55.5
      },
      "type": "Feature"
    },
    {
      "geometry": {
        "coordinates": [
          68.25056728783929,
          27.65279099809236
        ],
        "type": "Point"
      },
      "properties": {
        "anchor_kind": "place:town",
        "anchor_name": "دھامراہ",
        "archetype": "terminal",
        "chainage_m": 12814.4,
        "corridor_offset_m": 0.0,
        "id": "line-2-0029-0740-s012814",
        "junction_group": null,
        "line": "line-2",
        "platform_length_m": 59.5
      },
      "type": "Feature"
    },
    {
      "geometry": {
        "coordinates": [
          68.20051108244252,
          27.54373150127776
        ],
        "type": "Point"
      },
      "properties": {
        "anchor_kind": null,
        "anchor_name": null,
        "archetype": "terminal",
        "chainage_m": 0.0,
        "corridor_offset_m": 0.0,
        "id": "line-3-0635-0493-s000000",
        "junction_group": 1,
        "line": "line-3",
        "platform_length_m": 59.5
      },
      "type": "Feature"
    },
    {
      "geometry": {
        "coordinates": [
          68.2146970515833,
          27.534373260627003
        ],
        "type": "Point"
      },
      "properties": {
        "anchor_kind": "planning:residential-priority",
        "anchor_name": "Residential planning stop; site release open",
        "archetype": "standard",
        "chainage_m": 1830.8,
        "corridor_offset_m": 0.388,
        "id": "line-3-0687-0563-s001831",
        "junction_group": null,
        "line": "line-3",
        "platform_length_m": 59.5
      },
      "type": "Feature"
    },
    {
      "geometry": {
        "coordinates": [
          68.22949099083013,
          27.53869244861966
        ],
        "type": "Point"
      },
      "properties": {
        "anchor_kind": "planning:residential-priority",
        "anchor_name": "Residential planning stop; site release open",
        "archetype": "standard",
        "chainage_m": 3489.6,
        "corridor_offset_m": 1.285,
        "id": "line-3-0663-0636-s003490",
        "junction_group": null,
        "line": "line-3",
        "platform_length_m": 59.5
      },
      "type": "Feature"
    },
    {
      "geometry": {
        "coordinates": [
          68.2345574083804,
          27.556689065255732
        ],
        "type": "Point"
      },
      "properties": {
        "anchor_kind": null,
        "anchor_name": null,
        "archetype": "terminal",
        "chainage_m": 5696.7,
        "corridor_offset_m": 0.0,
        "id": "line-3-0563-0661-s005697",
        "junction_group": null,
        "line": "line-3",
        "platform_length_m": 59.5
      },
      "type": "Feature"
    },
    {
      "geometry": {
        "coordinates": [
          68.20496952988677,
          27.549310452434945
        ],
        "type": "Point"
      },
      "properties": {
        "anchor_kind": "public_transport:station",
        "anchor_name": "لاڑکانہ",
        "archetype": "terminal",
        "chainage_m": 0.0,
        "corridor_offset_m": 0.0,
        "id": "line-4-0604-0515-s000000",
        "junction_group": 2,
        "line": "line-4",
        "platform_length_m": 59.5
      },
      "type": "Feature"
    },
    {
      "geometry": {
        "coordinates": [
          68.20659078350286,
          27.5586686930857
        ],
        "type": "Point"
      },
      "properties": {
        "anchor_kind": "amenity:hospital",
        "anchor_name": "Rahila Research & Reference Lab Larkana",
        "archetype": "major",
        "chainage_m": 1630.8,
        "corridor_offset_m": 0.018,
        "id": "line-4-0552-0523-s001631",
        "junction_group": null,
        "line": "line-4",
        "platform_length_m": 59.5
      },
      "type": "Feature"
    },
    {
      "geometry": {
        "coordinates": [
          68.19949779893247,
          27.570366493899147
        ],
        "type": "Point"
      },
      "properties": {
        "anchor_kind": "planning:residential-priority",
        "anchor_name": "Residential planning stop; site release open",
        "archetype": "standard",
        "chainage_m": 3237.3,
        "corridor_offset_m": 0.711,
        "id": "line-4-0487-0488-s003237",
        "junction_group": null,
        "line": "line-4",
        "platform_length_m": 59.5
      },
      "type": "Feature"
    },
    {
      "geometry": {
        "coordinates": [
          68.18409588957961,
          27.57504561422453
        ],
        "type": "Point"
      },
      "properties": {
        "anchor_kind": null,
        "anchor_name": null,
        "archetype": "terminal",
        "chainage_m": 4972.7,
        "corridor_offset_m": 0.0,
        "id": "line-4-0461-0412-s004973",
        "junction_group": null,
        "line": "line-4",
        "platform_length_m": 59.5
      },
      "type": "Feature"
    },
    {
      "geometry": {
        "coordinates": [
          68.22928833412811,
          27.593942061692402
        ],
        "type": "Point"
      },
      "properties": {
        "anchor_kind": null,
        "anchor_name": null,
        "archetype": "terminal",
        "chainage_m": 0.0,
        "corridor_offset_m": 0.0,
        "id": "line-5-0356-0635-s000000",
        "junction_group": 7,
        "line": "line-5",
        "platform_length_m": 59.5
      },
      "type": "Feature"
    },
    {
      "geometry": {
        "coordinates": [
          68.20963063403303,
          27.597541385019618
        ],
        "type": "Point"
      },
      "properties": {
        "anchor_kind": "planning:residential-priority",
        "anchor_name": "Residential planning stop; site release open",
        "archetype": "standard",
        "chainage_m": 2105.7,
        "corridor_offset_m": 0.602,
        "id": "line-5-0336-0538-s002106",
        "junction_group": null,
        "line": "line-5",
        "platform_length_m": 59.5
      },
      "type": "Feature"
    },
    {
      "geometry": {
        "coordinates": [
          68.19199950095805,
          27.594481960191484
        ],
        "type": "Point"
      },
      "properties": {
        "anchor_kind": "planning:residential",
        "anchor_name": "Residential planning stop; site release open",
        "archetype": "standard",
        "chainage_m": 3986.5,
        "corridor_offset_m": 1.117,
        "id": "line-5-0353-0451-s003987",
        "junction_group": null,
        "line": "line-5",
        "platform_length_m": 59.5
      },
      "type": "Feature"
    },
    {
      "geometry": {
        "coordinates": [
          68.17943478543336,
          27.589982806032467
        ],
        "type": "Point"
      },
      "properties": {
        "anchor_kind": "planning:residential-priority",
        "anchor_name": "Residential planning stop; site release open",
        "archetype": "standard",
        "chainage_m": 5433.6,
        "corridor_offset_m": 1.23,
        "id": "line-5-0378-0389-s005434",
        "junction_group": null,
        "line": "line-5",
        "platform_length_m": 59.5
      },
      "type": "Feature"
    },
    {
      "geometry": {
        "coordinates": [
          68.16849132352475,
          27.57522558039089
        ],
        "type": "Point"
      },
      "properties": {
        "anchor_kind": null,
        "anchor_name": null,
        "archetype": "terminal",
        "chainage_m": 7521.0,
        "corridor_offset_m": 0.0,
        "id": "line-5-0460-0335-s007521",
        "junction_group": null,
        "line": "line-5",
        "platform_length_m": 59.5
      },
      "type": "Feature"
    },
    {
      "geometry": {
        "coordinates": [
          68.24144773624879,
          27.591962433862435
        ],
        "type": "Point"
      },
      "properties": {
        "anchor_kind": null,
        "anchor_name": null,
        "archetype": "terminal",
        "chainage_m": 0.0,
        "corridor_offset_m": 0.0,
        "id": "line-6-0367-0695-s000000",
        "junction_group": 4,
        "line": "line-6",
        "platform_length_m": 59.5
      },
      "type": "Feature"
    },
    {
      "geometry": {
        "coordinates": [
          68.26049746623784,
          27.579184836050825
        ],
        "type": "Point"
      },
      "properties": {
        "anchor_kind": "planning:residential-priority",
        "anchor_name": "Residential planning stop; site release open",
        "archetype": "standard",
        "chainage_m": 2468.2,
        "corridor_offset_m": 0.339,
        "id": "line-6-0438-0789-s002468",
        "junction_group": null,
        "line": "line-6",
        "platform_length_m": 59.5
      },
      "type": "Feature"
    },
    {
      "geometry": {
        "coordinates": [
          68.27549406218667,
          27.583863956376202
        ],
        "type": "Point"
      },
      "properties": {
        "anchor_kind": null,
        "anchor_name": null,
        "archetype": "terminal",
        "chainage_m": 4163.6,
        "corridor_offset_m": 0.0,
        "id": "line-6-0412-0863-s004164",
        "junction_group": null,
        "line": "line-6",
        "platform_length_m": 59.5
      },
      "type": "Feature"
    },
    {
      "geometry": {
        "coordinates": [
          68.190986217448,
          27.532573598963396
        ],
        "type": "Point"
      },
      "properties": {
        "anchor_kind": null,
        "anchor_name": null,
        "archetype": "terminal",
        "chainage_m": 0.0,
        "corridor_offset_m": 0.0,
        "id": "line-7-0697-0446-s000000",
        "junction_group": 0,
        "line": "line-7",
        "platform_length_m": 59.5
      },
      "type": "Feature"
    },
    {
      "geometry": {
        "coordinates": [
          68.20882000722499,
          27.520875798149948
        ],
        "type": "Point"
      },
      "properties": {
        "anchor_kind": "planning:residential-priority",
        "anchor_name": "Residential planning stop; site release open",
        "archetype": "standard",
        "chainage_m": 2298.5,
        "corridor_offset_m": 0.572,
        "id": "line-7-0762-0534-s002298",
        "junction_group": null,
        "line": "line-7",
        "platform_length_m": 59.5
      },
      "type": "Feature"
    },
    {
      "geometry": {
        "coordinates": [
          68.2345574083804,
          27.525374952308965
        ],
        "type": "Point"
      },
      "properties": {
        "anchor_kind": null,
        "anchor_name": null,
        "archetype": "terminal",
        "chainage_m": 5069.0,
        "corridor_offset_m": 0.0,
        "id": "line-7-0737-0661-s005069",
        "junction_group": null,
        "line": "line-7",
        "platform_length_m": 59.5
      },
      "type": "Feature"
    },
    {
      "geometry": {
        "coordinates": [
          68.22604582689593,
          27.58080453154807
        ],
        "type": "Point"
      },
      "properties": {
        "anchor_kind": "amenity:bus_station",
        "anchor_name": "Main Bus Terminal",
        "archetype": "terminal",
        "chainage_m": 0.0,
        "corridor_offset_m": 0.0,
        "id": "line-8-0429-0619-s000000",
        "junction_group": 6,
        "line": "line-8",
        "platform_length_m": 59.5
      },
      "type": "Feature"
    },
    {
      "geometry": {
        "coordinates": [
          68.21023860413906,
          27.58332405787712
        ],
        "type": "Point"
      },
      "properties": {
        "anchor_kind": null,
        "anchor_name": null,
        "archetype": "terminal",
        "chainage_m": 2429.6,
        "corridor_offset_m": 0.0,
        "id": "line-8-0415-0541-s002430",
        "junction_group": null,
        "line": "line-8",
        "platform_length_m": 59.5
      },
      "type": "Feature"
    },
    {
      "geometry": {
        "coordinates": [
          68.22077675264364,
          27.55884865925206
        ],
        "type": "Point"
      },
      "properties": {
        "anchor_kind": "amenity:hospital",
        "anchor_name": "Dua Ultrasound",
        "archetype": "terminal",
        "chainage_m": 0.0,
        "corridor_offset_m": 0.0,
        "id": "line-9-0551-0593-s000000",
        "junction_group": 5,
        "line": "line-9",
        "platform_length_m": 59.5
      },
      "type": "Feature"
    },
    {
      "geometry": {
        "coordinates": [
          68.24306898986487,
          27.554529471259404
        ],
        "type": "Point"
      },
      "properties": {
        "anchor_kind": "planning:residential",
        "anchor_name": "Residential planning stop; site release open",
        "archetype": "standard",
        "chainage_m": 2398.8,
        "corridor_offset_m": 0.043,
        "id": "line-9-0575-0703-s002399",
        "junction_group": null,
        "line": "line-9",
        "platform_length_m": 59.5
      },
      "type": "Feature"
    },
    {
      "geometry": {
        "coordinates": [
          68.25664698889962,
          27.552369877263075
        ],
        "type": "Point"
      },
      "properties": {
        "anchor_kind": null,
        "anchor_name": null,
        "archetype": "terminal",
        "chainage_m": 3885.1,
        "corridor_offset_m": 0.0,
        "id": "line-9-0587-0770-s003885",
        "junction_group": null,
        "line": "line-9",
        "platform_length_m": 59.5
      },
      "type": "Feature"
    }
  ],
  "type": "FeatureCollection"
}
