{
  "features": [
    {
      "geometry": {
        "coordinates": [
          27.995111486090565,
          7.705113176094322
        ],
        "type": "Point"
      },
      "properties": {
        "id": "interchange-000",
        "junction_group": 0,
        "line_count": 3,
        "lines": "line-1,line-2,line-3",
        "platform_count": 7,
        "platforms": "line-1-0309-0331-s003205,line-1-0370-0371-s004995,line-2-0370-0371-s007418,line-2-0376-0351-s007885,line-3-0301-0309-s002238,line-3-0333-0338-s001219,line-3-0368-0370-s000000"
      },
      "type": "Feature"
    }
  ],
  "type": "FeatureCollection"
}
