{
  "features": [
    {
      "geometry": {
        "coordinates": [
          37.01287672077049,
          -1.0964394989741928
        ],
        "type": "Point"
      },
      "properties": {
        "charger_bus_voltage_v": 650.0,
        "charger_contact_count": 4,
        "charger_efficiency": 0.98,
        "charger_max_current_a": 1650.0,
        "charger_max_kw": 1000.0,
        "grid_export_kw": 1600.0,
        "grid_import_kw": 1600.0,
        "line": "line-1",
        "pv_nameplate_kw": 300.0,
        "station": "line-1-0901-0237-s000000",
        "storage_capacity_kwh": 1000.0,
        "storage_initial_soc": 0.6,
        "storage_max_charge_kw": 1000.0,
        "storage_max_discharge_kw": 1000.0,
        "storage_module_kwh": 500.0,
        "tier": "terminal"
      },
      "type": "Feature"
    },
    {
      "geometry": {
        "coordinates": [
          37.04378365118113,
          -1.068904675521002
        ],
        "type": "Point"
      },
      "properties": {
        "charger_bus_voltage_v": 650.0,
        "charger_contact_count": 4,
        "charger_efficiency": 0.98,
        "charger_max_current_a": 1650.0,
        "charger_max_kw": 1000.0,
        "grid_export_kw": 1000.0,
        "grid_import_kw": 1000.0,
        "line": "line-1",
        "pv_nameplate_kw": 300.0,
        "station": "line-1-0748-0409-s006170",
        "storage_capacity_kwh": 1000.0,
        "storage_initial_soc": 0.5,
        "storage_max_charge_kw": 1000.0,
        "storage_max_discharge_kw": 1000.0,
        "storage_module_kwh": 500.0,
        "tier": "standard"
      },
      "type": "Feature"
    },
    {
      "geometry": {
        "coordinates": [
          37.05744020182769,
          -1.0446092430623044
        ],
        "type": "Point"
      },
      "properties": {
        "charger_bus_voltage_v": 650.0,
        "charger_contact_count": 4,
        "charger_efficiency": 0.98,
        "charger_max_current_a": 1650.0,
        "charger_max_kw": 1000.0,
        "grid_export_kw": 1200.0,
        "grid_import_kw": 1200.0,
        "line": "line-1",
        "pv_nameplate_kw": 300.0,
        "station": "line-1-0613-0485-s009617",
        "storage_capacity_kwh": 1000.0,
        "storage_initial_soc": 0.5,
        "storage_max_charge_kw": 1000.0,
        "storage_max_discharge_kw": 1000.0,
        "storage_module_kwh": 500.0,
        "tier": "interchange"
      },
      "type": "Feature"
    },
    {
      "geometry": {
        "coordinates": [
          37.063909094239214,
          -1.0332713745815787
        ],
        "type": "Point"
      },
      "properties": {
        "charger_bus_voltage_v": 650.0,
        "charger_contact_count": 4,
        "charger_efficiency": 0.98,
        "charger_max_current_a": 1650.0,
        "charger_max_kw": 1000.0,
        "grid_export_kw": 1000.0,
        "grid_import_kw": 1000.0,
        "line": "line-1",
        "pv_nameplate_kw": 300.0,
        "station": "line-1-0550-0521-s011245",
        "storage_capacity_kwh": 1000.0,
        "storage_initial_soc": 0.5,
        "storage_max_charge_kw": 1000.0,
        "storage_max_discharge_kw": 1000.0,
        "storage_module_kwh": 500.0,
        "tier": "standard"
      },
      "type": "Feature"
    },
    {
      "geometry": {
        "coordinates": [
          37.071815518297754,
          -1.0190540474390815
        ],
        "type": "Point"
      },
      "properties": {
        "charger_bus_voltage_v": 650.0,
        "charger_contact_count": 4,
        "charger_efficiency": 0.98,
        "charger_max_current_a": 1650.0,
        "charger_max_kw": 1000.0,
        "grid_export_kw": 1000.0,
        "grid_import_kw": 1000.0,
        "line": "line-1",
        "pv_nameplate_kw": 300.0,
        "station": "line-1-0471-0565-s013225",
        "storage_capacity_kwh": 1000.0,
        "storage_initial_soc": 0.5,
        "storage_max_charge_kw": 1000.0,
        "storage_max_discharge_kw": 1000.0,
        "storage_module_kwh": 500.0,
        "tier": "standard"
      },
      "type": "Feature"
    },
    {
      "geometry": {
        "coordinates": [
          37.07954225090041,
          -1.0051966526293057
        ],
        "type": "Point"
      },
      "properties": {
        "charger_bus_voltage_v": 650.0,
        "charger_contact_count": 4,
        "charger_efficiency": 0.98,
        "charger_max_current_a": 1650.0,
        "charger_max_kw": 1000.0,
        "grid_export_kw": 1000.0,
        "grid_import_kw": 1000.0,
        "line": "line-1",
        "pv_nameplate_kw": 300.0,
        "station": "line-1-0394-0608-s015215",
        "storage_capacity_kwh": 1000.0,
        "storage_initial_soc": 0.5,
        "storage_max_charge_kw": 1000.0,
        "storage_max_discharge_kw": 1000.0,
        "storage_module_kwh": 500.0,
        "tier": "standard"
      },
      "type": "Feature"
    },
    {
      "geometry": {
        "coordinates": [
          37.12644172088399,
          -0.937169441744952
        ],
        "type": "Point"
      },
      "properties": {
        "charger_bus_voltage_v": 650.0,
        "charger_contact_count": 4,
        "charger_efficiency": 0.98,
        "charger_max_current_a": 1650.0,
        "charger_max_kw": 1000.0,
        "grid_export_kw": 6000.0,
        "grid_import_kw": 6000.0,
        "line": "line-1",
        "pv_nameplate_kw": 5000.0,
        "station": "line-1-0016-0869-s026109",
        "storage_capacity_kwh": 40000.0,
        "storage_initial_soc": 0.6,
        "storage_max_charge_kw": 10000.0,
        "storage_max_discharge_kw": 10000.0,
        "storage_module_kwh": 500.0,
        "tier": "depot-main"
      },
      "type": "Feature"
    },
    {
      "geometry": {
        "coordinates": [
          37.13704351678066,
          -1.053967483713062
        ],
        "type": "Point"
      },
      "properties": {
        "charger_bus_voltage_v": 650.0,
        "charger_contact_count": 4,
        "charger_efficiency": 0.98,
        "charger_max_current_a": 1650.0,
        "charger_max_kw": 1000.0,
        "grid_export_kw": 6000.0,
        "grid_import_kw": 6000.0,
        "line": "line-2",
        "pv_nameplate_kw": 5000.0,
        "station": "line-2-0665-0928-s000000",
        "storage_capacity_kwh": 40000.0,
        "storage_initial_soc": 0.6,
        "storage_max_charge_kw": 10000.0,
        "storage_max_discharge_kw": 10000.0,
        "storage_module_kwh": 500.0,
        "tier": "depot-main"
      },
      "type": "Feature"
    },
    {
      "geometry": {
        "coordinates": [
          37.10991010694342,
          -1.0557671453766693
        ],
        "type": "Point"
      },
      "properties": {
        "charger_bus_voltage_v": 650.0,
        "charger_contact_count": 4,
        "charger_efficiency": 0.98,
        "charger_max_current_a": 1650.0,
        "charger_max_kw": 1000.0,
        "grid_export_kw": 1000.0,
        "grid_import_kw": 1000.0,
        "line": "line-2",
        "pv_nameplate_kw": 300.0,
        "station": "line-2-0675-0777-s003786",
        "storage_capacity_kwh": 1000.0,
        "storage_initial_soc": 0.5,
        "storage_max_charge_kw": 1000.0,
        "storage_max_discharge_kw": 1000.0,
        "storage_module_kwh": 500.0,
        "tier": "standard"
      },
      "type": "Feature"
    },
    {
      "geometry": {
        "coordinates": [
          37.08511268603256,
          -1.0505481265522083
        ],
        "type": "Point"
      },
      "properties": {
        "charger_bus_voltage_v": 650.0,
        "charger_contact_count": 4,
        "charger_efficiency": 0.98,
        "charger_max_current_a": 1650.0,
        "charger_max_kw": 1000.0,
        "grid_export_kw": 1200.0,
        "grid_import_kw": 1200.0,
        "line": "line-2",
        "pv_nameplate_kw": 300.0,
        "station": "line-2-0646-0639-s006798",
        "storage_capacity_kwh": 1000.0,
        "storage_initial_soc": 0.5,
        "storage_max_charge_kw": 1000.0,
        "storage_max_discharge_kw": 1000.0,
        "storage_module_kwh": 500.0,
        "tier": "interchange"
      },
      "type": "Feature"
    },
    {
      "geometry": {
        "coordinates": [
          37.05744020182769,
          -1.0446092430623044
        ],
        "type": "Point"
      },
      "properties": {
        "charger_bus_voltage_v": 650.0,
        "charger_contact_count": 4,
        "charger_efficiency": 0.98,
        "charger_max_current_a": 1650.0,
        "charger_max_kw": 1000.0,
        "grid_export_kw": 1200.0,
        "grid_import_kw": 1200.0,
        "line": "line-2",
        "pv_nameplate_kw": 300.0,
        "station": "line-2-0613-0485-s010151",
        "storage_capacity_kwh": 1000.0,
        "storage_initial_soc": 0.5,
        "storage_max_charge_kw": 1000.0,
        "storage_max_discharge_kw": 1000.0,
        "storage_module_kwh": 500.0,
        "tier": "interchange"
      },
      "type": "Feature"
    },
    {
      "geometry": {
        "coordinates": [
          37.023658208123045,
          -1.037590562574236
        ],
        "type": "Point"
      },
      "properties": {
        "charger_bus_voltage_v": 650.0,
        "charger_contact_count": 4,
        "charger_efficiency": 0.98,
        "charger_max_current_a": 1650.0,
        "charger_max_kw": 1000.0,
        "grid_export_kw": 1000.0,
        "grid_import_kw": 1000.0,
        "line": "line-2",
        "pv_nameplate_kw": 300.0,
        "station": "line-2-0574-0297-s014246",
        "storage_capacity_kwh": 1000.0,
        "storage_initial_soc": 0.5,
        "storage_max_charge_kw": 1000.0,
        "storage_max_discharge_kw": 1000.0,
        "storage_module_kwh": 500.0,
        "tier": "standard"
      },
      "type": "Feature"
    },
    {
      "geometry": {
        "coordinates": [
          36.99185282043303,
          -1.0397501565705647
        ],
        "type": "Point"
      },
      "properties": {
        "charger_bus_voltage_v": 650.0,
        "charger_contact_count": 4,
        "charger_efficiency": 0.98,
        "charger_max_current_a": 1650.0,
        "charger_max_kw": 1000.0,
        "grid_export_kw": 1600.0,
        "grid_import_kw": 1600.0,
        "line": "line-2",
        "pv_nameplate_kw": 300.0,
        "station": "line-2-0586-0120-s018324",
        "storage_capacity_kwh": 1000.0,
        "storage_initial_soc": 0.6,
        "storage_max_charge_kw": 1000.0,
        "storage_max_discharge_kw": 1000.0,
        "storage_module_kwh": 500.0,
        "tier": "terminal"
      },
      "type": "Feature"
    },
    {
      "geometry": {
        "coordinates": [
          37.0091032001971,
          -1.117855472771119
        ],
        "type": "Point"
      },
      "properties": {
        "charger_bus_voltage_v": 650.0,
        "charger_contact_count": 4,
        "charger_efficiency": 0.98,
        "charger_max_current_a": 1650.0,
        "charger_max_kw": 1000.0,
        "grid_export_kw": 6000.0,
        "grid_import_kw": 6000.0,
        "line": "line-3",
        "pv_nameplate_kw": 5000.0,
        "station": "line-3-1020-0216-s000000",
        "storage_capacity_kwh": 40000.0,
        "storage_initial_soc": 0.6,
        "storage_max_charge_kw": 10000.0,
        "storage_max_discharge_kw": 10000.0,
        "storage_module_kwh": 500.0,
        "tier": "depot-main"
      },
      "type": "Feature"
    },
    {
      "geometry": {
        "coordinates": [
          37.085292377488436,
          -1.0505481265522083
        ],
        "type": "Point"
      },
      "properties": {
        "charger_bus_voltage_v": 650.0,
        "charger_contact_count": 4,
        "charger_efficiency": 0.98,
        "charger_max_current_a": 1650.0,
        "charger_max_kw": 1000.0,
        "grid_export_kw": 1200.0,
        "grid_import_kw": 1200.0,
        "line": "line-3",
        "pv_nameplate_kw": 300.0,
        "station": "line-3-0646-0640-s013511",
        "storage_capacity_kwh": 1000.0,
        "storage_initial_soc": 0.5,
        "storage_max_charge_kw": 1000.0,
        "storage_max_discharge_kw": 1000.0,
        "storage_module_kwh": 500.0,
        "tier": "interchange"
      },
      "type": "Feature"
    },
    {
      "geometry": {
        "coordinates": [
          37.09697232212036,
          -1.039570190404204
        ],
        "type": "Point"
      },
      "properties": {
        "charger_bus_voltage_v": 650.0,
        "charger_contact_count": 4,
        "charger_efficiency": 0.98,
        "charger_max_current_a": 1650.0,
        "charger_max_kw": 1000.0,
        "grid_export_kw": 1000.0,
        "grid_import_kw": 1000.0,
        "line": "line-3",
        "pv_nameplate_kw": 300.0,
        "station": "line-3-0585-0705-s015492",
        "storage_capacity_kwh": 1000.0,
        "storage_initial_soc": 0.5,
        "storage_max_charge_kw": 1000.0,
        "storage_max_discharge_kw": 1000.0,
        "storage_module_kwh": 500.0,
        "tier": "standard"
      },
      "type": "Feature"
    },
    {
      "geometry": {
        "coordinates": [
          37.13614505950128,
          -0.9956584458121873
        ],
        "type": "Point"
      },
      "properties": {
        "charger_bus_voltage_v": 650.0,
        "charger_contact_count": 4,
        "charger_efficiency": 0.98,
        "charger_max_current_a": 1650.0,
        "charger_max_kw": 1000.0,
        "grid_export_kw": 1600.0,
        "grid_import_kw": 1600.0,
        "line": "line-3",
        "pv_nameplate_kw": 300.0,
        "station": "line-3-0341-0923-s023755",
        "storage_capacity_kwh": 1000.0,
        "storage_initial_soc": 0.6,
        "storage_max_charge_kw": 1000.0,
        "storage_max_discharge_kw": 1000.0,
        "storage_module_kwh": 500.0,
        "tier": "terminal"
      },
      "type": "Feature"
    }
  ],
  "type": "FeatureCollection"
}
