{
  "features": [
    {
      "geometry": {
        "coordinates": [
          35.75680019815182,
          -6.214261731994386
        ],
        "type": "Point"
      },
      "properties": {
        "archetype": "main-heavy",
        "fleet_stalls": 6,
        "line": "line-1",
        "station": "line-1-0835-0580-s000000"
      },
      "type": "Feature"
    },
    {
      "geometry": {
        "coordinates": [
          35.728790670652195,
          -6.202383965014578
        ],
        "type": "Point"
      },
      "properties": {
        "archetype": "main-heavy",
        "fleet_stalls": 7,
        "line": "line-2",
        "station": "line-2-0769-0425-s000000"
      },
      "type": "Feature"
    },
    {
      "geometry": {
        "coordinates": [
          35.77270238150645,
          -6.1802481265522085
        ],
        "type": "Point"
      },
      "properties": {
        "archetype": "main-heavy",
        "fleet_stalls": 8,
        "line": "line-3",
        "station": "line-3-0646-0668-s016547"
      },
      "type": "Feature"
    },
    {
      "geometry": {
        "coordinates": [
          35.740898014797196,
          -6.194285487528345
        ],
        "type": "Point"
      },
      "properties": {
        "archetype": "main-heavy",
        "fleet_stalls": 3,
        "line": "line-4",
        "station": "line-4-0724-0492-s000000"
      },
      "type": "Feature"
    },
    {
      "geometry": {
        "coordinates": [
          35.718851806055554,
          -6.153433167764461
        ],
        "type": "Point"
      },
      "properties": {
        "archetype": "main-heavy",
        "fleet_stalls": 2,
        "line": "line-5",
        "station": "line-5-0497-0370-s000000"
      },
      "type": "Feature"
    },
    {
      "geometry": {
        "coordinates": [
          35.74866839984548,
          -6.157032491091675
        ],
        "type": "Point"
      },
      "properties": {
        "archetype": "main-heavy",
        "fleet_stalls": 3,
        "line": "line-6",
        "station": "line-6-0517-0535-s000000"
      },
      "type": "Feature"
    },
    {
      "geometry": {
        "coordinates": [
          35.71704473976526,
          -6.152713303099017
        ],
        "type": "Point"
      },
      "properties": {
        "archetype": "main-heavy",
        "fleet_stalls": 2,
        "line": "line-7",
        "station": "line-7-0493-0360-s000000"
      },
      "type": "Feature"
    },
    {
      "geometry": {
        "coordinates": [
          35.806313814506,
          -6.151273573768131
        ],
        "type": "Point"
      },
      "properties": {
        "archetype": "main-heavy",
        "fleet_stalls": 2,
        "line": "line-8",
        "station": "line-8-0485-0854-s000000"
      },
      "type": "Feature"
    },
    {
      "geometry": {
        "coordinates": [
          35.743970027490704,
          -6.166030799409711
        ],
        "type": "Point"
      },
      "properties": {
        "archetype": "main-heavy",
        "fleet_stalls": 4,
        "line": "line-9",
        "station": "line-9-0567-0509-s000000"
      },
      "type": "Feature"
    },
    {
      "geometry": {
        "coordinates": [
          35.74234366782943,
          -6.112760814166937
        ],
        "type": "Point"
      },
      "properties": {
        "archetype": "main-heavy",
        "fleet_stalls": 3,
        "line": "line-10",
        "station": "line-10-0271-0500-s000000"
      },
      "type": "Feature"
    },
    {
      "geometry": {
        "coordinates": [
          35.7475841600713,
          -6.1492939459381635
        ],
        "type": "Point"
      },
      "properties": {
        "archetype": "main-heavy",
        "fleet_stalls": 4,
        "line": "line-11",
        "station": "line-11-0474-0529-s000000"
      },
      "type": "Feature"
    },
    {
      "geometry": {
        "coordinates": [
          35.77270238150645,
          -6.1802481265522085
        ],
        "type": "Point"
      },
      "properties": {
        "archetype": "main-heavy",
        "fleet_stalls": 2,
        "line": "line-12",
        "station": "line-12-0646-0668-s000000"
      },
      "type": "Feature"
    },
    {
      "geometry": {
        "coordinates": [
          35.697167010571974,
          -6.142635197782817
        ],
        "type": "Point"
      },
      "properties": {
        "archetype": "main-heavy",
        "fleet_stalls": 2,
        "line": "line-13",
        "station": "line-13-0437-0250-s000000"
      },
      "type": "Feature"
    },
    {
      "geometry": {
        "coordinates": [
          35.708009408313764,
          -6.148214148939999
        ],
        "type": "Point"
      },
      "properties": {
        "archetype": "main-heavy",
        "fleet_stalls": 2,
        "line": "line-14",
        "station": "line-14-0468-0310-s000000"
      },
      "type": "Feature"
    }
  ],
  "type": "FeatureCollection"
}
