{
  "features": [
    {
      "geometry": {
        "coordinates": [
          15.236672049516104,
          -4.287913472267214
        ],
        "type": "Point"
      },
      "properties": {
        "id": "interchange-000",
        "junction_group": 0,
        "line_count": 2,
        "lines": "line-1,line-9",
        "platform_count": 2,
        "platforms": "line-1-0488-0758-s004143,line-9-0488-0758-s003067"
      },
      "type": "Feature"
    },
    {
      "geometry": {
        "coordinates": [
          15.263991212803587,
          -4.284244931183707
        ],
        "type": "Point"
      },
      "properties": {
        "id": "interchange-001",
        "junction_group": 1,
        "line_count": 4,
        "lines": "line-1,line-2,line-4,line-9",
        "platform_count": 13,
        "platforms": "line-1-0468-0851-s006476,line-1-0474-0861-s006725,line-1-0477-0903-s007723,line-1-0478-0866-s006858,line-2-0436-0927-s028758,line-2-0464-0962-s027763,line-4-0482-0976-s028233,line-4-0498-0960-s027781,line-9-0439-0851-s006395,line-9-0451-0879-s007174,line-9-0456-0906-s007756,line-9-0458-0923-s008112,line-9-0498-0960-s009282"
      },
      "type": "Feature"
    },
    {
      "geometry": {
        "coordinates": [
          15.284372535905616,
          -4.307333457673594
        ],
        "type": "Point"
      },
      "properties": {
        "id": "interchange-002",
        "junction_group": 2,
        "line_count": 4,
        "lines": "line-1,line-2,line-4,line-9",
        "platform_count": 11,
        "platforms": "line-1-0658-1018-s014005,line-2-0566-1058-s024928,line-4-0583-1001-s025349,line-4-0594-1002-s025120,line-4-0612-1010-s024671,line-4-0630-1010-s024216,line-9-0564-1019-s011091,line-9-0570-1025-s011261,line-9-0584-1040-s011723,line-9-0594-1032-s012001,line-9-0600-1035-s012146"
      },
      "type": "Feature"
    },
    {
      "geometry": {
        "coordinates": [
          15.310008271207673,
          -4.343990929705216
        ],
        "type": "Point"
      },
      "properties": {
        "id": "interchange-003",
        "junction_group": 3,
        "line_count": 3,
        "lines": "line-1,line-7,line-8",
        "platform_count": 5,
        "platforms": "line-1-0769-1144-s018861,line-1-0791-1191-s020075,line-7-0792-1143-s014671,line-7-0827-1162-s015889,line-8-0819-1185-s009664"
      },
      "type": "Feature"
    },
    {
      "geometry": {
        "coordinates": [
          15.368006050954536,
          -4.411898913004355
        ],
        "type": "Point"
      },
      "properties": {
        "id": "interchange-004",
        "junction_group": 4,
        "line_count": 6,
        "lines": "line-1,line-2,line-3,line-5,line-6,line-9",
        "platform_count": 32,
        "platforms": "line-1-1093-1531-s031484,line-1-1120-1531-s032057,line-1-1147-1523-s032708,line-2-1089-1605-s002926,line-2-1092-1614-s002721,line-2-1103-1645-s002010,line-2-1114-1670-s001419,line-3-1249-1335-s004026,line-3-1257-1373-s003183,line-5-1116-1518-s039056,line-5-1116-1535-s039412,line-5-1121-1691-s043100,line-5-1122-1600-s041083,line-5-1186-1454-s036409,line-5-1205-1435-s035825,line-5-1210-1421-s035471,line-5-1219-1413-s035149,line-5-1275-1284-s031820,line-6-1258-1341-s000000,line-9-1114-1670-s042715,line-9-1116-1535-s045925,line-9-1116-1596-s044407,line-9-1121-1583-s044725,line-9-1164-1512-s047155,line-9-1198-1467-s048724,line-9-1217-1462-s049162,line-9-1237-1432-s049940,line-9-1241-1426-s050093,line-9-1256-1380-s051170,line-9-1257-1373-s051319,line-9-1258-1341-s052000,line-9-1275-1284-s053314"
      },
      "type": "Feature"
    },
    {
      "geometry": {
        "coordinates": [
          15.320320527669308,
          -4.320501191929764
        ],
        "type": "Point"
      },
      "properties": {
        "id": "interchange-005",
        "junction_group": 5,
        "line_count": 3,
        "lines": "line-2,line-7,line-9",
        "platform_count": 13,
        "platforms": "line-2-0637-1198-s020519,line-2-0652-1221-s019688,line-2-0655-1254-s018788,line-2-0657-1204-s020069,line-2-0675-1303-s016845,line-7-0655-1184-s011012,line-7-0678-1176-s011652,line-7-0704-1183-s012230,line-9-0673-1195-s016613,line-9-0675-1303-s019239,line-9-0678-1176-s016192,line-9-0679-1262-s018320,line-9-0680-1230-s017487"
      },
      "type": "Feature"
    },
    {
      "geometry": {
        "coordinates": [
          15.273250066723445,
          -4.3883345930964985
        ],
        "type": "Point"
      },
      "properties": {
        "id": "interchange-006",
        "junction_group": 6,
        "line_count": 2,
        "lines": "line-3,line-7",
        "platform_count": 2,
        "platforms": "line-3-1055-0953-s016119,line-7-1037-0969-s023133"
      },
      "type": "Feature"
    },
    {
      "geometry": {
        "coordinates": [
          15.217707338624122,
          -4.365028974552785
        ],
        "type": "Point"
      },
      "properties": {
        "id": "interchange-007",
        "junction_group": 7,
        "line_count": 2,
        "lines": "line-3,line-9",
        "platform_count": 4,
        "platforms": "line-3-0906-0640-s024167,line-3-0913-0657-s023769,line-9-0913-0657-s075728,line-9-0934-0657-s075308"
      },
      "type": "Feature"
    },
    {
      "geometry": {
        "coordinates": [
          15.27500689267306,
          -4.435305762516647
        ],
        "type": "Point"
      },
      "properties": {
        "id": "interchange-008",
        "junction_group": 8,
        "line_count": 2,
        "lines": "line-4,line-9",
        "platform_count": 4,
        "platforms": "line-4-1295-0977-s006045,line-4-1322-0957-s004928,line-9-1289-0992-s061201,line-9-1322-0957-s062366"
      },
      "type": "Feature"
    },
    {
      "geometry": {
        "coordinates": [
          15.28856598525854,
          -4.3523413598243526
        ],
        "type": "Point"
      },
      "properties": {
        "id": "interchange-009",
        "junction_group": 9,
        "line_count": 2,
        "lines": "line-4,line-8",
        "platform_count": 2,
        "platforms": "line-4-0850-1053-s017350,line-8-0842-1039-s013278"
      },
      "type": "Feature"
    },
    {
      "geometry": {
        "coordinates": [
          15.253753803364654,
          -4.442432422704532
        ],
        "type": "Point"
      },
      "properties": {
        "id": "interchange-010",
        "junction_group": 10,
        "line_count": 3,
        "lines": "line-5,line-7,line-9",
        "platform_count": 5,
        "platforms": "line-5-1348-0861-s020339,line-5-1363-0840-s019738,line-7-1338-0851-s031269,line-9-1338-0851-s065145,line-9-1346-0861-s064868"
      },
      "type": "Feature"
    },
    {
      "geometry": {
        "coordinates": [
          15.293431041734394,
          -4.433866033185761
        ],
        "type": "Point"
      },
      "properties": {
        "id": "interchange-011",
        "junction_group": 11,
        "line_count": 2,
        "lines": "line-5,line-9",
        "platform_count": 3,
        "platforms": "line-5-1302-1080-s026601,line-9-1293-1059-s059198,line-9-1302-1080-s058691"
      },
      "type": "Feature"
    },
    {
      "geometry": {
        "coordinates": [
          15.448872599259191,
          -4.38887449159558
        ],
        "type": "Point"
      },
      "properties": {
        "id": "interchange-012",
        "junction_group": 12,
        "line_count": 2,
        "lines": "line-5,line-9",
        "platform_count": 3,
        "platforms": "line-5-1051-1941-s049324,line-5-1056-1935-s049162,line-9-1040-1931-s035654"
      },
      "type": "Feature"
    },
    {
      "geometry": {
        "coordinates": [
          15.276943905899557,
          -4.367008602382752
        ],
        "type": "Point"
      },
      "properties": {
        "id": "interchange-013",
        "junction_group": 13,
        "line_count": 2,
        "lines": "line-6,line-8",
        "platform_count": 2,
        "platforms": "line-6-0937-0984-s012052,line-8-0918-0979-s015295"
      },
      "type": "Feature"
    },
    {
      "geometry": {
        "coordinates": [
          15.217452073315203,
          -4.313708622778917
        ],
        "type": "Point"
      },
      "properties": {
        "id": "interchange-014",
        "junction_group": 14,
        "line_count": 2,
        "lines": "line-6,line-9",
        "platform_count": 6,
        "platforms": "line-6-0614-0629-s024798,line-6-0620-0633-s024644,line-6-0652-0662-s023764,line-9-0604-0657-s083451,line-9-0646-0666-s082371,line-9-0652-0661-s082209"
      },
      "type": "Feature"
    },
    {
      "geometry": {
        "coordinates": [
          15.361001270565692,
          -4.334524709354642
        ],
        "type": "Point"
      },
      "properties": {
        "id": "interchange-015",
        "junction_group": 15,
        "line_count": 2,
        "lines": "line-8,line-9",
        "platform_count": 2,
        "platforms": "line-8-0747-1448-s002858,line-9-0747-1448-s023233"
      },
      "type": "Feature"
    },
    {
      "geometry": {
        "coordinates": [
          15.21973444548906,
          -4.3839554163817205
        ],
        "type": "Point"
      },
      "properties": {
        "id": "interchange-016",
        "junction_group": 16,
        "line_count": 2,
        "lines": "line-8,line-9",
        "platform_count": 3,
        "platforms": "line-8-1017-0664-s022455,line-9-1017-0664-s073573,line-9-1031-0664-s073293"
      },
      "type": "Feature"
    }
  ],
  "type": "FeatureCollection"
}
