{
  "features": [
    {
      "geometry": {
        "coordinates": [
          73.27250580440183,
          31.496460065507684
        ],
        "type": "Point"
      },
      "properties": {
        "archetype": "main-heavy",
        "fleet_stalls": 8,
        "line": "line-1",
        "station": "line-1-0297-1294-s027539"
      },
      "type": "Feature"
    },
    {
      "geometry": {
        "coordinates": [
          73.17967068679565,
          31.46082676456826
        ],
        "type": "Point"
      },
      "properties": {
        "archetype": "main-heavy",
        "fleet_stalls": 6,
        "line": "line-2",
        "station": "line-2-0495-0853-s000000"
      },
      "type": "Feature"
    },
    {
      "geometry": {
        "coordinates": [
          73.20261632810875,
          31.387040636360364
        ],
        "type": "Point"
      },
      "properties": {
        "archetype": "main-heavy",
        "fleet_stalls": 6,
        "line": "line-3",
        "station": "line-3-0905-0962-s000000"
      },
      "type": "Feature"
    },
    {
      "geometry": {
        "coordinates": [
          73.07778361894668,
          31.49753986250585
        ],
        "type": "Point"
      },
      "properties": {
        "archetype": "main-heavy",
        "fleet_stalls": 7,
        "line": "line-4",
        "station": "line-4-0291-0369-s000000"
      },
      "type": "Feature"
    },
    {
      "geometry": {
        "coordinates": [
          73.12977970522498,
          31.479183313537057
        ],
        "type": "Point"
      },
      "properties": {
        "archetype": "main-heavy",
        "fleet_stalls": 6,
        "line": "line-5",
        "station": "line-5-0393-0616-s000000"
      },
      "type": "Feature"
    },
    {
      "geometry": {
        "coordinates": [
          73.0737839200022,
          31.439950689270418
        ],
        "type": "Point"
      },
      "properties": {
        "archetype": "main-heavy",
        "fleet_stalls": 3,
        "line": "line-6",
        "station": "line-6-0611-0350-s000000"
      },
      "type": "Feature"
    }
  ],
  "type": "FeatureCollection"
}
