{
  "features": [
    {
      "geometry": {
        "coordinates": [
          3.9138757746276838,
          7.522163448871613
        ],
        "type": "Point"
      },
      "properties": {
        "archetype": "main-heavy",
        "fleet_stalls": 7,
        "line": "line-1",
        "station": "line-1-0397-1020-s000000"
      },
      "type": "Feature"
    },
    {
      "geometry": {
        "coordinates": [
          3.8703969055334713,
          7.449997016160962
        ],
        "type": "Point"
      },
      "properties": {
        "archetype": "main-heavy",
        "fleet_stalls": 6,
        "line": "line-2",
        "station": "line-2-0798-0780-s000000"
      },
      "type": "Feature"
    },
    {
      "geometry": {
        "coordinates": [
          3.981630345632832,
          7.427861177698593
        ],
        "type": "Point"
      },
      "properties": {
        "archetype": "main-heavy",
        "fleet_stalls": 5,
        "line": "line-3",
        "station": "line-3-0921-1394-s000000"
      },
      "type": "Feature"
    },
    {
      "geometry": {
        "coordinates": [
          3.7486560720696755,
          7.394027538422777
        ],
        "type": "Point"
      },
      "properties": {
        "archetype": "main-heavy",
        "fleet_stalls": 7,
        "line": "line-4",
        "station": "line-4-1109-0108-s025290"
      },
      "type": "Feature"
    },
    {
      "geometry": {
        "coordinates": [
          3.87528827830657,
          7.411124324227045
        ],
        "type": "Point"
      },
      "properties": {
        "archetype": "main-heavy",
        "fleet_stalls": 2,
        "line": "line-5",
        "station": "line-5-1014-0807-s001542"
      },
      "type": "Feature"
    }
  ],
  "type": "FeatureCollection"
}
