{
  "features": [
    {
      "geometry": {
        "coordinates": [
          35.5239072857224,
          33.81814418889249
        ],
        "type": "Point"
      },
      "properties": {
        "id": "interchange-000",
        "junction_group": 0,
        "line_count": 2,
        "lines": "line-1,line-8",
        "platform_count": 2,
        "platforms": "line-1-1010-0572-s004400,line-8-1010-0572-s000000"
      },
      "type": "Feature"
    },
    {
      "geometry": {
        "coordinates": [
          35.53191526750708,
          33.83038188820502
        ],
        "type": "Point"
      },
      "properties": {
        "id": "interchange-001",
        "junction_group": 1,
        "line_count": 2,
        "lines": "line-1,line-2",
        "platform_count": 2,
        "platforms": "line-1-0942-0609-s006125,line-2-0942-0609-s010044"
      },
      "type": "Feature"
    },
    {
      "geometry": {
        "coordinates": [
          35.5377589298905,
          33.84081992585394
        ],
        "type": "Point"
      },
      "properties": {
        "id": "interchange-002",
        "junction_group": 2,
        "line_count": 2,
        "lines": "line-1,line-6",
        "platform_count": 2,
        "platforms": "line-1-0884-0636-s007520,line-6-0884-0636-s012908"
      },
      "type": "Feature"
    },
    {
      "geometry": {
        "coordinates": [
          35.54569476769513,
          33.85785672293609
        ],
        "type": "Point"
      },
      "properties": {
        "id": "interchange-003",
        "junction_group": 3,
        "line_count": 3,
        "lines": "line-1,line-4,line-5",
        "platform_count": 6,
        "platforms": "line-1-0783-0681-s009972,line-1-0799-0674-s009582,line-4-0783-0681-s009556,line-4-0786-0663-s009940,line-5-0786-0663-s005439,line-5-0799-0674-s005814"
      },
      "type": "Feature"
    },
    {
      "geometry": {
        "coordinates": [
          35.55377489345986,
          33.87051434330346
        ],
        "type": "Point"
      },
      "properties": {
        "id": "interchange-004",
        "junction_group": 4,
        "line_count": 2,
        "lines": "line-1,line-6",
        "platform_count": 2,
        "platforms": "line-1-0719-0710-s011515,line-6-0719-0710-s022654"
      },
      "type": "Feature"
    },
    {
      "geometry": {
        "coordinates": [
          35.58234390955655,
          33.90794730590649
        ],
        "type": "Point"
      },
      "properties": {
        "id": "interchange-005",
        "junction_group": 5,
        "line_count": 2,
        "lines": "line-1,line-3",
        "platform_count": 2,
        "platforms": "line-1-0511-0842-s017202,line-3-0511-0842-s010810"
      },
      "type": "Feature"
    },
    {
      "geometry": {
        "coordinates": [
          35.495230053655646,
          33.883111974948704
        ],
        "type": "Point"
      },
      "properties": {
        "id": "interchange-006",
        "junction_group": 6,
        "line_count": 2,
        "lines": "line-2,line-3",
        "platform_count": 2,
        "platforms": "line-2-0648-0439-s002405,line-3-0650-0440-s001477"
      },
      "type": "Feature"
    },
    {
      "geometry": {
        "coordinates": [
          35.51623941127221,
          33.853417557499185
        ],
        "type": "Point"
      },
      "properties": {
        "id": "interchange-007",
        "junction_group": 7,
        "line_count": 4,
        "lines": "line-2,line-4,line-6,line-8",
        "platform_count": 7,
        "platforms": "line-2-0810-0533-s006611,line-2-0824-0541-s006969,line-4-0809-0537-s012651,line-4-0810-0533-s012739,line-6-0824-0541-s017877,line-8-0809-0537-s004836,line-8-0812-0534-s004752"
      },
      "type": "Feature"
    },
    {
      "geometry": {
        "coordinates": [
          35.52542230930329,
          33.83974012885577
        ],
        "type": "Point"
      },
      "properties": {
        "id": "interchange-008",
        "junction_group": 8,
        "line_count": 2,
        "lines": "line-2,line-6",
        "platform_count": 2,
        "platforms": "line-2-0890-0579-s008685,line-6-0890-0579-s014175"
      },
      "type": "Feature"
    },
    {
      "geometry": {
        "coordinates": [
          35.510993513294856,
          33.88893088099437
        ],
        "type": "Point"
      },
      "properties": {
        "id": "interchange-009",
        "junction_group": 9,
        "line_count": 2,
        "lines": "line-3,line-5",
        "platform_count": 3,
        "platforms": "line-3-0623-0518-s003273,line-5-0604-0501-s000000,line-5-0623-0518-s000568"
      },
      "type": "Feature"
    },
    {
      "geometry": {
        "coordinates": [
          35.59468053014376,
          33.86601518914444
        ],
        "type": "Point"
      },
      "properties": {
        "id": "interchange-010",
        "junction_group": 10,
        "line_count": 2,
        "lines": "line-4,line-6",
        "platform_count": 2,
        "platforms": "line-4-0744-0899-s004872,line-6-0744-0899-s005949"
      },
      "type": "Feature"
    },
    {
      "geometry": {
        "coordinates": [
          35.52607160512367,
          33.85575711766188
        ],
        "type": "Point"
      },
      "properties": {
        "id": "interchange-011",
        "junction_group": 11,
        "line_count": 2,
        "lines": "line-4,line-6",
        "platform_count": 2,
        "platforms": "line-4-0801-0582-s011685,line-6-0801-0582-s018910"
      },
      "type": "Feature"
    },
    {
      "geometry": {
        "coordinates": [
          35.49642042932634,
          33.851437929669224
        ],
        "type": "Point"
      },
      "properties": {
        "id": "interchange-012",
        "junction_group": 12,
        "line_count": 2,
        "lines": "line-4,line-7",
        "platform_count": 2,
        "platforms": "line-4-0825-0445-s014623,line-7-0825-0445-s000000"
      },
      "type": "Feature"
    },
    {
      "geometry": {
        "coordinates": [
          35.52607160512367,
          33.87483353129612
        ],
        "type": "Point"
      },
      "properties": {
        "id": "interchange-013",
        "junction_group": 13,
        "line_count": 2,
        "lines": "line-5,line-8",
        "platform_count": 2,
        "platforms": "line-5-0695-0582-s002699,line-8-0695-0582-s007753"
      },
      "type": "Feature"
    },
    {
      "geometry": {
        "coordinates": [
          35.53343029108797,
          33.86799481697441
        ],
        "type": "Point"
      },
      "properties": {
        "id": "interchange-014",
        "junction_group": 14,
        "line_count": 2,
        "lines": "line-5,line-6",
        "platform_count": 2,
        "platforms": "line-5-0733-0616-s003861,line-6-0733-0616-s020634"
      },
      "type": "Feature"
    },
    {
      "geometry": {
        "coordinates": [
          35.55161057405859,
          33.8510779973365
        ],
        "type": "Point"
      },
      "properties": {
        "id": "interchange-015",
        "junction_group": 15,
        "line_count": 2,
        "lines": "line-5,line-6",
        "platform_count": 2,
        "platforms": "line-5-0827-0700-s006671,line-6-0827-0700-s010910"
      },
      "type": "Feature"
    },
    {
      "geometry": {
        "coordinates": [
          35.51178709707532,
          33.841899722852105
        ],
        "type": "Point"
      },
      "properties": {
        "id": "interchange-016",
        "junction_group": 16,
        "line_count": 2,
        "lines": "line-6,line-8",
        "platform_count": 2,
        "platforms": "line-6-0878-0516-s015535,line-8-0878-0516-s003282"
      },
      "type": "Feature"
    },
    {
      "geometry": {
        "coordinates": [
          35.51178709707532,
          33.84963826800561
        ],
        "type": "Point"
      },
      "properties": {
        "id": "interchange-017",
        "junction_group": 17,
        "line_count": 2,
        "lines": "line-6,line-8",
        "platform_count": 2,
        "platforms": "line-6-0835-0516-s017274,line-8-0835-0516-s004142"
      },
      "type": "Feature"
    }
  ],
  "type": "FeatureCollection"
}
