{
  "features": [
    {
      "geometry": {
        "coordinates": [
          -5.921821697664356,
          35.72966270021236
        ],
        "type": "Point"
      },
      "properties": {
        "charger_bus_voltage_v": 650.0,
        "charger_contact_count": 6,
        "charger_efficiency": 0.98,
        "charger_max_current_a": 2475.0,
        "charger_max_kw": 1500.0,
        "grid_export_kw": 9000.0,
        "grid_import_kw": 9000.0,
        "line": "line-1",
        "pv_nameplate_kw": 5000.0,
        "station": "line-1-0966-0405-s000000",
        "storage_capacity_kwh": 40000.0,
        "storage_initial_soc": 0.6,
        "storage_max_charge_kw": 10000.0,
        "storage_max_discharge_kw": 10000.0,
        "storage_module_kwh": 500.0,
        "tier": "depot-main"
      },
      "type": "Feature"
    },
    {
      "geometry": {
        "coordinates": [
          -5.897688935754158,
          35.734341820537736
        ],
        "type": "Point"
      },
      "properties": {
        "charger_bus_voltage_v": 650.0,
        "charger_contact_count": 6,
        "charger_efficiency": 0.98,
        "charger_max_current_a": 2475.0,
        "charger_max_kw": 1500.0,
        "grid_export_kw": 1500.0,
        "grid_import_kw": 1500.0,
        "line": "line-1",
        "pv_nameplate_kw": 300.0,
        "station": "line-1-0940-0514-s002407",
        "storage_capacity_kwh": 1500.0,
        "storage_initial_soc": 0.5,
        "storage_max_charge_kw": 1500.0,
        "storage_max_discharge_kw": 1500.0,
        "storage_module_kwh": 500.0,
        "tier": "standard"
      },
      "type": "Feature"
    },
    {
      "geometry": {
        "coordinates": [
          -5.870456553048155,
          35.739380873195834
        ],
        "type": "Point"
      },
      "properties": {
        "charger_bus_voltage_v": 650.0,
        "charger_contact_count": 6,
        "charger_efficiency": 0.98,
        "charger_max_current_a": 2475.0,
        "charger_max_kw": 1500.0,
        "grid_export_kw": 1800.0,
        "grid_import_kw": 1800.0,
        "line": "line-1",
        "pv_nameplate_kw": 300.0,
        "station": "line-1-0912-0637-s005099",
        "storage_capacity_kwh": 1500.0,
        "storage_initial_soc": 0.5,
        "storage_max_charge_kw": 1500.0,
        "storage_max_discharge_kw": 1500.0,
        "storage_module_kwh": 500.0,
        "tier": "interchange"
      },
      "type": "Feature"
    },
    {
      "geometry": {
        "coordinates": [
          -5.841452958458835,
          35.7445998920203
        ],
        "type": "Point"
      },
      "properties": {
        "charger_bus_voltage_v": 650.0,
        "charger_contact_count": 6,
        "charger_efficiency": 0.98,
        "charger_max_current_a": 2475.0,
        "charger_max_kw": 1500.0,
        "grid_export_kw": 1800.0,
        "grid_import_kw": 1800.0,
        "line": "line-1",
        "pv_nameplate_kw": 300.0,
        "station": "line-1-0883-0768-s007971",
        "storage_capacity_kwh": 1500.0,
        "storage_initial_soc": 0.5,
        "storage_max_charge_kw": 1500.0,
        "storage_max_discharge_kw": 1500.0,
        "storage_module_kwh": 500.0,
        "tier": "interchange"
      },
      "type": "Feature"
    },
    {
      "geometry": {
        "coordinates": [
          -5.822412430713174,
          35.74819921534751
        ],
        "type": "Point"
      },
      "properties": {
        "charger_bus_voltage_v": 650.0,
        "charger_contact_count": 6,
        "charger_efficiency": 0.98,
        "charger_max_current_a": 2475.0,
        "charger_max_kw": 1500.0,
        "grid_export_kw": 1800.0,
        "grid_import_kw": 1800.0,
        "line": "line-1",
        "pv_nameplate_kw": 300.0,
        "station": "line-1-0863-0854-s009857",
        "storage_capacity_kwh": 1500.0,
        "storage_initial_soc": 0.5,
        "storage_max_charge_kw": 1500.0,
        "storage_max_discharge_kw": 1500.0,
        "storage_module_kwh": 500.0,
        "tier": "interchange"
      },
      "type": "Feature"
    },
    {
      "geometry": {
        "coordinates": [
          -5.800936486627952,
          35.75215847100745
        ],
        "type": "Point"
      },
      "properties": {
        "charger_bus_voltage_v": 650.0,
        "charger_contact_count": 6,
        "charger_efficiency": 0.98,
        "charger_max_current_a": 2475.0,
        "charger_max_kw": 1500.0,
        "grid_export_kw": 1500.0,
        "grid_import_kw": 1500.0,
        "line": "line-1",
        "pv_nameplate_kw": 300.0,
        "station": "line-1-0841-0951-s011991",
        "storage_capacity_kwh": 1500.0,
        "storage_initial_soc": 0.5,
        "storage_max_charge_kw": 1500.0,
        "storage_max_discharge_kw": 1500.0,
        "storage_module_kwh": 500.0,
        "tier": "standard"
      },
      "type": "Feature"
    },
    {
      "geometry": {
        "coordinates": [
          -5.784552776707268,
          35.75503792966922
        ],
        "type": "Point"
      },
      "properties": {
        "charger_bus_voltage_v": 650.0,
        "charger_contact_count": 6,
        "charger_efficiency": 0.98,
        "charger_max_current_a": 2475.0,
        "charger_max_kw": 1500.0,
        "grid_export_kw": 1500.0,
        "grid_import_kw": 1500.0,
        "line": "line-1",
        "pv_nameplate_kw": 300.0,
        "station": "line-1-0825-1025-s013603",
        "storage_capacity_kwh": 1500.0,
        "storage_initial_soc": 0.5,
        "storage_max_charge_kw": 1500.0,
        "storage_max_discharge_kw": 1500.0,
        "storage_module_kwh": 500.0,
        "tier": "standard"
      },
      "type": "Feature"
    },
    {
      "geometry": {
        "coordinates": [
          -5.762855431136631,
          35.75899718532916
        ],
        "type": "Point"
      },
      "properties": {
        "charger_bus_voltage_v": 650.0,
        "charger_contact_count": 6,
        "charger_efficiency": 0.98,
        "charger_max_current_a": 2475.0,
        "charger_max_kw": 1500.0,
        "grid_export_kw": 2400.0,
        "grid_import_kw": 2400.0,
        "line": "line-1",
        "pv_nameplate_kw": 300.0,
        "station": "line-1-0803-1123-s015745",
        "storage_capacity_kwh": 1500.0,
        "storage_initial_soc": 0.6,
        "storage_max_charge_kw": 1500.0,
        "storage_max_discharge_kw": 1500.0,
        "storage_module_kwh": 500.0,
        "tier": "terminal"
      },
      "type": "Feature"
    },
    {
      "geometry": {
        "coordinates": [
          -5.92912794668304,
          35.75863725299644
        ],
        "type": "Point"
      },
      "properties": {
        "charger_bus_voltage_v": 650.0,
        "charger_contact_count": 6,
        "charger_efficiency": 0.98,
        "charger_max_current_a": 2475.0,
        "charger_max_kw": 1500.0,
        "grid_export_kw": 2400.0,
        "grid_import_kw": 2400.0,
        "line": "line-2",
        "pv_nameplate_kw": 300.0,
        "station": "line-2-0805-0372-s000000",
        "storage_capacity_kwh": 1500.0,
        "storage_initial_soc": 0.6,
        "storage_max_charge_kw": 1500.0,
        "storage_max_discharge_kw": 1500.0,
        "storage_module_kwh": 500.0,
        "tier": "terminal"
      },
      "type": "Feature"
    },
    {
      "geometry": {
        "coordinates": [
          -5.905437987743671,
          35.7647561026527
        ],
        "type": "Point"
      },
      "properties": {
        "charger_bus_voltage_v": 650.0,
        "charger_contact_count": 6,
        "charger_efficiency": 0.98,
        "charger_max_current_a": 2475.0,
        "charger_max_kw": 1500.0,
        "grid_export_kw": 1800.0,
        "grid_import_kw": 1800.0,
        "line": "line-2",
        "pv_nameplate_kw": 300.0,
        "station": "line-2-0771-0479-s002735",
        "storage_capacity_kwh": 1500.0,
        "storage_initial_soc": 0.5,
        "storage_max_charge_kw": 1500.0,
        "storage_max_discharge_kw": 1500.0,
        "storage_module_kwh": 500.0,
        "tier": "interchange"
      },
      "type": "Feature"
    },
    {
      "geometry": {
        "coordinates": [
          -5.893260906045865,
          35.76799549364719
        ],
        "type": "Point"
      },
      "properties": {
        "charger_bus_voltage_v": 650.0,
        "charger_contact_count": 6,
        "charger_efficiency": 0.98,
        "charger_max_current_a": 2475.0,
        "charger_max_kw": 1500.0,
        "grid_export_kw": 1500.0,
        "grid_import_kw": 1500.0,
        "line": "line-2",
        "pv_nameplate_kw": 300.0,
        "station": "line-2-0753-0534-s003996",
        "storage_capacity_kwh": 1500.0,
        "storage_initial_soc": 0.5,
        "storage_max_charge_kw": 1500.0,
        "storage_max_discharge_kw": 1500.0,
        "storage_module_kwh": 500.0,
        "tier": "standard"
      },
      "type": "Feature"
    },
    {
      "geometry": {
        "coordinates": [
          -5.877762802066838,
          35.77213471547349
        ],
        "type": "Point"
      },
      "properties": {
        "charger_bus_voltage_v": 650.0,
        "charger_contact_count": 6,
        "charger_efficiency": 0.98,
        "charger_max_current_a": 2475.0,
        "charger_max_kw": 1500.0,
        "grid_export_kw": 1500.0,
        "grid_import_kw": 1500.0,
        "line": "line-2",
        "pv_nameplate_kw": 300.0,
        "station": "line-2-0730-0604-s005598",
        "storage_capacity_kwh": 1500.0,
        "storage_initial_soc": 0.5,
        "storage_max_charge_kw": 1500.0,
        "storage_max_discharge_kw": 1500.0,
        "storage_module_kwh": 500.0,
        "tier": "standard"
      },
      "type": "Feature"
    },
    {
      "geometry": {
        "coordinates": [
          -5.862264698087813,
          35.776273937299784
        ],
        "type": "Point"
      },
      "properties": {
        "charger_bus_voltage_v": 650.0,
        "charger_contact_count": 6,
        "charger_efficiency": 0.98,
        "charger_max_current_a": 2475.0,
        "charger_max_kw": 1500.0,
        "grid_export_kw": 1500.0,
        "grid_import_kw": 1500.0,
        "line": "line-2",
        "pv_nameplate_kw": 300.0,
        "station": "line-2-0707-0674-s007200",
        "storage_capacity_kwh": 1500.0,
        "storage_initial_soc": 0.5,
        "storage_max_charge_kw": 1500.0,
        "storage_max_discharge_kw": 1500.0,
        "storage_module_kwh": 500.0,
        "tier": "standard"
      },
      "type": "Feature"
    },
    {
      "geometry": {
        "coordinates": [
          -5.846766594108787,
          35.780413159126084
        ],
        "type": "Point"
      },
      "properties": {
        "charger_bus_voltage_v": 650.0,
        "charger_contact_count": 6,
        "charger_efficiency": 0.98,
        "charger_max_current_a": 2475.0,
        "charger_max_kw": 1500.0,
        "grid_export_kw": 1800.0,
        "grid_import_kw": 1800.0,
        "line": "line-2",
        "pv_nameplate_kw": 300.0,
        "station": "line-2-0684-0744-s008802",
        "storage_capacity_kwh": 1500.0,
        "storage_initial_soc": 0.5,
        "storage_max_charge_kw": 1500.0,
        "storage_max_discharge_kw": 1500.0,
        "storage_module_kwh": 500.0,
        "tier": "interchange"
      },
      "type": "Feature"
    },
    {
      "geometry": {
        "coordinates": [
          -5.832596899042248,
          35.784192448619656
        ],
        "type": "Point"
      },
      "properties": {
        "charger_bus_voltage_v": 650.0,
        "charger_contact_count": 6,
        "charger_efficiency": 0.98,
        "charger_max_current_a": 2475.0,
        "charger_max_kw": 1500.0,
        "grid_export_kw": 1800.0,
        "grid_import_kw": 1800.0,
        "line": "line-2",
        "pv_nameplate_kw": 300.0,
        "station": "line-2-0663-0808-s010268",
        "storage_capacity_kwh": 1500.0,
        "storage_initial_soc": 0.5,
        "storage_max_charge_kw": 1500.0,
        "storage_max_discharge_kw": 1500.0,
        "storage_module_kwh": 500.0,
        "tier": "interchange"
      },
      "type": "Feature"
    },
    {
      "geometry": {
        "coordinates": [
          -5.815770386150735,
          35.78869160277868
        ],
        "type": "Point"
      },
      "properties": {
        "charger_bus_voltage_v": 650.0,
        "charger_contact_count": 6,
        "charger_efficiency": 0.98,
        "charger_max_current_a": 2475.0,
        "charger_max_kw": 1500.0,
        "grid_export_kw": 1800.0,
        "grid_import_kw": 1800.0,
        "line": "line-2",
        "pv_nameplate_kw": 300.0,
        "station": "line-2-0638-0884-s012007",
        "storage_capacity_kwh": 1500.0,
        "storage_initial_soc": 0.5,
        "storage_max_charge_kw": 1500.0,
        "storage_max_discharge_kw": 1500.0,
        "storage_module_kwh": 500.0,
        "tier": "major"
      },
      "type": "Feature"
    },
    {
      "geometry": {
        "coordinates": [
          -5.805364516336246,
          35.78239278695605
        ],
        "type": "Point"
      },
      "properties": {
        "charger_bus_voltage_v": 650.0,
        "charger_contact_count": 6,
        "charger_efficiency": 0.98,
        "charger_max_current_a": 2475.0,
        "charger_max_kw": 1500.0,
        "grid_export_kw": 1800.0,
        "grid_import_kw": 1800.0,
        "line": "line-2",
        "pv_nameplate_kw": 300.0,
        "station": "line-2-0673-0931-s014355",
        "storage_capacity_kwh": 1500.0,
        "storage_initial_soc": 0.5,
        "storage_max_charge_kw": 1500.0,
        "storage_max_discharge_kw": 1500.0,
        "storage_module_kwh": 500.0,
        "tier": "interchange"
      },
      "type": "Feature"
    },
    {
      "geometry": {
        "coordinates": [
          -5.783002966309366,
          35.774294309469816
        ],
        "type": "Point"
      },
      "properties": {
        "charger_bus_voltage_v": 650.0,
        "charger_contact_count": 6,
        "charger_efficiency": 0.98,
        "charger_max_current_a": 2475.0,
        "charger_max_kw": 1500.0,
        "grid_export_kw": 1800.0,
        "grid_import_kw": 1800.0,
        "line": "line-2",
        "pv_nameplate_kw": 300.0,
        "station": "line-2-0718-1032-s016794",
        "storage_capacity_kwh": 1500.0,
        "storage_initial_soc": 0.5,
        "storage_max_charge_kw": 1500.0,
        "storage_max_discharge_kw": 1500.0,
        "storage_module_kwh": 500.0,
        "tier": "interchange"
      },
      "type": "Feature"
    },
    {
      "geometry": {
        "coordinates": [
          -5.759534408855411,
          35.768175459813556
        ],
        "type": "Point"
      },
      "properties": {
        "charger_bus_voltage_v": 650.0,
        "charger_contact_count": 6,
        "charger_efficiency": 0.98,
        "charger_max_current_a": 2475.0,
        "charger_max_kw": 1500.0,
        "grid_export_kw": 1800.0,
        "grid_import_kw": 1800.0,
        "line": "line-2",
        "pv_nameplate_kw": 300.0,
        "station": "line-2-0752-1138-s019196",
        "storage_capacity_kwh": 1500.0,
        "storage_initial_soc": 0.5,
        "storage_max_charge_kw": 1500.0,
        "storage_max_discharge_kw": 1500.0,
        "storage_module_kwh": 500.0,
        "tier": "interchange"
      },
      "type": "Feature"
    },
    {
      "geometry": {
        "coordinates": [
          -5.742043691507654,
          35.80830791491199
        ],
        "type": "Point"
      },
      "properties": {
        "charger_bus_voltage_v": 650.0,
        "charger_contact_count": 6,
        "charger_efficiency": 0.98,
        "charger_max_current_a": 2475.0,
        "charger_max_kw": 1500.0,
        "grid_export_kw": 9000.0,
        "grid_import_kw": 9000.0,
        "line": "line-2",
        "pv_nameplate_kw": 5000.0,
        "station": "line-2-0529-1217-s032261",
        "storage_capacity_kwh": 40000.0,
        "storage_initial_soc": 0.6,
        "storage_max_charge_kw": 10000.0,
        "storage_max_discharge_kw": 10000.0,
        "storage_module_kwh": 500.0,
        "tier": "depot-main"
      },
      "type": "Feature"
    },
    {
      "geometry": {
        "coordinates": [
          -5.923150106576844,
          35.6859309217867
        ],
        "type": "Point"
      },
      "properties": {
        "charger_bus_voltage_v": 650.0,
        "charger_contact_count": 6,
        "charger_efficiency": 0.98,
        "charger_max_current_a": 2475.0,
        "charger_max_kw": 1500.0,
        "grid_export_kw": 9000.0,
        "grid_import_kw": 9000.0,
        "line": "line-3",
        "pv_nameplate_kw": 5000.0,
        "station": "line-3-1209-0399-s000000",
        "storage_capacity_kwh": 40000.0,
        "storage_initial_soc": 0.6,
        "storage_max_charge_kw": 10000.0,
        "storage_max_discharge_kw": 10000.0,
        "storage_module_kwh": 500.0,
        "tier": "depot-main"
      },
      "type": "Feature"
    },
    {
      "geometry": {
        "coordinates": [
          -5.895253519414597,
          35.69816862109923
        ],
        "type": "Point"
      },
      "properties": {
        "charger_bus_voltage_v": 650.0,
        "charger_contact_count": 6,
        "charger_efficiency": 0.98,
        "charger_max_current_a": 2475.0,
        "charger_max_kw": 1500.0,
        "grid_export_kw": 1800.0,
        "grid_import_kw": 1800.0,
        "line": "line-3",
        "pv_nameplate_kw": 300.0,
        "station": "line-3-1141-0525-s003189",
        "storage_capacity_kwh": 1500.0,
        "storage_initial_soc": 0.5,
        "storage_max_charge_kw": 1500.0,
        "storage_max_discharge_kw": 1500.0,
        "storage_module_kwh": 500.0,
        "tier": "interchange"
      },
      "type": "Feature"
    },
    {
      "geometry": {
        "coordinates": [
          -5.873777575329375,
          35.70752686174999
        ],
        "type": "Point"
      },
      "properties": {
        "charger_bus_voltage_v": 650.0,
        "charger_contact_count": 6,
        "charger_efficiency": 0.98,
        "charger_max_current_a": 2475.0,
        "charger_max_kw": 1500.0,
        "grid_export_kw": 1500.0,
        "grid_import_kw": 1500.0,
        "line": "line-3",
        "pv_nameplate_kw": 300.0,
        "station": "line-3-1089-0622-s005606",
        "storage_capacity_kwh": 1500.0,
        "storage_initial_soc": 0.5,
        "storage_max_charge_kw": 1500.0,
        "storage_max_discharge_kw": 1500.0,
        "storage_module_kwh": 500.0,
        "tier": "standard"
      },
      "type": "Feature"
    },
    {
      "geometry": {
        "coordinates": [
          -5.859607880262837,
          35.71364571140625
        ],
        "type": "Point"
      },
      "properties": {
        "charger_bus_voltage_v": 650.0,
        "charger_contact_count": 6,
        "charger_efficiency": 0.98,
        "charger_max_current_a": 2475.0,
        "charger_max_kw": 1500.0,
        "grid_export_kw": 1500.0,
        "grid_import_kw": 1500.0,
        "line": "line-3",
        "pv_nameplate_kw": 300.0,
        "station": "line-3-1055-0686-s007203",
        "storage_capacity_kwh": 1500.0,
        "storage_initial_soc": 0.5,
        "storage_max_charge_kw": 1500.0,
        "storage_max_discharge_kw": 1500.0,
        "storage_module_kwh": 500.0,
        "tier": "standard"
      },
      "type": "Feature"
    },
    {
      "geometry": {
        "coordinates": [
          -5.8443311777692255,
          35.720304459561596
        ],
        "type": "Point"
      },
      "properties": {
        "charger_bus_voltage_v": 650.0,
        "charger_contact_count": 6,
        "charger_efficiency": 0.98,
        "charger_max_current_a": 2475.0,
        "charger_max_kw": 1500.0,
        "grid_export_kw": 1800.0,
        "grid_import_kw": 1800.0,
        "line": "line-3",
        "pv_nameplate_kw": 300.0,
        "station": "line-3-1018-0755-s008972",
        "storage_capacity_kwh": 1500.0,
        "storage_initial_soc": 0.5,
        "storage_max_charge_kw": 1500.0,
        "storage_max_discharge_kw": 1500.0,
        "storage_module_kwh": 500.0,
        "tier": "interchange"
      },
      "type": "Feature"
    },
    {
      "geometry": {
        "coordinates": [
          -5.827504664877711,
          35.72786303854875
        ],
        "type": "Point"
      },
      "properties": {
        "charger_bus_voltage_v": 650.0,
        "charger_contact_count": 6,
        "charger_efficiency": 0.98,
        "charger_max_current_a": 2475.0,
        "charger_max_kw": 1500.0,
        "grid_export_kw": 1800.0,
        "grid_import_kw": 1800.0,
        "line": "line-3",
        "pv_nameplate_kw": 300.0,
        "station": "line-3-0976-0831-s010887",
        "storage_capacity_kwh": 1500.0,
        "storage_initial_soc": 0.5,
        "storage_max_charge_kw": 1500.0,
        "storage_max_discharge_kw": 1500.0,
        "storage_module_kwh": 500.0,
        "tier": "interchange"
      },
      "type": "Feature"
    },
    {
      "geometry": {
        "coordinates": [
          -5.8122279623841,
          35.734341820537736
        ],
        "type": "Point"
      },
      "properties": {
        "charger_bus_voltage_v": 650.0,
        "charger_contact_count": 6,
        "charger_efficiency": 0.98,
        "charger_max_current_a": 2475.0,
        "charger_max_kw": 1500.0,
        "grid_export_kw": 1800.0,
        "grid_import_kw": 1800.0,
        "line": "line-3",
        "pv_nameplate_kw": 300.0,
        "station": "line-3-0940-0900-s012588",
        "storage_capacity_kwh": 1500.0,
        "storage_initial_soc": 0.5,
        "storage_max_charge_kw": 1500.0,
        "storage_max_discharge_kw": 1500.0,
        "storage_module_kwh": 500.0,
        "tier": "interchange"
      },
      "type": "Feature"
    },
    {
      "geometry": {
        "coordinates": [
          -5.789645010871805,
          35.744239959687576
        ],
        "type": "Point"
      },
      "properties": {
        "charger_bus_voltage_v": 650.0,
        "charger_contact_count": 6,
        "charger_efficiency": 0.98,
        "charger_max_current_a": 2475.0,
        "charger_max_kw": 1500.0,
        "grid_export_kw": 1500.0,
        "grid_import_kw": 1500.0,
        "line": "line-3",
        "pv_nameplate_kw": 300.0,
        "station": "line-3-0885-1002-s015201",
        "storage_capacity_kwh": 1500.0,
        "storage_initial_soc": 0.5,
        "storage_max_charge_kw": 1500.0,
        "storage_max_discharge_kw": 1500.0,
        "storage_module_kwh": 500.0,
        "tier": "standard"
      },
      "type": "Feature"
    },
    {
      "geometry": {
        "coordinates": [
          -5.767726263815754,
          35.746219587517544
        ],
        "type": "Point"
      },
      "properties": {
        "charger_bus_voltage_v": 650.0,
        "charger_contact_count": 6,
        "charger_efficiency": 0.98,
        "charger_max_current_a": 2475.0,
        "charger_max_kw": 1500.0,
        "grid_export_kw": 2400.0,
        "grid_import_kw": 2400.0,
        "line": "line-3",
        "pv_nameplate_kw": 300.0,
        "station": "line-3-0874-1101-s017516",
        "storage_capacity_kwh": 1500.0,
        "storage_initial_soc": 0.6,
        "storage_max_charge_kw": 1500.0,
        "storage_max_discharge_kw": 1500.0,
        "storage_module_kwh": 500.0,
        "tier": "terminal"
      },
      "type": "Feature"
    },
    {
      "geometry": {
        "coordinates": [
          -5.732744829120238,
          35.651737350178166
        ],
        "type": "Point"
      },
      "properties": {
        "charger_bus_voltage_v": 650.0,
        "charger_contact_count": 6,
        "charger_efficiency": 0.98,
        "charger_max_current_a": 2475.0,
        "charger_max_kw": 1500.0,
        "grid_export_kw": 9000.0,
        "grid_import_kw": 9000.0,
        "line": "line-4",
        "pv_nameplate_kw": 5000.0,
        "station": "line-4-1399-1259-s000000",
        "storage_capacity_kwh": 40000.0,
        "storage_initial_soc": 0.6,
        "storage_max_charge_kw": 10000.0,
        "storage_max_discharge_kw": 10000.0,
        "storage_module_kwh": 500.0,
        "tier": "depot-main"
      },
      "type": "Feature"
    },
    {
      "geometry": {
        "coordinates": [
          -5.809128341588295,
          35.69474926393838
        ],
        "type": "Point"
      },
      "properties": {
        "charger_bus_voltage_v": 650.0,
        "charger_contact_count": 6,
        "charger_efficiency": 0.98,
        "charger_max_current_a": 2475.0,
        "charger_max_kw": 1500.0,
        "grid_export_kw": 1800.0,
        "grid_import_kw": 1800.0,
        "line": "line-4",
        "pv_nameplate_kw": 300.0,
        "station": "line-4-1160-0914-s010311",
        "storage_capacity_kwh": 1500.0,
        "storage_initial_soc": 0.5,
        "storage_max_charge_kw": 1500.0,
        "storage_max_discharge_kw": 1500.0,
        "storage_module_kwh": 500.0,
        "tier": "interchange"
      },
      "type": "Feature"
    },
    {
      "geometry": {
        "coordinates": [
          -5.8215268247715155,
          35.70374757225641
        ],
        "type": "Point"
      },
      "properties": {
        "charger_bus_voltage_v": 650.0,
        "charger_contact_count": 6,
        "charger_efficiency": 0.98,
        "charger_max_current_a": 2475.0,
        "charger_max_kw": 1500.0,
        "grid_export_kw": 1500.0,
        "grid_import_kw": 1500.0,
        "line": "line-4",
        "pv_nameplate_kw": 300.0,
        "station": "line-4-1110-0858-s011997",
        "storage_capacity_kwh": 1500.0,
        "storage_initial_soc": 0.5,
        "storage_max_charge_kw": 1500.0,
        "storage_max_discharge_kw": 1500.0,
        "storage_module_kwh": 500.0,
        "tier": "standard"
      },
      "type": "Feature"
    },
    {
      "geometry": {
        "coordinates": [
          -5.833261103498493,
          35.712385948241725
        ],
        "type": "Point"
      },
      "properties": {
        "charger_bus_voltage_v": 650.0,
        "charger_contact_count": 6,
        "charger_efficiency": 0.98,
        "charger_max_current_a": 2475.0,
        "charger_max_kw": 1500.0,
        "grid_export_kw": 1500.0,
        "grid_import_kw": 1500.0,
        "line": "line-4",
        "pv_nameplate_kw": 300.0,
        "station": "line-4-1062-0805-s013595",
        "storage_capacity_kwh": 1500.0,
        "storage_initial_soc": 0.5,
        "storage_max_charge_kw": 1500.0,
        "storage_max_discharge_kw": 1500.0,
        "storage_module_kwh": 500.0,
        "tier": "standard"
      },
      "type": "Feature"
    },
    {
      "geometry": {
        "coordinates": [
          -5.8443311777692255,
          35.720304459561596
        ],
        "type": "Point"
      },
      "properties": {
        "charger_bus_voltage_v": 650.0,
        "charger_contact_count": 6,
        "charger_efficiency": 0.98,
        "charger_max_current_a": 2475.0,
        "charger_max_kw": 1500.0,
        "grid_export_kw": 1800.0,
        "grid_import_kw": 1800.0,
        "line": "line-4",
        "pv_nameplate_kw": 300.0,
        "station": "line-4-1018-0755-s015089",
        "storage_capacity_kwh": 1500.0,
        "storage_initial_soc": 0.5,
        "storage_max_charge_kw": 1500.0,
        "storage_max_discharge_kw": 1500.0,
        "storage_module_kwh": 500.0,
        "tier": "interchange"
      },
      "type": "Feature"
    },
    {
      "geometry": {
        "coordinates": [
          -5.856729660952446,
          35.729482734045995
        ],
        "type": "Point"
      },
      "properties": {
        "charger_bus_voltage_v": 650.0,
        "charger_contact_count": 6,
        "charger_efficiency": 0.98,
        "charger_max_current_a": 2475.0,
        "charger_max_kw": 1500.0,
        "grid_export_kw": 1500.0,
        "grid_import_kw": 1500.0,
        "line": "line-4",
        "pv_nameplate_kw": 300.0,
        "station": "line-4-0967-0699-s016795",
        "storage_capacity_kwh": 1500.0,
        "storage_initial_soc": 0.5,
        "storage_max_charge_kw": 1500.0,
        "storage_max_discharge_kw": 1500.0,
        "storage_module_kwh": 500.0,
        "tier": "standard"
      },
      "type": "Feature"
    },
    {
      "geometry": {
        "coordinates": [
          -5.870456553048155,
          35.739380873195834
        ],
        "type": "Point"
      },
      "properties": {
        "charger_bus_voltage_v": 650.0,
        "charger_contact_count": 6,
        "charger_efficiency": 0.98,
        "charger_max_current_a": 2475.0,
        "charger_max_kw": 1500.0,
        "grid_export_kw": 1800.0,
        "grid_import_kw": 1800.0,
        "line": "line-4",
        "pv_nameplate_kw": 300.0,
        "station": "line-4-0912-0637-s018631",
        "storage_capacity_kwh": 1500.0,
        "storage_initial_soc": 0.5,
        "storage_max_charge_kw": 1500.0,
        "storage_max_discharge_kw": 1500.0,
        "storage_module_kwh": 500.0,
        "tier": "interchange"
      },
      "type": "Feature"
    },
    {
      "geometry": {
        "coordinates": [
          -5.880419619891815,
          35.746579519850265
        ],
        "type": "Point"
      },
      "properties": {
        "charger_bus_voltage_v": 650.0,
        "charger_contact_count": 6,
        "charger_efficiency": 0.98,
        "charger_max_current_a": 2475.0,
        "charger_max_kw": 1500.0,
        "grid_export_kw": 1500.0,
        "grid_import_kw": 1500.0,
        "line": "line-4",
        "pv_nameplate_kw": 300.0,
        "station": "line-4-0872-0592-s019992",
        "storage_capacity_kwh": 1500.0,
        "storage_initial_soc": 0.5,
        "storage_max_charge_kw": 1500.0,
        "storage_max_discharge_kw": 1500.0,
        "storage_module_kwh": 500.0,
        "tier": "standard"
      },
      "type": "Feature"
    },
    {
      "geometry": {
        "coordinates": [
          -5.892153898618791,
          35.75521789583558
        ],
        "type": "Point"
      },
      "properties": {
        "charger_bus_voltage_v": 650.0,
        "charger_contact_count": 6,
        "charger_efficiency": 0.98,
        "charger_max_current_a": 2475.0,
        "charger_max_kw": 1500.0,
        "grid_export_kw": 1500.0,
        "grid_import_kw": 1500.0,
        "line": "line-4",
        "pv_nameplate_kw": 300.0,
        "station": "line-4-0824-0539-s021602",
        "storage_capacity_kwh": 1500.0,
        "storage_initial_soc": 0.5,
        "storage_max_charge_kw": 1500.0,
        "storage_max_discharge_kw": 1500.0,
        "storage_module_kwh": 500.0,
        "tier": "standard"
      },
      "type": "Feature"
    },
    {
      "geometry": {
        "coordinates": [
          -5.905437987743671,
          35.7647561026527
        ],
        "type": "Point"
      },
      "properties": {
        "charger_bus_voltage_v": 650.0,
        "charger_contact_count": 6,
        "charger_efficiency": 0.98,
        "charger_max_current_a": 2475.0,
        "charger_max_kw": 1500.0,
        "grid_export_kw": 1800.0,
        "grid_import_kw": 1800.0,
        "line": "line-4",
        "pv_nameplate_kw": 300.0,
        "station": "line-4-0771-0479-s023405",
        "storage_capacity_kwh": 1500.0,
        "storage_initial_soc": 0.5,
        "storage_max_charge_kw": 1500.0,
        "storage_max_discharge_kw": 1500.0,
        "storage_module_kwh": 500.0,
        "tier": "interchange"
      },
      "type": "Feature"
    },
    {
      "geometry": {
        "coordinates": [
          -5.91584385755816,
          35.77231468163985
        ],
        "type": "Point"
      },
      "properties": {
        "charger_bus_voltage_v": 650.0,
        "charger_contact_count": 6,
        "charger_efficiency": 0.98,
        "charger_max_current_a": 2475.0,
        "charger_max_kw": 1500.0,
        "grid_export_kw": 1500.0,
        "grid_import_kw": 1500.0,
        "line": "line-4",
        "pv_nameplate_kw": 300.0,
        "station": "line-4-0729-0432-s024810",
        "storage_capacity_kwh": 1500.0,
        "storage_initial_soc": 0.5,
        "storage_max_charge_kw": 1500.0,
        "storage_max_discharge_kw": 1500.0,
        "storage_module_kwh": 500.0,
        "tier": "standard"
      },
      "type": "Feature"
    },
    {
      "geometry": {
        "coordinates": [
          -5.930456355595528,
          35.783112651621494
        ],
        "type": "Point"
      },
      "properties": {
        "charger_bus_voltage_v": 650.0,
        "charger_contact_count": 6,
        "charger_efficiency": 0.98,
        "charger_max_current_a": 2475.0,
        "charger_max_kw": 1500.0,
        "grid_export_kw": 2400.0,
        "grid_import_kw": 2400.0,
        "line": "line-4",
        "pv_nameplate_kw": 300.0,
        "station": "line-4-0669-0366-s026843",
        "storage_capacity_kwh": 1500.0,
        "storage_initial_soc": 0.6,
        "storage_max_charge_kw": 1500.0,
        "storage_max_discharge_kw": 1500.0,
        "storage_module_kwh": 500.0,
        "tier": "terminal"
      },
      "type": "Feature"
    },
    {
      "geometry": {
        "coordinates": [
          -5.914958251616501,
          35.79013133210956
        ],
        "type": "Point"
      },
      "properties": {
        "charger_bus_voltage_v": 650.0,
        "charger_contact_count": 6,
        "charger_efficiency": 0.98,
        "charger_max_current_a": 2475.0,
        "charger_max_kw": 1500.0,
        "grid_export_kw": 9000.0,
        "grid_import_kw": 9000.0,
        "line": "line-5",
        "pv_nameplate_kw": 5000.0,
        "station": "line-5-0630-0436-s000805",
        "storage_capacity_kwh": 40000.0,
        "storage_initial_soc": 0.6,
        "storage_max_charge_kw": 10000.0,
        "storage_max_discharge_kw": 10000.0,
        "storage_module_kwh": 500.0,
        "tier": "depot-main"
      },
      "type": "Feature"
    },
    {
      "geometry": {
        "coordinates": [
          -5.897910337239573,
          35.788871568945034
        ],
        "type": "Point"
      },
      "properties": {
        "charger_bus_voltage_v": 650.0,
        "charger_contact_count": 6,
        "charger_efficiency": 0.98,
        "charger_max_current_a": 2475.0,
        "charger_max_kw": 1500.0,
        "grid_export_kw": 1500.0,
        "grid_import_kw": 1500.0,
        "line": "line-5",
        "pv_nameplate_kw": 300.0,
        "station": "line-5-0637-0513-s002403",
        "storage_capacity_kwh": 1500.0,
        "storage_initial_soc": 0.5,
        "storage_max_charge_kw": 1500.0,
        "storage_max_discharge_kw": 1500.0,
        "storage_module_kwh": 500.0,
        "tier": "standard"
      },
      "type": "Feature"
    },
    {
      "geometry": {
        "coordinates": [
          -5.880862422862644,
          35.78761180578051
        ],
        "type": "Point"
      },
      "properties": {
        "charger_bus_voltage_v": 650.0,
        "charger_contact_count": 6,
        "charger_efficiency": 0.98,
        "charger_max_current_a": 2475.0,
        "charger_max_kw": 1500.0,
        "grid_export_kw": 1500.0,
        "grid_import_kw": 1500.0,
        "line": "line-5",
        "pv_nameplate_kw": 300.0,
        "station": "line-5-0644-0590-s004001",
        "storage_capacity_kwh": 1500.0,
        "storage_initial_soc": 0.5,
        "storage_max_charge_kw": 1500.0,
        "storage_max_discharge_kw": 1500.0,
        "storage_module_kwh": 500.0,
        "tier": "standard"
      },
      "type": "Feature"
    },
    {
      "geometry": {
        "coordinates": [
          -5.863814508485715,
          35.786532008782345
        ],
        "type": "Point"
      },
      "properties": {
        "charger_bus_voltage_v": 650.0,
        "charger_contact_count": 6,
        "charger_efficiency": 0.98,
        "charger_max_current_a": 2475.0,
        "charger_max_kw": 1500.0,
        "grid_export_kw": 1500.0,
        "grid_import_kw": 1500.0,
        "line": "line-5",
        "pv_nameplate_kw": 300.0,
        "station": "line-5-0650-0667-s005591",
        "storage_capacity_kwh": 1500.0,
        "storage_initial_soc": 0.5,
        "storage_max_charge_kw": 1500.0,
        "storage_max_discharge_kw": 1500.0,
        "storage_module_kwh": 500.0,
        "tier": "standard"
      },
      "type": "Feature"
    },
    {
      "geometry": {
        "coordinates": [
          -5.846545192623372,
          35.78527224561782
        ],
        "type": "Point"
      },
      "properties": {
        "charger_bus_voltage_v": 650.0,
        "charger_contact_count": 6,
        "charger_efficiency": 0.98,
        "charger_max_current_a": 2475.0,
        "charger_max_kw": 1500.0,
        "grid_export_kw": 1800.0,
        "grid_import_kw": 1800.0,
        "line": "line-5",
        "pv_nameplate_kw": 300.0,
        "station": "line-5-0657-0745-s007209",
        "storage_capacity_kwh": 1500.0,
        "storage_initial_soc": 0.5,
        "storage_max_charge_kw": 1500.0,
        "storage_max_discharge_kw": 1500.0,
        "storage_module_kwh": 500.0,
        "tier": "interchange"
      },
      "type": "Feature"
    },
    {
      "geometry": {
        "coordinates": [
          -5.832596899042248,
          35.784192448619656
        ],
        "type": "Point"
      },
      "properties": {
        "charger_bus_voltage_v": 650.0,
        "charger_contact_count": 6,
        "charger_efficiency": 0.98,
        "charger_max_current_a": 2475.0,
        "charger_max_kw": 1500.0,
        "grid_export_kw": 1800.0,
        "grid_import_kw": 1800.0,
        "line": "line-5",
        "pv_nameplate_kw": 300.0,
        "station": "line-5-0663-0808-s008518",
        "storage_capacity_kwh": 1500.0,
        "storage_initial_soc": 0.5,
        "storage_max_charge_kw": 1500.0,
        "storage_max_discharge_kw": 1500.0,
        "storage_module_kwh": 500.0,
        "tier": "interchange"
      },
      "type": "Feature"
    },
    {
      "geometry": {
        "coordinates": [
          -5.805364516336246,
          35.78239278695605
        ],
        "type": "Point"
      },
      "properties": {
        "charger_bus_voltage_v": 650.0,
        "charger_contact_count": 6,
        "charger_efficiency": 0.98,
        "charger_max_current_a": 2475.0,
        "charger_max_kw": 1500.0,
        "grid_export_kw": 1800.0,
        "grid_import_kw": 1800.0,
        "line": "line-5",
        "pv_nameplate_kw": 300.0,
        "station": "line-5-0673-0931-s011061",
        "storage_capacity_kwh": 1500.0,
        "storage_initial_soc": 0.5,
        "storage_max_charge_kw": 1500.0,
        "storage_max_discharge_kw": 1500.0,
        "storage_module_kwh": 500.0,
        "tier": "interchange"
      },
      "type": "Feature"
    },
    {
      "geometry": {
        "coordinates": [
          -5.781453155911462,
          35.77681383579887
        ],
        "type": "Point"
      },
      "properties": {
        "charger_bus_voltage_v": 650.0,
        "charger_contact_count": 6,
        "charger_efficiency": 0.98,
        "charger_max_current_a": 2475.0,
        "charger_max_kw": 1500.0,
        "grid_export_kw": 1800.0,
        "grid_import_kw": 1800.0,
        "line": "line-5",
        "pv_nameplate_kw": 300.0,
        "station": "line-5-0704-1039-s013598",
        "storage_capacity_kwh": 1500.0,
        "storage_initial_soc": 0.5,
        "storage_max_charge_kw": 1500.0,
        "storage_max_discharge_kw": 1500.0,
        "storage_module_kwh": 500.0,
        "tier": "interchange"
      },
      "type": "Feature"
    },
    {
      "geometry": {
        "coordinates": [
          -5.765955051932437,
          35.77915339596156
        ],
        "type": "Point"
      },
      "properties": {
        "charger_bus_voltage_v": 650.0,
        "charger_contact_count": 6,
        "charger_efficiency": 0.98,
        "charger_max_current_a": 2475.0,
        "charger_max_kw": 1500.0,
        "grid_export_kw": 1500.0,
        "grid_import_kw": 1500.0,
        "line": "line-5",
        "pv_nameplate_kw": 300.0,
        "station": "line-5-0691-1109-s015200",
        "storage_capacity_kwh": 1500.0,
        "storage_initial_soc": 0.5,
        "storage_max_charge_kw": 1500.0,
        "storage_max_discharge_kw": 1500.0,
        "storage_module_kwh": 500.0,
        "tier": "standard"
      },
      "type": "Feature"
    },
    {
      "geometry": {
        "coordinates": [
          -5.759534408855411,
          35.768175459813556
        ],
        "type": "Point"
      },
      "properties": {
        "charger_bus_voltage_v": 650.0,
        "charger_contact_count": 6,
        "charger_efficiency": 0.98,
        "charger_max_current_a": 2475.0,
        "charger_max_kw": 1500.0,
        "grid_export_kw": 1800.0,
        "grid_import_kw": 1800.0,
        "line": "line-5",
        "pv_nameplate_kw": 300.0,
        "station": "line-5-0752-1138-s016822",
        "storage_capacity_kwh": 1500.0,
        "storage_initial_soc": 0.5,
        "storage_max_charge_kw": 1500.0,
        "storage_max_discharge_kw": 1500.0,
        "storage_module_kwh": 500.0,
        "tier": "interchange"
      },
      "type": "Feature"
    },
    {
      "geometry": {
        "coordinates": [
          -5.762855431136631,
          35.75899718532916
        ],
        "type": "Point"
      },
      "properties": {
        "charger_bus_voltage_v": 650.0,
        "charger_contact_count": 6,
        "charger_efficiency": 0.98,
        "charger_max_current_a": 2475.0,
        "charger_max_kw": 1500.0,
        "grid_export_kw": 1800.0,
        "grid_import_kw": 1800.0,
        "line": "line-5",
        "pv_nameplate_kw": 300.0,
        "station": "line-5-0803-1123-s017967",
        "storage_capacity_kwh": 1500.0,
        "storage_initial_soc": 0.5,
        "storage_max_charge_kw": 1500.0,
        "storage_max_discharge_kw": 1500.0,
        "storage_module_kwh": 500.0,
        "tier": "interchange"
      },
      "type": "Feature"
    },
    {
      "geometry": {
        "coordinates": [
          -5.767726263815754,
          35.746219587517544
        ],
        "type": "Point"
      },
      "properties": {
        "charger_bus_voltage_v": 650.0,
        "charger_contact_count": 6,
        "charger_efficiency": 0.98,
        "charger_max_current_a": 2475.0,
        "charger_max_kw": 1500.0,
        "grid_export_kw": 1800.0,
        "grid_import_kw": 1800.0,
        "line": "line-5",
        "pv_nameplate_kw": 300.0,
        "station": "line-5-0874-1101-s019569",
        "storage_capacity_kwh": 1500.0,
        "storage_initial_soc": 0.5,
        "storage_max_charge_kw": 1500.0,
        "storage_max_discharge_kw": 1500.0,
        "storage_module_kwh": 500.0,
        "tier": "interchange"
      },
      "type": "Feature"
    },
    {
      "geometry": {
        "coordinates": [
          -5.773482702436535,
          35.730202598711436
        ],
        "type": "Point"
      },
      "properties": {
        "charger_bus_voltage_v": 650.0,
        "charger_contact_count": 6,
        "charger_efficiency": 0.98,
        "charger_max_current_a": 2475.0,
        "charger_max_kw": 1500.0,
        "grid_export_kw": 1500.0,
        "grid_import_kw": 1500.0,
        "line": "line-5",
        "pv_nameplate_kw": 300.0,
        "station": "line-5-0963-1075-s021588",
        "storage_capacity_kwh": 1500.0,
        "storage_initial_soc": 0.5,
        "storage_max_charge_kw": 1500.0,
        "storage_max_discharge_kw": 1500.0,
        "storage_module_kwh": 500.0,
        "tier": "standard"
      },
      "type": "Feature"
    },
    {
      "geometry": {
        "coordinates": [
          -5.778353535115658,
          35.71742500089983
        ],
        "type": "Point"
      },
      "properties": {
        "charger_bus_voltage_v": 650.0,
        "charger_contact_count": 6,
        "charger_efficiency": 0.98,
        "charger_max_current_a": 2475.0,
        "charger_max_kw": 1500.0,
        "grid_export_kw": 1500.0,
        "grid_import_kw": 1500.0,
        "line": "line-5",
        "pv_nameplate_kw": 300.0,
        "station": "line-5-1034-1053-s023202",
        "storage_capacity_kwh": 1500.0,
        "storage_initial_soc": 0.5,
        "storage_max_charge_kw": 1500.0,
        "storage_max_discharge_kw": 1500.0,
        "storage_module_kwh": 500.0,
        "tier": "standard"
      },
      "type": "Feature"
    },
    {
      "geometry": {
        "coordinates": [
          -5.783667170765609,
          35.70536726775366
        ],
        "type": "Point"
      },
      "properties": {
        "charger_bus_voltage_v": 650.0,
        "charger_contact_count": 6,
        "charger_efficiency": 0.98,
        "charger_max_current_a": 2475.0,
        "charger_max_kw": 1500.0,
        "grid_export_kw": 1500.0,
        "grid_import_kw": 1500.0,
        "line": "line-5",
        "pv_nameplate_kw": 300.0,
        "station": "line-5-1101-1029-s024787",
        "storage_capacity_kwh": 1500.0,
        "storage_initial_soc": 0.5,
        "storage_max_charge_kw": 1500.0,
        "storage_max_discharge_kw": 1500.0,
        "storage_module_kwh": 500.0,
        "tier": "standard"
      },
      "type": "Feature"
    },
    {
      "geometry": {
        "coordinates": [
          -5.79938667623005,
          35.69852855343195
        ],
        "type": "Point"
      },
      "properties": {
        "charger_bus_voltage_v": 650.0,
        "charger_contact_count": 6,
        "charger_efficiency": 0.98,
        "charger_max_current_a": 2475.0,
        "charger_max_kw": 1500.0,
        "grid_export_kw": 1800.0,
        "grid_import_kw": 1800.0,
        "line": "line-5",
        "pv_nameplate_kw": 300.0,
        "station": "line-5-1139-0958-s026569",
        "storage_capacity_kwh": 1500.0,
        "storage_initial_soc": 0.5,
        "storage_max_charge_kw": 1500.0,
        "storage_max_discharge_kw": 1500.0,
        "storage_module_kwh": 500.0,
        "tier": "interchange"
      },
      "type": "Feature"
    },
    {
      "geometry": {
        "coordinates": [
          -5.809128341588295,
          35.69474926393838
        ],
        "type": "Point"
      },
      "properties": {
        "charger_bus_voltage_v": 650.0,
        "charger_contact_count": 6,
        "charger_efficiency": 0.98,
        "charger_max_current_a": 2475.0,
        "charger_max_kw": 1500.0,
        "grid_export_kw": 1800.0,
        "grid_import_kw": 1800.0,
        "line": "line-5",
        "pv_nameplate_kw": 300.0,
        "station": "line-5-1160-0914-s027646",
        "storage_capacity_kwh": 1500.0,
        "storage_initial_soc": 0.5,
        "storage_max_charge_kw": 1500.0,
        "storage_max_discharge_kw": 1500.0,
        "storage_module_kwh": 500.0,
        "tier": "interchange"
      },
      "type": "Feature"
    },
    {
      "geometry": {
        "coordinates": [
          -5.82551205150898,
          35.65875603066623
        ],
        "type": "Point"
      },
      "properties": {
        "charger_bus_voltage_v": 650.0,
        "charger_contact_count": 6,
        "charger_efficiency": 0.98,
        "charger_max_current_a": 2475.0,
        "charger_max_kw": 1500.0,
        "grid_export_kw": 1500.0,
        "grid_import_kw": 1500.0,
        "line": "line-5",
        "pv_nameplate_kw": 300.0,
        "station": "line-5-1360-0840-s032803",
        "storage_capacity_kwh": 1500.0,
        "storage_initial_soc": 0.5,
        "storage_max_charge_kw": 1500.0,
        "storage_max_discharge_kw": 1500.0,
        "storage_module_kwh": 500.0,
        "tier": "standard"
      },
      "type": "Feature"
    },
    {
      "geometry": {
        "coordinates": [
          -5.895253519414597,
          35.69816862109923
        ],
        "type": "Point"
      },
      "properties": {
        "charger_bus_voltage_v": 650.0,
        "charger_contact_count": 6,
        "charger_efficiency": 0.98,
        "charger_max_current_a": 2475.0,
        "charger_max_kw": 1500.0,
        "grid_export_kw": 1800.0,
        "grid_import_kw": 1800.0,
        "line": "line-5",
        "pv_nameplate_kw": 300.0,
        "station": "line-5-1141-0525-s041653",
        "storage_capacity_kwh": 1500.0,
        "storage_initial_soc": 0.5,
        "storage_max_charge_kw": 1500.0,
        "storage_max_discharge_kw": 1500.0,
        "storage_module_kwh": 500.0,
        "tier": "interchange"
      },
      "type": "Feature"
    },
    {
      "geometry": {
        "coordinates": [
          -5.904552381802013,
          35.714185609905336
        ],
        "type": "Point"
      },
      "properties": {
        "charger_bus_voltage_v": 650.0,
        "charger_contact_count": 6,
        "charger_efficiency": 0.98,
        "charger_max_current_a": 2475.0,
        "charger_max_kw": 1500.0,
        "grid_export_kw": 1500.0,
        "grid_import_kw": 1500.0,
        "line": "line-5",
        "pv_nameplate_kw": 300.0,
        "station": "line-5-1052-0483-s044003",
        "storage_capacity_kwh": 1500.0,
        "storage_initial_soc": 0.5,
        "storage_max_charge_kw": 1500.0,
        "storage_max_discharge_kw": 1500.0,
        "storage_module_kwh": 500.0,
        "tier": "standard"
      },
      "type": "Feature"
    },
    {
      "geometry": {
        "coordinates": [
          -5.921821697664356,
          35.72966270021236
        ],
        "type": "Point"
      },
      "properties": {
        "charger_bus_voltage_v": 650.0,
        "charger_contact_count": 6,
        "charger_efficiency": 0.98,
        "charger_max_current_a": 2475.0,
        "charger_max_kw": 1500.0,
        "grid_export_kw": 1800.0,
        "grid_import_kw": 1800.0,
        "line": "line-5",
        "pv_nameplate_kw": 300.0,
        "station": "line-5-0966-0405-s046627",
        "storage_capacity_kwh": 1500.0,
        "storage_initial_soc": 0.5,
        "storage_max_charge_kw": 1500.0,
        "storage_max_discharge_kw": 1500.0,
        "storage_module_kwh": 500.0,
        "tier": "interchange"
      },
      "type": "Feature"
    },
    {
      "geometry": {
        "coordinates": [
          -5.92912794668304,
          35.75863725299644
        ],
        "type": "Point"
      },
      "properties": {
        "charger_bus_voltage_v": 650.0,
        "charger_contact_count": 6,
        "charger_efficiency": 0.98,
        "charger_max_current_a": 2475.0,
        "charger_max_kw": 1500.0,
        "grid_export_kw": 1800.0,
        "grid_import_kw": 1800.0,
        "line": "line-5",
        "pv_nameplate_kw": 300.0,
        "station": "line-5-0805-0372-s050121",
        "storage_capacity_kwh": 1500.0,
        "storage_initial_soc": 0.5,
        "storage_max_charge_kw": 1500.0,
        "storage_max_discharge_kw": 1500.0,
        "storage_module_kwh": 500.0,
        "tier": "interchange"
      },
      "type": "Feature"
    },
    {
      "geometry": {
        "coordinates": [
          -5.930456355595528,
          35.78293268545513
        ],
        "type": "Point"
      },
      "properties": {
        "charger_bus_voltage_v": 650.0,
        "charger_contact_count": 6,
        "charger_efficiency": 0.98,
        "charger_max_current_a": 2475.0,
        "charger_max_kw": 1500.0,
        "grid_export_kw": 1800.0,
        "grid_import_kw": 1800.0,
        "line": "line-5",
        "pv_nameplate_kw": 300.0,
        "station": "line-5-0670-0366-s053048",
        "storage_capacity_kwh": 1500.0,
        "storage_initial_soc": 0.5,
        "storage_max_charge_kw": 1500.0,
        "storage_max_discharge_kw": 1500.0,
        "storage_module_kwh": 500.0,
        "tier": "interchange"
      },
      "type": "Feature"
    },
    {
      "geometry": {
        "coordinates": [
          -5.822412430713174,
          35.74819921534751
        ],
        "type": "Point"
      },
      "properties": {
        "charger_bus_voltage_v": 650.0,
        "charger_contact_count": 6,
        "charger_efficiency": 0.98,
        "charger_max_current_a": 2475.0,
        "charger_max_kw": 1500.0,
        "grid_export_kw": 9000.0,
        "grid_import_kw": 9000.0,
        "line": "line-6",
        "pv_nameplate_kw": 5000.0,
        "station": "line-6-0863-0854-s000000",
        "storage_capacity_kwh": 40000.0,
        "storage_initial_soc": 0.6,
        "storage_max_charge_kw": 10000.0,
        "storage_max_discharge_kw": 10000.0,
        "storage_module_kwh": 500.0,
        "tier": "depot-main"
      },
      "type": "Feature"
    },
    {
      "geometry": {
        "coordinates": [
          -5.8257334529943945,
          35.76169667782457
        ],
        "type": "Point"
      },
      "properties": {
        "charger_bus_voltage_v": 650.0,
        "charger_contact_count": 6,
        "charger_efficiency": 0.98,
        "charger_max_current_a": 2475.0,
        "charger_max_kw": 1500.0,
        "grid_export_kw": 1500.0,
        "grid_import_kw": 1500.0,
        "line": "line-6",
        "pv_nameplate_kw": 300.0,
        "station": "line-6-0788-0839-s001624",
        "storage_capacity_kwh": 1500.0,
        "storage_initial_soc": 0.5,
        "storage_max_charge_kw": 1500.0,
        "storage_max_discharge_kw": 1500.0,
        "storage_module_kwh": 500.0,
        "tier": "standard"
      },
      "type": "Feature"
    },
    {
      "geometry": {
        "coordinates": [
          -5.809571144559124,
          35.76619583198359
        ],
        "type": "Point"
      },
      "properties": {
        "charger_bus_voltage_v": 650.0,
        "charger_contact_count": 6,
        "charger_efficiency": 0.98,
        "charger_max_current_a": 2475.0,
        "charger_max_kw": 1500.0,
        "grid_export_kw": 2400.0,
        "grid_import_kw": 2400.0,
        "line": "line-6",
        "pv_nameplate_kw": 300.0,
        "station": "line-6-0763-0912-s003291",
        "storage_capacity_kwh": 1500.0,
        "storage_initial_soc": 0.6,
        "storage_max_charge_kw": 1500.0,
        "storage_max_discharge_kw": 1500.0,
        "storage_module_kwh": 500.0,
        "tier": "terminal"
      },
      "type": "Feature"
    },
    {
      "geometry": {
        "coordinates": [
          -5.8122279623841,
          35.734341820537736
        ],
        "type": "Point"
      },
      "properties": {
        "charger_bus_voltage_v": 650.0,
        "charger_contact_count": 6,
        "charger_efficiency": 0.98,
        "charger_max_current_a": 2475.0,
        "charger_max_kw": 1500.0,
        "grid_export_kw": 9000.0,
        "grid_import_kw": 9000.0,
        "line": "line-7",
        "pv_nameplate_kw": 5000.0,
        "station": "line-7-0940-0900-s000000",
        "storage_capacity_kwh": 40000.0,
        "storage_initial_soc": 0.6,
        "storage_max_charge_kw": 10000.0,
        "storage_max_discharge_kw": 10000.0,
        "storage_module_kwh": 500.0,
        "tier": "depot-main"
      },
      "type": "Feature"
    },
    {
      "geometry": {
        "coordinates": [
          -5.804257508909172,
          35.721384256559766
        ],
        "type": "Point"
      },
      "properties": {
        "charger_bus_voltage_v": 650.0,
        "charger_contact_count": 6,
        "charger_efficiency": 0.98,
        "charger_max_current_a": 2475.0,
        "charger_max_kw": 1500.0,
        "grid_export_kw": 1500.0,
        "grid_import_kw": 1500.0,
        "line": "line-7",
        "pv_nameplate_kw": 300.0,
        "station": "line-7-1012-0936-s001738",
        "storage_capacity_kwh": 1500.0,
        "storage_initial_soc": 0.5,
        "storage_max_charge_kw": 1500.0,
        "storage_max_discharge_kw": 1500.0,
        "storage_module_kwh": 500.0,
        "tier": "standard"
      },
      "type": "Feature"
    },
    {
      "geometry": {
        "coordinates": [
          -5.79938667623005,
          35.69852855343195
        ],
        "type": "Point"
      },
      "properties": {
        "charger_bus_voltage_v": 650.0,
        "charger_contact_count": 6,
        "charger_efficiency": 0.98,
        "charger_max_current_a": 2475.0,
        "charger_max_kw": 1500.0,
        "grid_export_kw": 2400.0,
        "grid_import_kw": 2400.0,
        "line": "line-7",
        "pv_nameplate_kw": 300.0,
        "station": "line-7-1139-0958-s004637",
        "storage_capacity_kwh": 1500.0,
        "storage_initial_soc": 0.6,
        "storage_max_charge_kw": 1500.0,
        "storage_max_discharge_kw": 1500.0,
        "storage_module_kwh": 500.0,
        "tier": "terminal"
      },
      "type": "Feature"
    },
    {
      "geometry": {
        "coordinates": [
          -5.827504664877711,
          35.72786303854875
        ],
        "type": "Point"
      },
      "properties": {
        "charger_bus_voltage_v": 650.0,
        "charger_contact_count": 6,
        "charger_efficiency": 0.98,
        "charger_max_current_a": 2475.0,
        "charger_max_kw": 1500.0,
        "grid_export_kw": 9000.0,
        "grid_import_kw": 9000.0,
        "line": "line-8",
        "pv_nameplate_kw": 5000.0,
        "station": "line-8-0976-0831-s000000",
        "storage_capacity_kwh": 40000.0,
        "storage_initial_soc": 0.6,
        "storage_max_charge_kw": 10000.0,
        "storage_max_discharge_kw": 10000.0,
        "storage_module_kwh": 500.0,
        "tier": "depot-main"
      },
      "type": "Feature"
    },
    {
      "geometry": {
        "coordinates": [
          -5.841452958458835,
          35.74477985818666
        ],
        "type": "Point"
      },
      "properties": {
        "charger_bus_voltage_v": 650.0,
        "charger_contact_count": 6,
        "charger_efficiency": 0.98,
        "charger_max_current_a": 2475.0,
        "charger_max_kw": 1500.0,
        "grid_export_kw": 1800.0,
        "grid_import_kw": 1800.0,
        "line": "line-8",
        "pv_nameplate_kw": 300.0,
        "station": "line-8-0882-0768-s002402",
        "storage_capacity_kwh": 1500.0,
        "storage_initial_soc": 0.5,
        "storage_max_charge_kw": 1500.0,
        "storage_max_discharge_kw": 1500.0,
        "storage_module_kwh": 500.0,
        "tier": "interchange"
      },
      "type": "Feature"
    },
    {
      "geometry": {
        "coordinates": [
          -5.841895761429664,
          35.75737748983191
        ],
        "type": "Point"
      },
      "properties": {
        "charger_bus_voltage_v": 650.0,
        "charger_contact_count": 6,
        "charger_efficiency": 0.98,
        "charger_max_current_a": 2475.0,
        "charger_max_kw": 1500.0,
        "grid_export_kw": 2400.0,
        "grid_import_kw": 2400.0,
        "line": "line-8",
        "pv_nameplate_kw": 300.0,
        "station": "line-8-0812-0766-s003818",
        "storage_capacity_kwh": 1500.0,
        "storage_initial_soc": 0.6,
        "storage_max_charge_kw": 1500.0,
        "storage_max_discharge_kw": 1500.0,
        "storage_module_kwh": 500.0,
        "tier": "terminal"
      },
      "type": "Feature"
    }
  ],
  "type": "FeatureCollection"
}
