{
  "features": [
    {
      "geometry": {
        "coordinates": [
          32.74380878918775,
          26.197240708346833
        ],
        "type": "Point"
      },
      "properties": {
        "archetype": "main-heavy",
        "fleet_stalls": 5,
        "line": "line-1",
        "station": "line-1-0316-0690-s000000"
      },
      "type": "Feature"
    },
    {
      "geometry": {
        "coordinates": [
          32.78323982679816,
          26.083322125040493
        ],
        "type": "Point"
      },
      "properties": {
        "archetype": "main-heavy",
        "fleet_stalls": 9,
        "line": "line-2",
        "station": "line-2-0949-0887-s018371"
      },
      "type": "Feature"
    },
    {
      "geometry": {
        "coordinates": [
          32.70717995729585,
          26.15926784724472
        ],
        "type": "Point"
      },
      "properties": {
        "archetype": "main-heavy",
        "fleet_stalls": 6,
        "line": "line-3",
        "station": "line-3-0527-0507-s000000"
      },
      "type": "Feature"
    },
    {
      "geometry": {
        "coordinates": [
          32.71258421118154,
          26.167186358564592
        ],
        "type": "Point"
      },
      "properties": {
        "archetype": "main-heavy",
        "fleet_stalls": 2,
        "line": "line-4",
        "station": "line-4-0483-0534-s000000"
      },
      "type": "Feature"
    },
    {
      "geometry": {
        "coordinates": [
          32.69156766829274,
          26.1598077457438
        ],
        "type": "Point"
      },
      "properties": {
        "archetype": "main-heavy",
        "fleet_stalls": 2,
        "line": "line-5",
        "station": "line-5-0524-0429-s000000"
      },
      "type": "Feature"
    },
    {
      "geometry": {
        "coordinates": [
          32.72639508222275,
          26.18464307670158
        ],
        "type": "Point"
      },
      "properties": {
        "archetype": "main-heavy",
        "fleet_stalls": 4,
        "line": "line-6",
        "station": "line-6-0386-0603-s000000"
      },
      "type": "Feature"
    },
    {
      "geometry": {
        "coordinates": [
          32.65714056946538,
          26.168986020228196
        ],
        "type": "Point"
      },
      "properties": {
        "archetype": "main-heavy",
        "fleet_stalls": 3,
        "line": "line-7",
        "station": "line-7-0473-0257-s000000"
      },
      "type": "Feature"
    },
    {
      "geometry": {
        "coordinates": [
          32.69877334014033,
          26.143790756937697
        ],
        "type": "Point"
      },
      "properties": {
        "archetype": "main-heavy",
        "fleet_stalls": 2,
        "line": "line-8",
        "station": "line-8-0613-0465-s000000"
      },
      "type": "Feature"
    },
    {
      "geometry": {
        "coordinates": [
          32.77403257943735,
          26.098439283014795
        ],
        "type": "Point"
      },
      "properties": {
        "archetype": "main-heavy",
        "fleet_stalls": 3,
        "line": "line-9",
        "station": "line-9-0865-0841-s000000"
      },
      "type": "Feature"
    },
    {
      "geometry": {
        "coordinates": [
          32.75581824226706,
          26.109417219162797
        ],
        "type": "Point"
      },
      "properties": {
        "archetype": "main-heavy",
        "fleet_stalls": 3,
        "line": "line-10",
        "station": "line-10-0804-0750-s000000"
      },
      "type": "Feature"
    }
  ],
  "type": "FeatureCollection"
}
