{
  "features": [
    {
      "geometry": {
        "coordinates": [
          30.69635293849124,
          -0.6021323219234784
        ],
        "type": "Point"
      },
      "properties": {
        "archetype": "main-heavy",
        "fleet_stalls": 5,
        "line": "line-1",
        "station": "line-1-0522-0784-s000000"
      },
      "type": "Feature"
    },
    {
      "geometry": {
        "coordinates": [
          30.599150210991226,
          -0.55534111866969
        ],
        "type": "Point"
      },
      "properties": {
        "archetype": "main-heavy",
        "fleet_stalls": 6,
        "line": "line-2",
        "station": "line-2-0262-0243-s000000"
      },
      "type": "Feature"
    },
    {
      "geometry": {
        "coordinates": [
          30.715757549526362,
          -0.5314056185437138
        ],
        "type": "Point"
      },
      "properties": {
        "archetype": "main-heavy",
        "fleet_stalls": 11,
        "line": "line-3",
        "station": "line-3-0129-0892-s024020"
      },
      "type": "Feature"
    }
  ],
  "type": "FeatureCollection"
}
