{
  "features": [
    {
      "geometry": {
        "coordinates": [
          31.15465306092112,
          29.077826426231866
        ],
        "type": "Point"
      },
      "properties": {
        "archetype": "main-heavy",
        "fleet_stalls": 6,
        "line": "line-1",
        "station": "line-1-0485-0820-s011238"
      },
      "type": "Feature"
    },
    {
      "geometry": {
        "coordinates": [
          31.10634901544097,
          29.099422366195153
        ],
        "type": "Point"
      },
      "properties": {
        "archetype": "main-heavy",
        "fleet_stalls": 5,
        "line": "line-2",
        "station": "line-2-0365-0585-s000000"
      },
      "type": "Feature"
    },
    {
      "geometry": {
        "coordinates": [
          31.07510554772615,
          29.072607407407407
        ],
        "type": "Point"
      },
      "properties": {
        "archetype": "main-heavy",
        "fleet_stalls": 4,
        "line": "line-3",
        "station": "line-3-0514-0433-s000000"
      },
      "type": "Feature"
    }
  ],
  "type": "FeatureCollection"
}
