{
  "features": [
    {
      "geometry": {
        "coordinates": [
          39.08793625144388,
          -5.07976321851492
        ],
        "type": "Point"
      },
      "properties": {
        "id": "interchange-000",
        "junction_group": 0,
        "line_count": 2,
        "lines": "line-1,line-3",
        "platform_count": 2,
        "platforms": "line-1-0494-0481-s007068,line-3-0497-0462-s008223"
      },
      "type": "Feature"
    },
    {
      "geometry": {
        "coordinates": [
          39.10191519103477,
          -5.088851509916136
        ],
        "type": "Point"
      },
      "properties": {
        "id": "interchange-001",
        "junction_group": 1,
        "line_count": 2,
        "lines": "line-2,line-3",
        "platform_count": 2,
        "platforms": "line-2-0546-0549-s009170,line-3-0546-0549-s005574"
      },
      "type": "Feature"
    }
  ],
  "type": "FeatureCollection"
}
