{"type": "FeatureCollection", "features": [{"type": "Feature", "properties": {"id": "line-1", "name": "Line 1", "length_m": 15775.9, "feature_kind": "line"}, "geometry": {"type": "MultiLineString", "coordinates": [[[45.256014, 31.270664], [45.25746, 31.271801], [45.258038, 31.272234], [45.259298, 31.273167], [45.25965, 31.273427], [45.259988, 31.273684], [45.260337, 31.273956], [45.260692, 31.274244], [45.260936, 31.274432], [45.260978, 31.274464], [45.261092, 31.274552], [45.261103, 31.27458], [45.261119, 31.274606], [45.261137, 31.27463], [45.261159, 31.274653], [45.261271, 31.274758], [45.261317, 31.274795], [45.26287, 31.276041], [45.263213, 31.276306], [45.263697, 31.27668], [45.264792, 31.277526], [45.265058, 31.277732], [45.265414, 31.278007], [45.266073, 31.278517], [45.266671, 31.27898], [45.268348, 31.280274], [45.268804, 31.280627]], [[45.268804, 31.280627], [45.270628, 31.282029], [45.272255, 31.283253], [45.272948, 31.28379], [45.273517, 31.284138], [45.273584, 31.28418], [45.27684, 31.285844], [45.278003, 31.28644], [45.277938, 31.286502], [45.277876, 31.286567], [45.277819, 31.286635], [45.277766, 31.286706], [45.277254, 31.287401], [45.276808, 31.288004], [45.27651, 31.288408], [45.27645, 31.288495], [45.276387, 31.288579], [45.276319, 31.288661], [45.276247, 31.28874], [45.276171, 31.288817], [45.276092, 31.288891], [45.27601, 31.288962], [45.274826, 31.289843], [45.273571, 31.290735], [45.273434, 31.290831], [45.273136, 31.291039], [45.272827, 31.291249], [45.272757, 31.291297], [45.272334, 31.291598], [45.271748, 31.292006], [45.271256, 31.292349], [45.271073, 31.29248]], [[45.271073, 31.29248], [45.270593, 31.292827], [45.270555, 31.292855], [45.270108, 31.293177], [45.269612, 31.293536], [45.269023, 31.293962], [45.268701, 31.294197], [45.268174, 31.294575], [45.268058, 31.294659], [45.267908, 31.294824], [45.267876, 31.295007], [45.267879, 31.295322], [45.268238, 31.297265], [45.268413, 31.298194], [45.268469, 31.298601], [45.268532, 31.299069], [45.268545, 31.299138], [45.268585, 31.299327], [45.268639, 31.299584], [45.268973, 31.301435], [45.268994, 31.301541]], [[45.268994, 31.301541], [45.269041, 31.301827], [45.269198, 31.302739], [45.26937, 31.303707], [45.269456, 31.304229], [45.269547, 31.304715], [45.269622, 31.305106], [45.269714, 31.305581], [45.269789, 31.306049], [45.269891, 31.306502], [45.270089, 31.307753], [45.270104, 31.30789], [45.270105, 31.308065], [45.270044, 31.308084], [45.269993, 31.308117], [45.269955, 31.308161], [45.269934, 31.308212], [45.26993, 31.308256], [45.269938, 31.308299], [45.269958, 31.30834], [45.269998, 31.308384], [45.270051, 31.308415], [45.270113, 31.308432], [45.270165, 31.308508], [45.270203, 31.308582], [45.27029, 31.309142], [45.270432, 31.309999], [45.2705, 31.310368]], [[45.2705, 31.310368], [45.270596, 31.310967], [45.270711, 31.311694], [45.270757, 31.31203], [45.270762, 31.312457], [45.270693, 31.312739], [45.270858, 31.312686], [45.271336, 31.312567], [45.275782, 31.311438], [45.276257, 31.311317], [45.277274, 31.311059], [45.277319, 31.311185], [45.277377, 31.311384], [45.277572, 31.312304], [45.277661, 31.31288], [45.277677, 31.31316], [45.277508, 31.313344], [45.277699, 31.313367], [45.277714, 31.313409], [45.277723, 31.313429], [45.277752, 31.313454], [45.277844, 31.313468], [45.277893, 31.313455], [45.27895, 31.314152]], [[45.27895, 31.314152], [45.279193, 31.314312], [45.279779, 31.314699], [45.280008, 31.314849], [45.280467, 31.315152], [45.280866, 31.315415], [45.281035, 31.315527], [45.281228, 31.315717], [45.281247, 31.315776], [45.28129, 31.315825], [45.281351, 31.315855], [45.281422, 31.315863], [45.28149, 31.315848], [45.28231, 31.316396], [45.283573, 31.317225], [45.28366, 31.317278], [45.283831, 31.317352], [45.28428, 31.317914], [45.28473, 31.318443], [45.284827, 31.318554], [45.284878, 31.318594], [45.284936, 31.318626], [45.284999, 31.318648], [45.285067, 31.31866], [45.285136, 31.318661], [45.285179, 31.318654], [45.285281, 31.318602], [45.285334, 31.31857], [45.285409, 31.318525], [45.285562, 31.318422], [45.285912, 31.318223], [45.286386, 31.31804], [45.287638, 31.317408], [45.288104, 31.317133], [45.288421, 31.316951], [45.288512, 31.316902], [45.288605, 31.316857], [45.288629, 31.316901], [45.288725, 31.316859], [45.288839, 31.31681], [45.289219, 31.316658], [45.289786, 31.316454], [45.290299, 31.316265], [45.291481, 31.315896], [45.292296, 31.31567], [45.292696, 31.316585], [45.292869, 31.316918], [45.292869, 31.316945], [45.29294, 31.317264], [45.292948, 31.317302], [45.292956, 31.317339], [45.293055, 31.317327], [45.293162, 31.317324], [45.293235, 31.317935]], [[45.293235, 31.317935], [45.293268, 31.318152], [45.29338, 31.318694], [45.293499, 31.31926], [45.293556, 31.319514], [45.293589, 31.319659], [45.293703, 31.320214], [45.293772, 31.320603], [45.293773, 31.320649], [45.29376, 31.320886], [45.293746, 31.321129], [45.293723, 31.321244], [45.293707, 31.32132], [45.293616, 31.321662], [45.293317, 31.322502], [45.293167, 31.322893], [45.29309, 31.323101], [45.293025, 31.323285], [45.292743, 31.324286], [45.292687, 31.324473], [45.292637, 31.324661], [45.292591, 31.324849], [45.29255, 31.325039], [45.292515, 31.325229], [45.292472, 31.325464], [45.292433, 31.325699], [45.292397, 31.325934], [45.292284, 31.326695], [45.292088, 31.328008], [45.292023, 31.328417], [45.291983, 31.328704], [45.291953, 31.32891], [45.291922, 31.32911], [45.291779, 31.330068], [45.291746, 31.330295]], [[45.291746, 31.330295], [45.291673, 31.33079], [45.291623, 31.331129], [45.291542, 31.331675], [45.291353, 31.332943], [45.291152, 31.334289], [45.29091, 31.335962], [45.290739, 31.337091], [45.290725, 31.337179], [45.290465, 31.338892]], [[45.290465, 31.338892], [45.290446, 31.339011], [45.290343, 31.339722], [45.290207, 31.340669], [45.29019, 31.340785], [45.289788, 31.34349], [45.28968, 31.344223], [45.289641, 31.344475], [45.289513, 31.345308], [45.289405, 31.34603], [45.289374, 31.346238], [45.289348, 31.346417], [45.28924, 31.347138], [45.289234, 31.347178], [45.289064, 31.348311], [45.289043, 31.348465], [45.288371, 31.353007], [45.288364, 31.353055], [45.288336, 31.353245], [45.287858, 31.356473], [45.287849, 31.356539], [45.28783, 31.356665], [45.287819, 31.35674], [45.287668, 31.35777], [45.28765, 31.357891], [45.287646, 31.357916], [45.287552, 31.358548], [45.287539, 31.35864], [45.287459, 31.359185], [45.287614, 31.359198], [45.287659, 31.358888], [45.287703, 31.35856], [45.287788, 31.357933], [45.287793, 31.357899], [45.287799, 31.357861], [45.287804, 31.357824], [45.287812, 31.357771], [45.287964, 31.356763], [45.287978, 31.356667], [45.287984, 31.35663], [45.287999, 31.356523], [45.288005, 31.356479], [45.288155, 31.355455], [45.288274, 31.354647], [45.288342, 31.354146], [45.288373, 31.353911], [45.288475, 31.35329], [45.28848, 31.353255], [45.288489, 31.3532], [45.288501, 31.353116], [45.288516, 31.353021], [45.288986, 31.349907]], [[45.288986, 31.349907], [45.288516, 31.353021], [45.288501, 31.353116], [45.288489, 31.3532], [45.28848, 31.353255], [45.288475, 31.35329], [45.288373, 31.353911], [45.288342, 31.354146], [45.288274, 31.354647], [45.288155, 31.355455], [45.288005, 31.356479], [45.287999, 31.356523], [45.287984, 31.35663], [45.287978, 31.356667], [45.287964, 31.356763], [45.287812, 31.357771], [45.287804, 31.357824], [45.287799, 31.357861], [45.287793, 31.357899], [45.287788, 31.357933], [45.287703, 31.35856], [45.287659, 31.358888], [45.287614, 31.359198]]]}}, {"type": "Feature", "properties": {"id": "line-2", "name": "Line 2", "length_m": 13183.2, "feature_kind": "line"}, "geometry": {"type": "MultiLineString", "coordinates": [[[45.306834, 31.280612], [45.30626, 31.280869], [45.305461, 31.281222], [45.307547, 31.285134], [45.309611, 31.288798], [45.309954, 31.289495], [45.310255, 31.290375]], [[45.310255, 31.290375], [45.314853, 31.299212], [45.314901, 31.299314], [45.314914, 31.29937], [45.314926, 31.299418], [45.314935, 31.299456], [45.314952, 31.299591], [45.314953, 31.299696], [45.314946, 31.299824], [45.314928, 31.299882], [45.314869, 31.299985], [45.314804, 31.300057], [45.31471, 31.300132], [45.314515, 31.300221], [45.308937, 31.301917], [45.30841, 31.30211], [45.305993, 31.302949], [45.305205, 31.303216], [45.305202, 31.303258], [45.305192, 31.303295], [45.305178, 31.303325], [45.305143, 31.303342], [45.305077, 31.303369], [45.303667, 31.303817], [45.303508, 31.303866], [45.301418, 31.304438], [45.30126, 31.304483]], [[45.30126, 31.304483], [45.295699, 31.305957], [45.2956, 31.305983], [45.295679, 31.306242], [45.29579, 31.306635], [45.296015, 31.307508], [45.296064, 31.307703], [45.296206, 31.308279], [45.296314, 31.308665], [45.296459, 31.309279]], [[45.296459, 31.309279], [45.29666, 31.31021], [45.296797, 31.311255], [45.296885, 31.31222], [45.29686, 31.312293], [45.296842, 31.312366], [45.296832, 31.312441], [45.296829, 31.312516], [45.296831, 31.312591], [45.296828, 31.313189], [45.296824, 31.313232], [45.296812, 31.313277], [45.296789, 31.31332], [45.296756, 31.313357], [45.296715, 31.313387], [45.296667, 31.31341], [45.296615, 31.313423], [45.295799, 31.313524], [45.295541, 31.313535], [45.295266, 31.313557], [45.295017, 31.313578], [45.294732, 31.313603], [45.294538, 31.313628], [45.294363, 31.313655], [45.294189, 31.313687], [45.294016, 31.313724], [45.293839, 31.313769], [45.293664, 31.31382], [45.292613, 31.314115], [45.292433, 31.314177], [45.292304, 31.314227], [45.292096, 31.314314], [45.292, 31.31435]], [[45.292, 31.31435], [45.291902, 31.314377], [45.291801, 31.314397], [45.291698, 31.314408], [45.29152, 31.314424], [45.291436, 31.314434], [45.291353, 31.31445], [45.291276, 31.31447], [45.291201, 31.314495], [45.29076, 31.314656], [45.289984, 31.314927], [45.289524, 31.315107], [45.288604, 31.315444], [45.288401, 31.315514], [45.288198, 31.31558], [45.287992, 31.315642], [45.287785, 31.3157], [45.287576, 31.315755], [45.28658, 31.31598], [45.286055, 31.316131], [45.285751, 31.31623], [45.285358, 31.316384], [45.284883, 31.316552], [45.284523, 31.315385], [45.284235, 31.314522], [45.284197, 31.314417], [45.284095, 31.314038]], [[45.284095, 31.314038], [45.283983, 31.313701], [45.283952, 31.313627], [45.283891, 31.313429], [45.283822, 31.313213], [45.283664, 31.312682], [45.283559, 31.312421], [45.283376, 31.311926], [45.283353, 31.311827], [45.283307, 31.311727], [45.283188, 31.311427], [45.283091, 31.311107], [45.283011, 31.310976], [45.282926, 31.310836], [45.282851, 31.310806], [45.282795, 31.310754], [45.28268, 31.310715], [45.282551, 31.310718], [45.282248, 31.310869], [45.282204, 31.310891], [45.28153, 31.311238], [45.281331, 31.311303], [45.281209, 31.311334], [45.280836, 31.311429], [45.280508, 31.311514], [45.279823, 31.311692], [45.279297, 31.311828], [45.278859, 31.311941], [45.278824, 31.311951], [45.278256, 31.312109], [45.278036, 31.31217], [45.277925, 31.312249], [45.277876, 31.312327], [45.277751, 31.312648], [45.27783, 31.312943], [45.277913, 31.313268], [45.277868, 31.313247], [45.277817, 31.313243], [45.277767, 31.313256], [45.277728, 31.313284], [45.277704, 31.313323], [45.277699, 31.313367], [45.277508, 31.313344], [45.277442, 31.313428], [45.277339, 31.313588], [45.277264, 31.313735], [45.277239, 31.313903], [45.277238, 31.31419], [45.277264, 31.315121], [45.277264, 31.315584], [45.277275, 31.316029], [45.27727, 31.316457]], [[45.27727, 31.316457], [45.277286, 31.316962], [45.277304, 31.317674], [45.277313, 31.318235], [45.277325, 31.319587], [45.277332, 31.320276], [45.277333, 31.320312], [45.277347, 31.320418], [45.276486, 31.32034], [45.274161, 31.320122], [45.274105, 31.320116], [45.274029, 31.320112], [45.272017, 31.319916], [45.270811, 31.319802], [45.270514, 31.319774]], [[45.270514, 31.319774], [45.270465, 31.322244], [45.270444, 31.323339], [45.270429, 31.323479], [45.270406, 31.323595], [45.270292, 31.324024], [45.270189, 31.32433], [45.270114, 31.324512], [45.270058, 31.324618], [45.269988, 31.324746], [45.269906, 31.324856], [45.268475, 31.326615], [45.267806, 31.327447], [45.267386, 31.327957], [45.266973, 31.328416], [45.266506, 31.329017], [45.266195, 31.32953], [45.265985, 31.329973], [45.265898, 31.330186], [45.265411, 31.331453], [45.265307, 31.33143]], [[45.265307, 31.33143], [45.263941, 31.331134], [45.263834, 31.33111], [45.263231, 31.330976], [45.263064, 31.330941], [45.262896, 31.330914], [45.262727, 31.330894], [45.262557, 31.330881], [45.262386, 31.330875], [45.262215, 31.330876], [45.262044, 31.330885], [45.261136, 31.330978], [45.260685, 31.331042], [45.260132, 31.33112], [45.258228, 31.33139], [45.257942, 31.331435], [45.257481, 31.331499], [45.256748, 31.3316]], [[45.256748, 31.3316], [45.2555, 31.331773], [45.255396, 31.331786], [45.255324, 31.331798], [45.255227, 31.331813], [45.255128, 31.331829], [45.255077, 31.331837], [45.255033, 31.331843], [45.25493, 31.331856], [45.254782, 31.33187], [45.254633, 31.331879], [45.25437, 31.331927], [45.253907, 31.332018], [45.250296, 31.332488], [45.249763, 31.332623], [45.249305, 31.332832], [45.249, 31.333078], [45.248815, 31.333325], [45.248548, 31.333846], [45.248336, 31.334614], [45.248036, 31.335395], [45.247786, 31.335818], [45.247012, 31.336772], [45.246021, 31.337819], [45.245466, 31.338214], [45.244747, 31.338484], [45.244099, 31.33861], [45.243636, 31.338605], [45.242601, 31.338554]]]}}, {"type": "Feature", "properties": {"id": "line-3", "name": "Line 3", "length_m": 19200.2, "feature_kind": "line"}, "geometry": {"type": "MultiLineString", "coordinates": [[[45.297887, 31.267602], [45.298607, 31.267851], [45.299119, 31.268027], [45.301497, 31.268849], [45.304037, 31.269727], [45.304592, 31.269919], [45.316452, 31.274016], [45.317158, 31.274324], [45.317477, 31.274482], [45.317702, 31.274766], [45.317938, 31.275043], [45.31813, 31.275323], [45.317415, 31.275674], [45.316811, 31.275965], [45.315289, 31.276657], [45.314536, 31.276988], [45.313054, 31.277658], [45.311948, 31.278145], [45.311638, 31.278281], [45.310837, 31.278615], [45.310399, 31.278785], [45.309888, 31.27899], [45.309331, 31.279216], [45.308693, 31.279494], [45.3081, 31.279749], [45.307515, 31.280009], [45.307025, 31.280224]], [[45.307025, 31.280224], [45.306106, 31.280638], [45.305182, 31.281044], [45.303984, 31.281588], [45.303601, 31.281758], [45.303373, 31.281858], [45.302656, 31.282166], [45.302278, 31.282333], [45.301913, 31.282502], [45.301679, 31.28261], [45.30069, 31.283047], [45.299597, 31.283531], [45.299044, 31.283775], [45.29848, 31.284033], [45.297502, 31.284466], [45.295764, 31.28524], [45.295315, 31.285439], [45.294796, 31.285681], [45.294403, 31.285879], [45.294147, 31.286019], [45.293884, 31.286165], [45.293318, 31.286513], [45.292381, 31.287138], [45.291894, 31.287483], [45.291453, 31.287818], [45.291341, 31.287914], [45.290998, 31.288194], [45.290671, 31.288485], [45.2901, 31.289025], [45.289478, 31.289638], [45.289316, 31.289806], [45.289079, 31.29007], [45.288844, 31.290345], [45.288502, 31.290781]], [[45.288502, 31.290781], [45.288272, 31.291102], [45.288007, 31.291481], [45.287492, 31.292306], [45.28738, 31.292509], [45.287169, 31.292921], [45.287077, 31.293121], [45.286972, 31.293346], [45.286704, 31.293942], [45.286575, 31.294248], [45.286464, 31.294564], [45.286409, 31.294728], [45.286377, 31.294826], [45.28628, 31.29513], [45.286206, 31.295368], [45.286074, 31.295829], [45.285963, 31.296286], [45.285934, 31.296427], [45.285901, 31.296589], [45.285863, 31.296776], [45.285829, 31.297008], [45.285818, 31.297163], [45.285804, 31.297327], [45.285796, 31.297466], [45.285776, 31.297824]], [[45.285776, 31.297824], [45.285715, 31.29931], [45.285713, 31.299441], [45.28572, 31.299987], [45.285735, 31.300259], [45.285754, 31.300503], [45.285776, 31.300678], [45.285815, 31.300982], [45.285837, 31.301133], [45.285888, 31.301458], [45.285952, 31.30183], [45.286026, 31.302217], [45.286082, 31.302443], [45.286142, 31.302681], [45.286242, 31.302999], [45.286276, 31.303095], [45.286292, 31.303144], [45.286394, 31.303394], [45.286644, 31.304076], [45.286778, 31.304449], [45.28708, 31.305193], [45.287164, 31.305373], [45.287247, 31.305546], [45.287301, 31.305661], [45.28736, 31.30578], [45.287415, 31.305891], [45.287533, 31.306121], [45.287649, 31.306344], [45.288305, 31.307547], [45.288454, 31.307848], [45.288598, 31.308138], [45.28893, 31.30874], [45.289067, 31.30898], [45.289196, 31.309205], [45.289331, 31.30944], [45.289446, 31.309639], [45.289654, 31.30999], [45.289845, 31.310336], [45.289951, 31.310541], [45.290119, 31.310884], [45.290232, 31.311104], [45.290429, 31.311486], [45.290681, 31.311975], [45.291177, 31.312937], [45.291269, 31.313111], [45.291317, 31.313167], [45.291365, 31.31326], [45.291407, 31.313354], [45.291445, 31.31345], [45.291473, 31.313515], [45.291504, 31.313579], [45.291538, 31.313641], [45.291576, 31.313703], [45.291624, 31.313771], [45.291893, 31.314318], [45.292038, 31.314593], [45.292137, 31.314771], [45.292233, 31.314952], [45.292322, 31.315135], [45.292403, 31.315321], [45.292479, 31.31551], [45.292558, 31.31575], [45.292862, 31.3166], [45.292869, 31.316918], [45.292696, 31.316585], [45.292296, 31.31567], [45.291481, 31.315896], [45.290299, 31.316265], [45.289786, 31.316454], [45.289219, 31.316658], [45.288839, 31.31681], [45.288725, 31.316859], [45.288629, 31.316901], [45.288605, 31.316857], [45.288512, 31.316902], [45.288421, 31.316951], [45.288104, 31.317133], [45.287638, 31.317408], [45.286386, 31.31804], [45.285912, 31.318223], [45.285562, 31.318422], [45.285409, 31.318525], [45.285334, 31.31857], [45.285281, 31.318602], [45.285179, 31.318654], [45.285136, 31.318661], [45.285067, 31.31866], [45.284999, 31.318648], [45.284936, 31.318626], [45.284878, 31.318594], [45.284827, 31.318554], [45.28473, 31.318443], [45.28428, 31.317914], [45.283831, 31.317352], [45.28366, 31.317278], [45.283573, 31.317225], [45.28231, 31.316396]], [[45.28231, 31.316396], [45.283573, 31.317225], [45.28366, 31.317278], [45.283831, 31.317352], [45.28428, 31.317914], [45.28473, 31.318443], [45.284827, 31.318554], [45.284878, 31.318594], [45.284936, 31.318626], [45.284999, 31.318648], [45.285067, 31.31866], [45.285136, 31.318661], [45.285179, 31.318654], [45.285281, 31.318602], [45.285334, 31.31857], [45.285409, 31.318525], [45.285562, 31.318422], [45.285912, 31.318223], [45.286386, 31.31804], [45.287638, 31.317408], [45.288104, 31.317133], [45.288421, 31.316951], [45.288512, 31.316902], [45.288605, 31.316857], [45.288629, 31.316901], [45.288725, 31.316859], [45.288839, 31.31681], [45.289219, 31.316658], [45.289786, 31.316454], [45.290299, 31.316265], [45.291481, 31.315896], [45.292296, 31.31567], [45.292696, 31.316585], [45.292869, 31.316918]], [[45.292869, 31.316918], [45.292696, 31.316585], [45.292296, 31.31567], [45.291481, 31.315896], [45.290299, 31.316265], [45.289786, 31.316454], [45.289219, 31.316658], [45.288839, 31.31681], [45.288725, 31.316859], [45.288629, 31.316901], [45.288605, 31.316857], [45.288512, 31.316902], [45.288421, 31.316951], [45.288104, 31.317133], [45.287638, 31.317408], [45.286386, 31.31804], [45.285912, 31.318223], [45.285562, 31.318422], [45.285409, 31.318525], [45.285334, 31.31857], [45.285281, 31.318602], [45.285179, 31.318654], [45.285136, 31.318661], [45.285067, 31.31866], [45.284999, 31.318648], [45.284936, 31.318626], [45.284878, 31.318594], [45.284827, 31.318554], [45.28473, 31.318443], [45.28428, 31.317914], [45.283831, 31.317352], [45.28366, 31.317278], [45.283573, 31.317225], [45.28231, 31.316396], [45.28149, 31.315848], [45.281422, 31.315863], [45.281351, 31.315855], [45.28129, 31.315825], [45.281247, 31.315776], [45.281228, 31.315717], [45.281035, 31.315527], [45.280866, 31.315415], [45.280467, 31.315152], [45.280008, 31.314849], [45.279779, 31.314699], [45.279193, 31.314312], [45.27895, 31.314152], [45.277893, 31.313455], [45.277844, 31.313468], [45.277752, 31.313454], [45.277723, 31.313429], [45.277714, 31.313409], [45.277699, 31.313367], [45.277508, 31.313344], [45.277442, 31.313428], [45.277339, 31.313588], [45.277264, 31.313735], [45.277239, 31.313903], [45.277238, 31.31419], [45.277264, 31.315121], [45.277264, 31.315584], [45.277275, 31.316029], [45.27727, 31.316457]], [[45.27727, 31.316457], [45.277286, 31.316962], [45.277304, 31.317674], [45.277313, 31.318235], [45.277325, 31.319587], [45.277332, 31.320276], [45.277333, 31.320312], [45.277347, 31.320418], [45.276486, 31.32034], [45.274161, 31.320122], [45.274105, 31.320116], [45.274029, 31.320112], [45.272017, 31.319916], [45.270811, 31.319802], [45.270514, 31.319774]], [[45.270514, 31.319774], [45.270465, 31.322244], [45.270444, 31.323339], [45.270429, 31.323479], [45.270406, 31.323595], [45.270292, 31.324024], [45.270189, 31.32433], [45.270114, 31.324512], [45.270058, 31.324618], [45.269988, 31.324746], [45.269906, 31.324856], [45.268475, 31.326615], [45.267806, 31.327447], [45.267386, 31.327957], [45.266973, 31.328416], [45.266506, 31.329017], [45.266195, 31.32953], [45.265985, 31.329973], [45.265898, 31.330186], [45.265411, 31.331453]], [[45.265411, 31.331453], [45.265858, 31.331582], [45.266537, 31.331741], [45.266821, 31.331799], [45.267135, 31.331851], [45.268185, 31.332007], [45.268262, 31.332018], [45.268896, 31.332112], [45.269865, 31.332255], [45.270706, 31.33241], [45.271092, 31.332561], [45.272109, 31.33293], [45.272718, 31.333189], [45.273167, 31.333375], [45.274295, 31.333846], [45.274499, 31.333905], [45.274747, 31.333959], [45.275004, 31.333994], [45.277908, 31.334115], [45.278299, 31.334132], [45.278635, 31.334177], [45.278962, 31.334209], [45.278881, 31.334262], [45.278804, 31.334315], [45.278514, 31.334514], [45.278245, 31.334672], [45.276238, 31.335856], [45.275563, 31.336256], [45.275337, 31.336432], [45.275051, 31.336656], [45.274855, 31.336904], [45.27458, 31.337251], [45.274492, 31.337361]], [[45.274492, 31.337361], [45.274108, 31.337857], [45.274006, 31.337989], [45.273665, 31.338471], [45.273378, 31.338931], [45.273073, 31.339422], [45.273007, 31.339527], [45.2729, 31.339694], [45.272605, 31.34015], [45.271544, 31.341791], [45.271417, 31.341987], [45.270906, 31.342781], [45.270623, 31.343223], [45.268973, 31.345801], [45.268918, 31.345888], [45.268064, 31.347224], [45.2679, 31.347469], [45.267766, 31.347685], [45.267729, 31.347744], [45.267621, 31.347934], [45.267588, 31.347993], [45.267507, 31.348131], [45.267212, 31.3486]]]}}, {"type": "Feature", "properties": {"id": "line-4", "name": "Line 4", "length_m": 10681.8, "feature_kind": "line"}, "geometry": {"type": "MultiLineString", "coordinates": [[[45.228078, 31.295032], [45.228742, 31.309493], [45.229321, 31.309676], [45.229911, 31.30997], [45.230383, 31.310355], [45.231027, 31.311125], [45.233624, 31.314672]], [[45.233624, 31.314672], [45.236671, 31.318549], [45.237582, 31.319502], [45.237765, 31.319658], [45.23843, 31.319961], [45.239084, 31.320144], [45.239449, 31.32019], [45.240071, 31.320208], [45.240694, 31.320107], [45.241219, 31.319961], [45.241885, 31.319594], [45.243037, 31.318743], [45.24312, 31.318681], [45.244259, 31.317824]], [[45.244259, 31.317824], [45.244567, 31.3176], [45.245222, 31.317109], [45.245472, 31.316922], [45.245654, 31.316786], [45.246002, 31.316526], [45.246239, 31.316348], [45.2465, 31.316153], [45.247093, 31.315709], [45.247172, 31.31565], [45.247687, 31.315281], [45.247987, 31.315042], [45.248215, 31.314872], [45.248514, 31.314649], [45.248831, 31.314413], [45.249488, 31.313922], [45.24957, 31.313861], [45.249749, 31.313728], [45.250043, 31.313523], [45.250206, 31.313399], [45.250488, 31.313184], [45.251005, 31.312803], [45.251279, 31.312601], [45.251455, 31.312472], [45.251597, 31.312382], [45.251758, 31.31228], [45.251961, 31.312152], [45.252077, 31.312078], [45.252828, 31.311739], [45.253415, 31.311466], [45.253792, 31.311316], [45.254304, 31.311148], [45.254613, 31.311075], [45.256456, 31.310641], [45.256565, 31.310618], [45.256537, 31.310457], [45.25711, 31.310372], [45.25819, 31.310212]], [[45.25819, 31.310212], [45.25978, 31.30998], [45.260322, 31.309893], [45.261228, 31.309747], [45.262001, 31.309623], [45.262102, 31.309607], [45.264174, 31.309273], [45.265863, 31.309002], [45.266084, 31.308966], [45.266404, 31.308916], [45.267419, 31.308759], [45.267926, 31.308671], [45.268485, 31.308584], [45.269002, 31.30849], [45.269491, 31.308419], [45.269958, 31.30834], [45.269998, 31.308384], [45.270051, 31.308415], [45.270113, 31.308432], [45.270165, 31.308508], [45.270203, 31.308582], [45.27029, 31.309142], [45.270432, 31.309999], [45.2705, 31.310368]], [[45.2705, 31.310368], [45.270596, 31.310967], [45.270711, 31.311694], [45.270757, 31.31203], [45.270762, 31.312457], [45.270693, 31.312739], [45.270858, 31.312686], [45.271336, 31.312567], [45.275782, 31.311438], [45.276257, 31.311317], [45.277274, 31.311059], [45.277319, 31.311185], [45.277377, 31.311384], [45.277572, 31.312304], [45.277661, 31.31288], [45.277677, 31.31316], [45.277508, 31.313344], [45.277699, 31.313367]], [[45.277699, 31.313367], [45.277704, 31.313323], [45.277728, 31.313284], [45.277767, 31.313256], [45.277817, 31.313243], [45.277868, 31.313247], [45.277913, 31.313268], [45.27783, 31.312943], [45.277751, 31.312648], [45.277876, 31.312327], [45.277925, 31.312249], [45.278036, 31.31217], [45.278256, 31.312109], [45.278824, 31.311951], [45.278859, 31.311941], [45.279297, 31.311828], [45.279823, 31.311692], [45.280508, 31.311514], [45.280836, 31.311429], [45.281209, 31.311334], [45.281331, 31.311303], [45.28153, 31.311238], [45.282204, 31.310891], [45.282248, 31.310869], [45.282551, 31.310718], [45.28268, 31.310715], [45.282795, 31.310754], [45.282851, 31.310806], [45.282926, 31.310836], [45.283011, 31.310976], [45.283091, 31.311107], [45.283188, 31.311427], [45.283307, 31.311727], [45.283353, 31.311827], [45.283376, 31.311926], [45.283559, 31.312421], [45.283664, 31.312682], [45.283822, 31.313213], [45.283891, 31.313429], [45.283952, 31.313627], [45.283983, 31.313701], [45.284095, 31.314038]], [[45.284095, 31.314038], [45.284197, 31.314417], [45.284235, 31.314522], [45.284523, 31.315385], [45.284883, 31.316552], [45.284915, 31.316631], [45.284811, 31.316688], [45.284633, 31.316769], [45.284458, 31.316854], [45.284286, 31.316944], [45.283754, 31.317232], [45.283831, 31.317352], [45.28428, 31.317914], [45.28473, 31.318443], [45.284827, 31.318554], [45.284878, 31.318594], [45.284936, 31.318626], [45.284999, 31.318648], [45.285067, 31.31866], [45.285136, 31.318661], [45.285179, 31.318654], [45.285281, 31.318602], [45.285334, 31.31857], [45.285409, 31.318525], [45.285562, 31.318422], [45.285912, 31.318223], [45.286386, 31.31804], [45.287638, 31.317408], [45.288104, 31.317133], [45.288421, 31.316951], [45.288512, 31.316902], [45.288605, 31.316857], [45.288629, 31.316901], [45.288725, 31.316859], [45.288839, 31.31681], [45.289219, 31.316658], [45.289786, 31.316454], [45.290299, 31.316265], [45.291481, 31.315896], [45.292296, 31.31567], [45.292696, 31.316585], [45.292869, 31.316918], [45.292869, 31.316945], [45.29294, 31.317264], [45.292948, 31.317302], [45.292956, 31.317339], [45.293055, 31.317327], [45.293162, 31.317324], [45.293235, 31.317935]]]}}, {"type": "Feature", "properties": {"id": "shqq-am-al-safyr-aljdydh", "name": "Shqq Am Al'safyr Aljdydh", "archetype": "standard", "feature_kind": "station"}, "geometry": {"type": "Point", "coordinates": [45.289, 31.3499]}}, {"type": "Feature", "properties": {"id": "abwjwylanh", "name": "Abwjwylanh", "archetype": "terminal", "feature_kind": "station"}, "geometry": {"type": "Point", "coordinates": [45.2426, 31.3386]}}, {"type": "Feature", "properties": {"id": "dwr-alskk", "name": "Dwr Alskk", "archetype": "terminal", "feature_kind": "station"}, "geometry": {"type": "Point", "coordinates": [45.2979, 31.2676]}}, {"type": "Feature", "properties": {"id": "jam-h-sawh", "name": "Jam'h Sawh", "archetype": "terminal", "feature_kind": "station"}, "geometry": {"type": "Point", "coordinates": [45.2876, 31.3592]}}, {"type": "Feature", "properties": {"id": "alsyagh-hy-alhsyn", "name": "Alsyagh (hy Alhsyn)", "archetype": "interchange", "feature_kind": "station"}, "geometry": {"type": "Point", "coordinates": [45.2705, 31.3198]}}, {"type": "Feature", "properties": {"id": "hy-alshhda-althanyh", "name": "Hy Alshhda' Althanyh", "archetype": "standard", "feature_kind": "station"}, "geometry": {"type": "Point", "coordinates": [45.2582, 31.3102]}}, {"type": "Feature", "properties": {"id": "mrkz-shy-alhsnyn-aljrbw-yh-1", "name": "Mrkz Shy Alhsnyn (aljrbw'yh 1)", "archetype": "interchange", "feature_kind": "station"}, "geometry": {"type": "Point", "coordinates": [45.2653, 31.3314]}}, {"type": "Feature", "properties": {"id": "mjm-albrkh-alskny", "name": "Mjm' Albrkh Alskny", "archetype": "terminal", "feature_kind": "station"}, "geometry": {"type": "Point", "coordinates": [45.3068, 31.2806]}}, {"type": "Feature", "properties": {"id": "hy-jd-an-alawla", "name": "Hy Jd'an Alawla", "archetype": "interchange", "feature_kind": "station"}, "geometry": {"type": "Point", "coordinates": [45.2705, 31.3104]}}, {"type": "Feature", "properties": {"id": "mjm-tby", "name": "Mjm' Tby", "archetype": "interchange", "feature_kind": "station"}, "geometry": {"type": "Point", "coordinates": [45.2841, 31.314]}}, {"type": "Feature", "properties": {"id": "bstan-al-shnan-tryq-almhdy", "name": "Bstan Al Shnan (tryq Almhdy)", "archetype": "standard", "feature_kind": "station"}, "geometry": {"type": "Point", "coordinates": [45.2336, 31.3147]}}, {"type": "Feature", "properties": {"id": "sydlh-adm-hy-alhkm", "name": "Sydlh Adm _ Hy Alhkm", "archetype": "major", "feature_kind": "station"}, "geometry": {"type": "Point", "coordinates": [45.269, 31.3015]}}, {"type": "Feature", "properties": {"id": "alskk", "name": "Alskk", "archetype": "standard", "feature_kind": "station"}, "geometry": {"type": "Point", "coordinates": [45.2745, 31.3374]}}, {"type": "Feature", "properties": {"id": "al-m-aly-khlf-alskh", "name": "Al M'aly Khlf Alskh", "archetype": "terminal", "feature_kind": "station"}, "geometry": {"type": "Point", "coordinates": [45.256, 31.2707]}}, {"type": "Feature", "properties": {"id": "aljrbw-yh-alstalaf", "name": "Aljrbw'yh Alstalaf", "archetype": "terminal", "feature_kind": "station"}, "geometry": {"type": "Point", "coordinates": [45.2672, 31.3486]}}, {"type": "Feature", "properties": {"id": "mhl-hany-ly", "name": "Mhl Hany 'ly", "archetype": "standard", "feature_kind": "station"}, "geometry": {"type": "Point", "coordinates": [45.2917, 31.3303]}}, {"type": "Feature", "properties": {"id": "klyh-tb-alasnan-jam-h-almthna", "name": "Klyh Tb Alasnan Jam'h Almthna", "archetype": "terminal", "feature_kind": "station"}, "geometry": {"type": "Point", "coordinates": [45.2932, 31.3179]}}, {"type": "Feature", "properties": {"id": "hy-alsna-y", "name": "Hy Alsna'y", "archetype": "standard", "feature_kind": "station"}, "geometry": {"type": "Point", "coordinates": [45.2885, 31.2908]}}, {"type": "Feature", "properties": {"id": "jam-h-almthna", "name": "Jam'h Almthna", "archetype": "major", "feature_kind": "station"}, "geometry": {"type": "Point", "coordinates": [45.2905, 31.3389]}}, {"type": "Feature", "properties": {"id": "am-aldhhb-al-rbat", "name": "Am Aldhhb (al Rbat)", "archetype": "standard", "feature_kind": "station"}, "geometry": {"type": "Point", "coordinates": [45.2443, 31.3178]}}, {"type": "Feature", "properties": {"id": "rail-station-1", "name": "Rail Station 1", "archetype": "terminal", "feature_kind": "station"}, "geometry": {"type": "Point", "coordinates": [45.2281, 31.295]}}, {"type": "Feature", "properties": {"id": "hy-alnhdh", "name": "Hy Alnhdh", "archetype": "standard", "feature_kind": "station"}, "geometry": {"type": "Point", "coordinates": [45.2858, 31.2978]}}, {"type": "Feature", "properties": {"id": "hy-alshhda-khlf-mrkz-alshrth", "name": "Hy Alshhda' Khlf Mrkz Alshrth", "archetype": "standard", "feature_kind": "station"}, "geometry": {"type": "Point", "coordinates": [45.2965, 31.3093]}}, {"type": "Feature", "properties": {"id": "mstshfa-alsadq-alahly", "name": "Mstshfa Alsadq Alahly", "archetype": "interchange", "feature_kind": "station"}, "geometry": {"type": "Point", "coordinates": [45.2773, 31.3165]}}, {"type": "Feature", "properties": {"id": "mjm-alnhdh-alskny", "name": "Mjm' Alnhdh Alskny", "archetype": "standard", "feature_kind": "station"}, "geometry": {"type": "Point", "coordinates": [45.3103, 31.2904]}}, {"type": "Feature", "properties": {"id": "dwr-alshrkh", "name": "Dwr Alshrkh", "archetype": "standard", "feature_kind": "station"}, "geometry": {"type": "Point", "coordinates": [45.3013, 31.3045]}}, {"type": "Feature", "properties": {"id": "al-m-aly", "name": "Al M'aly", "archetype": "standard", "feature_kind": "station"}, "geometry": {"type": "Point", "coordinates": [45.2688, 31.2806]}}, {"type": "Feature", "properties": {"id": "al-hafdh", "name": "Al Hafdh", "archetype": "standard", "feature_kind": "station"}, "geometry": {"type": "Point", "coordinates": [45.2567, 31.3316]}}, {"type": "Feature", "properties": {"id": "mstwsf-hy-alhkbm", "name": "Mstwsf Hy Alhkbm", "archetype": "major", "feature_kind": "station"}, "geometry": {"type": "Point", "coordinates": [45.2711, 31.2925]}}]}