{
  "features": [
    {
      "geometry": {
        "coordinates": [
          43.82163010410986,
          33.315295324479
        ],
        "type": "Point"
      },
      "properties": {
        "archetype": "main-heavy",
        "fleet_stalls": 9,
        "line": "line-1",
        "station": "line-1-0748-0658-s017953"
      },
      "type": "Feature"
    },
    {
      "geometry": {
        "coordinates": [
          43.72398383643199,
          33.35416801641292
        ],
        "type": "Point"
      },
      "properties": {
        "archetype": "main-heavy",
        "fleet_stalls": 6,
        "line": "line-2",
        "station": "line-2-0532-0204-s000000"
      },
      "type": "Feature"
    },
    {
      "geometry": {
        "coordinates": [
          43.884648510342494,
          33.29369938451571
        ],
        "type": "Point"
      },
      "properties": {
        "archetype": "main-heavy",
        "fleet_stalls": 8,
        "line": "line-3",
        "station": "line-3-0868-0951-s000000"
      },
      "type": "Feature"
    },
    {
      "geometry": {
        "coordinates": [
          43.80119751505832,
          33.35488788107836
        ],
        "type": "Point"
      },
      "properties": {
        "archetype": "main-heavy",
        "fleet_stalls": 2,
        "line": "line-4",
        "station": "line-4-0528-0563-s000000"
      },
      "type": "Feature"
    },
    {
      "geometry": {
        "coordinates": [
          43.750008502487105,
          33.33905085843862
        ],
        "type": "Point"
      },
      "properties": {
        "archetype": "main-heavy",
        "fleet_stalls": 3,
        "line": "line-5",
        "station": "line-5-0616-0325-s000000"
      },
      "type": "Feature"
    },
    {
      "geometry": {
        "coordinates": [
          43.69559329164459,
          33.39268077601411
        ],
        "type": "Point"
      },
      "properties": {
        "archetype": "main-heavy",
        "fleet_stalls": 2,
        "line": "line-6",
        "station": "line-6-0318-0072-s000000"
      },
      "type": "Feature"
    },
    {
      "geometry": {
        "coordinates": [
          43.84378333223942,
          33.355607745743804
        ],
        "type": "Point"
      },
      "properties": {
        "archetype": "main-heavy",
        "fleet_stalls": 4,
        "line": "line-7",
        "station": "line-7-0524-0761-s000000"
      },
      "type": "Feature"
    },
    {
      "geometry": {
        "coordinates": [
          43.79560543805474,
          33.33527156894504
        ],
        "type": "Point"
      },
      "properties": {
        "archetype": "main-heavy",
        "fleet_stalls": 4,
        "line": "line-8",
        "station": "line-8-0637-0537-s000000"
      },
      "type": "Feature"
    },
    {
      "geometry": {
        "coordinates": [
          43.750008502487105,
          33.33905085843862
        ],
        "type": "Point"
      },
      "properties": {
        "archetype": "main-heavy",
        "fleet_stalls": 5,
        "line": "line-9",
        "station": "line-9-0616-0325-s000000"
      },
      "type": "Feature"
    },
    {
      "geometry": {
        "coordinates": [
          43.84378333223942,
          33.355607745743804
        ],
        "type": "Point"
      },
      "properties": {
        "archetype": "main-heavy",
        "fleet_stalls": 4,
        "line": "line-10",
        "station": "line-10-0524-0761-s000000"
      },
      "type": "Feature"
    },
    {
      "geometry": {
        "coordinates": [
          43.775818088657466,
          33.350208760752984
        ],
        "type": "Point"
      },
      "properties": {
        "archetype": "main-heavy",
        "fleet_stalls": 2,
        "line": "line-11",
        "station": "line-11-0554-0445-s000000"
      },
      "type": "Feature"
    },
    {
      "geometry": {
        "coordinates": [
          43.7637736151113,
          33.35956700140374
        ],
        "type": "Point"
      },
      "properties": {
        "archetype": "main-heavy",
        "fleet_stalls": 2,
        "line": "line-12",
        "station": "line-12-0502-0389-s000000"
      },
      "type": "Feature"
    }
  ],
  "type": "FeatureCollection"
}
