{
  "features": [
    {
      "geometry": {
        "coordinates": [
          43.68333373821367,
          33.39646006550769
        ],
        "type": "Point"
      },
      "properties": {
        "anchor_kind": "place:town",
        "anchor_name": "الصقلاوية",
        "archetype": "terminal",
        "chainage_m": 0.0,
        "corridor_offset_m": 0.0,
        "id": "line-1-0297-0015-s000000",
        "junction_group": null,
        "line": "line-1",
        "platform_length_m": 59.5
      },
      "type": "Feature"
    },
    {
      "geometry": {
        "coordinates": [
          43.74291086629026,
          33.37540402404348
        ],
        "type": "Point"
      },
      "properties": {
        "anchor_kind": null,
        "anchor_name": null,
        "archetype": "standard",
        "chainage_m": 6740.1,
        "corridor_offset_m": 1.433,
        "id": "line-1-0414-0292-s006740",
        "junction_group": null,
        "line": "line-1",
        "platform_length_m": 59.5
      },
      "type": "Feature"
    },
    {
      "geometry": {
        "coordinates": [
          43.7564608990297,
          33.36496598639456
        ],
        "type": "Point"
      },
      "properties": {
        "anchor_kind": null,
        "anchor_name": null,
        "archetype": "standard",
        "chainage_m": 8679.7,
        "corridor_offset_m": 1.121,
        "id": "line-1-0472-0355-s008680",
        "junction_group": null,
        "line": "line-1",
        "platform_length_m": 59.5
      },
      "type": "Feature"
    },
    {
      "geometry": {
        "coordinates": [
          43.77044109153864,
          33.35434798257928
        ],
        "type": "Point"
      },
      "properties": {
        "anchor_kind": "tourism:attraction",
        "anchor_name": "مدينة العاب",
        "archetype": "interchange",
        "chainage_m": 10632.5,
        "corridor_offset_m": 0.885,
        "id": "line-1-0531-0420-s010633",
        "junction_group": 0,
        "line": "line-1",
        "platform_length_m": 59.5
      },
      "type": "Feature"
    },
    {
      "geometry": {
        "coordinates": [
          43.785711763356105,
          33.34265018176583
        ],
        "type": "Point"
      },
      "properties": {
        "anchor_kind": null,
        "anchor_name": null,
        "archetype": "standard",
        "chainage_m": 12778.4,
        "corridor_offset_m": 0.579,
        "id": "line-1-0596-0491-s012778",
        "junction_group": null,
        "line": "line-1",
        "platform_length_m": 59.5
      },
      "type": "Feature"
    },
    {
      "geometry": {
        "coordinates": [
          43.8031332340211,
          33.329332685455135
        ],
        "type": "Point"
      },
      "properties": {
        "anchor_kind": null,
        "anchor_name": null,
        "archetype": "standard",
        "chainage_m": 15257.5,
        "corridor_offset_m": 0.294,
        "id": "line-1-0670-0572-s015257",
        "junction_group": null,
        "line": "line-1",
        "platform_length_m": 59.5
      },
      "type": "Feature"
    },
    {
      "geometry": {
        "coordinates": [
          43.82076978457085,
          33.316015189144444
        ],
        "type": "Point"
      },
      "properties": {
        "anchor_kind": "amenity:college",
        "anchor_name": "جامعة الفلوجة - الموقع الجديد",
        "archetype": "interchange",
        "chainage_m": 17721.4,
        "corridor_offset_m": 0.025,
        "id": "line-1-0744-0654-s017721",
        "junction_group": 1,
        "line": "line-1",
        "platform_length_m": 59.5
      },
      "type": "Feature"
    },
    {
      "geometry": {
        "coordinates": [
          43.82163010410986,
          33.315295324479
        ],
        "type": "Point"
      },
      "properties": {
        "anchor_kind": "amenity:college",
        "anchor_name": "جامعة الفلوجة - الموقع الجديد",
        "archetype": "depot-terminal",
        "chainage_m": 17846.3,
        "corridor_offset_m": 0.0,
        "id": "line-1-0748-0658-s017846",
        "junction_group": 1,
        "line": "line-1",
        "platform_length_m": 59.5
      },
      "type": "Feature"
    },
    {
      "geometry": {
        "coordinates": [
          43.72398383643199,
          33.35416801641292
        ],
        "type": "Point"
      },
      "properties": {
        "anchor_kind": "amenity:hospital",
        "anchor_name": "مستشفى الفلوجة",
        "archetype": "terminal",
        "chainage_m": 0.0,
        "corridor_offset_m": 0.0,
        "id": "line-2-0532-0204-s000000",
        "junction_group": null,
        "line": "line-2",
        "platform_length_m": 59.5
      },
      "type": "Feature"
    },
    {
      "geometry": {
        "coordinates": [
          43.75538549960593,
          33.353988050246556
        ],
        "type": "Point"
      },
      "properties": {
        "anchor_kind": "amenity:hospital",
        "anchor_name": "Fallujah General Hospital",
        "archetype": "standard",
        "chainage_m": 3013.1,
        "corridor_offset_m": 0.122,
        "id": "line-2-0533-0350-s003013",
        "junction_group": null,
        "line": "line-2",
        "platform_length_m": 59.5
      },
      "type": "Feature"
    },
    {
      "geometry": {
        "coordinates": [
          43.77044109153864,
          33.35434798257928
        ],
        "type": "Point"
      },
      "properties": {
        "anchor_kind": "tourism:attraction",
        "anchor_name": "مدينة العاب",
        "archetype": "interchange",
        "chainage_m": 4429.7,
        "corridor_offset_m": 0.087,
        "id": "line-2-0531-0420-s004430",
        "junction_group": 0,
        "line": "line-2",
        "platform_length_m": 59.5
      },
      "type": "Feature"
    },
    {
      "geometry": {
        "coordinates": [
          43.7889379616274,
          33.35452794874564
        ],
        "type": "Point"
      },
      "properties": {
        "anchor_kind": null,
        "anchor_name": null,
        "archetype": "major",
        "chainage_m": 6158.0,
        "corridor_offset_m": 0.035,
        "id": "line-2-0530-0506-s006158",
        "junction_group": null,
        "line": "line-2",
        "platform_length_m": 59.5
      },
      "type": "Feature"
    },
    {
      "geometry": {
        "coordinates": [
          43.81947930526233,
          33.35524781341108
        ],
        "type": "Point"
      },
      "properties": {
        "anchor_kind": null,
        "anchor_name": null,
        "archetype": "standard",
        "chainage_m": 9031.1,
        "corridor_offset_m": 0.064,
        "id": "line-2-0526-0648-s009031",
        "junction_group": null,
        "line": "line-2",
        "platform_length_m": 59.5
      },
      "type": "Feature"
    },
    {
      "geometry": {
        "coordinates": [
          43.84378333223942,
          33.355607745743804
        ],
        "type": "Point"
      },
      "properties": {
        "anchor_kind": "amenity:hospital",
        "anchor_name": null,
        "archetype": "terminal",
        "chainage_m": 11307.7,
        "corridor_offset_m": 0.0,
        "id": "line-2-0524-0761-s011308",
        "junction_group": null,
        "line": "line-2",
        "platform_length_m": 59.5
      },
      "type": "Feature"
    },
    {
      "geometry": {
        "coordinates": [
          43.884648510342494,
          33.29369938451571
        ],
        "type": "Point"
      },
      "properties": {
        "anchor_kind": "place:neighbourhood",
        "anchor_name": "معسكر طارق",
        "archetype": "terminal",
        "chainage_m": 0.0,
        "corridor_offset_m": 0.0,
        "id": "line-3-0868-0951-s000000",
        "junction_group": null,
        "line": "line-3",
        "platform_length_m": 59.5
      },
      "type": "Feature"
    },
    {
      "geometry": {
        "coordinates": [
          43.82076978457085,
          33.316015189144444
        ],
        "type": "Point"
      },
      "properties": {
        "anchor_kind": "amenity:college",
        "anchor_name": "جامعة الفلوجة - الموقع الجديد",
        "archetype": "interchange",
        "chainage_m": 6975.9,
        "corridor_offset_m": 0.087,
        "id": "line-3-0744-0654-s006976",
        "junction_group": 1,
        "line": "line-3",
        "platform_length_m": 59.5
      },
      "type": "Feature"
    },
    {
      "geometry": {
        "coordinates": [
          43.78657208289512,
          33.32717309145881
        ],
        "type": "Point"
      },
      "properties": {
        "anchor_kind": null,
        "anchor_name": null,
        "archetype": "standard",
        "chainage_m": 10716.4,
        "corridor_offset_m": 0.068,
        "id": "line-3-0682-0495-s010716",
        "junction_group": null,
        "line": "line-3",
        "platform_length_m": 59.5
      },
      "type": "Feature"
    },
    {
      "geometry": {
        "coordinates": [
          43.76829029269111,
          33.333111974948714
        ],
        "type": "Point"
      },
      "properties": {
        "anchor_kind": "amenity:hospital",
        "anchor_name": null,
        "archetype": "standard",
        "chainage_m": 12713.2,
        "corridor_offset_m": 0.074,
        "id": "line-3-0649-0410-s012713",
        "junction_group": null,
        "line": "line-3",
        "platform_length_m": 59.5
      },
      "type": "Feature"
    },
    {
      "geometry": {
        "coordinates": [
          43.750008502487105,
          33.33905085843862
        ],
        "type": "Point"
      },
      "properties": {
        "anchor_kind": "tourism:attraction",
        "anchor_name": "طريق الحبانيه",
        "archetype": "terminal",
        "chainage_m": 14721.8,
        "corridor_offset_m": 0.0,
        "id": "line-3-0616-0325-s014722",
        "junction_group": null,
        "line": "line-3",
        "platform_length_m": 59.5
      },
      "type": "Feature"
    }
  ],
  "type": "FeatureCollection"
}
