{
  "features": [
    {
      "geometry": {
        "coordinates": [
          79.86230377114723,
          6.861890364611453
        ],
        "type": "Point"
      },
      "properties": {
        "id": "interchange-000",
        "junction_group": 0,
        "line_count": 2,
        "lines": "line-1,line-9",
        "platform_count": 4,
        "platforms": "line-1-1046-0242-s002333,line-1-1051-0229-s002009,line-9-1036-0220-s062352,line-9-1046-0242-s061790"
      },
      "type": "Feature"
    },
    {
      "geometry": {
        "coordinates": [
          79.8791800349311,
          6.877412446460065
        ],
        "type": "Point"
      },
      "properties": {
        "id": "interchange-001",
        "junction_group": 1,
        "line_count": 2,
        "lines": "line-1,line-8",
        "platform_count": 2,
        "platforms": "line-1-0956-0321-s006018,line-8-0961-0332-s011440"
      },
      "type": "Feature"
    },
    {
      "geometry": {
        "coordinates": [
          79.92903966680728,
          6.9125958319835865
        ],
        "type": "Point"
      },
      "properties": {
        "id": "interchange-002",
        "junction_group": 2,
        "line_count": 2,
        "lines": "line-1,line-3",
        "platform_count": 2,
        "platforms": "line-1-0763-0602-s015298,line-3-0763-0602-s022248"
      },
      "type": "Feature"
    },
    {
      "geometry": {
        "coordinates": [
          79.98322986043577,
          6.936274237586191
        ],
        "type": "Point"
      },
      "properties": {
        "id": "interchange-003",
        "junction_group": 3,
        "line_count": 3,
        "lines": "line-1,line-4,line-9",
        "platform_count": 7,
        "platforms": "line-1-0624-0872-s024106,line-1-0626-0886-s024403,line-4-0633-0925-s003660,line-4-0646-0915-s004019,line-9-0626-0886-s023783,line-9-0632-0901-s024157,line-9-0633-0925-s024773"
      },
      "type": "Feature"
    },
    {
      "geometry": {
        "coordinates": [
          79.87384116327827,
          6.9828426255863905
        ],
        "type": "Point"
      },
      "properties": {
        "id": "interchange-004",
        "junction_group": 4,
        "line_count": 2,
        "lines": "line-2,line-9",
        "platform_count": 3,
        "platforms": "line-2-0372-0303-s001313,line-9-0372-0303-s006404,line-9-0374-0285-s006027"
      },
      "type": "Feature"
    },
    {
      "geometry": {
        "coordinates": [
          79.88723358708532,
          6.984762264694237
        ],
        "type": "Point"
      },
      "properties": {
        "id": "interchange-005",
        "junction_group": 5,
        "line_count": 2,
        "lines": "line-2,line-9",
        "platform_count": 2,
        "platforms": "line-2-0364-0365-s002669,line-9-0360-0377-s008033"
      },
      "type": "Feature"
    },
    {
      "geometry": {
        "coordinates": [
          79.90334069139378,
          6.908906525573192
        ],
        "type": "Point"
      },
      "properties": {
        "id": "interchange-006",
        "junction_group": 6,
        "line_count": 2,
        "lines": "line-2,line-5",
        "platform_count": 2,
        "platforms": "line-2-0796-0452-s016084,line-5-0771-0468-s010552"
      },
      "type": "Feature"
    },
    {
      "geometry": {
        "coordinates": [
          79.92922064550737,
          6.8712036137206205
        ],
        "type": "Point"
      },
      "properties": {
        "id": "interchange-007",
        "junction_group": 7,
        "line_count": 2,
        "lines": "line-2,line-4",
        "platform_count": 2,
        "platforms": "line-2-0999-0607-s022129,line-4-0987-0599-s016127"
      },
      "type": "Feature"
    },
    {
      "geometry": {
        "coordinates": [
          79.94267339554779,
          6.8209330645838575
        ],
        "type": "Point"
      },
      "properties": {
        "id": "interchange-008",
        "junction_group": 8,
        "line_count": 2,
        "lines": "line-2,line-9",
        "platform_count": 3,
        "platforms": "line-2-1273-0668-s029072,line-9-1271-0696-s047274,line-9-1273-0668-s047851"
      },
      "type": "Feature"
    },
    {
      "geometry": {
        "coordinates": [
          79.90370264879397,
          6.990701148184141
        ],
        "type": "Point"
      },
      "properties": {
        "id": "interchange-009",
        "junction_group": 9,
        "line_count": 2,
        "lines": "line-3,line-9",
        "platform_count": 3,
        "platforms": "line-3-0326-0467-s008059,line-9-0326-0467-s010419,line-9-0335-0452-s010044"
      },
      "type": "Feature"
    },
    {
      "geometry": {
        "coordinates": [
          79.936097836111,
          6.899728251088796
        ],
        "type": "Point"
      },
      "properties": {
        "id": "interchange-010",
        "junction_group": 10,
        "line_count": 2,
        "lines": "line-3,line-5",
        "platform_count": 2,
        "platforms": "line-3-0827-0649-s024168,line-5-0842-0633-s014586"
      },
      "type": "Feature"
    },
    {
      "geometry": {
        "coordinates": [
          79.9663574747669,
          6.828245689810316
        ],
        "type": "Point"
      },
      "properties": {
        "id": "interchange-011",
        "junction_group": 11,
        "line_count": 3,
        "lines": "line-3,line-7,line-9",
        "platform_count": 10,
        "platforms": "line-3-1193-0802-s036227,line-3-1241-0816-s037364,line-3-1277-0821-s038232,line-7-1212-0817-s022637,line-7-1215-0771-s021693,line-7-1220-0834-s023044,line-9-1220-0835-s042930,line-9-1240-0770-s045177,line-9-1241-0816-s043519,line-9-1258-0800-s044264"
      },
      "type": "Feature"
    },
    {
      "geometry": {
        "coordinates": [
          79.89773035169083,
          6.844568621099233
        ],
        "type": "Point"
      },
      "properties": {
        "id": "interchange-012",
        "junction_group": 12,
        "line_count": 3,
        "lines": "line-4,line-8,line-9",
        "platform_count": 4,
        "platforms": "line-4-1135-0423-s023019,line-8-1147-0435-s017377,line-9-1135-0423-s056416,line-9-1147-0435-s056076"
      },
      "type": "Feature"
    },
    {
      "geometry": {
        "coordinates": [
          79.88515233203422,
          6.850597487672317
        ],
        "type": "Point"
      },
      "properties": {
        "id": "interchange-013",
        "junction_group": 13,
        "line_count": 2,
        "lines": "line-4,line-9",
        "platform_count": 2,
        "platforms": "line-4-1119-0360-s024602,line-9-1096-0359-s058341"
      },
      "type": "Feature"
    },
    {
      "geometry": {
        "coordinates": [
          79.8519944487668,
          6.9395907569376964
        ],
        "type": "Point"
      },
      "properties": {
        "id": "interchange-014",
        "junction_group": 14,
        "line_count": 3,
        "lines": "line-5,line-8,line-9",
        "platform_count": 7,
        "platforms": "line-5-0636-0164-s000000,line-5-0649-0147-s002007,line-8-0578-0200-s000000,line-9-0578-0200-s000355,line-9-0592-0193-s000000,line-9-0622-0166-s072322,line-9-0636-0164-s072009"
      },
      "type": "Feature"
    },
    {
      "geometry": {
        "coordinates": [
          79.87758138974691,
          6.912355877095107
        ],
        "type": "Point"
      },
      "properties": {
        "id": "interchange-015",
        "junction_group": 15,
        "line_count": 3,
        "lines": "line-5,line-6,line-8",
        "platform_count": 3,
        "platforms": "line-5-0766-0329-s007331,line-6-0770-0307-s024580,line-8-0757-0317-s006427"
      },
      "type": "Feature"
    },
    {
      "geometry": {
        "coordinates": [
          79.99002948873934,
          6.876287657920311
        ],
        "type": "Point"
      },
      "properties": {
        "id": "interchange-016",
        "junction_group": 16,
        "line_count": 2,
        "lines": "line-5,line-9",
        "platform_count": 4,
        "platforms": "line-5-0959-0937-s022188,line-5-0972-0955-s022655,line-9-0959-0937-s035944,line-9-0969-0927-s036227"
      },
      "type": "Feature"
    },
    {
      "geometry": {
        "coordinates": [
          79.9414367077638,
          6.974864125544397
        ],
        "type": "Point"
      },
      "properties": {
        "id": "interchange-017",
        "junction_group": 17,
        "line_count": 2,
        "lines": "line-6,line-9",
        "platform_count": 4,
        "platforms": "line-6-0407-0666-s011734,line-6-0423-0663-s012079,line-9-0407-0666-s015438,line-9-0431-0687-s016092"
      },
      "type": "Feature"
    },
    {
      "geometry": {
        "coordinates": [
          79.85276537102176,
          6.9032375913328305
        ],
        "type": "Point"
      },
      "properties": {
        "id": "interchange-018",
        "junction_group": 18,
        "line_count": 3,
        "lines": "line-6,line-7,line-9",
        "platform_count": 11,
        "platforms": "line-6-0839-0174-s029413,line-6-0841-0233-s027259,line-6-0868-0193-s028473,line-7-0769-0187-s001611,line-7-0793-0161-s000000,line-7-0826-0216-s003226,line-9-0759-0159-s068683,line-9-0772-0155-s068305,line-9-0793-0161-s067836,line-9-0843-0175-s066720,line-9-0862-0172-s066298"
      },
      "type": "Feature"
    },
    {
      "geometry": {
        "coordinates": [
          79.87755122663023,
          6.893069502933448
        ],
        "type": "Point"
      },
      "properties": {
        "id": "interchange-019",
        "junction_group": 19,
        "line_count": 2,
        "lines": "line-7,line-8",
        "platform_count": 2,
        "platforms": "line-7-0861-0321-s006871,line-8-0882-0314-s009438"
      },
      "type": "Feature"
    }
  ],
  "type": "FeatureCollection"
}
