{
  "features": [
    {
      "geometry": {
        "coordinates": [
          39.29575313214867,
          -15.142386502537523
        ],
        "type": "Point"
      },
      "properties": {
        "anchor_kind": "amenity:hospital",
        "anchor_name": "Centro de Saude",
        "archetype": "terminal",
        "chainage_m": 0.0,
        "corridor_offset_m": 0.0,
        "id": "line-1-0694-0708-s000000",
        "junction_group": null,
        "line": "line-1",
        "platform_length_m": 59.5
      },
      "type": "Feature"
    },
    {
      "geometry": {
        "coordinates": [
          39.274537525846696,
          -15.137707382212145
        ],
        "type": "Point"
      },
      "properties": {
        "anchor_kind": null,
        "anchor_name": null,
        "archetype": "interchange",
        "chainage_m": 2507.1,
        "corridor_offset_m": 0.028,
        "id": "line-1-0668-0594-s002507",
        "junction_group": 0,
        "line": "line-1",
        "platform_length_m": 59.5
      },
      "type": "Feature"
    },
    {
      "geometry": {
        "coordinates": [
          39.24494733810973,
          -15.131048634056798
        ],
        "type": "Point"
      },
      "properties": {
        "anchor_kind": null,
        "anchor_name": null,
        "archetype": "standard",
        "chainage_m": 6017.1,
        "corridor_offset_m": 0.029,
        "id": "line-1-0631-0435-s006017",
        "junction_group": null,
        "line": "line-1",
        "platform_length_m": 59.5
      },
      "type": "Feature"
    },
    {
      "geometry": {
        "coordinates": [
          39.18874459159047,
          -15.11935083324335
        ],
        "type": "Point"
      },
      "properties": {
        "anchor_kind": "amenity:hospital",
        "anchor_name": "hospital geral de marrere",
        "archetype": "terminal",
        "chainage_m": 12619.0,
        "corridor_offset_m": 0.0,
        "id": "line-1-0566-0133-s012619",
        "junction_group": null,
        "line": "line-1",
        "platform_length_m": 59.5
      },
      "type": "Feature"
    },
    {
      "geometry": {
        "coordinates": [
          39.2157293539921,
          -15.07183976532412
        ],
        "type": "Point"
      },
      "properties": {
        "anchor_kind": "amenity:hospital",
        "anchor_name": "Hospital Geral de Nampula",
        "archetype": "terminal",
        "chainage_m": 0.0,
        "corridor_offset_m": 0.0,
        "id": "line-2-0302-0278-s000000",
        "junction_group": null,
        "line": "line-2",
        "platform_length_m": 59.5
      },
      "type": "Feature"
    },
    {
      "geometry": {
        "coordinates": [
          39.242714116393735,
          -15.102074081272722
        ],
        "type": "Point"
      },
      "properties": {
        "anchor_kind": null,
        "anchor_name": null,
        "archetype": "standard",
        "chainage_m": 5006.4,
        "corridor_offset_m": 0.055,
        "id": "line-2-0470-0423-s005006",
        "junction_group": null,
        "line": "line-2",
        "platform_length_m": 59.5
      },
      "type": "Feature"
    },
    {
      "geometry": {
        "coordinates": [
          39.258346668405714,
          -15.119530799409711
        ],
        "type": "Point"
      },
      "properties": {
        "anchor_kind": "amenity:college",
        "anchor_name": "Catholic University",
        "archetype": "major",
        "chainage_m": 7888.3,
        "corridor_offset_m": 0.091,
        "id": "line-2-0567-0507-s007888",
        "junction_group": null,
        "line": "line-2",
        "platform_length_m": 59.5
      },
      "type": "Feature"
    },
    {
      "geometry": {
        "coordinates": [
          39.274537525846696,
          -15.137707382212145
        ],
        "type": "Point"
      },
      "properties": {
        "anchor_kind": null,
        "anchor_name": null,
        "archetype": "interchange",
        "chainage_m": 10886.8,
        "corridor_offset_m": 0.152,
        "id": "line-2-0668-0594-s010887",
        "junction_group": 0,
        "line": "line-2",
        "platform_length_m": 59.5
      },
      "type": "Feature"
    },
    {
      "geometry": {
        "coordinates": [
          39.296311437577664,
          -15.162002814670842
        ],
        "type": "Point"
      },
      "properties": {
        "anchor_kind": null,
        "anchor_name": null,
        "archetype": "halt",
        "chainage_m": 14907.5,
        "corridor_offset_m": 0.187,
        "id": "line-2-0803-0711-s014908",
        "junction_group": null,
        "line": "line-2",
        "platform_length_m": 55.5
      },
      "type": "Feature"
    },
    {
      "geometry": {
        "coordinates": [
          39.306733138918986,
          -15.17370061548429
        ],
        "type": "Point"
      },
      "properties": {
        "anchor_kind": "leisure:stadium",
        "anchor_name": null,
        "archetype": "interchange",
        "chainage_m": 16823.8,
        "corridor_offset_m": 0.287,
        "id": "line-2-0868-0767-s016824",
        "junction_group": 1,
        "line": "line-2",
        "platform_length_m": 59.5
      },
      "type": "Feature"
    },
    {
      "geometry": {
        "coordinates": [
          39.31473551673464,
          -15.18629824712954
        ],
        "type": "Point"
      },
      "properties": {
        "anchor_kind": "amenity:university",
        "anchor_name": "Universidade Mussa Bin Bique",
        "archetype": "depot-terminal",
        "chainage_m": 18943.2,
        "corridor_offset_m": 0.0,
        "id": "line-2-0938-0810-s018943",
        "junction_group": null,
        "line": "line-2",
        "platform_length_m": 59.5
      },
      "type": "Feature"
    },
    {
      "geometry": {
        "coordinates": [
          39.306919240728654,
          -15.17424051398337
        ],
        "type": "Point"
      },
      "properties": {
        "anchor_kind": "leisure:stadium",
        "anchor_name": null,
        "archetype": "terminal",
        "chainage_m": 0.0,
        "corridor_offset_m": 0.0,
        "id": "line-3-0871-0768-s000000",
        "junction_group": 1,
        "line": "line-3",
        "platform_length_m": 59.5
      },
      "type": "Feature"
    },
    {
      "geometry": {
        "coordinates": [
          39.306733138918986,
          -15.17370061548429
        ],
        "type": "Point"
      },
      "properties": {
        "anchor_kind": "leisure:stadium",
        "anchor_name": null,
        "archetype": "interchange",
        "chainage_m": 68.3,
        "corridor_offset_m": 0.024,
        "id": "line-3-0868-0767-s000068",
        "junction_group": 1,
        "line": "line-3",
        "platform_length_m": 59.5
      },
      "type": "Feature"
    },
    {
      "geometry": {
        "coordinates": [
          39.30077788100966,
          -15.146705690530181
        ],
        "type": "Point"
      },
      "properties": {
        "anchor_kind": null,
        "anchor_name": null,
        "archetype": "standard",
        "chainage_m": 3333.4,
        "corridor_offset_m": 0.017,
        "id": "line-3-0718-0735-s003333",
        "junction_group": null,
        "line": "line-3",
        "platform_length_m": 59.5
      },
      "type": "Feature"
    },
    {
      "geometry": {
        "coordinates": [
          39.29463652129067,
          -15.118271036245186
        ],
        "type": "Point"
      },
      "properties": {
        "anchor_kind": null,
        "anchor_name": null,
        "archetype": "standard",
        "chainage_m": 6766.8,
        "corridor_offset_m": 0.009,
        "id": "line-3-0560-0702-s006767",
        "junction_group": null,
        "line": "line-3",
        "platform_length_m": 59.5
      },
      "type": "Feature"
    },
    {
      "geometry": {
        "coordinates": [
          39.29110058690701,
          -15.102434013605443
        ],
        "type": "Point"
      },
      "properties": {
        "anchor_kind": null,
        "anchor_name": null,
        "archetype": "standard",
        "chainage_m": 8684.2,
        "corridor_offset_m": 0.007,
        "id": "line-3-0472-0683-s008684",
        "junction_group": null,
        "line": "line-3",
        "platform_length_m": 59.5
      },
      "type": "Feature"
    },
    {
      "geometry": {
        "coordinates": [
          39.28756465252334,
          -15.086417024799339
        ],
        "type": "Point"
      },
      "properties": {
        "anchor_kind": "amenity:hospital",
        "anchor_name": "Centro de Saúde de Namiepe",
        "archetype": "terminal",
        "chainage_m": 10621.6,
        "corridor_offset_m": 0.0,
        "id": "line-3-0383-0664-s010622",
        "junction_group": null,
        "line": "line-3",
        "platform_length_m": 59.5
      },
      "type": "Feature"
    }
  ],
  "type": "FeatureCollection"
}
