{
  "features": [
    {
      "geometry": {
        "coordinates": [
          -68.11606417944404,
          -16.46937695713206
        ],
        "type": "Point"
      },
      "properties": {
        "id": "interchange-000",
        "junction_group": 0,
        "line_count": 2,
        "lines": "line-1,line-6",
        "platform_count": 2,
        "platforms": "line-1-0385-0981-s012836,line-6-0385-0981-s018192"
      },
      "type": "Feature"
    },
    {
      "geometry": {
        "coordinates": [
          -68.20957816258966,
          -16.55513083540294
        ],
        "type": "Point"
      },
      "properties": {
        "id": "interchange-001",
        "junction_group": 1,
        "line_count": 2,
        "lines": "line-1,line-6",
        "platform_count": 2,
        "platforms": "line-1-0861-0482-s030929,line-6-0862-0482-s055988"
      },
      "type": "Feature"
    },
    {
      "geometry": {
        "coordinates": [
          -68.22625700928296,
          -16.52201706079257
        ],
        "type": "Point"
      },
      "properties": {
        "id": "interchange-002",
        "junction_group": 2,
        "line_count": 2,
        "lines": "line-2,line-6",
        "platform_count": 2,
        "platforms": "line-2-0678-0398-s005855,line-6-0677-0388-s000887"
      },
      "type": "Feature"
    },
    {
      "geometry": {
        "coordinates": [
          -68.15316992826736,
          -16.52711010330058
        ],
        "type": "Point"
      },
      "properties": {
        "id": "interchange-003",
        "junction_group": 3,
        "line_count": 3,
        "lines": "line-2,line-4,line-5",
        "platform_count": 5,
        "platforms": "line-2-0689-0795-s017629,line-2-0723-0757-s014897,line-4-0689-0795-s020979,line-5-0689-0795-s014768,line-5-0739-0773-s013312"
      },
      "type": "Feature"
    },
    {
      "geometry": {
        "coordinates": [
          -68.09320104128018,
          -16.542893136090413
        ],
        "type": "Point"
      },
      "properties": {
        "id": "interchange-004",
        "junction_group": 4,
        "line_count": 2,
        "lines": "line-2,line-6",
        "platform_count": 2,
        "platforms": "line-2-0786-1103-s027476,line-6-0801-1103-s033926"
      },
      "type": "Feature"
    },
    {
      "geometry": {
        "coordinates": [
          -68.0658402365923,
          -16.540463592844542
        ],
        "type": "Point"
      },
      "properties": {
        "id": "interchange-005",
        "junction_group": 5,
        "line_count": 2,
        "lines": "line-2,line-6",
        "platform_count": 2,
        "platforms": "line-2-0780-1249-s030711,line-6-0780-1249-s030125"
      },
      "type": "Feature"
    },
    {
      "geometry": {
        "coordinates": [
          -68.09451286068303,
          -16.505730122736924
        ],
        "type": "Point"
      },
      "properties": {
        "id": "interchange-006",
        "junction_group": 6,
        "line_count": 2,
        "lines": "line-3,line-6",
        "platform_count": 2,
        "platforms": "line-3-0587-1096-s002153,line-6-0587-1096-s023510"
      },
      "type": "Feature"
    },
    {
      "geometry": {
        "coordinates": [
          -68.18427878839194,
          -16.584915235935643
        ],
        "type": "Point"
      },
      "properties": {
        "id": "interchange-007",
        "junction_group": 7,
        "line_count": 2,
        "lines": "line-3,line-6",
        "platform_count": 2,
        "platforms": "line-3-1016-0611-s018670,line-6-1038-0623-s045794"
      },
      "type": "Feature"
    },
    {
      "geometry": {
        "coordinates": [
          -68.19514814915837,
          -16.593733578087317
        ],
        "type": "Point"
      },
      "properties": {
        "id": "interchange-008",
        "junction_group": 8,
        "line_count": 2,
        "lines": "line-3,line-6",
        "platform_count": 2,
        "platforms": "line-3-1067-0556-s020863,line-6-1085-0562-s047909"
      },
      "type": "Feature"
    },
    {
      "geometry": {
        "coordinates": [
          -68.11981223488074,
          -16.553331173739338
        ],
        "type": "Point"
      },
      "properties": {
        "id": "interchange-009",
        "junction_group": 9,
        "line_count": 2,
        "lines": "line-4,line-6",
        "platform_count": 2,
        "platforms": "line-4-0852-0961-s015523,line-6-0851-0961-s037180"
      },
      "type": "Feature"
    },
    {
      "geometry": {
        "coordinates": [
          -68.1947733436147,
          -16.478015333117373
        ],
        "type": "Point"
      },
      "properties": {
        "id": "interchange-010",
        "junction_group": 10,
        "line_count": 2,
        "lines": "line-4,line-6",
        "platform_count": 2,
        "platforms": "line-4-0433-0561-s030910,line-6-0433-0561-s007870"
      },
      "type": "Feature"
    },
    {
      "geometry": {
        "coordinates": [
          -68.15167070609267,
          -16.46271820897671
        ],
        "type": "Point"
      },
      "properties": {
        "id": "interchange-011",
        "junction_group": 11,
        "line_count": 2,
        "lines": "line-5,line-6",
        "platform_count": 2,
        "platforms": "line-5-0348-0791-s024430,line-6-0348-0791-s014036"
      },
      "type": "Feature"
    }
  ],
  "type": "FeatureCollection"
}
