{
  "features": [
    {
      "geometry": {
        "coordinates": [
          -68.02442422401678,
          -16.417006802721087
        ],
        "type": "Point"
      },
      "properties": {
        "anchor_kind": null,
        "anchor_name": null,
        "archetype": "terminal",
        "chainage_m": 0.0,
        "corridor_offset_m": 0.0,
        "id": "line-1-0094-1470-s000000",
        "junction_group": null,
        "line": "line-1",
        "platform_length_m": 85.0
      },
      "type": "Feature"
    },
    {
      "geometry": {
        "coordinates": [
          -68.04485112614678,
          -16.420966058381023
        ],
        "type": "Point"
      },
      "properties": {
        "anchor_kind": null,
        "anchor_name": null,
        "archetype": "halt",
        "chainage_m": 2502.8,
        "corridor_offset_m": 61.058,
        "id": "line-1-0116-1361-s002503",
        "junction_group": null,
        "line": "line-1",
        "platform_length_m": 81.0
      },
      "type": "Feature"
    },
    {
      "geometry": {
        "coordinates": [
          -68.06471581996128,
          -16.428164705035453
        ],
        "type": "Point"
      },
      "properties": {
        "anchor_kind": null,
        "anchor_name": null,
        "archetype": "halt",
        "chainage_m": 5024.5,
        "corridor_offset_m": 101.658,
        "id": "line-1-0156-1255-s005025",
        "junction_group": null,
        "line": "line-1",
        "platform_length_m": 81.0
      },
      "type": "Feature"
    },
    {
      "geometry": {
        "coordinates": [
          -68.08533012486312,
          -16.444901558507
        ],
        "type": "Point"
      },
      "properties": {
        "anchor_kind": null,
        "anchor_name": null,
        "archetype": "halt",
        "chainage_m": 8041.8,
        "corridor_offset_m": 216.23,
        "id": "line-1-0249-1145-s008042",
        "junction_group": null,
        "line": "line-1",
        "platform_length_m": 81.0
      },
      "type": "Feature"
    },
    {
      "geometry": {
        "coordinates": [
          -68.10050974938174,
          -16.456419393154086
        ],
        "type": "Point"
      },
      "properties": {
        "anchor_kind": null,
        "anchor_name": null,
        "archetype": "standard",
        "chainage_m": 10365.7,
        "corridor_offset_m": 146.807,
        "id": "line-1-0313-1064-s010366",
        "junction_group": null,
        "line": "line-1",
        "platform_length_m": 85.0
      },
      "type": "Feature"
    },
    {
      "geometry": {
        "coordinates": [
          -68.11269092955102,
          -16.46739732930209
        ],
        "type": "Point"
      },
      "properties": {
        "anchor_kind": "place:neighbourhood",
        "anchor_name": "Villa El Carmen",
        "archetype": "interchange-elevated",
        "chainage_m": 12384.8,
        "corridor_offset_m": 71.881,
        "id": "line-1-0374-0999-s012385",
        "junction_group": 0,
        "line": "line-1",
        "platform_length_m": 85.0
      },
      "type": "Feature"
    },
    {
      "geometry": {
        "coordinates": [
          -68.11606417944404,
          -16.46937695713206
        ],
        "type": "Point"
      },
      "properties": {
        "anchor_kind": "amenity:bus_station",
        "anchor_name": "Terminal Minasa",
        "archetype": "interchange-elevated",
        "chainage_m": 12835.9,
        "corridor_offset_m": 68.458,
        "id": "line-1-0385-0981-s012836",
        "junction_group": 0,
        "line": "line-1",
        "platform_length_m": 85.0
      },
      "type": "Feature"
    },
    {
      "geometry": {
        "coordinates": [
          -68.11943742933707,
          -16.48197458877731
        ],
        "type": "Point"
      },
      "properties": {
        "anchor_kind": "amenity:hospital",
        "anchor_name": "CIMFA Policlínico Villa Fátima - CNS",
        "archetype": "standard",
        "chainage_m": 14401.6,
        "corridor_offset_m": 65.711,
        "id": "line-1-0455-0963-s014402",
        "junction_group": null,
        "line": "line-1",
        "platform_length_m": 85.0
      },
      "type": "Feature"
    },
    {
      "geometry": {
        "coordinates": [
          -68.12149885982726,
          -16.49205269409351
        ],
        "type": "Point"
      },
      "properties": {
        "anchor_kind": "amenity:university",
        "anchor_name": "Universidad Policial",
        "archetype": "major",
        "chainage_m": 15782.4,
        "corridor_offset_m": 62.519,
        "id": "line-1-0511-0952-s015782",
        "junction_group": null,
        "line": "line-1",
        "platform_length_m": 85.0
      },
      "type": "Feature"
    },
    {
      "geometry": {
        "coordinates": [
          -68.1259965263513,
          -16.5003311377461
        ],
        "type": "Point"
      },
      "properties": {
        "anchor_kind": "amenity:bus_station",
        "anchor_name": null,
        "archetype": "major",
        "chainage_m": 16993.0,
        "corridor_offset_m": 43.121,
        "id": "line-1-0557-0928-s016993",
        "junction_group": null,
        "line": "line-1",
        "platform_length_m": 85.0
      },
      "type": "Feature"
    },
    {
      "geometry": {
        "coordinates": [
          -68.13293042890919,
          -16.505550156570564
        ],
        "type": "Point"
      },
      "properties": {
        "anchor_kind": "amenity:university",
        "anchor_name": "Universidad Franz Tamayo",
        "archetype": "major",
        "chainage_m": 18218.1,
        "corridor_offset_m": 51.263,
        "id": "line-1-0586-0891-s018218",
        "junction_group": null,
        "line": "line-1",
        "platform_length_m": 85.0
      },
      "type": "Feature"
    },
    {
      "geometry": {
        "coordinates": [
          -68.14192576195727,
          -16.503570528740596
        ],
        "type": "Point"
      },
      "properties": {
        "anchor_kind": "amenity:college",
        "anchor_name": "Instituto Méndez Arcos",
        "archetype": "major",
        "chainage_m": 19441.7,
        "corridor_offset_m": 73.569,
        "id": "line-1-0575-0843-s019442",
        "junction_group": null,
        "line": "line-1",
        "platform_length_m": 85.0
      },
      "type": "Feature"
    },
    {
      "geometry": {
        "coordinates": [
          -68.15092109500533,
          -16.510769175395023
        ],
        "type": "Point"
      },
      "properties": {
        "anchor_kind": "amenity:hospital",
        "anchor_name": "C.S.A. Alto Tacagua",
        "archetype": "interchange-elevated",
        "chainage_m": 21076.6,
        "corridor_offset_m": 78.572,
        "id": "line-1-0615-0795-s021077",
        "junction_group": 1,
        "line": "line-1",
        "platform_length_m": 85.0
      },
      "type": "Feature"
    },
    {
      "geometry": {
        "coordinates": [
          -68.15766759479139,
          -16.518507720548534
        ],
        "type": "Point"
      },
      "properties": {
        "anchor_kind": "amenity:hospital",
        "anchor_name": "Centro de Salud Santiago I",
        "archetype": "major",
        "chainage_m": 22293.4,
        "corridor_offset_m": 93.524,
        "id": "line-1-0658-0759-s022293",
        "junction_group": null,
        "line": "line-1",
        "platform_length_m": 85.0
      },
      "type": "Feature"
    },
    {
      "geometry": {
        "coordinates": [
          -68.16778734447048,
          -16.53218514919195
        ],
        "type": "Point"
      },
      "properties": {
        "anchor_kind": "place:neighbourhood",
        "anchor_name": "Río Seco",
        "archetype": "standard",
        "chainage_m": 24312.4,
        "corridor_offset_m": 94.217,
        "id": "line-1-0734-0705-s024312",
        "junction_group": null,
        "line": "line-1",
        "platform_length_m": 85.0
      },
      "type": "Feature"
    },
    {
      "geometry": {
        "coordinates": [
          -68.1797811218679,
          -16.532905013857395
        ],
        "type": "Point"
      },
      "properties": {
        "anchor_kind": "place:neighbourhood",
        "anchor_name": "Santiago II",
        "archetype": "standard",
        "chainage_m": 26312.9,
        "corridor_offset_m": 127.316,
        "id": "line-1-0738-0641-s026313",
        "junction_group": null,
        "line": "line-1",
        "platform_length_m": 85.0
      },
      "type": "Feature"
    },
    {
      "geometry": {
        "coordinates": [
          -68.19383632975553,
          -16.537944066515493
        ],
        "type": "Point"
      },
      "properties": {
        "anchor_kind": "amenity:university",
        "anchor_name": "Universidad Unión Bolivariana (Campus Bolivariano)",
        "archetype": "standard",
        "chainage_m": 28333.4,
        "corridor_offset_m": 94.085,
        "id": "line-1-0766-0566-s028333",
        "junction_group": null,
        "line": "line-1",
        "platform_length_m": 85.0
      },
      "type": "Feature"
    },
    {
      "geometry": {
        "coordinates": [
          -68.20620491269663,
          -16.551261562826188
        ],
        "type": "Point"
      },
      "properties": {
        "anchor_kind": "place:neighbourhood",
        "anchor_name": "6 de Junio",
        "archetype": "interchange-elevated",
        "chainage_m": 30360.2,
        "corridor_offset_m": 39.501,
        "id": "line-1-0840-0500-s030360",
        "junction_group": 2,
        "line": "line-1",
        "platform_length_m": 85.0
      },
      "type": "Feature"
    },
    {
      "geometry": {
        "coordinates": [
          -68.20957816258966,
          -16.555040852319763
        ],
        "type": "Point"
      },
      "properties": {
        "anchor_kind": null,
        "anchor_name": null,
        "archetype": "interchange-elevated",
        "chainage_m": 30929.3,
        "corridor_offset_m": 27.656,
        "id": "line-1-0861-0482-s030929",
        "junction_group": 2,
        "line": "line-1",
        "platform_length_m": 85.0
      },
      "type": "Feature"
    },
    {
      "geometry": {
        "coordinates": [
          -68.2183860928659,
          -16.564579059136882
        ],
        "type": "Point"
      },
      "properties": {
        "anchor_kind": "amenity:marketplace",
        "anchor_name": "Mercado Nuevo Amanecer",
        "archetype": "standard",
        "chainage_m": 32378.6,
        "corridor_offset_m": 14.113,
        "id": "line-1-0914-0435-s032379",
        "junction_group": null,
        "line": "line-1",
        "platform_length_m": 85.0
      },
      "type": "Feature"
    },
    {
      "geometry": {
        "coordinates": [
          -68.22457038433645,
          -16.564579059136882
        ],
        "type": "Point"
      },
      "properties": {
        "anchor_kind": "amenity:hospital",
        "anchor_name": "Centro de Salud San Martin",
        "archetype": "terminal",
        "chainage_m": 33718.3,
        "corridor_offset_m": 0.0,
        "id": "line-1-0914-0402-s033718",
        "junction_group": null,
        "line": "line-1",
        "platform_length_m": 85.0
      },
      "type": "Feature"
    },
    {
      "geometry": {
        "coordinates": [
          -68.2667360079993,
          -16.511309073894108
        ],
        "type": "Point"
      },
      "properties": {
        "anchor_kind": "place:neighbourhood",
        "anchor_name": "Urbanización San Francisco de Asís",
        "archetype": "terminal",
        "chainage_m": 0.0,
        "corridor_offset_m": 0.0,
        "id": "line-2-0618-0177-s000000",
        "junction_group": null,
        "line": "line-2",
        "platform_length_m": 85.0
      },
      "type": "Feature"
    },
    {
      "geometry": {
        "coordinates": [
          -68.24406027260729,
          -16.505010258071483
        ],
        "type": "Point"
      },
      "properties": {
        "anchor_kind": "place:neighbourhood",
        "anchor_name": "Gran Poder (Río Seco)",
        "archetype": "halt",
        "chainage_m": 3021.1,
        "corridor_offset_m": 34.16,
        "id": "line-2-0583-0298-s003021",
        "junction_group": null,
        "line": "line-2",
        "platform_length_m": 81.0
      },
      "type": "Feature"
    },
    {
      "geometry": {
        "coordinates": [
          -68.23112948135068,
          -16.517967822049453
        ],
        "type": "Point"
      },
      "properties": {
        "anchor_kind": "amenity:university",
        "anchor_name": "Universidad Catolica Boliviana San Pablo",
        "archetype": "interchange",
        "chainage_m": 5032.7,
        "corridor_offset_m": 61.882,
        "id": "line-2-0655-0367-s005033",
        "junction_group": 3,
        "line": "line-2",
        "platform_length_m": 85.0
      },
      "type": "Feature"
    },
    {
      "geometry": {
        "coordinates": [
          -68.22719402314213,
          -16.52192707770939
        ],
        "type": "Point"
      },
      "properties": {
        "anchor_kind": null,
        "anchor_name": null,
        "archetype": "interchange",
        "chainage_m": 5646.7,
        "corridor_offset_m": 90.5,
        "id": "line-2-0677-0388-s005647",
        "junction_group": 3,
        "line": "line-2",
        "platform_length_m": 85.0
      },
      "type": "Feature"
    },
    {
      "geometry": {
        "coordinates": [
          -68.21801128732223,
          -16.515268329554043
        ],
        "type": "Point"
      },
      "properties": {
        "anchor_kind": "place:neighbourhood",
        "anchor_name": "Villa Adela Yunguyo",
        "archetype": "interchange",
        "chainage_m": 7055.2,
        "corridor_offset_m": 113.652,
        "id": "line-2-0640-0437-s007055",
        "junction_group": 3,
        "line": "line-2",
        "platform_length_m": 85.0
      },
      "type": "Feature"
    },
    {
      "geometry": {
        "coordinates": [
          -68.2028316628036,
          -16.523366807040276
        ],
        "type": "Point"
      },
      "properties": {
        "anchor_kind": "place:neighbourhood",
        "anchor_name": "Jardín",
        "archetype": "standard",
        "chainage_m": 9076.3,
        "corridor_offset_m": 180.471,
        "id": "line-2-0685-0518-s009076",
        "junction_group": null,
        "line": "line-2",
        "platform_length_m": 85.0
      },
      "type": "Feature"
    },
    {
      "geometry": {
        "coordinates": [
          -68.18690242719764,
          -16.51976748371306
        ],
        "type": "Point"
      },
      "properties": {
        "anchor_kind": "place:neighbourhood",
        "anchor_name": "2 de Abril",
        "archetype": "standard",
        "chainage_m": 11091.1,
        "corridor_offset_m": 152.981,
        "id": "line-2-0665-0603-s011091",
        "junction_group": null,
        "line": "line-2",
        "platform_length_m": 85.0
      },
      "type": "Feature"
    },
    {
      "geometry": {
        "coordinates": [
          -68.17097319159167,
          -16.523726739372997
        ],
        "type": "Point"
      },
      "properties": {
        "anchor_kind": "public_transport:station",
        "anchor_name": "Estación 6 de Marzo / Jach’a Thaki",
        "archetype": "standard",
        "chainage_m": 13105.9,
        "corridor_offset_m": 151.171,
        "id": "line-2-0687-0688-s013106",
        "junction_group": null,
        "line": "line-2",
        "platform_length_m": 85.0
      },
      "type": "Feature"
    },
    {
      "geometry": {
        "coordinates": [
          -68.16216526131544,
          -16.528045927365653
        ],
        "type": "Point"
      },
      "properties": {
        "anchor_kind": "amenity:college",
        "anchor_name": "Instituto Superior Tecnológico Don Bosco",
        "archetype": "major",
        "chainage_m": 14324.7,
        "corridor_offset_m": 161.628,
        "id": "line-2-0711-0735-s014325",
        "junction_group": null,
        "line": "line-2",
        "platform_length_m": 85.0
      },
      "type": "Feature"
    },
    {
      "geometry": {
        "coordinates": [
          -68.15298252549552,
          -16.53236511535831
        ],
        "type": "Point"
      },
      "properties": {
        "anchor_kind": "place:neighbourhood",
        "anchor_name": "PLAN 328",
        "archetype": "interchange-elevated",
        "chainage_m": 15536.7,
        "corridor_offset_m": 150.93,
        "id": "line-2-0735-0784-s015537",
        "junction_group": 4,
        "line": "line-2",
        "platform_length_m": 85.0
      },
      "type": "Feature"
    },
    {
      "geometry": {
        "coordinates": [
          -68.14548641462213,
          -16.527865961199293
        ],
        "type": "Point"
      },
      "properties": {
        "anchor_kind": "amenity:marketplace",
        "anchor_name": "Hipermaxi",
        "archetype": "interchange-elevated",
        "chainage_m": 16760.3,
        "corridor_offset_m": 111.072,
        "id": "line-2-0710-0824-s016760",
        "junction_group": 4,
        "line": "line-2",
        "platform_length_m": 85.0
      },
      "type": "Feature"
    },
    {
      "geometry": {
        "coordinates": [
          -68.15092109500533,
          -16.524086671705717
        ],
        "type": "Point"
      },
      "properties": {
        "anchor_kind": "amenity:marketplace",
        "anchor_name": "Mercado Ciudad Satélite",
        "archetype": "interchange-elevated",
        "chainage_m": 17629.4,
        "corridor_offset_m": 85.64,
        "id": "line-2-0689-0795-s017629",
        "junction_group": 4,
        "line": "line-2",
        "platform_length_m": 85.0
      },
      "type": "Feature"
    },
    {
      "geometry": {
        "coordinates": [
          -68.14286277581644,
          -16.5195875175467
        ],
        "type": "Point"
      },
      "properties": {
        "anchor_kind": "place:neighbourhood",
        "anchor_name": "Ernesto Torrez",
        "archetype": "major",
        "chainage_m": 19188.3,
        "corridor_offset_m": 52.053,
        "id": "line-2-0664-0838-s019188",
        "junction_group": null,
        "line": "line-2",
        "platform_length_m": 85.0
      },
      "type": "Feature"
    },
    {
      "geometry": {
        "coordinates": [
          -68.13255562336552,
          -16.515988194219485
        ],
        "type": "Point"
      },
      "properties": {
        "anchor_kind": "public_transport:station",
        "anchor_name": "Estación Sopocachi / Supu Kachi",
        "archetype": "standard",
        "chainage_m": 21207.9,
        "corridor_offset_m": 11.227,
        "id": "line-2-0644-0893-s021208",
        "junction_group": null,
        "line": "line-2",
        "platform_length_m": 85.0
      },
      "type": "Feature"
    },
    {
      "geometry": {
        "coordinates": [
          -68.11943742933707,
          -16.52192707770939
        ],
        "type": "Point"
      },
      "properties": {
        "anchor_kind": "amenity:university",
        "anchor_name": "CIDES - UMSA",
        "archetype": "standard",
        "chainage_m": 23222.7,
        "corridor_offset_m": 2.521,
        "id": "line-2-0677-0963-s023223",
        "junction_group": null,
        "line": "line-2",
        "platform_length_m": 85.0
      },
      "type": "Feature"
    },
    {
      "geometry": {
        "coordinates": [
          -68.1110043046045,
          -16.525346434870244
        ],
        "type": "Point"
      },
      "properties": {
        "anchor_kind": "amenity:hospital",
        "anchor_name": "Centro de Especialidades Médicas",
        "archetype": "major",
        "chainage_m": 24436.1,
        "corridor_offset_m": 18.235,
        "id": "line-2-0696-1008-s024436",
        "junction_group": null,
        "line": "line-2",
        "platform_length_m": 85.0
      },
      "type": "Feature"
    },
    {
      "geometry": {
        "coordinates": [
          -68.09994754106624,
          -16.530745419861066
        ],
        "type": "Point"
      },
      "properties": {
        "anchor_kind": "amenity:marketplace",
        "anchor_name": "Mercado 14 de Septiembre",
        "archetype": "standard",
        "chainage_m": 25966.1,
        "corridor_offset_m": 14.32,
        "id": "line-2-0726-1067-s025966",
        "junction_group": null,
        "line": "line-2",
        "platform_length_m": 85.0
      },
      "type": "Feature"
    },
    {
      "geometry": {
        "coordinates": [
          -68.09320104128018,
          -16.541543389842708
        ],
        "type": "Point"
      },
      "properties": {
        "anchor_kind": null,
        "anchor_name": null,
        "archetype": "interchange",
        "chainage_m": 27476.0,
        "corridor_offset_m": 20.129,
        "id": "line-2-0786-1103-s027476",
        "junction_group": 5,
        "line": "line-2",
        "platform_length_m": 85.0
      },
      "type": "Feature"
    },
    {
      "geometry": {
        "coordinates": [
          -68.08045765279542,
          -16.5388438973473
        ],
        "type": "Point"
      },
      "properties": {
        "anchor_kind": "shop:mall",
        "anchor_name": "Manantial - Centro de Compras",
        "archetype": "standard",
        "chainage_m": 28976.8,
        "corridor_offset_m": 17.146,
        "id": "line-2-0771-1171-s028977",
        "junction_group": null,
        "line": "line-2",
        "platform_length_m": 85.0
      },
      "type": "Feature"
    },
    {
      "geometry": {
        "coordinates": [
          -68.06808906985431,
          -16.540643559010906
        ],
        "type": "Point"
      },
      "properties": {
        "anchor_kind": "amenity:university",
        "anchor_name": "Carrera Ciencias Químicas",
        "archetype": "interchange-elevated",
        "chainage_m": 30462.5,
        "corridor_offset_m": 6.978,
        "id": "line-2-0781-1237-s030463",
        "junction_group": 6,
        "line": "line-2",
        "platform_length_m": 85.0
      },
      "type": "Feature"
    },
    {
      "geometry": {
        "coordinates": [
          -68.0658402365923,
          -16.540463592844542
        ],
        "type": "Point"
      },
      "properties": {
        "anchor_kind": "place:neighbourhood",
        "anchor_name": "Cota Cota",
        "archetype": "interchange-elevated",
        "chainage_m": 30710.8,
        "corridor_offset_m": 5.978,
        "id": "line-2-0780-1249-s030711",
        "junction_group": 6,
        "line": "line-2",
        "platform_length_m": 85.0
      },
      "type": "Feature"
    },
    {
      "geometry": {
        "coordinates": [
          -68.05253463979201,
          -16.538124032681853
        ],
        "type": "Point"
      },
      "properties": {
        "anchor_kind": "amenity:marketplace",
        "anchor_name": "Mercado 24 de enero",
        "archetype": "standard",
        "chainage_m": 32462.8,
        "corridor_offset_m": 13.349,
        "id": "line-2-0767-1320-s032463",
        "junction_group": null,
        "line": "line-2",
        "platform_length_m": 85.0
      },
      "type": "Feature"
    },
    {
      "geometry": {
        "coordinates": [
          -68.03566839032688,
          -16.537584134182772
        ],
        "type": "Point"
      },
      "properties": {
        "anchor_kind": "place:suburb",
        "anchor_name": "Ovejuyo",
        "archetype": "halt",
        "chainage_m": 34832.7,
        "corridor_offset_m": 10.595,
        "id": "line-2-0764-1410-s034833",
        "junction_group": null,
        "line": "line-2",
        "platform_length_m": 81.0
      },
      "type": "Feature"
    },
    {
      "geometry": {
        "coordinates": [
          -68.01936434917724,
          -16.538124032681853
        ],
        "type": "Point"
      },
      "properties": {
        "anchor_kind": "tourism:attraction",
        "anchor_name": "Valle de las ánimas",
        "archetype": "depot-terminal",
        "chainage_m": 37195.2,
        "corridor_offset_m": 0.0,
        "id": "line-2-0767-1497-s037195",
        "junction_group": null,
        "line": "line-2",
        "platform_length_m": 85.0
      },
      "type": "Feature"
    },
    {
      "geometry": {
        "coordinates": [
          -68.08401830546028,
          -16.497631645250692
        ],
        "type": "Point"
      },
      "properties": {
        "anchor_kind": "amenity:hospital",
        "anchor_name": "Centro de Rehabilitación y Salud Mental San Juan de Dios",
        "archetype": "terminal",
        "chainage_m": 0.0,
        "corridor_offset_m": 0.0,
        "id": "line-3-0542-1152-s000000",
        "junction_group": null,
        "line": "line-3",
        "platform_length_m": 85.0
      },
      "type": "Feature"
    },
    {
      "geometry": {
        "coordinates": [
          -68.09470026345487,
          -16.50465032573876
        ],
        "type": "Point"
      },
      "properties": {
        "anchor_kind": null,
        "anchor_name": null,
        "archetype": "interchange-elevated",
        "chainage_m": 2008.5,
        "corridor_offset_m": 80.063,
        "id": "line-3-0581-1095-s002009",
        "junction_group": 7,
        "line": "line-3",
        "platform_length_m": 85.0
      },
      "type": "Feature"
    },
    {
      "geometry": {
        "coordinates": [
          -68.09451286068303,
          -16.505730122736924
        ],
        "type": "Point"
      },
      "properties": {
        "anchor_kind": null,
        "anchor_name": null,
        "archetype": "interchange-elevated",
        "chainage_m": 2153.4,
        "corridor_offset_m": 81.816,
        "id": "line-3-0587-1096-s002153",
        "junction_group": 7,
        "line": "line-3",
        "platform_length_m": 85.0
      },
      "type": "Feature"
    },
    {
      "geometry": {
        "coordinates": [
          -68.10631923530863,
          -16.51022927689594
        ],
        "type": "Point"
      },
      "properties": {
        "anchor_kind": "place:neighbourhood",
        "anchor_name": "San Isidro Bajo",
        "archetype": "standard",
        "chainage_m": 4018.5,
        "corridor_offset_m": 128.539,
        "id": "line-3-0612-1033-s004018",
        "junction_group": null,
        "line": "line-3",
        "platform_length_m": 85.0
      },
      "type": "Feature"
    },
    {
      "geometry": {
        "coordinates": [
          -68.11325313786652,
          -16.50986934456322
        ],
        "type": "Point"
      },
      "properties": {
        "anchor_kind": "place:neighbourhood",
        "anchor_name": "German Jordan",
        "archetype": "major",
        "chainage_m": 5225.6,
        "corridor_offset_m": 179.806,
        "id": "line-3-0610-0996-s005226",
        "junction_group": null,
        "line": "line-3",
        "platform_length_m": 85.0
      },
      "type": "Feature"
    },
    {
      "geometry": {
        "coordinates": [
          -68.11831301270607,
          -16.516168160385845
        ],
        "type": "Point"
      },
      "properties": {
        "anchor_kind": "amenity:university",
        "anchor_name": "Posgrado Universidad Nacional Siglo XX",
        "archetype": "major",
        "chainage_m": 6447.8,
        "corridor_offset_m": 183.98,
        "id": "line-3-0645-0969-s006448",
        "junction_group": null,
        "line": "line-3",
        "platform_length_m": 85.0
      },
      "type": "Feature"
    },
    {
      "geometry": {
        "coordinates": [
          -68.12543431803579,
          -16.5296656228629
        ],
        "type": "Point"
      },
      "properties": {
        "anchor_kind": "place:neighbourhood",
        "anchor_name": "Bajo Llojeta",
        "archetype": "standard",
        "chainage_m": 8464.7,
        "corridor_offset_m": 186.929,
        "id": "line-3-0720-0931-s008465",
        "junction_group": null,
        "line": "line-3",
        "platform_length_m": 85.0
      },
      "type": "Feature"
    },
    {
      "geometry": {
        "coordinates": [
          -68.13873991483607,
          -16.533444912356476
        ],
        "type": "Point"
      },
      "properties": {
        "anchor_kind": "amenity:marketplace",
        "anchor_name": "Mercado Vergel Llojeta",
        "archetype": "interchange-elevated",
        "chainage_m": 10476.0,
        "corridor_offset_m": 208.418,
        "id": "line-3-0741-0860-s010476",
        "junction_group": 4,
        "line": "line-3",
        "platform_length_m": 85.0
      },
      "type": "Feature"
    },
    {
      "geometry": {
        "coordinates": [
          -68.15054628946167,
          -16.546222510168086
        ],
        "type": "Point"
      },
      "properties": {
        "anchor_kind": null,
        "anchor_name": null,
        "archetype": "standard",
        "chainage_m": 12499.9,
        "corridor_offset_m": 147.7,
        "id": "line-3-0812-0797-s012500",
        "junction_group": null,
        "line": "line-3",
        "platform_length_m": 85.0
      },
      "type": "Feature"
    },
    {
      "geometry": {
        "coordinates": [
          -68.16385188626194,
          -16.5590001079797
        ],
        "type": "Point"
      },
      "properties": {
        "anchor_kind": null,
        "anchor_name": null,
        "archetype": "standard",
        "chainage_m": 14508.1,
        "corridor_offset_m": 41.283,
        "id": "line-3-0883-0726-s014508",
        "junction_group": null,
        "line": "line-3",
        "platform_length_m": 85.0
      },
      "type": "Feature"
    },
    {
      "geometry": {
        "coordinates": [
          -68.17678267751855,
          -16.571057841125867
        ],
        "type": "Point"
      },
      "properties": {
        "anchor_kind": "place:neighbourhood",
        "anchor_name": "Chacapata",
        "archetype": "standard",
        "chainage_m": 16513.5,
        "corridor_offset_m": 10.277,
        "id": "line-3-0950-0657-s016513",
        "junction_group": null,
        "line": "line-3",
        "platform_length_m": 85.0
      },
      "type": "Feature"
    },
    {
      "geometry": {
        "coordinates": [
          -68.18540320502295,
          -16.582935608105675
        ],
        "type": "Point"
      },
      "properties": {
        "anchor_kind": "place:suburb",
        "anchor_name": "Senkata",
        "archetype": "interchange-elevated",
        "chainage_m": 18670.3,
        "corridor_offset_m": 25.977,
        "id": "line-3-1016-0611-s018670",
        "junction_group": 8,
        "line": "line-3",
        "platform_length_m": 85.0
      },
      "type": "Feature"
    },
    {
      "geometry": {
        "coordinates": [
          -68.19252451035268,
          -16.585275168268364
        ],
        "type": "Point"
      },
      "properties": {
        "anchor_kind": "place:neighbourhood",
        "anchor_name": "Anexo 16 de Noviembre",
        "archetype": "standard",
        "chainage_m": 19962.2,
        "corridor_offset_m": 9.791,
        "id": "line-3-1029-0573-s019962",
        "junction_group": null,
        "line": "line-3",
        "platform_length_m": 85.0
      },
      "type": "Feature"
    },
    {
      "geometry": {
        "coordinates": [
          -68.19739698242039,
          -16.594813375085483
        ],
        "type": "Point"
      },
      "properties": {
        "anchor_kind": null,
        "anchor_name": null,
        "archetype": "interchange-elevated",
        "chainage_m": 21237.6,
        "corridor_offset_m": 11.29,
        "id": "line-3-1082-0547-s021238",
        "junction_group": 8,
        "line": "line-3",
        "platform_length_m": 85.0
      },
      "type": "Feature"
    },
    {
      "geometry": {
        "coordinates": [
          -68.20901595427415,
          -16.610830363891587
        ],
        "type": "Point"
      },
      "properties": {
        "anchor_kind": null,
        "anchor_name": null,
        "archetype": "halt",
        "chainage_m": 23531.3,
        "corridor_offset_m": 11.091,
        "id": "line-3-1171-0485-s023531",
        "junction_group": null,
        "line": "line-3",
        "platform_length_m": 81.0
      },
      "type": "Feature"
    },
    {
      "geometry": {
        "coordinates": [
          -68.22925545363232,
          -16.62918691286038
        ],
        "type": "Point"
      },
      "properties": {
        "anchor_kind": null,
        "anchor_name": null,
        "archetype": "halt",
        "chainage_m": 26782.3,
        "corridor_offset_m": 9.464,
        "id": "line-3-1273-0377-s026782",
        "junction_group": null,
        "line": "line-3",
        "platform_length_m": 81.0
      },
      "type": "Feature"
    },
    {
      "geometry": {
        "coordinates": [
          -68.25286820288352,
          -16.640164849008386
        ],
        "type": "Point"
      },
      "properties": {
        "anchor_kind": "tourism:attraction",
        "anchor_name": "Campos de la Batalla de Ingavi",
        "archetype": "terminal",
        "chainage_m": 30041.9,
        "corridor_offset_m": 0.0,
        "id": "line-3-1334-0251-s030042",
        "junction_group": null,
        "line": "line-3",
        "platform_length_m": 85.0
      },
      "type": "Feature"
    },
    {
      "geometry": {
        "coordinates": [
          -68.02835968222531,
          -16.62882698052766
        ],
        "type": "Point"
      },
      "properties": {
        "anchor_kind": "place:neighbourhood",
        "anchor_name": "Urb. La Rinconada de Huajchilla",
        "archetype": "terminal",
        "chainage_m": 0.0,
        "corridor_offset_m": 0.0,
        "id": "line-4-1271-1449-s000000",
        "junction_group": null,
        "line": "line-4",
        "platform_length_m": 85.0
      },
      "type": "Feature"
    },
    {
      "geometry": {
        "coordinates": [
          -68.0632165977866,
          -16.612450059388834
        ],
        "type": "Point"
      },
      "properties": {
        "anchor_kind": null,
        "anchor_name": null,
        "archetype": "halt",
        "chainage_m": 4473.9,
        "corridor_offset_m": 183.718,
        "id": "line-4-1180-1263-s004474",
        "junction_group": null,
        "line": "line-4",
        "platform_length_m": 81.0
      },
      "type": "Feature"
    },
    {
      "geometry": {
        "coordinates": [
          -68.07296154192201,
          -16.592113882590073
        ],
        "type": "Point"
      },
      "properties": {
        "anchor_kind": null,
        "anchor_name": null,
        "archetype": "halt",
        "chainage_m": 7491.5,
        "corridor_offset_m": 162.0,
        "id": "line-4-1067-1211-s007492",
        "junction_group": null,
        "line": "line-4",
        "platform_length_m": 81.0
      },
      "type": "Feature"
    },
    {
      "geometry": {
        "coordinates": [
          -68.08101986111092,
          -16.577356656948492
        ],
        "type": "Point"
      },
      "properties": {
        "anchor_kind": "tourism:attraction",
        "anchor_name": "Cóndores",
        "archetype": "standard",
        "chainage_m": 9511.2,
        "corridor_offset_m": 130.094,
        "id": "line-4-0985-1168-s009511",
        "junction_group": null,
        "line": "line-4",
        "platform_length_m": 85.0
      },
      "type": "Feature"
    },
    {
      "geometry": {
        "coordinates": [
          -68.09226402742101,
          -16.567278551632292
        ],
        "type": "Point"
      },
      "properties": {
        "anchor_kind": "place:suburb",
        "anchor_name": "Mallasa",
        "archetype": "standard",
        "chainage_m": 11515.7,
        "corridor_offset_m": 97.259,
        "id": "line-4-0929-1108-s011516",
        "junction_group": null,
        "line": "line-4",
        "platform_length_m": 85.0
      },
      "type": "Feature"
    },
    {
      "geometry": {
        "coordinates": [
          -68.10631923530863,
          -16.564579059136882
        ],
        "type": "Point"
      },
      "properties": {
        "anchor_kind": null,
        "anchor_name": null,
        "archetype": "standard",
        "chainage_m": 13533.9,
        "corridor_offset_m": 51.553,
        "id": "line-4-0914-1033-s013534",
        "junction_group": null,
        "line": "line-4",
        "platform_length_m": 85.0
      },
      "type": "Feature"
    },
    {
      "geometry": {
        "coordinates": [
          -68.11981223488074,
          -16.553421156822516
        ],
        "type": "Point"
      },
      "properties": {
        "anchor_kind": null,
        "anchor_name": null,
        "archetype": "interchange-elevated",
        "chainage_m": 15522.7,
        "corridor_offset_m": 105.115,
        "id": "line-4-0852-0961-s015523",
        "junction_group": 9,
        "line": "line-4",
        "platform_length_m": 85.0
      },
      "type": "Feature"
    },
    {
      "geometry": {
        "coordinates": [
          -68.13311783168102,
          -16.543343051506316
        ],
        "type": "Point"
      },
      "properties": {
        "anchor_kind": null,
        "anchor_name": null,
        "archetype": "standard",
        "chainage_m": 17558.9,
        "corridor_offset_m": 147.873,
        "id": "line-4-0796-0890-s017559",
        "junction_group": null,
        "line": "line-4",
        "platform_length_m": 85.0
      },
      "type": "Feature"
    },
    {
      "geometry": {
        "coordinates": [
          -68.14305017858827,
          -16.53182521685923
        ],
        "type": "Point"
      },
      "properties": {
        "anchor_kind": "place:neighbourhood",
        "anchor_name": "San Martín",
        "archetype": "interchange-elevated",
        "chainage_m": 19562.0,
        "corridor_offset_m": 150.342,
        "id": "line-4-0732-0837-s019562",
        "junction_group": 4,
        "line": "line-4",
        "platform_length_m": 85.0
      },
      "type": "Feature"
    },
    {
      "geometry": {
        "coordinates": [
          -68.15092109500533,
          -16.524086671705717
        ],
        "type": "Point"
      },
      "properties": {
        "anchor_kind": "amenity:marketplace",
        "anchor_name": "Mercado Ciudad Satélite",
        "archetype": "interchange-elevated",
        "chainage_m": 20978.8,
        "corridor_offset_m": 76.352,
        "id": "line-4-0689-0795-s020979",
        "junction_group": 4,
        "line": "line-4",
        "platform_length_m": 85.0
      },
      "type": "Feature"
    },
    {
      "geometry": {
        "coordinates": [
          -68.16328967794644,
          -16.517787855883093
        ],
        "type": "Point"
      },
      "properties": {
        "anchor_kind": "amenity:hospital",
        "anchor_name": "Centro de Salud Santiago I",
        "archetype": "major",
        "chainage_m": 23186.7,
        "corridor_offset_m": 78.771,
        "id": "line-4-0654-0729-s023187",
        "junction_group": null,
        "line": "line-4",
        "platform_length_m": 85.0
      },
      "type": "Feature"
    },
    {
      "geometry": {
        "coordinates": [
          -68.16460149734928,
          -16.50968937839686
        ],
        "type": "Point"
      },
      "properties": {
        "anchor_kind": "amenity:university",
        "anchor_name": "Universidad Boliviana de Informática",
        "archetype": "major",
        "chainage_m": 24404.1,
        "corridor_offset_m": 57.046,
        "id": "line-4-0609-0722-s024404",
        "junction_group": null,
        "line": "line-4",
        "platform_length_m": 85.0
      },
      "type": "Feature"
    },
    {
      "geometry": {
        "coordinates": [
          -68.16403928903378,
          -16.50015117157974
        ],
        "type": "Point"
      },
      "properties": {
        "anchor_kind": "public_transport:station",
        "anchor_name": "Estación 16 de Julio / Jach'a Qhathu",
        "archetype": "major",
        "chainage_m": 25621.5,
        "corridor_offset_m": 37.172,
        "id": "line-4-0556-0725-s025622",
        "junction_group": null,
        "line": "line-4",
        "platform_length_m": 85.0
      },
      "type": "Feature"
    },
    {
      "geometry": {
        "coordinates": [
          -68.17884410800873,
          -16.493492423424396
        ],
        "type": "Point"
      },
      "properties": {
        "anchor_kind": "amenity:hospital",
        "anchor_name": "Clínica Santa Maria de los Angeles",
        "archetype": "standard",
        "chainage_m": 27623.2,
        "corridor_offset_m": 9.745,
        "id": "line-4-0519-0646-s027623",
        "junction_group": null,
        "line": "line-4",
        "platform_length_m": 85.0
      },
      "type": "Feature"
    },
    {
      "geometry": {
        "coordinates": [
          -68.19177489926534,
          -16.486653709102686
        ],
        "type": "Point"
      },
      "properties": {
        "anchor_kind": "amenity:university",
        "anchor_name": "Carrera Medicina",
        "archetype": "standard",
        "chainage_m": 29635.2,
        "corridor_offset_m": 47.975,
        "id": "line-4-0481-0577-s029635",
        "junction_group": null,
        "line": "line-4",
        "platform_length_m": 85.0
      },
      "type": "Feature"
    },
    {
      "geometry": {
        "coordinates": [
          -68.1947733436147,
          -16.478015333117373
        ],
        "type": "Point"
      },
      "properties": {
        "anchor_kind": null,
        "anchor_name": null,
        "archetype": "interchange-elevated",
        "chainage_m": 30910.0,
        "corridor_offset_m": 42.5,
        "id": "line-4-0433-0561-s030910",
        "junction_group": 10,
        "line": "line-4",
        "platform_length_m": 85.0
      },
      "type": "Feature"
    },
    {
      "geometry": {
        "coordinates": [
          -68.19927101013874,
          -16.47477594212288
        ],
        "type": "Point"
      },
      "properties": {
        "anchor_kind": "place:neighbourhood",
        "anchor_name": "El Ingenio Unidad Vecinal 1",
        "archetype": "interchange-elevated",
        "chainage_m": 31637.7,
        "corridor_offset_m": 49.007,
        "id": "line-4-0415-0537-s031638",
        "junction_group": 10,
        "line": "line-4",
        "platform_length_m": 85.0
      },
      "type": "Feature"
    },
    {
      "geometry": {
        "coordinates": [
          -68.21163959307984,
          -16.466677464636646
        ],
        "type": "Point"
      },
      "properties": {
        "anchor_kind": "place:neighbourhood",
        "anchor_name": "Manuel Rigoberto Paredes",
        "archetype": "terminal",
        "chainage_m": 33347.0,
        "corridor_offset_m": 0.0,
        "id": "line-4-0370-0471-s033347",
        "junction_group": null,
        "line": "line-4",
        "platform_length_m": 85.0
      },
      "type": "Feature"
    },
    {
      "geometry": {
        "coordinates": [
          -68.18015592741158,
          -16.625227657200444
        ],
        "type": "Point"
      },
      "properties": {
        "anchor_kind": "place:neighbourhood",
        "anchor_name": "La Modelo",
        "archetype": "terminal",
        "chainage_m": 0.0,
        "corridor_offset_m": 0.0,
        "id": "line-5-1251-0639-s000000",
        "junction_group": null,
        "line": "line-5",
        "platform_length_m": 85.0
      },
      "type": "Feature"
    },
    {
      "geometry": {
        "coordinates": [
          -68.18390398284828,
          -16.59877263074542
        ],
        "type": "Point"
      },
      "properties": {
        "anchor_kind": "amenity:marketplace",
        "anchor_name": "Feria Puente Vela",
        "archetype": "interchange-elevated",
        "chainage_m": 3211.1,
        "corridor_offset_m": 69.285,
        "id": "line-5-1104-0619-s003211",
        "junction_group": 8,
        "line": "line-5",
        "platform_length_m": 85.0
      },
      "type": "Feature"
    },
    {
      "geometry": {
        "coordinates": [
          -68.18109294127075,
          -16.595713205917285
        ],
        "type": "Point"
      },
      "properties": {
        "anchor_kind": "place:neighbourhood",
        "anchor_name": "Junthuma",
        "archetype": "interchange-elevated",
        "chainage_m": 3842.3,
        "corridor_offset_m": 65.821,
        "id": "line-5-1087-0634-s003842",
        "junction_group": 8,
        "line": "line-5",
        "platform_length_m": 85.0
      },
      "type": "Feature"
    },
    {
      "geometry": {
        "coordinates": [
          -68.17996852463975,
          -16.594633408919123
        ],
        "type": "Point"
      },
      "properties": {
        "anchor_kind": "place:neighbourhood",
        "anchor_name": "Junthuma",
        "archetype": "interchange-elevated",
        "chainage_m": 4023.7,
        "corridor_offset_m": 60.14,
        "id": "line-5-1081-0640-s004024",
        "junction_group": 8,
        "line": "line-5",
        "platform_length_m": 85.0
      },
      "type": "Feature"
    },
    {
      "geometry": {
        "coordinates": [
          -68.17472124702837,
          -16.583115574272036
        ],
        "type": "Point"
      },
      "properties": {
        "anchor_kind": "place:neighbourhood",
        "anchor_name": "Mirador Atiripis",
        "archetype": "interchange-elevated",
        "chainage_m": 6024.2,
        "corridor_offset_m": 63.577,
        "id": "line-5-1017-0668-s006024",
        "junction_group": 8,
        "line": "line-5",
        "platform_length_m": 85.0
      },
      "type": "Feature"
    },
    {
      "geometry": {
        "coordinates": [
          -68.17565826088754,
          -16.58149587877479
        ],
        "type": "Point"
      },
      "properties": {
        "anchor_kind": "place:neighbourhood",
        "anchor_name": "Mirador Atiripis",
        "archetype": "interchange-elevated",
        "chainage_m": 6245.6,
        "corridor_offset_m": 63.312,
        "id": "line-5-1008-0663-s006246",
        "junction_group": 8,
        "line": "line-5",
        "platform_length_m": 85.0
      },
      "type": "Feature"
    },
    {
      "geometry": {
        "coordinates": [
          -68.1711605943635,
          -16.56979807796134
        ],
        "type": "Point"
      },
      "properties": {
        "anchor_kind": "place:town",
        "anchor_name": "Achocalla",
        "archetype": "standard",
        "chainage_m": 8039.0,
        "corridor_offset_m": 52.545,
        "id": "line-5-0943-0687-s008039",
        "junction_group": null,
        "line": "line-5",
        "platform_length_m": 85.0
      },
      "type": "Feature"
    },
    {
      "geometry": {
        "coordinates": [
          -68.1711605943635,
          -16.554320987654318
        ],
        "type": "Point"
      },
      "properties": {
        "anchor_kind": null,
        "anchor_name": null,
        "archetype": "standard",
        "chainage_m": 10042.6,
        "corridor_offset_m": 65.157,
        "id": "line-5-0857-0687-s010043",
        "junction_group": null,
        "line": "line-5",
        "platform_length_m": 85.0
      },
      "type": "Feature"
    },
    {
      "geometry": {
        "coordinates": [
          -68.16010383082525,
          -16.541183457509987
        ],
        "type": "Point"
      },
      "properties": {
        "anchor_kind": "place:neighbourhood",
        "anchor_name": "Exaltación 3ª Sección",
        "archetype": "standard",
        "chainage_m": 12061.7,
        "corridor_offset_m": 90.604,
        "id": "line-5-0784-0746-s012062",
        "junction_group": null,
        "line": "line-5",
        "platform_length_m": 85.0
      },
      "type": "Feature"
    },
    {
      "geometry": {
        "coordinates": [
          -68.1550439559857,
          -16.533444912356476
        ],
        "type": "Point"
      },
      "properties": {
        "anchor_kind": "place:neighbourhood",
        "anchor_name": "PLAN 328",
        "archetype": "interchange-elevated",
        "chainage_m": 13272.2,
        "corridor_offset_m": 88.825,
        "id": "line-5-0741-0773-s013272",
        "junction_group": 4,
        "line": "line-5",
        "platform_length_m": 85.0
      },
      "type": "Feature"
    },
    {
      "geometry": {
        "coordinates": [
          -68.15092109500533,
          -16.524086671705717
        ],
        "type": "Point"
      },
      "properties": {
        "anchor_kind": "amenity:marketplace",
        "anchor_name": "Mercado Ciudad Satélite",
        "archetype": "interchange-elevated",
        "chainage_m": 14767.6,
        "corridor_offset_m": 65.512,
        "id": "line-5-0689-0795-s014768",
        "junction_group": 4,
        "line": "line-5",
        "platform_length_m": 85.0
      },
      "type": "Feature"
    },
    {
      "geometry": {
        "coordinates": [
          -68.15298252549552,
          -16.51238887089227
        ],
        "type": "Point"
      },
      "properties": {
        "anchor_kind": "public_transport:station",
        "anchor_name": "Estación Faro de Murillo / Tiquira",
        "archetype": "interchange-elevated",
        "chainage_m": 16915.6,
        "corridor_offset_m": 45.426,
        "id": "line-5-0624-0784-s016916",
        "junction_group": 1,
        "line": "line-5",
        "platform_length_m": 85.0
      },
      "type": "Feature"
    },
    {
      "geometry": {
        "coordinates": [
          -68.15298252549552,
          -16.500691070078823
        ],
        "type": "Point"
      },
      "properties": {
        "anchor_kind": "public_transport:station",
        "anchor_name": "Estación Cementerio / Ajayuni",
        "archetype": "major",
        "chainage_m": 18653.2,
        "corridor_offset_m": 60.081,
        "id": "line-5-0559-0784-s018653",
        "junction_group": null,
        "line": "line-5",
        "platform_length_m": 85.0
      },
      "type": "Feature"
    },
    {
      "geometry": {
        "coordinates": [
          -68.14567381739396,
          -16.495472051254364
        ],
        "type": "Point"
      },
      "properties": {
        "anchor_kind": "place:neighbourhood",
        "anchor_name": "14 de Septiembre",
        "archetype": "major",
        "chainage_m": 19858.9,
        "corridor_offset_m": 50.673,
        "id": "line-5-0530-0823-s019859",
        "junction_group": null,
        "line": "line-5",
        "platform_length_m": 85.0
      },
      "type": "Feature"
    },
    {
      "geometry": {
        "coordinates": [
          -68.14529901185028,
          -16.48737357376813
        ],
        "type": "Point"
      },
      "properties": {
        "anchor_kind": "amenity:university",
        "anchor_name": "Facultad de Comunicación Social",
        "archetype": "major",
        "chainage_m": 21068.0,
        "corridor_offset_m": 26.681,
        "id": "line-5-0485-0825-s021068",
        "junction_group": null,
        "line": "line-5",
        "platform_length_m": 85.0
      },
      "type": "Feature"
    },
    {
      "geometry": {
        "coordinates": [
          -68.15335733103919,
          -16.473336212791995
        ],
        "type": "Point"
      },
      "properties": {
        "anchor_kind": "place:neighbourhood",
        "anchor_name": "Achachicala",
        "archetype": "standard",
        "chainage_m": 23076.0,
        "corridor_offset_m": 0.06,
        "id": "line-5-0407-0782-s023076",
        "junction_group": null,
        "line": "line-5",
        "platform_length_m": 85.0
      },
      "type": "Feature"
    },
    {
      "geometry": {
        "coordinates": [
          -68.15167070609267,
          -16.46271820897671
        ],
        "type": "Point"
      },
      "properties": {
        "anchor_kind": null,
        "anchor_name": null,
        "archetype": "interchange-elevated",
        "chainage_m": 24429.9,
        "corridor_offset_m": 9.045,
        "id": "line-5-0348-0791-s024430",
        "junction_group": 11,
        "line": "line-5",
        "platform_length_m": 85.0
      },
      "type": "Feature"
    },
    {
      "geometry": {
        "coordinates": [
          -68.14661083125313,
          -16.451740272828708
        ],
        "type": "Point"
      },
      "properties": {
        "anchor_kind": "place:neighbourhood",
        "anchor_name": "Las Nieves",
        "archetype": "standard",
        "chainage_m": 26010.2,
        "corridor_offset_m": 16.327,
        "id": "line-5-0287-0818-s026010",
        "junction_group": null,
        "line": "line-5",
        "platform_length_m": 85.0
      },
      "type": "Feature"
    },
    {
      "geometry": {
        "coordinates": [
          -68.14286277581644,
          -16.44004247201526
        ],
        "type": "Point"
      },
      "properties": {
        "anchor_kind": "place:neighbourhood",
        "anchor_name": "Limanipata",
        "archetype": "terminal",
        "chainage_m": 27582.1,
        "corridor_offset_m": 0.0,
        "id": "line-5-0222-0838-s027582",
        "junction_group": null,
        "line": "line-5",
        "platform_length_m": 85.0
      },
      "type": "Feature"
    },
    {
      "geometry": {
        "coordinates": [
          -68.23356571738452,
          -16.517427923550372
        ],
        "type": "Point"
      },
      "properties": {
        "anchor_kind": "amenity:university",
        "anchor_name": "Universidad Catolica Boliviana San Pablo",
        "archetype": "interchange",
        "chainage_m": 0.0,
        "corridor_offset_m": 0.0,
        "id": "line-6-0652-0354-s000000",
        "junction_group": 3,
        "line": "line-6",
        "platform_length_m": 85.0
      },
      "type": "Feature"
    },
    {
      "geometry": {
        "coordinates": [
          -68.22719402314213,
          -16.52192707770939
        ],
        "type": "Point"
      },
      "properties": {
        "anchor_kind": null,
        "anchor_name": null,
        "archetype": "interchange",
        "chainage_m": 887.1,
        "corridor_offset_m": 33.062,
        "id": "line-6-0677-0388-s000887",
        "junction_group": 3,
        "line": "line-6",
        "platform_length_m": 85.0
      },
      "type": "Feature"
    },
    {
      "geometry": {
        "coordinates": [
          -68.21951050949691,
          -16.516348126552206
        ],
        "type": "Point"
      },
      "properties": {
        "anchor_kind": "place:neighbourhood",
        "anchor_name": "Libertad",
        "archetype": "interchange",
        "chainage_m": 2003.9,
        "corridor_offset_m": 44.149,
        "id": "line-6-0646-0429-s002004",
        "junction_group": 3,
        "line": "line-6",
        "platform_length_m": 85.0
      },
      "type": "Feature"
    },
    {
      "geometry": {
        "coordinates": [
          -68.20751673209948,
          -16.505910088903285
        ],
        "type": "Point"
      },
      "properties": {
        "anchor_kind": "place:neighbourhood",
        "anchor_name": "Pedro DomingoMurillo 3ª Sección",
        "archetype": "standard",
        "chainage_m": 4023.0,
        "corridor_offset_m": 64.99,
        "id": "line-6-0588-0493-s004023",
        "junction_group": null,
        "line": "line-6",
        "platform_length_m": 85.0
      },
      "type": "Feature"
    },
    {
      "geometry": {
        "coordinates": [
          -68.20114503785709,
          -16.491152863261707
        ],
        "type": "Point"
      },
      "properties": {
        "anchor_kind": "amenity:bus_station",
        "anchor_name": "Parada a Tiahuanacu",
        "archetype": "standard",
        "chainage_m": 6029.5,
        "corridor_offset_m": 150.525,
        "id": "line-6-0506-0527-s006030",
        "junction_group": null,
        "line": "line-6",
        "platform_length_m": 85.0
      },
      "type": "Feature"
    },
    {
      "geometry": {
        "coordinates": [
          -68.1947733436147,
          -16.478015333117373
        ],
        "type": "Point"
      },
      "properties": {
        "anchor_kind": null,
        "anchor_name": null,
        "archetype": "interchange-elevated",
        "chainage_m": 7869.7,
        "corridor_offset_m": 165.821,
        "id": "line-6-0433-0561-s007870",
        "junction_group": 10,
        "line": "line-6",
        "platform_length_m": 85.0
      },
      "type": "Feature"
    },
    {
      "geometry": {
        "coordinates": [
          -68.19346152421186,
          -16.47729546845193
        ],
        "type": "Point"
      },
      "properties": {
        "anchor_kind": "amenity:hospital",
        "anchor_name": "Centro de Salud Huayna Potosi",
        "archetype": "interchange-elevated",
        "chainage_m": 8042.9,
        "corridor_offset_m": 170.427,
        "id": "line-6-0429-0568-s008043",
        "junction_group": 10,
        "line": "line-6",
        "platform_length_m": 85.0
      },
      "type": "Feature"
    },
    {
      "geometry": {
        "coordinates": [
          -68.17884410800873,
          -16.467577295468452
        ],
        "type": "Point"
      },
      "properties": {
        "anchor_kind": "place:neighbourhood",
        "anchor_name": "Villa Ingavi",
        "archetype": "standard",
        "chainage_m": 10050.2,
        "corridor_offset_m": 183.533,
        "id": "line-6-0375-0646-s010050",
        "junction_group": null,
        "line": "line-6",
        "platform_length_m": 85.0
      },
      "type": "Feature"
    },
    {
      "geometry": {
        "coordinates": [
          -68.16647552506764,
          -16.457139257819527
        ],
        "type": "Point"
      },
      "properties": {
        "anchor_kind": "amenity:hospital",
        "anchor_name": "Centro de Salud y Bienestar Santa Rosa Lima",
        "archetype": "standard",
        "chainage_m": 12054.7,
        "corridor_offset_m": 209.534,
        "id": "line-6-0317-0712-s012055",
        "junction_group": null,
        "line": "line-6",
        "platform_length_m": 85.0
      },
      "type": "Feature"
    },
    {
      "geometry": {
        "coordinates": [
          -68.15167070609267,
          -16.46271820897671
        ],
        "type": "Point"
      },
      "properties": {
        "anchor_kind": null,
        "anchor_name": null,
        "archetype": "interchange-elevated",
        "chainage_m": 14035.8,
        "corridor_offset_m": 244.822,
        "id": "line-6-0348-0791-s014036",
        "junction_group": 11,
        "line": "line-6",
        "platform_length_m": 85.0
      },
      "type": "Feature"
    },
    {
      "geometry": {
        "coordinates": [
          -68.1346170538557,
          -16.46739732930209
        ],
        "type": "Point"
      },
      "properties": {
        "anchor_kind": "place:neighbourhood",
        "anchor_name": "Santiago de Lacaya",
        "archetype": "standard",
        "chainage_m": 16071.2,
        "corridor_offset_m": 170.235,
        "id": "line-6-0374-0882-s016071",
        "junction_group": null,
        "line": "line-6",
        "platform_length_m": 85.0
      },
      "type": "Feature"
    },
    {
      "geometry": {
        "coordinates": [
          -68.11606417944404,
          -16.46937695713206
        ],
        "type": "Point"
      },
      "properties": {
        "anchor_kind": "amenity:bus_station",
        "anchor_name": "Terminal Minasa",
        "archetype": "interchange-elevated",
        "chainage_m": 18192.0,
        "corridor_offset_m": 145.713,
        "id": "line-6-0385-0981-s018192",
        "junction_group": 0,
        "line": "line-6",
        "platform_length_m": 85.0
      },
      "type": "Feature"
    },
    {
      "geometry": {
        "coordinates": [
          -68.10913027688615,
          -16.48251448727639
        ],
        "type": "Point"
      },
      "properties": {
        "anchor_kind": "place:neighbourhood",
        "anchor_name": "24 de Junio",
        "archetype": "standard",
        "chainage_m": 20099.2,
        "corridor_offset_m": 96.278,
        "id": "line-6-0458-1018-s020099",
        "junction_group": null,
        "line": "line-6",
        "platform_length_m": 85.0
      },
      "type": "Feature"
    },
    {
      "geometry": {
        "coordinates": [
          -68.10200897155643,
          -16.496191915919805
        ],
        "type": "Point"
      },
      "properties": {
        "anchor_kind": "place:neighbourhood",
        "anchor_name": "Urbanización Cervecería",
        "archetype": "standard",
        "chainage_m": 22118.2,
        "corridor_offset_m": 71.711,
        "id": "line-6-0534-1056-s022118",
        "junction_group": null,
        "line": "line-6",
        "platform_length_m": 85.0
      },
      "type": "Feature"
    },
    {
      "geometry": {
        "coordinates": [
          -68.09451286068303,
          -16.505730122736924
        ],
        "type": "Point"
      },
      "properties": {
        "anchor_kind": null,
        "anchor_name": null,
        "archetype": "interchange-elevated",
        "chainage_m": 23509.6,
        "corridor_offset_m": 38.161,
        "id": "line-6-0587-1096-s023510",
        "junction_group": 7,
        "line": "line-6",
        "platform_length_m": 85.0
      },
      "type": "Feature"
    },
    {
      "geometry": {
        "coordinates": [
          -68.08964038861532,
          -16.508069682899613
        ],
        "type": "Point"
      },
      "properties": {
        "anchor_kind": "place:neighbourhood",
        "anchor_name": "Urbanización Bella",
        "archetype": "interchange-elevated",
        "chainage_m": 24137.3,
        "corridor_offset_m": 37.716,
        "id": "line-6-0600-1122-s024137",
        "junction_group": 7,
        "line": "line-6",
        "platform_length_m": 85.0
      },
      "type": "Feature"
    },
    {
      "geometry": {
        "coordinates": [
          -68.07408595855303,
          -16.515448295720404
        ],
        "type": "Point"
      },
      "properties": {
        "anchor_kind": "place:neighbourhood",
        "anchor_name": "Urbanización Ciudadela Stronguista",
        "archetype": "standard",
        "chainage_m": 26148.7,
        "corridor_offset_m": 7.061,
        "id": "line-6-0641-1205-s026149",
        "junction_group": null,
        "line": "line-6",
        "platform_length_m": 85.0
      },
      "type": "Feature"
    },
    {
      "geometry": {
        "coordinates": [
          -68.06902608371348,
          -16.52714609653385
        ],
        "type": "Point"
      },
      "properties": {
        "anchor_kind": null,
        "anchor_name": null,
        "archetype": "standard",
        "chainage_m": 28168.9,
        "corridor_offset_m": 33.502,
        "id": "line-6-0706-1232-s028169",
        "junction_group": null,
        "line": "line-6",
        "platform_length_m": 85.0
      },
      "type": "Feature"
    },
    {
      "geometry": {
        "coordinates": [
          -68.0658402365923,
          -16.540463592844542
        ],
        "type": "Point"
      },
      "properties": {
        "anchor_kind": "place:neighbourhood",
        "anchor_name": "Cota Cota",
        "archetype": "interchange-elevated",
        "chainage_m": 30125.1,
        "corridor_offset_m": 44.152,
        "id": "line-6-0780-1249-s030125",
        "junction_group": 6,
        "line": "line-6",
        "platform_length_m": 85.0
      },
      "type": "Feature"
    },
    {
      "geometry": {
        "coordinates": [
          -68.07970804170807,
          -16.54730230716625
        ],
        "type": "Point"
      },
      "properties": {
        "anchor_kind": "amenity:hospital",
        "anchor_name": "Instituto Nacional de Rehabilitación",
        "archetype": "standard",
        "chainage_m": 32203.9,
        "corridor_offset_m": 82.251,
        "id": "line-6-0818-1175-s032204",
        "junction_group": null,
        "line": "line-6",
        "platform_length_m": 85.0
      },
      "type": "Feature"
    },
    {
      "geometry": {
        "coordinates": [
          -68.09320104128018,
          -16.544242882338118
        ],
        "type": "Point"
      },
      "properties": {
        "anchor_kind": null,
        "anchor_name": null,
        "archetype": "interchange",
        "chainage_m": 33926.2,
        "corridor_offset_m": 159.727,
        "id": "line-6-0801-1103-s033926",
        "junction_group": 5,
        "line": "line-6",
        "platform_length_m": 85.0
      },
      "type": "Feature"
    },
    {
      "geometry": {
        "coordinates": [
          -68.09544987454221,
          -16.545502645502644
        ],
        "type": "Point"
      },
      "properties": {
        "anchor_kind": "place:neighbourhood",
        "anchor_name": "Gramadal",
        "archetype": "interchange",
        "chainage_m": 34224.2,
        "corridor_offset_m": 170.335,
        "id": "line-6-0808-1091-s034224",
        "junction_group": 5,
        "line": "line-6",
        "platform_length_m": 85.0
      },
      "type": "Feature"
    },
    {
      "geometry": {
        "coordinates": [
          -68.10931767965799,
          -16.545502645502644
        ],
        "type": "Point"
      },
      "properties": {
        "anchor_kind": null,
        "anchor_name": null,
        "archetype": "standard",
        "chainage_m": 35704.2,
        "corridor_offset_m": 101.048,
        "id": "line-6-0808-1017-s035704",
        "junction_group": null,
        "line": "line-6",
        "platform_length_m": 85.0
      },
      "type": "Feature"
    },
    {
      "geometry": {
        "coordinates": [
          -68.11981223488074,
          -16.553241190656156
        ],
        "type": "Point"
      },
      "properties": {
        "anchor_kind": null,
        "anchor_name": null,
        "archetype": "interchange-elevated",
        "chainage_m": 37180.4,
        "corridor_offset_m": 68.642,
        "id": "line-6-0851-0961-s037180",
        "junction_group": 9,
        "line": "line-6",
        "platform_length_m": 85.0
      },
      "type": "Feature"
    },
    {
      "geometry": {
        "coordinates": [
          -68.13236822059368,
          -16.557560378648812
        ],
        "type": "Point"
      },
      "properties": {
        "anchor_kind": null,
        "anchor_name": null,
        "archetype": "standard",
        "chainage_m": 38719.2,
        "corridor_offset_m": 21.102,
        "id": "line-6-0875-0894-s038719",
        "junction_group": null,
        "line": "line-6",
        "platform_length_m": 85.0
      },
      "type": "Feature"
    },
    {
      "geometry": {
        "coordinates": [
          -68.14248797027277,
          -16.567278551632292
        ],
        "type": "Point"
      },
      "properties": {
        "anchor_kind": null,
        "anchor_name": null,
        "archetype": "standard",
        "chainage_m": 40246.6,
        "corridor_offset_m": 50.806,
        "id": "line-6-0929-0840-s040247",
        "junction_group": null,
        "line": "line-6",
        "platform_length_m": 85.0
      },
      "type": "Feature"
    },
    {
      "geometry": {
        "coordinates": [
          -68.15635577538855,
          -16.57879638627938
        ],
        "type": "Point"
      },
      "properties": {
        "anchor_kind": null,
        "anchor_name": null,
        "archetype": "standard",
        "chainage_m": 42273.3,
        "corridor_offset_m": 102.937,
        "id": "line-6-0993-0766-s042273",
        "junction_group": null,
        "line": "line-6",
        "platform_length_m": 85.0
      },
      "type": "Feature"
    },
    {
      "geometry": {
        "coordinates": [
          -68.17228501099451,
          -16.58149587877479
        ],
        "type": "Point"
      },
      "properties": {
        "anchor_kind": "place:neighbourhood",
        "anchor_name": "Mirador Atiripis",
        "archetype": "interchange-elevated",
        "chainage_m": 44298.4,
        "corridor_offset_m": 57.289,
        "id": "line-6-1008-0681-s044298",
        "junction_group": 8,
        "line": "line-6",
        "platform_length_m": 85.0
      },
      "type": "Feature"
    },
    {
      "geometry": {
        "coordinates": [
          -68.17565826088754,
          -16.58149587877479
        ],
        "type": "Point"
      },
      "properties": {
        "anchor_kind": "place:neighbourhood",
        "anchor_name": "Mirador Atiripis",
        "archetype": "interchange-elevated",
        "chainage_m": 44658.4,
        "corridor_offset_m": 71.991,
        "id": "line-6-1008-0663-s044658",
        "junction_group": 8,
        "line": "line-6",
        "platform_length_m": 85.0
      },
      "type": "Feature"
    },
    {
      "geometry": {
        "coordinates": [
          -68.18315437176093,
          -16.58689486376561
        ],
        "type": "Point"
      },
      "properties": {
        "anchor_kind": null,
        "anchor_name": null,
        "archetype": "interchange-elevated",
        "chainage_m": 45793.8,
        "corridor_offset_m": 54.99,
        "id": "line-6-1038-0623-s045794",
        "junction_group": 8,
        "line": "line-6",
        "platform_length_m": 85.0
      },
      "type": "Feature"
    },
    {
      "geometry": {
        "coordinates": [
          -68.18446619116378,
          -16.592473814922794
        ],
        "type": "Point"
      },
      "properties": {
        "anchor_kind": null,
        "anchor_name": null,
        "archetype": "interchange-elevated",
        "chainage_m": 46535.3,
        "corridor_offset_m": 53.566,
        "id": "line-6-1069-0616-s046535",
        "junction_group": 8,
        "line": "line-6",
        "platform_length_m": 85.0
      },
      "type": "Feature"
    },
    {
      "geometry": {
        "coordinates": [
          -68.18746463551314,
          -16.595353273584564
        ],
        "type": "Point"
      },
      "properties": {
        "anchor_kind": null,
        "anchor_name": null,
        "archetype": "interchange-elevated",
        "chainage_m": 46987.8,
        "corridor_offset_m": 67.095,
        "id": "line-6-1085-0600-s046988",
        "junction_group": 8,
        "line": "line-6",
        "platform_length_m": 85.0
      },
      "type": "Feature"
    },
    {
      "geometry": {
        "coordinates": [
          -68.19739698242039,
          -16.594813375085483
        ],
        "type": "Point"
      },
      "properties": {
        "anchor_kind": null,
        "anchor_name": null,
        "archetype": "interchange-elevated",
        "chainage_m": 48233.5,
        "corridor_offset_m": 50.792,
        "id": "line-6-1082-0547-s048233",
        "junction_group": 8,
        "line": "line-6",
        "platform_length_m": 85.0
      },
      "type": "Feature"
    },
    {
      "geometry": {
        "coordinates": [
          -68.2097655653615,
          -16.587794694597413
        ],
        "type": "Point"
      },
      "properties": {
        "anchor_kind": "place:neighbourhood",
        "anchor_name": "Urbanización Encarnación",
        "archetype": "standard",
        "chainage_m": 50323.4,
        "corridor_offset_m": 9.583,
        "id": "line-6-1043-0481-s050323",
        "junction_group": null,
        "line": "line-6",
        "platform_length_m": 85.0
      },
      "type": "Feature"
    },
    {
      "geometry": {
        "coordinates": [
          -68.19702217687671,
          -16.575736961451245
        ],
        "type": "Point"
      },
      "properties": {
        "anchor_kind": "amenity:college",
        "anchor_name": "Instituto Tecnológico Bolivia Mar",
        "archetype": "standard",
        "chainage_m": 52330.2,
        "corridor_offset_m": 37.888,
        "id": "line-6-0976-0549-s052330",
        "junction_group": null,
        "line": "line-6",
        "platform_length_m": 85.0
      },
      "type": "Feature"
    },
    {
      "geometry": {
        "coordinates": [
          -68.20508049606562,
          -16.563319295972356
        ],
        "type": "Point"
      },
      "properties": {
        "anchor_kind": "place:neighbourhood",
        "anchor_name": "Villa Merced I",
        "archetype": "standard",
        "chainage_m": 54357.0,
        "corridor_offset_m": 48.44,
        "id": "line-6-0907-0506-s054357",
        "junction_group": null,
        "line": "line-6",
        "platform_length_m": 85.0
      },
      "type": "Feature"
    },
    {
      "geometry": {
        "coordinates": [
          -68.20957816258966,
          -16.555220818486124
        ],
        "type": "Point"
      },
      "properties": {
        "anchor_kind": null,
        "anchor_name": null,
        "archetype": "interchange-elevated",
        "chainage_m": 55988.3,
        "corridor_offset_m": 31.97,
        "id": "line-6-0862-0482-s055988",
        "junction_group": 2,
        "line": "line-6",
        "platform_length_m": 85.0
      },
      "type": "Feature"
    },
    {
      "geometry": {
        "coordinates": [
          -68.21107738476434,
          -16.552701292157074
        ],
        "type": "Point"
      },
      "properties": {
        "anchor_kind": "amenity:hospital",
        "anchor_name": "Centro de Salud 3 de Mayo",
        "archetype": "interchange-elevated",
        "chainage_m": 56358.0,
        "corridor_offset_m": 32.921,
        "id": "line-6-0848-0474-s056358",
        "junction_group": 2,
        "line": "line-6",
        "platform_length_m": 85.0
      },
      "type": "Feature"
    },
    {
      "geometry": {
        "coordinates": [
          -68.22400817602094,
          -16.546402476334446
        ],
        "type": "Point"
      },
      "properties": {
        "anchor_kind": "place:neighbourhood",
        "anchor_name": "Loza",
        "archetype": "standard",
        "chainage_m": 58369.4,
        "corridor_offset_m": 9.242,
        "id": "line-6-0813-0405-s058369",
        "junction_group": null,
        "line": "line-6",
        "platform_length_m": 85.0
      },
      "type": "Feature"
    },
    {
      "geometry": {
        "coordinates": [
          -68.22850584254499,
          -16.53002555519562
        ],
        "type": "Point"
      },
      "properties": {
        "anchor_kind": "place:neighbourhood",
        "anchor_name": "Cosmos 79 UV E",
        "archetype": "standard",
        "chainage_m": 60388.2,
        "corridor_offset_m": 31.111,
        "id": "line-6-0722-0381-s060388",
        "junction_group": null,
        "line": "line-6",
        "platform_length_m": 85.0
      },
      "type": "Feature"
    }
  ],
  "type": "FeatureCollection"
}
