{"features":[{"geometry":{"coordinates":[[[45.2761358,31.2550154],[45.2813624,31.254552],[45.2804956,31.2474077],[45.2752691,31.2478712],[45.2761358,31.2550154]]],"type":"Polygon"},"properties":{"kind":"military","osm_id":627516194},"type":"Feature"},{"geometry":{"coordinates":[[[45.3605805,31.2597718],[45.3618508,31.2617528],[45.3661424,31.2598159],[45.3648635,31.2577541],[45.3605805,31.2597718]]],"type":"Polygon"},"properties":{"kind":"military","osm_id":1308476446},"type":"Feature"},{"geometry":{"coordinates":[[[45.3282515,31.2739358],[45.3301965,31.2730852],[45.3291167,31.2711893],[45.3271132,31.2720733],[45.3282515,31.2739358]]],"type":"Polygon"},"properties":{"kind":"military","osm_id":1308480484},"type":"Feature"},{"geometry":{"coordinates":[[[45.3086687,31.2709592],[45.3105941,31.2716319],[45.3122723,31.2682348],[45.3102884,31.2674287],[45.3086687,31.2709592]]],"type":"Polygon"},"properties":{"kind":"military","osm_id":1308481475},"type":"Feature"}],"metadata":{"city":"samawah","coordinate_reference_system":"EPSG:4326","generator":"scripts/export-gis-context.py","license":"ODbL 1.0","schema_version":1,"source":"OpenStreetMap contributors","source_fetched_at":"2026-08-14T19:49:01.410869+00:00","source_sha256":"6490a55584ff9b0598a79bdcebaf138ddfc13070a27b6d03fde4255d8b2af785"},"type":"FeatureCollection"}
