{
  "features": [
    {
      "geometry": {
        "coordinates": [
          44.88452003856874,
          13.019109775762157
        ],
        "type": "Point"
      },
      "properties": {
        "archetype": "main-heavy",
        "fleet_stalls": 3,
        "line": "line-1",
        "station": "line-1-0584-0390-s000000"
      },
      "type": "Feature"
    },
    {
      "geometry": {
        "coordinates": [
          44.88783978426461,
          13.073819490335817
        ],
        "type": "Point"
      },
      "properties": {
        "archetype": "main-heavy",
        "fleet_stalls": 3,
        "line": "line-2",
        "station": "line-2-0280-0408-s000000"
      },
      "type": "Feature"
    },
    {
      "geometry": {
        "coordinates": [
          44.8793559897085,
          13.063741385019616
        ],
        "type": "Point"
      },
      "properties": {
        "archetype": "main-heavy",
        "fleet_stalls": 4,
        "line": "line-3",
        "station": "line-3-0336-0362-s009190"
      },
      "type": "Feature"
    },
    {
      "geometry": {
        "coordinates": [
          44.88212244445506,
          13.091636140805528
        ],
        "type": "Point"
      },
      "properties": {
        "archetype": "main-heavy",
        "fleet_stalls": 3,
        "line": "line-4",
        "station": "line-4-0181-0377-s000000"
      },
      "type": "Feature"
    },
    {
      "geometry": {
        "coordinates": [
          44.886917632682426,
          13.060861926357845
        ],
        "type": "Point"
      },
      "properties": {
        "archetype": "main-heavy",
        "fleet_stalls": 3,
        "line": "line-5",
        "station": "line-5-0352-0403-s000000"
      },
      "type": "Feature"
    },
    {
      "geometry": {
        "coordinates": [
          44.88378231730299,
          13.040885681891805
        ],
        "type": "Point"
      },
      "properties": {
        "archetype": "main-heavy",
        "fleet_stalls": 2,
        "line": "line-6",
        "station": "line-6-0463-0386-s000000"
      },
      "type": "Feature"
    },
    {
      "geometry": {
        "coordinates": [
          44.88212244445506,
          13.091636140805528
        ],
        "type": "Point"
      },
      "properties": {
        "archetype": "main-heavy",
        "fleet_stalls": 3,
        "line": "line-7",
        "station": "line-7-0181-0377-s000000"
      },
      "type": "Feature"
    }
  ],
  "type": "FeatureCollection"
}
