{
  "features": [
    {
      "geometry": {
        "coordinates": [
          5.629795056818172,
          6.381648320915668
        ],
        "type": "Point"
      },
      "properties": {
        "charger_bus_voltage_v": 650.0,
        "charger_contact_count": 6,
        "charger_efficiency": 0.98,
        "charger_max_current_a": 2475.0,
        "charger_max_kw": 1500.0,
        "grid_export_kw": 9000.0,
        "grid_import_kw": 9000.0,
        "line": "line-1",
        "pv_nameplate_kw": 5000.0,
        "station": "line-1-0541-0946-s000000",
        "storage_capacity_kwh": 40000.0,
        "storage_initial_soc": 0.6,
        "storage_max_charge_kw": 10000.0,
        "storage_max_discharge_kw": 10000.0,
        "storage_module_kwh": 500.0,
        "tier": "depot-main"
      },
      "type": "Feature"
    },
    {
      "geometry": {
        "coordinates": [
          5.614068411342016,
          6.36743099377317
        ],
        "type": "Point"
      },
      "properties": {
        "charger_bus_voltage_v": 650.0,
        "charger_contact_count": 6,
        "charger_efficiency": 0.98,
        "charger_max_current_a": 2475.0,
        "charger_max_kw": 1500.0,
        "grid_export_kw": 1500.0,
        "grid_import_kw": 1500.0,
        "line": "line-1",
        "pv_nameplate_kw": 300.0,
        "station": "line-1-0620-0859-s003012",
        "storage_capacity_kwh": 1500.0,
        "storage_initial_soc": 0.5,
        "storage_max_charge_kw": 1500.0,
        "storage_max_discharge_kw": 1500.0,
        "storage_module_kwh": 500.0,
        "tier": "standard"
      },
      "type": "Feature"
    },
    {
      "geometry": {
        "coordinates": [
          5.604487811224359,
          6.3532136666306736
        ],
        "type": "Point"
      },
      "properties": {
        "charger_bus_voltage_v": 650.0,
        "charger_contact_count": 6,
        "charger_efficiency": 0.98,
        "charger_max_current_a": 2475.0,
        "charger_max_kw": 1500.0,
        "grid_export_kw": 1500.0,
        "grid_import_kw": 1500.0,
        "line": "line-1",
        "pv_nameplate_kw": 300.0,
        "station": "line-1-0699-0806-s005090",
        "storage_capacity_kwh": 1500.0,
        "storage_initial_soc": 0.5,
        "storage_max_charge_kw": 1500.0,
        "storage_max_discharge_kw": 1500.0,
        "storage_module_kwh": 500.0,
        "tier": "standard"
      },
      "type": "Feature"
    },
    {
      "geometry": {
        "coordinates": [
          5.595268743186613,
          6.3391763056545365
        ],
        "type": "Point"
      },
      "properties": {
        "charger_bus_voltage_v": 650.0,
        "charger_contact_count": 6,
        "charger_efficiency": 0.98,
        "charger_max_current_a": 2475.0,
        "charger_max_kw": 1500.0,
        "grid_export_kw": 1800.0,
        "grid_import_kw": 1800.0,
        "line": "line-1",
        "pv_nameplate_kw": 300.0,
        "station": "line-1-0777-0755-s007178",
        "storage_capacity_kwh": 1500.0,
        "storage_initial_soc": 0.5,
        "storage_max_charge_kw": 1500.0,
        "storage_max_discharge_kw": 1500.0,
        "storage_module_kwh": 500.0,
        "tier": "interchange"
      },
      "type": "Feature"
    },
    {
      "geometry": {
        "coordinates": [
          5.585145844949087,
          6.3242391138465965
        ],
        "type": "Point"
      },
      "properties": {
        "charger_bus_voltage_v": 650.0,
        "charger_contact_count": 6,
        "charger_efficiency": 0.98,
        "charger_max_current_a": 2475.0,
        "charger_max_kw": 1500.0,
        "grid_export_kw": 1500.0,
        "grid_import_kw": 1500.0,
        "line": "line-1",
        "pv_nameplate_kw": 300.0,
        "station": "line-1-0860-0699-s009431",
        "storage_capacity_kwh": 1500.0,
        "storage_initial_soc": 0.5,
        "storage_max_charge_kw": 1500.0,
        "storage_max_discharge_kw": 1500.0,
        "storage_module_kwh": 500.0,
        "tier": "standard"
      },
      "type": "Feature"
    },
    {
      "geometry": {
        "coordinates": [
          5.574842180671606,
          6.3087620235395745
        ],
        "type": "Point"
      },
      "properties": {
        "charger_bus_voltage_v": 650.0,
        "charger_contact_count": 6,
        "charger_efficiency": 0.98,
        "charger_max_current_a": 2475.0,
        "charger_max_kw": 1500.0,
        "grid_export_kw": 1500.0,
        "grid_import_kw": 1500.0,
        "line": "line-1",
        "pv_nameplate_kw": 300.0,
        "station": "line-1-0946-0642-s011681",
        "storage_capacity_kwh": 1500.0,
        "storage_initial_soc": 0.5,
        "storage_max_charge_kw": 1500.0,
        "storage_max_discharge_kw": 1500.0,
        "storage_module_kwh": 500.0,
        "tier": "standard"
      },
      "type": "Feature"
    },
    {
      "geometry": {
        "coordinates": [
          5.564900048474037,
          6.2938248317316345
        ],
        "type": "Point"
      },
      "properties": {
        "charger_bus_voltage_v": 650.0,
        "charger_contact_count": 6,
        "charger_efficiency": 0.98,
        "charger_max_current_a": 2475.0,
        "charger_max_kw": 1500.0,
        "grid_export_kw": 2400.0,
        "grid_import_kw": 2400.0,
        "line": "line-1",
        "pv_nameplate_kw": 300.0,
        "station": "line-1-1029-0587-s013926",
        "storage_capacity_kwh": 1500.0,
        "storage_initial_soc": 0.6,
        "storage_max_charge_kw": 1500.0,
        "storage_max_discharge_kw": 1500.0,
        "storage_module_kwh": 500.0,
        "tier": "terminal"
      },
      "type": "Feature"
    },
    {
      "geometry": {
        "coordinates": [
          5.637025698416404,
          6.2094206997084544
        ],
        "type": "Point"
      },
      "properties": {
        "charger_bus_voltage_v": 650.0,
        "charger_contact_count": 6,
        "charger_efficiency": 0.98,
        "charger_max_current_a": 2475.0,
        "charger_max_kw": 1500.0,
        "grid_export_kw": 9000.0,
        "grid_import_kw": 9000.0,
        "line": "line-2",
        "pv_nameplate_kw": 5000.0,
        "station": "line-2-1498-0986-s000000",
        "storage_capacity_kwh": 40000.0,
        "storage_initial_soc": 0.6,
        "storage_max_charge_kw": 10000.0,
        "storage_max_discharge_kw": 10000.0,
        "storage_module_kwh": 500.0,
        "tier": "depot-main"
      },
      "type": "Feature"
    },
    {
      "geometry": {
        "coordinates": [
          5.631783483257686,
          6.269709365439297
        ],
        "type": "Point"
      },
      "properties": {
        "charger_bus_voltage_v": 650.0,
        "charger_contact_count": 6,
        "charger_efficiency": 0.98,
        "charger_max_current_a": 2475.0,
        "charger_max_kw": 1500.0,
        "grid_export_kw": 1500.0,
        "grid_import_kw": 1500.0,
        "line": "line-2",
        "pv_nameplate_kw": 300.0,
        "station": "line-2-1163-0957-s007001",
        "storage_capacity_kwh": 1500.0,
        "storage_initial_soc": 0.5,
        "storage_max_charge_kw": 1500.0,
        "storage_max_discharge_kw": 1500.0,
        "storage_module_kwh": 500.0,
        "tier": "standard"
      },
      "type": "Feature"
    },
    {
      "geometry": {
        "coordinates": [
          5.6243720756194975,
          6.299763715221538
        ],
        "type": "Point"
      },
      "properties": {
        "charger_bus_voltage_v": 650.0,
        "charger_contact_count": 6,
        "charger_efficiency": 0.98,
        "charger_max_current_a": 2475.0,
        "charger_max_kw": 1500.0,
        "grid_export_kw": 1500.0,
        "grid_import_kw": 1500.0,
        "line": "line-2",
        "pv_nameplate_kw": 300.0,
        "station": "line-2-0996-0916-s010692",
        "storage_capacity_kwh": 1500.0,
        "storage_initial_soc": 0.5,
        "storage_max_charge_kw": 1500.0,
        "storage_max_discharge_kw": 1500.0,
        "storage_module_kwh": 500.0,
        "tier": "standard"
      },
      "type": "Feature"
    },
    {
      "geometry": {
        "coordinates": [
          5.618587562340911,
          6.324419080012958
        ],
        "type": "Point"
      },
      "properties": {
        "charger_bus_voltage_v": 650.0,
        "charger_contact_count": 6,
        "charger_efficiency": 0.98,
        "charger_max_current_a": 2475.0,
        "charger_max_kw": 1500.0,
        "grid_export_kw": 1800.0,
        "grid_import_kw": 1800.0,
        "line": "line-2",
        "pv_nameplate_kw": 300.0,
        "station": "line-2-0859-0884-s013709",
        "storage_capacity_kwh": 1500.0,
        "storage_initial_soc": 0.5,
        "storage_max_charge_kw": 1500.0,
        "storage_max_discharge_kw": 1500.0,
        "storage_module_kwh": 500.0,
        "tier": "interchange"
      },
      "type": "Feature"
    },
    {
      "geometry": {
        "coordinates": [
          5.615333773621707,
          6.33737664399093
        ],
        "type": "Point"
      },
      "properties": {
        "charger_bus_voltage_v": 650.0,
        "charger_contact_count": 6,
        "charger_efficiency": 0.98,
        "charger_max_current_a": 2475.0,
        "charger_max_kw": 1500.0,
        "grid_export_kw": 1800.0,
        "grid_import_kw": 1800.0,
        "line": "line-2",
        "pv_nameplate_kw": 300.0,
        "station": "line-2-0787-0866-s015310",
        "storage_capacity_kwh": 1500.0,
        "storage_initial_soc": 0.5,
        "storage_max_charge_kw": 1500.0,
        "storage_max_discharge_kw": 1500.0,
        "storage_module_kwh": 500.0,
        "tier": "interchange"
      },
      "type": "Feature"
    },
    {
      "geometry": {
        "coordinates": [
          5.611176154702724,
          6.35501332829428
        ],
        "type": "Point"
      },
      "properties": {
        "charger_bus_voltage_v": 650.0,
        "charger_contact_count": 6,
        "charger_efficiency": 0.98,
        "charger_max_current_a": 2475.0,
        "charger_max_kw": 1500.0,
        "grid_export_kw": 1500.0,
        "grid_import_kw": 1500.0,
        "line": "line-2",
        "pv_nameplate_kw": 300.0,
        "station": "line-2-0689-0843-s017461",
        "storage_capacity_kwh": 1500.0,
        "storage_initial_soc": 0.5,
        "storage_max_charge_kw": 1500.0,
        "storage_max_discharge_kw": 1500.0,
        "storage_module_kwh": 500.0,
        "tier": "standard"
      },
      "type": "Feature"
    },
    {
      "geometry": {
        "coordinates": [
          5.60701853578374,
          6.372470046431271
        ],
        "type": "Point"
      },
      "properties": {
        "charger_bus_voltage_v": 650.0,
        "charger_contact_count": 6,
        "charger_efficiency": 0.98,
        "charger_max_current_a": 2475.0,
        "charger_max_kw": 1500.0,
        "grid_export_kw": 1800.0,
        "grid_import_kw": 1800.0,
        "line": "line-2",
        "pv_nameplate_kw": 300.0,
        "station": "line-2-0592-0820-s019603",
        "storage_capacity_kwh": 1500.0,
        "storage_initial_soc": 0.5,
        "storage_max_charge_kw": 1500.0,
        "storage_max_discharge_kw": 1500.0,
        "storage_module_kwh": 500.0,
        "tier": "interchange"
      },
      "type": "Feature"
    },
    {
      "geometry": {
        "coordinates": [
          5.602318618744889,
          6.391726426231868
        ],
        "type": "Point"
      },
      "properties": {
        "charger_bus_voltage_v": 650.0,
        "charger_contact_count": 6,
        "charger_efficiency": 0.98,
        "charger_max_current_a": 2475.0,
        "charger_max_kw": 1500.0,
        "grid_export_kw": 2400.0,
        "grid_import_kw": 2400.0,
        "line": "line-2",
        "pv_nameplate_kw": 300.0,
        "station": "line-2-0485-0794-s021982",
        "storage_capacity_kwh": 1500.0,
        "storage_initial_soc": 0.6,
        "storage_max_charge_kw": 1500.0,
        "storage_max_discharge_kw": 1500.0,
        "storage_module_kwh": 500.0,
        "tier": "terminal"
      },
      "type": "Feature"
    },
    {
      "geometry": {
        "coordinates": [
          5.589845761987938,
          6.365091433610481
        ],
        "type": "Point"
      },
      "properties": {
        "charger_bus_voltage_v": 650.0,
        "charger_contact_count": 6,
        "charger_efficiency": 0.98,
        "charger_max_current_a": 2475.0,
        "charger_max_kw": 1500.0,
        "grid_export_kw": 2400.0,
        "grid_import_kw": 2400.0,
        "line": "line-3",
        "pv_nameplate_kw": 300.0,
        "station": "line-3-0633-0725-s000000",
        "storage_capacity_kwh": 1500.0,
        "storage_initial_soc": 0.6,
        "storage_max_charge_kw": 1500.0,
        "storage_max_discharge_kw": 1500.0,
        "storage_module_kwh": 500.0,
        "tier": "terminal"
      },
      "type": "Feature"
    },
    {
      "geometry": {
        "coordinates": [
          5.597257169626126,
          6.354293463628838
        ],
        "type": "Point"
      },
      "properties": {
        "charger_bus_voltage_v": 650.0,
        "charger_contact_count": 6,
        "charger_efficiency": 0.98,
        "charger_max_current_a": 2475.0,
        "charger_max_kw": 1500.0,
        "grid_export_kw": 1500.0,
        "grid_import_kw": 1500.0,
        "line": "line-3",
        "pv_nameplate_kw": 300.0,
        "station": "line-3-0693-0766-s003002",
        "storage_capacity_kwh": 1500.0,
        "storage_initial_soc": 0.5,
        "storage_max_charge_kw": 1500.0,
        "storage_max_discharge_kw": 1500.0,
        "storage_module_kwh": 500.0,
        "tier": "standard"
      },
      "type": "Feature"
    },
    {
      "geometry": {
        "coordinates": [
          5.612079984902502,
          6.3422357304826695
        ],
        "type": "Point"
      },
      "properties": {
        "charger_bus_voltage_v": 650.0,
        "charger_contact_count": 6,
        "charger_efficiency": 0.98,
        "charger_max_current_a": 2475.0,
        "charger_max_kw": 1500.0,
        "grid_export_kw": 1800.0,
        "grid_import_kw": 1800.0,
        "line": "line-3",
        "pv_nameplate_kw": 300.0,
        "station": "line-3-0760-0848-s005396",
        "storage_capacity_kwh": 1500.0,
        "storage_initial_soc": 0.5,
        "storage_max_charge_kw": 1500.0,
        "storage_max_discharge_kw": 1500.0,
        "storage_module_kwh": 500.0,
        "tier": "interchange"
      },
      "type": "Feature"
    },
    {
      "geometry": {
        "coordinates": [
          5.6222028831400275,
          6.333957286830076
        ],
        "type": "Point"
      },
      "properties": {
        "charger_bus_voltage_v": 650.0,
        "charger_contact_count": 6,
        "charger_efficiency": 0.98,
        "charger_max_current_a": 2475.0,
        "charger_max_kw": 1500.0,
        "grid_export_kw": 1800.0,
        "grid_import_kw": 1800.0,
        "line": "line-3",
        "pv_nameplate_kw": 300.0,
        "station": "line-3-0806-0904-s007003",
        "storage_capacity_kwh": 1500.0,
        "storage_initial_soc": 0.5,
        "storage_max_charge_kw": 1500.0,
        "storage_max_discharge_kw": 1500.0,
        "storage_module_kwh": 500.0,
        "tier": "interchange"
      },
      "type": "Feature"
    },
    {
      "geometry": {
        "coordinates": [
          5.644437106054592,
          6.316140636360364
        ],
        "type": "Point"
      },
      "properties": {
        "charger_bus_voltage_v": 650.0,
        "charger_contact_count": 6,
        "charger_efficiency": 0.98,
        "charger_max_current_a": 2475.0,
        "charger_max_kw": 1500.0,
        "grid_export_kw": 1500.0,
        "grid_import_kw": 1500.0,
        "line": "line-3",
        "pv_nameplate_kw": 300.0,
        "station": "line-3-0905-1027-s010517",
        "storage_capacity_kwh": 1500.0,
        "storage_initial_soc": 0.5,
        "storage_max_charge_kw": 1500.0,
        "storage_max_discharge_kw": 1500.0,
        "storage_module_kwh": 500.0,
        "tier": "standard"
      },
      "type": "Feature"
    },
    {
      "geometry": {
        "coordinates": [
          5.724154929675103,
          6.255132105964079
        ],
        "type": "Point"
      },
      "properties": {
        "charger_bus_voltage_v": 650.0,
        "charger_contact_count": 6,
        "charger_efficiency": 0.98,
        "charger_max_current_a": 2475.0,
        "charger_max_kw": 1500.0,
        "grid_export_kw": 9000.0,
        "grid_import_kw": 9000.0,
        "line": "line-3",
        "pv_nameplate_kw": 5000.0,
        "station": "line-3-1244-1468-s022945",
        "storage_capacity_kwh": 40000.0,
        "storage_initial_soc": 0.6,
        "storage_max_charge_kw": 10000.0,
        "storage_max_discharge_kw": 10000.0,
        "storage_module_kwh": 500.0,
        "tier": "depot-main"
      },
      "type": "Feature"
    },
    {
      "geometry": {
        "coordinates": [
          5.72126267303581,
          6.392626257063672
        ],
        "type": "Point"
      },
      "properties": {
        "charger_bus_voltage_v": 650.0,
        "charger_contact_count": 6,
        "charger_efficiency": 0.98,
        "charger_max_current_a": 2475.0,
        "charger_max_kw": 1500.0,
        "grid_export_kw": 9000.0,
        "grid_import_kw": 9000.0,
        "line": "line-4",
        "pv_nameplate_kw": 5000.0,
        "station": "line-4-0480-1452-s000000",
        "storage_capacity_kwh": 40000.0,
        "storage_initial_soc": 0.6,
        "storage_max_charge_kw": 10000.0,
        "storage_max_discharge_kw": 10000.0,
        "storage_module_kwh": 500.0,
        "tier": "depot-main"
      },
      "type": "Feature"
    },
    {
      "geometry": {
        "coordinates": [
          5.637748762576227,
          6.323159316848432
        ],
        "type": "Point"
      },
      "properties": {
        "charger_bus_voltage_v": 650.0,
        "charger_contact_count": 6,
        "charger_efficiency": 0.98,
        "charger_max_current_a": 2475.0,
        "charger_max_kw": 1500.0,
        "grid_export_kw": 1500.0,
        "grid_import_kw": 1500.0,
        "line": "line-4",
        "pv_nameplate_kw": 300.0,
        "station": "line-4-0866-0990-s013920",
        "storage_capacity_kwh": 1500.0,
        "storage_initial_soc": 0.5,
        "storage_max_charge_kw": 1500.0,
        "storage_max_discharge_kw": 1500.0,
        "storage_module_kwh": 500.0,
        "tier": "standard"
      },
      "type": "Feature"
    },
    {
      "geometry": {
        "coordinates": [
          5.617864498181088,
          6.309121955872296
        ],
        "type": "Point"
      },
      "properties": {
        "charger_bus_voltage_v": 650.0,
        "charger_contact_count": 6,
        "charger_efficiency": 0.98,
        "charger_max_current_a": 2475.0,
        "charger_max_kw": 1500.0,
        "grid_export_kw": 1500.0,
        "grid_import_kw": 1500.0,
        "line": "line-4",
        "pv_nameplate_kw": 300.0,
        "station": "line-4-0944-0880-s016930",
        "storage_capacity_kwh": 1500.0,
        "storage_initial_soc": 0.5,
        "storage_max_charge_kw": 1500.0,
        "storage_max_discharge_kw": 1500.0,
        "storage_module_kwh": 500.0,
        "tier": "standard"
      },
      "type": "Feature"
    },
    {
      "geometry": {
        "coordinates": [
          5.602499384784845,
          6.298503952057013
        ],
        "type": "Point"
      },
      "properties": {
        "charger_bus_voltage_v": 650.0,
        "charger_contact_count": 6,
        "charger_efficiency": 0.98,
        "charger_max_current_a": 2475.0,
        "charger_max_kw": 1500.0,
        "grid_export_kw": 1500.0,
        "grid_import_kw": 1500.0,
        "line": "line-4",
        "pv_nameplate_kw": 300.0,
        "station": "line-4-1003-0795-s019271",
        "storage_capacity_kwh": 1500.0,
        "storage_initial_soc": 0.5,
        "storage_max_charge_kw": 1500.0,
        "storage_max_discharge_kw": 1500.0,
        "storage_module_kwh": 500.0,
        "tier": "standard"
      },
      "type": "Feature"
    },
    {
      "geometry": {
        "coordinates": [
          5.587134271388601,
          6.287705982075369
        ],
        "type": "Point"
      },
      "properties": {
        "charger_bus_voltage_v": 650.0,
        "charger_contact_count": 6,
        "charger_efficiency": 0.98,
        "charger_max_current_a": 2475.0,
        "charger_max_kw": 1500.0,
        "grid_export_kw": 2400.0,
        "grid_import_kw": 2400.0,
        "line": "line-4",
        "pv_nameplate_kw": 300.0,
        "station": "line-4-1063-0710-s021609",
        "storage_capacity_kwh": 1500.0,
        "storage_initial_soc": 0.6,
        "storage_max_charge_kw": 1500.0,
        "storage_max_discharge_kw": 1500.0,
        "storage_module_kwh": 500.0,
        "tier": "terminal"
      },
      "type": "Feature"
    },
    {
      "geometry": {
        "coordinates": [
          5.589845761987938,
          6.365091433610481
        ],
        "type": "Point"
      },
      "properties": {
        "charger_bus_voltage_v": 650.0,
        "charger_contact_count": 6,
        "charger_efficiency": 0.98,
        "charger_max_current_a": 2475.0,
        "charger_max_kw": 1500.0,
        "grid_export_kw": 9000.0,
        "grid_import_kw": 9000.0,
        "line": "line-5",
        "pv_nameplate_kw": 5000.0,
        "station": "line-5-0633-0725-s000961",
        "storage_capacity_kwh": 40000.0,
        "storage_initial_soc": 0.6,
        "storage_max_charge_kw": 10000.0,
        "storage_max_discharge_kw": 10000.0,
        "storage_module_kwh": 500.0,
        "tier": "depot-main"
      },
      "type": "Feature"
    },
    {
      "geometry": {
        "coordinates": [
          5.606837769743784,
          6.372470046431271
        ],
        "type": "Point"
      },
      "properties": {
        "charger_bus_voltage_v": 650.0,
        "charger_contact_count": 6,
        "charger_efficiency": 0.98,
        "charger_max_current_a": 2475.0,
        "charger_max_kw": 1500.0,
        "grid_export_kw": 1800.0,
        "grid_import_kw": 1800.0,
        "line": "line-5",
        "pv_nameplate_kw": 300.0,
        "station": "line-5-0592-0819-s003239",
        "storage_capacity_kwh": 1500.0,
        "storage_initial_soc": 0.5,
        "storage_max_charge_kw": 1500.0,
        "storage_max_discharge_kw": 1500.0,
        "storage_module_kwh": 500.0,
        "tier": "interchange"
      },
      "type": "Feature"
    },
    {
      "geometry": {
        "coordinates": [
          5.629795056818172,
          6.381648320915668
        ],
        "type": "Point"
      },
      "properties": {
        "charger_bus_voltage_v": 650.0,
        "charger_contact_count": 6,
        "charger_efficiency": 0.98,
        "charger_max_current_a": 2475.0,
        "charger_max_kw": 1500.0,
        "grid_export_kw": 1800.0,
        "grid_import_kw": 1800.0,
        "line": "line-5",
        "pv_nameplate_kw": 300.0,
        "station": "line-5-0541-0946-s006272",
        "storage_capacity_kwh": 1500.0,
        "storage_initial_soc": 0.5,
        "storage_max_charge_kw": 1500.0,
        "storage_max_discharge_kw": 1500.0,
        "storage_module_kwh": 500.0,
        "tier": "interchange"
      },
      "type": "Feature"
    },
    {
      "geometry": {
        "coordinates": [
          5.636844932376448,
          6.356812989957888
        ],
        "type": "Point"
      },
      "properties": {
        "charger_bus_voltage_v": 650.0,
        "charger_contact_count": 6,
        "charger_efficiency": 0.98,
        "charger_max_current_a": 2475.0,
        "charger_max_kw": 1500.0,
        "grid_export_kw": 1500.0,
        "grid_import_kw": 1500.0,
        "line": "line-5",
        "pv_nameplate_kw": 300.0,
        "station": "line-5-0679-0985-s009793",
        "storage_capacity_kwh": 1500.0,
        "storage_initial_soc": 0.5,
        "storage_max_charge_kw": 1500.0,
        "storage_max_discharge_kw": 1500.0,
        "storage_module_kwh": 500.0,
        "tier": "standard"
      },
      "type": "Feature"
    },
    {
      "geometry": {
        "coordinates": [
          5.625456671859232,
          6.331437760501026
        ],
        "type": "Point"
      },
      "properties": {
        "charger_bus_voltage_v": 650.0,
        "charger_contact_count": 6,
        "charger_efficiency": 0.98,
        "charger_max_current_a": 2475.0,
        "charger_max_kw": 1500.0,
        "grid_export_kw": 1800.0,
        "grid_import_kw": 1800.0,
        "line": "line-5",
        "pv_nameplate_kw": 300.0,
        "station": "line-5-0820-0922-s013217",
        "storage_capacity_kwh": 1500.0,
        "storage_initial_soc": 0.5,
        "storage_max_charge_kw": 1500.0,
        "storage_max_discharge_kw": 1500.0,
        "storage_module_kwh": 500.0,
        "tier": "interchange"
      },
      "type": "Feature"
    },
    {
      "geometry": {
        "coordinates": [
          5.619672158580647,
          6.319380027354857
        ],
        "type": "Point"
      },
      "properties": {
        "charger_bus_voltage_v": 650.0,
        "charger_contact_count": 6,
        "charger_efficiency": 0.98,
        "charger_max_current_a": 2475.0,
        "charger_max_kw": 1500.0,
        "grid_export_kw": 1800.0,
        "grid_import_kw": 1800.0,
        "line": "line-5",
        "pv_nameplate_kw": 300.0,
        "station": "line-5-0887-0890-s014857",
        "storage_capacity_kwh": 1500.0,
        "storage_initial_soc": 0.5,
        "storage_max_charge_kw": 1500.0,
        "storage_max_discharge_kw": 1500.0,
        "storage_module_kwh": 500.0,
        "tier": "interchange"
      },
      "type": "Feature"
    },
    {
      "geometry": {
        "coordinates": [
          5.602499384784845,
          6.320819756685743
        ],
        "type": "Point"
      },
      "properties": {
        "charger_bus_voltage_v": 650.0,
        "charger_contact_count": 6,
        "charger_efficiency": 0.98,
        "charger_max_current_a": 2475.0,
        "charger_max_kw": 1500.0,
        "grid_export_kw": 1500.0,
        "grid_import_kw": 1500.0,
        "line": "line-5",
        "pv_nameplate_kw": 300.0,
        "station": "line-5-0879-0795-s017342",
        "storage_capacity_kwh": 1500.0,
        "storage_initial_soc": 0.5,
        "storage_max_charge_kw": 1500.0,
        "storage_max_discharge_kw": 1500.0,
        "storage_module_kwh": 500.0,
        "tier": "standard"
      },
      "type": "Feature"
    },
    {
      "geometry": {
        "coordinates": [
          5.595268743186613,
          6.338996339488176
        ],
        "type": "Point"
      },
      "properties": {
        "charger_bus_voltage_v": 650.0,
        "charger_contact_count": 6,
        "charger_efficiency": 0.98,
        "charger_max_current_a": 2475.0,
        "charger_max_kw": 1500.0,
        "grid_export_kw": 1800.0,
        "grid_import_kw": 1800.0,
        "line": "line-5",
        "pv_nameplate_kw": 300.0,
        "station": "line-5-0778-0755-s019811",
        "storage_capacity_kwh": 1500.0,
        "storage_initial_soc": 0.5,
        "storage_max_charge_kw": 1500.0,
        "storage_max_discharge_kw": 1500.0,
        "storage_module_kwh": 500.0,
        "tier": "interchange"
      },
      "type": "Feature"
    },
    {
      "geometry": {
        "coordinates": [
          5.579180565630546,
          6.3532136666306736
        ],
        "type": "Point"
      },
      "properties": {
        "charger_bus_voltage_v": 650.0,
        "charger_contact_count": 6,
        "charger_efficiency": 0.98,
        "charger_max_current_a": 2475.0,
        "charger_max_kw": 1500.0,
        "grid_export_kw": 1500.0,
        "grid_import_kw": 1500.0,
        "line": "line-5",
        "pv_nameplate_kw": 300.0,
        "station": "line-5-0699-0666-s022479",
        "storage_capacity_kwh": 1500.0,
        "storage_initial_soc": 0.5,
        "storage_max_charge_kw": 1500.0,
        "storage_max_discharge_kw": 1500.0,
        "storage_module_kwh": 500.0,
        "tier": "standard"
      },
      "type": "Feature"
    }
  ],
  "type": "FeatureCollection"
}
