{
  "features": [
    {
      "geometry": {
        "coordinates": [
          5.625456671859232,
          6.380748490083864
        ],
        "type": "Point"
      },
      "properties": {
        "anchor_kind": null,
        "anchor_name": null,
        "archetype": "terminal",
        "chainage_m": 0.0,
        "corridor_offset_m": 0.0,
        "id": "line-1-0546-0922-s000000",
        "junction_group": 0,
        "line": "line-1",
        "platform_length_m": 85.0
      },
      "type": "Feature"
    },
    {
      "geometry": {
        "coordinates": [
          5.622022117100072,
          6.3791287945866175
        ],
        "type": "Point"
      },
      "properties": {
        "anchor_kind": null,
        "anchor_name": null,
        "archetype": "interchange",
        "chainage_m": 892.5,
        "corridor_offset_m": 0.122,
        "id": "line-1-0555-0903-s000893",
        "junction_group": 0,
        "line": "line-1",
        "platform_length_m": 85.0
      },
      "type": "Feature"
    },
    {
      "geometry": {
        "coordinates": [
          5.609730026383077,
          6.360952211784184
        ],
        "type": "Point"
      },
      "properties": {
        "anchor_kind": null,
        "anchor_name": null,
        "archetype": "interchange",
        "chainage_m": 3593.0,
        "corridor_offset_m": 0.072,
        "id": "line-1-0656-0835-s003593",
        "junction_group": 1,
        "line": "line-1",
        "platform_length_m": 85.0
      },
      "type": "Feature"
    },
    {
      "geometry": {
        "coordinates": [
          5.602499384784845,
          6.34997427563618
        ],
        "type": "Point"
      },
      "properties": {
        "anchor_kind": null,
        "anchor_name": null,
        "archetype": "interchange",
        "chainage_m": 5191.3,
        "corridor_offset_m": 0.008,
        "id": "line-1-0717-0795-s005191",
        "junction_group": 2,
        "line": "line-1",
        "platform_length_m": 85.0
      },
      "type": "Feature"
    },
    {
      "geometry": {
        "coordinates": [
          5.595268743186613,
          6.338996339488176
        ],
        "type": "Point"
      },
      "properties": {
        "anchor_kind": null,
        "anchor_name": null,
        "archetype": "interchange",
        "chainage_m": 6830.5,
        "corridor_offset_m": 14.138,
        "id": "line-1-0778-0755-s006831",
        "junction_group": 3,
        "line": "line-1",
        "platform_length_m": 85.0
      },
      "type": "Feature"
    },
    {
      "geometry": {
        "coordinates": [
          5.586411207228778,
          6.326038775510204
        ],
        "type": "Point"
      },
      "properties": {
        "anchor_kind": "planning:residential",
        "anchor_name": "Residential planning stop; site release open",
        "archetype": "standard",
        "chainage_m": 8811.2,
        "corridor_offset_m": 0.047,
        "id": "line-1-0850-0706-s008811",
        "junction_group": null,
        "line": "line-1",
        "platform_length_m": 85.0
      },
      "type": "Feature"
    },
    {
      "geometry": {
        "coordinates": [
          5.579180565630546,
          6.3150608393622
        ],
        "type": "Point"
      },
      "properties": {
        "anchor_kind": "planning:residential",
        "anchor_name": "Residential planning stop; site release open",
        "archetype": "standard",
        "chainage_m": 10397.7,
        "corridor_offset_m": 0.023,
        "id": "line-1-0911-0666-s010398",
        "junction_group": null,
        "line": "line-1",
        "platform_length_m": 85.0
      },
      "type": "Feature"
    },
    {
      "geometry": {
        "coordinates": [
          5.571949924032314,
          6.3042628693805565
        ],
        "type": "Point"
      },
      "properties": {
        "anchor_kind": "planning:residential",
        "anchor_name": "Residential planning stop; site release open",
        "archetype": "interchange",
        "chainage_m": 11987.6,
        "corridor_offset_m": 0.014,
        "id": "line-1-0971-0626-s011988",
        "junction_group": 4,
        "line": "line-1",
        "platform_length_m": 85.0
      },
      "type": "Feature"
    },
    {
      "geometry": {
        "coordinates": [
          5.571046093832535,
          6.303183072382392
        ],
        "type": "Point"
      },
      "properties": {
        "anchor_kind": null,
        "anchor_name": null,
        "archetype": "interchange",
        "chainage_m": 12160.8,
        "corridor_offset_m": 0.07,
        "id": "line-1-0977-0621-s012161",
        "junction_group": 4,
        "line": "line-1",
        "platform_length_m": 85.0
      },
      "type": "Feature"
    },
    {
      "geometry": {
        "coordinates": [
          5.564900048474037,
          6.2938248317316345
        ],
        "type": "Point"
      },
      "properties": {
        "anchor_kind": "amenity:hospital",
        "anchor_name": "PRIMARY HEALTH CARE",
        "archetype": "terminal",
        "chainage_m": 13564.4,
        "corridor_offset_m": 0.0,
        "id": "line-1-1029-0587-s013564",
        "junction_group": 5,
        "line": "line-1",
        "platform_length_m": 85.0
      },
      "type": "Feature"
    },
    {
      "geometry": {
        "coordinates": [
          5.637025698416404,
          6.2094206997084544
        ],
        "type": "Point"
      },
      "properties": {
        "anchor_kind": "place:town",
        "anchor_name": "Okha",
        "archetype": "terminal",
        "chainage_m": 0.0,
        "corridor_offset_m": 0.0,
        "id": "line-2-1498-0986-s000000",
        "junction_group": null,
        "line": "line-2",
        "platform_length_m": 85.0
      },
      "type": "Feature"
    },
    {
      "geometry": {
        "coordinates": [
          5.6372064644563595,
          6.229756876507216
        ],
        "type": "Point"
      },
      "properties": {
        "anchor_kind": "planning:residential",
        "anchor_name": "Residential planning stop; site release open",
        "archetype": "halt",
        "chainage_m": 2398.0,
        "corridor_offset_m": 0.23,
        "id": "line-2-1385-0987-s002398",
        "junction_group": null,
        "line": "line-2",
        "platform_length_m": 81.0
      },
      "type": "Feature"
    },
    {
      "geometry": {
        "coordinates": [
          5.636664166336493,
          6.243974203649714
        ],
        "type": "Point"
      },
      "properties": {
        "anchor_kind": "planning:residential",
        "anchor_name": "Residential planning stop; site release open",
        "archetype": "halt",
        "chainage_m": 4002.8,
        "corridor_offset_m": 0.574,
        "id": "line-2-1306-0984-s004003",
        "junction_group": null,
        "line": "line-2",
        "platform_length_m": 81.0
      },
      "type": "Feature"
    },
    {
      "geometry": {
        "coordinates": [
          5.634675739896979,
          6.257471666126768
        ],
        "type": "Point"
      },
      "properties": {
        "anchor_kind": "planning:residential",
        "anchor_name": "Residential planning stop; site release open",
        "archetype": "halt",
        "chainage_m": 5594.0,
        "corridor_offset_m": 0.599,
        "id": "line-2-1231-0973-s005594",
        "junction_group": null,
        "line": "line-2",
        "platform_length_m": 81.0
      },
      "type": "Feature"
    },
    {
      "geometry": {
        "coordinates": [
          5.630518120977995,
          6.274208519598315
        ],
        "type": "Point"
      },
      "properties": {
        "anchor_kind": null,
        "anchor_name": null,
        "archetype": "interchange",
        "chainage_m": 7667.9,
        "corridor_offset_m": 0.57,
        "id": "line-2-1138-0950-s007668",
        "junction_group": 21,
        "line": "line-2",
        "platform_length_m": 85.0
      },
      "type": "Feature"
    },
    {
      "geometry": {
        "coordinates": [
          5.627987396418614,
          6.285366421912681
        ],
        "type": "Point"
      },
      "properties": {
        "anchor_kind": null,
        "anchor_name": null,
        "archetype": "interchange",
        "chainage_m": 9035.6,
        "corridor_offset_m": 0.532,
        "id": "line-2-1076-0936-s009036",
        "junction_group": 9,
        "line": "line-2",
        "platform_length_m": 85.0
      },
      "type": "Feature"
    },
    {
      "geometry": {
        "coordinates": [
          5.625275905819277,
          6.296524324227045
        ],
        "type": "Point"
      },
      "properties": {
        "anchor_kind": "planning:residential",
        "anchor_name": "Residential planning stop; site release open",
        "archetype": "standard",
        "chainage_m": 10399.9,
        "corridor_offset_m": 0.448,
        "id": "line-2-1014-0921-s010400",
        "junction_group": null,
        "line": "line-2",
        "platform_length_m": 85.0
      },
      "type": "Feature"
    },
    {
      "geometry": {
        "coordinates": [
          5.621479818980204,
          6.311821448367707
        ],
        "type": "Point"
      },
      "properties": {
        "anchor_kind": null,
        "anchor_name": null,
        "archetype": "interchange",
        "chainage_m": 12285.6,
        "corridor_offset_m": 0.35,
        "id": "line-2-0929-0900-s012286",
        "junction_group": 22,
        "line": "line-2",
        "platform_length_m": 85.0
      },
      "type": "Feature"
    },
    {
      "geometry": {
        "coordinates": [
          5.619672158580647,
          6.319380027354857
        ],
        "type": "Point"
      },
      "properties": {
        "anchor_kind": null,
        "anchor_name": null,
        "archetype": "interchange",
        "chainage_m": 13208.4,
        "corridor_offset_m": 0.363,
        "id": "line-2-0887-0890-s013208",
        "junction_group": 23,
        "line": "line-2",
        "platform_length_m": 85.0
      },
      "type": "Feature"
    },
    {
      "geometry": {
        "coordinates": [
          5.61479147550184,
          6.33989617031998
        ],
        "type": "Point"
      },
      "properties": {
        "anchor_kind": null,
        "anchor_name": null,
        "archetype": "interchange",
        "chainage_m": 15723.8,
        "corridor_offset_m": 0.27,
        "id": "line-2-0773-0863-s015724",
        "junction_group": 24,
        "line": "line-2",
        "platform_length_m": 85.0
      },
      "type": "Feature"
    },
    {
      "geometry": {
        "coordinates": [
          5.6137068792621045,
          6.344395324478998
        ],
        "type": "Point"
      },
      "properties": {
        "anchor_kind": null,
        "anchor_name": null,
        "archetype": "interchange",
        "chainage_m": 16273.5,
        "corridor_offset_m": 0.257,
        "id": "line-2-0748-0857-s016274",
        "junction_group": 24,
        "line": "line-2",
        "platform_length_m": 85.0
      },
      "type": "Feature"
    },
    {
      "geometry": {
        "coordinates": [
          5.611537686782635,
          6.353753565129756
        ],
        "type": "Point"
      },
      "properties": {
        "anchor_kind": null,
        "anchor_name": null,
        "archetype": "interchange",
        "chainage_m": 17412.9,
        "corridor_offset_m": 0.241,
        "id": "line-2-0696-0845-s017413",
        "junction_group": 25,
        "line": "line-2",
        "platform_length_m": 85.0
      },
      "type": "Feature"
    },
    {
      "geometry": {
        "coordinates": [
          5.609730026383077,
          6.360952211784184
        ],
        "type": "Point"
      },
      "properties": {
        "anchor_kind": null,
        "anchor_name": null,
        "archetype": "interchange",
        "chainage_m": 18307.5,
        "corridor_offset_m": 0.154,
        "id": "line-2-0656-0835-s018307",
        "junction_group": 1,
        "line": "line-2",
        "platform_length_m": 85.0
      },
      "type": "Feature"
    },
    {
      "geometry": {
        "coordinates": [
          5.60701853578374,
          6.372470046431271
        ],
        "type": "Point"
      },
      "properties": {
        "anchor_kind": null,
        "anchor_name": null,
        "archetype": "interchange",
        "chainage_m": 19725.9,
        "corridor_offset_m": 14.027,
        "id": "line-2-0592-0820-s019726",
        "junction_group": 15,
        "line": "line-2",
        "platform_length_m": 85.0
      },
      "type": "Feature"
    },
    {
      "geometry": {
        "coordinates": [
          5.604668577264315,
          6.382368185581111
        ],
        "type": "Point"
      },
      "properties": {
        "anchor_kind": null,
        "anchor_name": null,
        "archetype": "interchange",
        "chainage_m": 20931.2,
        "corridor_offset_m": 0.046,
        "id": "line-2-0537-0807-s020931",
        "junction_group": 16,
        "line": "line-2",
        "platform_length_m": 85.0
      },
      "type": "Feature"
    },
    {
      "geometry": {
        "coordinates": [
          5.602318618744889,
          6.391726426231868
        ],
        "type": "Point"
      },
      "properties": {
        "anchor_kind": "amenity:hospital",
        "anchor_name": "Itidiare Care",
        "archetype": "terminal",
        "chainage_m": 22090.6,
        "corridor_offset_m": 0.0,
        "id": "line-2-0485-0794-s022091",
        "junction_group": null,
        "line": "line-2",
        "platform_length_m": 85.0
      },
      "type": "Feature"
    },
    {
      "geometry": {
        "coordinates": [
          5.584784312869176,
          6.362931839614152
        ],
        "type": "Point"
      },
      "properties": {
        "anchor_kind": "amenity:marketplace",
        "anchor_name": "Olomuza Market",
        "archetype": "terminal",
        "chainage_m": 0.0,
        "corridor_offset_m": 0.0,
        "id": "line-3-0645-0697-s000000",
        "junction_group": 33,
        "line": "line-3",
        "platform_length_m": 85.0
      },
      "type": "Feature"
    },
    {
      "geometry": {
        "coordinates": [
          5.586049675148867,
          6.363291771946874
        ],
        "type": "Point"
      },
      "properties": {
        "anchor_kind": "amenity:marketplace",
        "anchor_name": "Olomuza Market",
        "archetype": "interchange",
        "chainage_m": 432.1,
        "corridor_offset_m": 14.305,
        "id": "line-3-0643-0704-s000432",
        "junction_group": 33,
        "line": "line-3",
        "platform_length_m": 85.0
      },
      "type": "Feature"
    },
    {
      "geometry": {
        "coordinates": [
          5.602499384784845,
          6.34997427563618
        ],
        "type": "Point"
      },
      "properties": {
        "anchor_kind": null,
        "anchor_name": null,
        "archetype": "interchange",
        "chainage_m": 3090.2,
        "corridor_offset_m": 0.15,
        "id": "line-3-0717-0795-s003090",
        "junction_group": 2,
        "line": "line-3",
        "platform_length_m": 85.0
      },
      "type": "Feature"
    },
    {
      "geometry": {
        "coordinates": [
          5.611718452822591,
          6.34241569664903
        ],
        "type": "Point"
      },
      "properties": {
        "anchor_kind": null,
        "anchor_name": null,
        "archetype": "interchange",
        "chainage_m": 4587.0,
        "corridor_offset_m": 0.185,
        "id": "line-3-0759-0846-s004587",
        "junction_group": 24,
        "line": "line-3",
        "platform_length_m": 85.0
      },
      "type": "Feature"
    },
    {
      "geometry": {
        "coordinates": [
          5.61479147550184,
          6.33989617031998
        ],
        "type": "Point"
      },
      "properties": {
        "anchor_kind": null,
        "anchor_name": null,
        "archetype": "interchange",
        "chainage_m": 5066.4,
        "corridor_offset_m": 0.202,
        "id": "line-3-0773-0863-s005066",
        "junction_group": 24,
        "line": "line-3",
        "platform_length_m": 85.0
      },
      "type": "Feature"
    },
    {
      "geometry": {
        "coordinates": [
          5.625456671859232,
          6.331437760501026
        ],
        "type": "Point"
      },
      "properties": {
        "anchor_kind": "amenity:college",
        "anchor_name": "Harvesters Int'l Theological Seminary",
        "archetype": "interchange",
        "chainage_m": 6752.9,
        "corridor_offset_m": 0.214,
        "id": "line-3-0820-0922-s006753",
        "junction_group": 34,
        "line": "line-3",
        "platform_length_m": 85.0
      },
      "type": "Feature"
    },
    {
      "geometry": {
        "coordinates": [
          5.636664166336493,
          6.322259486016629
        ],
        "type": "Point"
      },
      "properties": {
        "anchor_kind": null,
        "anchor_name": null,
        "archetype": "interchange",
        "chainage_m": 8532.6,
        "corridor_offset_m": 0.191,
        "id": "line-3-0871-0984-s008533",
        "junction_group": 35,
        "line": "line-3",
        "platform_length_m": 85.0
      },
      "type": "Feature"
    },
    {
      "geometry": {
        "coordinates": [
          5.644979404174459,
          6.315600737861282
        ],
        "type": "Point"
      },
      "properties": {
        "anchor_kind": null,
        "anchor_name": null,
        "archetype": "interchange",
        "chainage_m": 9841.1,
        "corridor_offset_m": 0.219,
        "id": "line-3-0908-1030-s009841",
        "junction_group": 30,
        "line": "line-3",
        "platform_length_m": 85.0
      },
      "type": "Feature"
    },
    {
      "geometry": {
        "coordinates": [
          5.651125449532957,
          6.3107416513695425
        ],
        "type": "Point"
      },
      "properties": {
        "anchor_kind": null,
        "anchor_name": null,
        "archetype": "interchange",
        "chainage_m": 10803.4,
        "corridor_offset_m": 0.168,
        "id": "line-3-0935-1064-s010803",
        "junction_group": 10,
        "line": "line-3",
        "platform_length_m": 85.0
      },
      "type": "Feature"
    },
    {
      "geometry": {
        "coordinates": [
          5.668659755408671,
          6.296524324227045
        ],
        "type": "Point"
      },
      "properties": {
        "anchor_kind": "planning:residential",
        "anchor_name": "Residential planning stop; site release open",
        "archetype": "halt",
        "chainage_m": 13608.7,
        "corridor_offset_m": 0.231,
        "id": "line-3-1014-1161-s013609",
        "junction_group": null,
        "line": "line-3",
        "platform_length_m": 81.0
      },
      "type": "Feature"
    },
    {
      "geometry": {
        "coordinates": [
          5.681674910285488,
          6.285906320411763
        ],
        "type": "Point"
      },
      "properties": {
        "anchor_kind": null,
        "anchor_name": null,
        "archetype": "interchange",
        "chainage_m": 15701.5,
        "corridor_offset_m": 0.248,
        "id": "line-3-1073-1233-s015702",
        "junction_group": 26,
        "line": "line-3",
        "platform_length_m": 85.0
      },
      "type": "Feature"
    },
    {
      "geometry": {
        "coordinates": [
          5.6984861520013785,
          6.274928384263759
        ],
        "type": "Point"
      },
      "properties": {
        "anchor_kind": "planning:residential",
        "anchor_name": "Residential planning stop; site release open",
        "archetype": "halt",
        "chainage_m": 18394.9,
        "corridor_offset_m": 0.003,
        "id": "line-3-1134-1326-s018395",
        "junction_group": null,
        "line": "line-3",
        "platform_length_m": 81.0
      },
      "type": "Feature"
    },
    {
      "geometry": {
        "coordinates": [
          5.708970582318815,
          6.270429230104741
        ],
        "type": "Point"
      },
      "properties": {
        "anchor_kind": "planning:residential",
        "anchor_name": "Residential planning stop; site release open",
        "archetype": "halt",
        "chainage_m": 20008.0,
        "corridor_offset_m": 0.328,
        "id": "line-3-1159-1384-s020008",
        "junction_group": null,
        "line": "line-3",
        "platform_length_m": 81.0
      },
      "type": "Feature"
    },
    {
      "geometry": {
        "coordinates": [
          5.719455012636252,
          6.266290008278443
        ],
        "type": "Point"
      },
      "properties": {
        "anchor_kind": "planning:residential",
        "anchor_name": "Residential planning stop; site release open",
        "archetype": "halt",
        "chainage_m": 21586.0,
        "corridor_offset_m": 0.709,
        "id": "line-3-1182-1442-s021586",
        "junction_group": null,
        "line": "line-3",
        "platform_length_m": 81.0
      },
      "type": "Feature"
    },
    {
      "geometry": {
        "coordinates": [
          5.724154929675103,
          6.255132105964079
        ],
        "type": "Point"
      },
      "properties": {
        "anchor_kind": "amenity:hospital",
        "anchor_name": "UKHIRI HEALTH CENTRE",
        "archetype": "depot-terminal",
        "chainage_m": 23268.9,
        "corridor_offset_m": 0.0,
        "id": "line-3-1244-1468-s023269",
        "junction_group": null,
        "line": "line-3",
        "platform_length_m": 85.0
      },
      "type": "Feature"
    },
    {
      "geometry": {
        "coordinates": [
          5.72126267303581,
          6.392626257063672
        ],
        "type": "Point"
      },
      "properties": {
        "anchor_kind": "tourism:attraction",
        "anchor_name": "Wedding RCC Rd Benin",
        "archetype": "terminal",
        "chainage_m": 0.0,
        "corridor_offset_m": 0.0,
        "id": "line-4-0480-1452-s000000",
        "junction_group": null,
        "line": "line-4",
        "platform_length_m": 85.0
      },
      "type": "Feature"
    },
    {
      "geometry": {
        "coordinates": [
          5.71005517855855,
          6.382548151747471
        ],
        "type": "Point"
      },
      "properties": {
        "anchor_kind": "planning:residential",
        "anchor_name": "Residential planning stop; site release open",
        "archetype": "halt",
        "chainage_m": 2400.0,
        "corridor_offset_m": 0.192,
        "id": "line-4-0536-1390-s002400",
        "junction_group": null,
        "line": "line-4",
        "platform_length_m": 81.0
      },
      "type": "Feature"
    },
    {
      "geometry": {
        "coordinates": [
          5.699751514281069,
          6.378048997588453
        ],
        "type": "Point"
      },
      "properties": {
        "anchor_kind": "planning:residential",
        "anchor_name": "Residential planning stop; site release open",
        "archetype": "halt",
        "chainage_m": 3993.1,
        "corridor_offset_m": 0.092,
        "id": "line-4-0561-1333-s003993",
        "junction_group": null,
        "line": "line-4",
        "platform_length_m": 81.0
      },
      "type": "Feature"
    },
    {
      "geometry": {
        "coordinates": [
          5.697582321801599,
          6.367790926105892
        ],
        "type": "Point"
      },
      "properties": {
        "anchor_kind": "planning:residential",
        "anchor_name": "Residential planning stop; site release open",
        "archetype": "halt",
        "chainage_m": 5602.3,
        "corridor_offset_m": 0.43,
        "id": "line-4-0618-1321-s005602",
        "junction_group": null,
        "line": "line-4",
        "platform_length_m": 81.0
      },
      "type": "Feature"
    },
    {
      "geometry": {
        "coordinates": [
          5.688363253763853,
          6.358612651621495
        ],
        "type": "Point"
      },
      "properties": {
        "anchor_kind": "planning:residential",
        "anchor_name": "Residential planning stop; site release open",
        "archetype": "halt",
        "chainage_m": 7197.1,
        "corridor_offset_m": 0.65,
        "id": "line-4-0669-1270-s007197",
        "junction_group": null,
        "line": "line-4",
        "platform_length_m": 81.0
      },
      "type": "Feature"
    },
    {
      "geometry": {
        "coordinates": [
          5.67643269512677,
          6.350334207968902
        ],
        "type": "Point"
      },
      "properties": {
        "anchor_kind": null,
        "anchor_name": null,
        "archetype": "interchange",
        "chainage_m": 9003.6,
        "corridor_offset_m": 0.577,
        "id": "line-4-0715-1204-s009004",
        "junction_group": 19,
        "line": "line-4",
        "platform_length_m": 85.0
      },
      "type": "Feature"
    },
    {
      "geometry": {
        "coordinates": [
          5.66739439312898,
          6.343855425979916
        ],
        "type": "Point"
      },
      "properties": {
        "anchor_kind": "planning:residential",
        "anchor_name": "Residential planning stop; site release open",
        "archetype": "standard",
        "chainage_m": 10395.5,
        "corridor_offset_m": 0.591,
        "id": "line-4-0751-1154-s010396",
        "junction_group": null,
        "line": "line-4",
        "platform_length_m": 85.0
      },
      "type": "Feature"
    },
    {
      "geometry": {
        "coordinates": [
          5.655463834491896,
          6.335576982327322
        ],
        "type": "Point"
      },
      "properties": {
        "anchor_kind": null,
        "anchor_name": null,
        "archetype": "interchange",
        "chainage_m": 12202.1,
        "corridor_offset_m": 0.419,
        "id": "line-4-0797-1088-s012202",
        "junction_group": 29,
        "line": "line-4",
        "platform_length_m": 85.0
      },
      "type": "Feature"
    },
    {
      "geometry": {
        "coordinates": [
          5.64967932121331,
          6.331617726667386
        ],
        "type": "Point"
      },
      "properties": {
        "anchor_kind": null,
        "anchor_name": null,
        "archetype": "interchange",
        "chainage_m": 13071.2,
        "corridor_offset_m": 0.386,
        "id": "line-4-0819-1056-s013071",
        "junction_group": 13,
        "line": "line-4",
        "platform_length_m": 85.0
      },
      "type": "Feature"
    },
    {
      "geometry": {
        "coordinates": [
          5.636664166336493,
          6.322259486016629
        ],
        "type": "Point"
      },
      "properties": {
        "anchor_kind": null,
        "anchor_name": null,
        "archetype": "interchange",
        "chainage_m": 15070.8,
        "corridor_offset_m": 0.377,
        "id": "line-4-0871-0984-s015071",
        "junction_group": 35,
        "line": "line-4",
        "platform_length_m": 85.0
      },
      "type": "Feature"
    },
    {
      "geometry": {
        "coordinates": [
          5.628710460578437,
          6.316680534859446
        ],
        "type": "Point"
      },
      "properties": {
        "anchor_kind": null,
        "anchor_name": null,
        "archetype": "interchange",
        "chainage_m": 16277.9,
        "corridor_offset_m": 0.33,
        "id": "line-4-0902-0940-s016278",
        "junction_group": 31,
        "line": "line-4",
        "platform_length_m": 85.0
      },
      "type": "Feature"
    },
    {
      "geometry": {
        "coordinates": [
          5.621479818980204,
          6.311821448367707
        ],
        "type": "Point"
      },
      "properties": {
        "anchor_kind": null,
        "anchor_name": null,
        "archetype": "interchange",
        "chainage_m": 17360.2,
        "corridor_offset_m": 0.213,
        "id": "line-4-0929-0900-s017360",
        "junction_group": 22,
        "line": "line-4",
        "platform_length_m": 85.0
      },
      "type": "Feature"
    },
    {
      "geometry": {
        "coordinates": [
          5.604126279144447,
          6.299583749055177
        ],
        "type": "Point"
      },
      "properties": {
        "anchor_kind": "planning:residential",
        "anchor_name": "Residential planning stop; site release open",
        "archetype": "standard",
        "chainage_m": 20007.5,
        "corridor_offset_m": 0.153,
        "id": "line-4-0997-0804-s020008",
        "junction_group": null,
        "line": "line-4",
        "platform_length_m": 85.0
      },
      "type": "Feature"
    },
    {
      "geometry": {
        "coordinates": [
          5.595991807346436,
          6.2938248317316345
        ],
        "type": "Point"
      },
      "properties": {
        "anchor_kind": null,
        "anchor_name": null,
        "archetype": "interchange",
        "chainage_m": 21242.9,
        "corridor_offset_m": 0.094,
        "id": "line-4-1029-0759-s021243",
        "junction_group": 36,
        "line": "line-4",
        "platform_length_m": 85.0
      },
      "type": "Feature"
    },
    {
      "geometry": {
        "coordinates": [
          5.587134271388601,
          6.287705982075369
        ],
        "type": "Point"
      },
      "properties": {
        "anchor_kind": "tourism:attraction",
        "anchor_name": "AREA GULY NPDC BENIN",
        "archetype": "terminal",
        "chainage_m": 22586.6,
        "corridor_offset_m": 0.0,
        "id": "line-4-1063-0710-s022587",
        "junction_group": 11,
        "line": "line-4",
        "platform_length_m": 85.0
      },
      "type": "Feature"
    },
    {
      "geometry": {
        "coordinates": [
          5.584784312869176,
          6.362931839614152
        ],
        "type": "Point"
      },
      "properties": {
        "anchor_kind": null,
        "anchor_name": null,
        "archetype": "interchange",
        "chainage_m": 289.7,
        "corridor_offset_m": 0.105,
        "id": "line-5-0645-0697-s000290",
        "junction_group": 33,
        "line": "line-5",
        "platform_length_m": 85.0
      },
      "type": "Feature"
    },
    {
      "geometry": {
        "coordinates": [
          5.586049675148867,
          6.363291771946874
        ],
        "type": "Point"
      },
      "properties": {
        "anchor_kind": "amenity:marketplace",
        "anchor_name": "Olomuza Market",
        "archetype": "interchange",
        "chainage_m": 440.4,
        "corridor_offset_m": 14.14,
        "id": "line-5-0643-0704-s000440",
        "junction_group": 33,
        "line": "line-5",
        "platform_length_m": 85.0
      },
      "type": "Feature"
    },
    {
      "geometry": {
        "coordinates": [
          5.596714871506259,
          6.3681508584386135
        ],
        "type": "Point"
      },
      "properties": {
        "anchor_kind": null,
        "anchor_name": null,
        "archetype": "interchange",
        "chainage_m": 1896.8,
        "corridor_offset_m": 0.772,
        "id": "line-5-0616-0763-s001897",
        "junction_group": 37,
        "line": "line-5",
        "platform_length_m": 85.0
      },
      "type": "Feature"
    },
    {
      "geometry": {
        "coordinates": [
          5.60701853578374,
          6.372470046431271
        ],
        "type": "Point"
      },
      "properties": {
        "anchor_kind": null,
        "anchor_name": null,
        "archetype": "interchange",
        "chainage_m": 3253.2,
        "corridor_offset_m": 14.206,
        "id": "line-5-0592-0820-s003253",
        "junction_group": 15,
        "line": "line-5",
        "platform_length_m": 85.0
      },
      "type": "Feature"
    },
    {
      "geometry": {
        "coordinates": [
          5.608103132023475,
          6.373189911096714
        ],
        "type": "Point"
      },
      "properties": {
        "anchor_kind": null,
        "anchor_name": null,
        "archetype": "interchange",
        "chainage_m": 3423.9,
        "corridor_offset_m": 1.403,
        "id": "line-5-0588-0826-s003424",
        "junction_group": 15,
        "line": "line-5",
        "platform_length_m": 85.0
      },
      "type": "Feature"
    },
    {
      "geometry": {
        "coordinates": [
          5.622022117100072,
          6.3791287945866175
        ],
        "type": "Point"
      },
      "properties": {
        "anchor_kind": null,
        "anchor_name": null,
        "archetype": "interchange",
        "chainage_m": 5284.2,
        "corridor_offset_m": 2.259,
        "id": "line-5-0555-0903-s005284",
        "junction_group": 0,
        "line": "line-5",
        "platform_length_m": 85.0
      },
      "type": "Feature"
    },
    {
      "geometry": {
        "coordinates": [
          5.625456671859232,
          6.380748490083864
        ],
        "type": "Point"
      },
      "properties": {
        "anchor_kind": null,
        "anchor_name": null,
        "archetype": "interchange",
        "chainage_m": 5750.4,
        "corridor_offset_m": 2.368,
        "id": "line-5-0546-0922-s005750",
        "junction_group": 0,
        "line": "line-5",
        "platform_length_m": 85.0
      },
      "type": "Feature"
    },
    {
      "geometry": {
        "coordinates": [
          5.6294335247382605,
          6.381648320915668
        ],
        "type": "Point"
      },
      "properties": {
        "anchor_kind": "amenity:college",
        "anchor_name": "government science and tecnology",
        "archetype": "interchange",
        "chainage_m": 6231.9,
        "corridor_offset_m": 2.748,
        "id": "line-5-0541-0944-s006232",
        "junction_group": 17,
        "line": "line-5",
        "platform_length_m": 85.0
      },
      "type": "Feature"
    },
    {
      "geometry": {
        "coordinates": [
          5.6337719096972,
          6.380028625418421
        ],
        "type": "Point"
      },
      "properties": {
        "anchor_kind": null,
        "anchor_name": null,
        "archetype": "interchange",
        "chainage_m": 6798.1,
        "corridor_offset_m": 2.944,
        "id": "line-5-0550-0968-s006798",
        "junction_group": 17,
        "line": "line-5",
        "platform_length_m": 85.0
      },
      "type": "Feature"
    },
    {
      "geometry": {
        "coordinates": [
          5.636664166336493,
          6.375529471259403
        ],
        "type": "Point"
      },
      "properties": {
        "anchor_kind": null,
        "anchor_name": null,
        "archetype": "interchange",
        "chainage_m": 7477.5,
        "corridor_offset_m": 2.804,
        "id": "line-5-0575-0984-s007478",
        "junction_group": 32,
        "line": "line-5",
        "platform_length_m": 85.0
      },
      "type": "Feature"
    },
    {
      "geometry": {
        "coordinates": [
          5.6386525927760065,
          6.360592279451463
        ],
        "type": "Point"
      },
      "properties": {
        "anchor_kind": null,
        "anchor_name": null,
        "archetype": "interchange",
        "chainage_m": 9278.4,
        "corridor_offset_m": 1.82,
        "id": "line-5-0658-0995-s009278",
        "junction_group": 28,
        "line": "line-5",
        "platform_length_m": 85.0
      },
      "type": "Feature"
    },
    {
      "geometry": {
        "coordinates": [
          5.631783483257686,
          6.345295155310802
        ],
        "type": "Point"
      },
      "properties": {
        "anchor_kind": "amenity:marketplace",
        "anchor_name": "Vegetable Market",
        "archetype": "interchange",
        "chainage_m": 11328.3,
        "corridor_offset_m": 1.046,
        "id": "line-5-0743-0957-s011328",
        "junction_group": 12,
        "line": "line-5",
        "platform_length_m": 85.0
      },
      "type": "Feature"
    },
    {
      "geometry": {
        "coordinates": [
          5.625456671859232,
          6.331437760501026
        ],
        "type": "Point"
      },
      "properties": {
        "anchor_kind": "amenity:college",
        "anchor_name": "Harvesters Int'l Theological Seminary",
        "archetype": "interchange",
        "chainage_m": 13216.9,
        "corridor_offset_m": 0.473,
        "id": "line-5-0820-0922-s013217",
        "junction_group": 34,
        "line": "line-5",
        "platform_length_m": 85.0
      },
      "type": "Feature"
    },
    {
      "geometry": {
        "coordinates": [
          5.619672158580647,
          6.319380027354857
        ],
        "type": "Point"
      },
      "properties": {
        "anchor_kind": null,
        "anchor_name": null,
        "archetype": "interchange",
        "chainage_m": 14857.1,
        "corridor_offset_m": 0.106,
        "id": "line-5-0887-0890-s014857",
        "junction_group": 23,
        "line": "line-5",
        "platform_length_m": 85.0
      },
      "type": "Feature"
    },
    {
      "geometry": {
        "coordinates": [
          5.60484934330427,
          6.317400399524889
        ],
        "type": "Point"
      },
      "properties": {
        "anchor_kind": "planning:residential",
        "anchor_name": "Residential planning stop; site release open",
        "archetype": "standard",
        "chainage_m": 16807.6,
        "corridor_offset_m": 0.81,
        "id": "line-5-0898-0808-s016808",
        "junction_group": null,
        "line": "line-5",
        "platform_length_m": 85.0
      },
      "type": "Feature"
    },
    {
      "geometry": {
        "coordinates": [
          5.60141478854511,
          6.328918234171976
        ],
        "type": "Point"
      },
      "properties": {
        "anchor_kind": null,
        "anchor_name": null,
        "archetype": "interchange",
        "chainage_m": 18291.9,
        "corridor_offset_m": 0.137,
        "id": "line-5-0834-0789-s018292",
        "junction_group": 38,
        "line": "line-5",
        "platform_length_m": 85.0
      },
      "type": "Feature"
    },
    {
      "geometry": {
        "coordinates": [
          5.595268743186613,
          6.338996339488176
        ],
        "type": "Point"
      },
      "properties": {
        "anchor_kind": null,
        "anchor_name": null,
        "archetype": "interchange",
        "chainage_m": 19824.9,
        "corridor_offset_m": 13.991,
        "id": "line-5-0778-0755-s019825",
        "junction_group": 3,
        "line": "line-5",
        "platform_length_m": 85.0
      },
      "type": "Feature"
    },
    {
      "geometry": {
        "coordinates": [
          5.58460354682922,
          6.348534546305294
        ],
        "type": "Point"
      },
      "properties": {
        "anchor_kind": "planning:residential",
        "anchor_name": "Residential planning stop; site release open",
        "archetype": "interchange",
        "chainage_m": 21593.8,
        "corridor_offset_m": 0.034,
        "id": "line-5-0725-0696-s021594",
        "junction_group": 39,
        "line": "line-5",
        "platform_length_m": 85.0
      },
      "type": "Feature"
    },
    {
      "geometry": {
        "coordinates": [
          5.577192139191032,
          6.356093125292445
        ],
        "type": "Point"
      },
      "properties": {
        "anchor_kind": null,
        "anchor_name": null,
        "archetype": "interchange",
        "chainage_m": 22925.8,
        "corridor_offset_m": 0.033,
        "id": "line-5-0683-0655-s022926",
        "junction_group": 6,
        "line": "line-5",
        "platform_length_m": 85.0
      },
      "type": "Feature"
    },
    {
      "geometry": {
        "coordinates": [
          5.5780959693908105,
          6.358072753122413
        ],
        "type": "Point"
      },
      "properties": {
        "anchor_kind": "planning:residential",
        "anchor_name": "Residential planning stop; site release open",
        "archetype": "interchange",
        "chainage_m": 23198.9,
        "corridor_offset_m": 0.097,
        "id": "line-5-0672-0660-s023199",
        "junction_group": 6,
        "line": "line-5",
        "platform_length_m": 85.0
      },
      "type": "Feature"
    },
    {
      "geometry": {
        "coordinates": [
          5.596714871506259,
          6.3681508584386135
        ],
        "type": "Point"
      },
      "properties": {
        "anchor_kind": null,
        "anchor_name": null,
        "archetype": "terminal",
        "chainage_m": 0.0,
        "corridor_offset_m": 0.0,
        "id": "line-6-0616-0763-s000000",
        "junction_group": 37,
        "line": "line-6",
        "platform_length_m": 85.0
      },
      "type": "Feature"
    },
    {
      "geometry": {
        "coordinates": [
          5.578457501470723,
          6.377869031422093
        ],
        "type": "Point"
      },
      "properties": {
        "anchor_kind": null,
        "anchor_name": null,
        "archetype": "terminal",
        "chainage_m": 2795.4,
        "corridor_offset_m": 0.0,
        "id": "line-6-0562-0662-s002795",
        "junction_group": null,
        "line": "line-6",
        "platform_length_m": 85.0
      },
      "type": "Feature"
    },
    {
      "geometry": {
        "coordinates": [
          5.584784312869176,
          6.348174613972573
        ],
        "type": "Point"
      },
      "properties": {
        "anchor_kind": null,
        "anchor_name": null,
        "archetype": "terminal",
        "chainage_m": 0.0,
        "corridor_offset_m": 0.0,
        "id": "line-7-0727-0697-s000000",
        "junction_group": 39,
        "line": "line-7",
        "platform_length_m": 85.0
      },
      "type": "Feature"
    },
    {
      "geometry": {
        "coordinates": [
          5.574119116511783,
          6.33755661015729
        ],
        "type": "Point"
      },
      "properties": {
        "anchor_kind": "planning:residential-priority",
        "anchor_name": "Residential planning stop; site release open",
        "archetype": "standard",
        "chainage_m": 1668.8,
        "corridor_offset_m": 0.23,
        "id": "line-7-0786-0638-s001669",
        "junction_group": null,
        "line": "line-7",
        "platform_length_m": 85.0
      },
      "type": "Feature"
    },
    {
      "geometry": {
        "coordinates": [
          5.565080814513993,
          6.3236992153475144
        ],
        "type": "Point"
      },
      "properties": {
        "anchor_kind": null,
        "anchor_name": null,
        "archetype": "terminal",
        "chainage_m": 3623.0,
        "corridor_offset_m": 0.0,
        "id": "line-7-0863-0588-s003623",
        "junction_group": 20,
        "line": "line-7",
        "platform_length_m": 85.0
      },
      "type": "Feature"
    },
    {
      "geometry": {
        "coordinates": [
          5.595991807346436,
          6.2938248317316345
        ],
        "type": "Point"
      },
      "properties": {
        "anchor_kind": null,
        "anchor_name": null,
        "archetype": "terminal",
        "chainage_m": 0.0,
        "corridor_offset_m": 0.0,
        "id": "line-8-1029-0759-s000000",
        "junction_group": 36,
        "line": "line-8",
        "platform_length_m": 85.0
      },
      "type": "Feature"
    },
    {
      "geometry": {
        "coordinates": [
          5.596714871506259,
          6.274208519598315
        ],
        "type": "Point"
      },
      "properties": {
        "anchor_kind": "planning:residential-priority",
        "anchor_name": "Residential planning stop; site release open",
        "archetype": "standard",
        "chainage_m": 2679.1,
        "corridor_offset_m": 0.855,
        "id": "line-8-1138-0763-s002679",
        "junction_group": null,
        "line": "line-8",
        "platform_length_m": 85.0
      },
      "type": "Feature"
    },
    {
      "geometry": {
        "coordinates": [
          5.582976652469617,
          6.270069297772019
        ],
        "type": "Point"
      },
      "properties": {
        "anchor_kind": null,
        "anchor_name": null,
        "archetype": "terminal",
        "chainage_m": 4389.6,
        "corridor_offset_m": 0.0,
        "id": "line-8-1161-0687-s004390",
        "junction_group": null,
        "line": "line-8",
        "platform_length_m": 85.0
      },
      "type": "Feature"
    },
    {
      "geometry": {
        "coordinates": [
          5.60141478854511,
          6.328918234171976
        ],
        "type": "Point"
      },
      "properties": {
        "anchor_kind": "amenity:marketplace",
        "anchor_name": null,
        "archetype": "terminal",
        "chainage_m": 0.0,
        "corridor_offset_m": 0.0,
        "id": "line-9-0834-0789-s000000",
        "junction_group": 38,
        "line": "line-9",
        "platform_length_m": 85.0
      },
      "type": "Feature"
    },
    {
      "geometry": {
        "coordinates": [
          5.611718452822591,
          6.34241569664903
        ],
        "type": "Point"
      },
      "properties": {
        "anchor_kind": null,
        "anchor_name": null,
        "archetype": "interchange",
        "chainage_m": 2241.7,
        "corridor_offset_m": 0.208,
        "id": "line-9-0759-0846-s002242",
        "junction_group": 24,
        "line": "line-9",
        "platform_length_m": 85.0
      },
      "type": "Feature"
    },
    {
      "geometry": {
        "coordinates": [
          5.6137068792621045,
          6.344395324478998
        ],
        "type": "Point"
      },
      "properties": {
        "anchor_kind": null,
        "anchor_name": null,
        "archetype": "interchange",
        "chainage_m": 2552.8,
        "corridor_offset_m": 0.247,
        "id": "line-9-0748-0857-s002553",
        "junction_group": 24,
        "line": "line-9",
        "platform_length_m": 85.0
      },
      "type": "Feature"
    },
    {
      "geometry": {
        "coordinates": [
          5.618949094420823,
          6.35501332829428
        ],
        "type": "Point"
      },
      "properties": {
        "anchor_kind": "shop:mall",
        "anchor_name": null,
        "archetype": "terminal",
        "chainage_m": 3973.0,
        "corridor_offset_m": 0.0,
        "id": "line-9-0689-0886-s003973",
        "junction_group": 27,
        "line": "line-9",
        "platform_length_m": 85.0
      },
      "type": "Feature"
    },
    {
      "geometry": {
        "coordinates": [
          5.577915203350855,
          6.358072753122413
        ],
        "type": "Point"
      },
      "properties": {
        "anchor_kind": "amenity:hospital",
        "anchor_name": "OSASIMA NURSING AND MATERNITY HOME",
        "archetype": "terminal",
        "chainage_m": 0.0,
        "corridor_offset_m": 0.0,
        "id": "line-10-0672-0659-s000000",
        "junction_group": 6,
        "line": "line-10",
        "platform_length_m": 85.0
      },
      "type": "Feature"
    },
    {
      "geometry": {
        "coordinates": [
          5.573938350471828,
          6.362032008782349
        ],
        "type": "Point"
      },
      "properties": {
        "anchor_kind": null,
        "anchor_name": null,
        "archetype": "interchange",
        "chainage_m": 622.3,
        "corridor_offset_m": 0.071,
        "id": "line-10-0650-0637-s000622",
        "junction_group": 7,
        "line": "line-10",
        "platform_length_m": 85.0
      },
      "type": "Feature"
    },
    {
      "geometry": {
        "coordinates": [
          5.565080814513993,
          6.368870723104056
        ],
        "type": "Point"
      },
      "properties": {
        "anchor_kind": "planning:residential-priority",
        "anchor_name": "Residential planning stop; site release open",
        "archetype": "interchange",
        "chainage_m": 1917.1,
        "corridor_offset_m": 0.306,
        "id": "line-10-0612-0588-s001917",
        "junction_group": 8,
        "line": "line-10",
        "platform_length_m": 85.0
      },
      "type": "Feature"
    },
    {
      "geometry": {
        "coordinates": [
          5.565080814513993,
          6.382548151747471
        ],
        "type": "Point"
      },
      "properties": {
        "anchor_kind": "planning:residential-priority",
        "anchor_name": "Residential planning stop; site release open",
        "archetype": "standard",
        "chainage_m": 3437.1,
        "corridor_offset_m": 0.91,
        "id": "line-10-0536-0588-s003437",
        "junction_group": null,
        "line": "line-10",
        "platform_length_m": 85.0
      },
      "type": "Feature"
    },
    {
      "geometry": {
        "coordinates": [
          5.582976652469617,
          6.391006561566425
        ],
        "type": "Point"
      },
      "properties": {
        "anchor_kind": null,
        "anchor_name": null,
        "archetype": "terminal",
        "chainage_m": 5806.4,
        "corridor_offset_m": 0.0,
        "id": "line-10-0489-0687-s005806",
        "junction_group": null,
        "line": "line-10",
        "platform_length_m": 85.0
      },
      "type": "Feature"
    },
    {
      "geometry": {
        "coordinates": [
          5.627987396418614,
          6.285366421912681
        ],
        "type": "Point"
      },
      "properties": {
        "anchor_kind": null,
        "anchor_name": null,
        "archetype": "terminal",
        "chainage_m": 0.0,
        "corridor_offset_m": 0.0,
        "id": "line-11-1076-0936-s000000",
        "junction_group": 9,
        "line": "line-11",
        "platform_length_m": 85.0
      },
      "type": "Feature"
    },
    {
      "geometry": {
        "coordinates": [
          5.6507639174530455,
          6.296704290393406
        ],
        "type": "Point"
      },
      "properties": {
        "anchor_kind": "planning:residential-priority",
        "anchor_name": "Residential planning stop; site release open",
        "archetype": "standard",
        "chainage_m": 3041.9,
        "corridor_offset_m": 1.179,
        "id": "line-11-1013-1062-s003042",
        "junction_group": null,
        "line": "line-11",
        "platform_length_m": 85.0
      },
      "type": "Feature"
    },
    {
      "geometry": {
        "coordinates": [
          5.6507639174530455,
          6.310381719036821
        ],
        "type": "Point"
      },
      "properties": {
        "anchor_kind": "planning:residential-priority",
        "anchor_name": "Residential planning stop; site release open",
        "archetype": "interchange",
        "chainage_m": 4561.9,
        "corridor_offset_m": 0.034,
        "id": "line-11-0937-1062-s004562",
        "junction_group": 10,
        "line": "line-11",
        "platform_length_m": 85.0
      },
      "type": "Feature"
    },
    {
      "geometry": {
        "coordinates": [
          5.651125449532957,
          6.3107416513695425
        ],
        "type": "Point"
      },
      "properties": {
        "anchor_kind": null,
        "anchor_name": null,
        "archetype": "terminal",
        "chainage_m": 4618.5,
        "corridor_offset_m": 0.0,
        "id": "line-11-0935-1064-s004618",
        "junction_group": 10,
        "line": "line-11",
        "platform_length_m": 85.0
      },
      "type": "Feature"
    },
    {
      "geometry": {
        "coordinates": [
          5.571949924032314,
          6.3042628693805565
        ],
        "type": "Point"
      },
      "properties": {
        "anchor_kind": null,
        "anchor_name": null,
        "archetype": "terminal",
        "chainage_m": 0.0,
        "corridor_offset_m": 0.0,
        "id": "line-12-0971-0626-s000000",
        "junction_group": 4,
        "line": "line-12",
        "platform_length_m": 85.0
      },
      "type": "Feature"
    },
    {
      "geometry": {
        "coordinates": [
          5.592195720507364,
          6.305702598711442
        ],
        "type": "Point"
      },
      "properties": {
        "anchor_kind": null,
        "anchor_name": null,
        "archetype": "terminal",
        "chainage_m": 2720.5,
        "corridor_offset_m": 0.0,
        "id": "line-12-0963-0738-s002720",
        "junction_group": null,
        "line": "line-12",
        "platform_length_m": 85.0
      },
      "type": "Feature"
    },
    {
      "geometry": {
        "coordinates": [
          5.587134271388601,
          6.287705982075369
        ],
        "type": "Point"
      },
      "properties": {
        "anchor_kind": "tourism:attraction",
        "anchor_name": "AREA GULY NPDC BENIN",
        "archetype": "terminal",
        "chainage_m": 0.0,
        "corridor_offset_m": 0.0,
        "id": "line-13-1063-0710-s000000",
        "junction_group": 11,
        "line": "line-13",
        "platform_length_m": 85.0
      },
      "type": "Feature"
    },
    {
      "geometry": {
        "coordinates": [
          5.577915203350855,
          6.283026861749991
        ],
        "type": "Point"
      },
      "properties": {
        "anchor_kind": "planning:residential-priority",
        "anchor_name": "Residential planning stop; site release open",
        "archetype": "standard",
        "chainage_m": 1235.4,
        "corridor_offset_m": 0.488,
        "id": "line-13-1089-0659-s001235",
        "junction_group": null,
        "line": "line-13",
        "platform_length_m": 85.0
      },
      "type": "Feature"
    },
    {
      "geometry": {
        "coordinates": [
          5.582795886429662,
          6.256391869128604
        ],
        "type": "Point"
      },
      "properties": {
        "anchor_kind": "planning:residential-priority",
        "anchor_name": "Residential planning stop; site release open",
        "archetype": "halt",
        "chainage_m": 4419.1,
        "corridor_offset_m": 1.369,
        "id": "line-13-1237-0686-s004419",
        "junction_group": null,
        "line": "line-13",
        "platform_length_m": 81.0
      },
      "type": "Feature"
    },
    {
      "geometry": {
        "coordinates": [
          5.596714871506259,
          6.256391869128604
        ],
        "type": "Point"
      },
      "properties": {
        "anchor_kind": null,
        "anchor_name": null,
        "archetype": "terminal",
        "chainage_m": 5959.1,
        "corridor_offset_m": 0.0,
        "id": "line-13-1237-0763-s005959",
        "junction_group": null,
        "line": "line-13",
        "platform_length_m": 85.0
      },
      "type": "Feature"
    },
    {
      "geometry": {
        "coordinates": [
          5.631783483257686,
          6.345295155310802
        ],
        "type": "Point"
      },
      "properties": {
        "anchor_kind": "amenity:marketplace",
        "anchor_name": "Vegetable Market",
        "archetype": "terminal",
        "chainage_m": 0.0,
        "corridor_offset_m": 0.0,
        "id": "line-14-0743-0957-s000000",
        "junction_group": 12,
        "line": "line-14",
        "platform_length_m": 85.0
      },
      "type": "Feature"
    },
    {
      "geometry": {
        "coordinates": [
          5.64967932121331,
          6.331617726667386
        ],
        "type": "Point"
      },
      "properties": {
        "anchor_kind": "amenity:college",
        "anchor_name": "Edo College",
        "archetype": "terminal",
        "chainage_m": 2750.2,
        "corridor_offset_m": 0.0,
        "id": "line-14-0819-1056-s002750",
        "junction_group": 13,
        "line": "line-14",
        "platform_length_m": 85.0
      },
      "type": "Feature"
    },
    {
      "geometry": {
        "coordinates": [
          5.564900048474037,
          6.2938248317316345
        ],
        "type": "Point"
      },
      "properties": {
        "anchor_kind": "amenity:hospital",
        "anchor_name": "PRIMARY HEALTH CARE",
        "archetype": "terminal",
        "chainage_m": 0.0,
        "corridor_offset_m": 0.0,
        "id": "line-15-1029-0587-s000000",
        "junction_group": 5,
        "line": "line-15",
        "platform_length_m": 85.0
      },
      "type": "Feature"
    },
    {
      "geometry": {
        "coordinates": [
          5.557669406875805,
          6.2938248317316345
        ],
        "type": "Point"
      },
      "properties": {
        "anchor_kind": "planning:residential",
        "anchor_name": "Residential planning stop; site release open",
        "archetype": "interchange",
        "chainage_m": 800.0,
        "corridor_offset_m": 0.304,
        "id": "line-15-1029-0547-s000800",
        "junction_group": 14,
        "line": "line-15",
        "platform_length_m": 85.0
      },
      "type": "Feature"
    },
    {
      "geometry": {
        "coordinates": [
          5.537785142480666,
          6.283206827916351
        ],
        "type": "Point"
      },
      "properties": {
        "anchor_kind": "planning:residential-priority",
        "anchor_name": "Residential planning stop; site release open",
        "archetype": "halt",
        "chainage_m": 3488.8,
        "corridor_offset_m": 0.048,
        "id": "line-15-1088-0437-s003489",
        "junction_group": null,
        "line": "line-15",
        "platform_length_m": 81.0
      },
      "type": "Feature"
    },
    {
      "geometry": {
        "coordinates": [
          5.524227689483981,
          6.278707673757333
        ],
        "type": "Point"
      },
      "properties": {
        "anchor_kind": "tourism:attraction",
        "anchor_name": "ARMY CANT PDE GRD EKEHUNWA BENIN",
        "archetype": "terminal",
        "chainage_m": 5195.9,
        "corridor_offset_m": 0.0,
        "id": "line-15-1113-0362-s005196",
        "junction_group": null,
        "line": "line-15",
        "platform_length_m": 85.0
      },
      "type": "Feature"
    },
    {
      "geometry": {
        "coordinates": [
          5.608103132023475,
          6.373189911096714
        ],
        "type": "Point"
      },
      "properties": {
        "anchor_kind": null,
        "anchor_name": null,
        "archetype": "terminal",
        "chainage_m": 0.0,
        "corridor_offset_m": 0.0,
        "id": "line-16-0588-0826-s000000",
        "junction_group": 15,
        "line": "line-16",
        "platform_length_m": 85.0
      },
      "type": "Feature"
    },
    {
      "geometry": {
        "coordinates": [
          5.604668577264315,
          6.382368185581111
        ],
        "type": "Point"
      },
      "properties": {
        "anchor_kind": "planning:residential",
        "anchor_name": "Residential planning stop; site release open",
        "archetype": "interchange",
        "chainage_m": 1177.4,
        "corridor_offset_m": 0.593,
        "id": "line-16-0537-0807-s001177",
        "junction_group": 16,
        "line": "line-16",
        "platform_length_m": 85.0
      },
      "type": "Feature"
    },
    {
      "geometry": {
        "coordinates": [
          5.614610709461884,
          6.395865648058165
        ],
        "type": "Point"
      },
      "properties": {
        "anchor_kind": "planning:residential-priority",
        "anchor_name": "Residential planning stop; site release open",
        "archetype": "standard",
        "chainage_m": 3215.0,
        "corridor_offset_m": 1.067,
        "id": "line-16-0462-0862-s003215",
        "junction_group": null,
        "line": "line-16",
        "platform_length_m": 85.0
      },
      "type": "Feature"
    },
    {
      "geometry": {
        "coordinates": [
          5.6294335247382605,
          6.381648320915668
        ],
        "type": "Point"
      },
      "properties": {
        "anchor_kind": "amenity:college",
        "anchor_name": "government science and tecnology",
        "archetype": "interchange",
        "chainage_m": 5509.5,
        "corridor_offset_m": 1.079,
        "id": "line-16-0541-0944-s005510",
        "junction_group": 17,
        "line": "line-16",
        "platform_length_m": 85.0
      },
      "type": "Feature"
    },
    {
      "geometry": {
        "coordinates": [
          5.6337719096972,
          6.380028625418421
        ],
        "type": "Point"
      },
      "properties": {
        "anchor_kind": null,
        "anchor_name": null,
        "archetype": "interchange",
        "chainage_m": 6064.1,
        "corridor_offset_m": 0.81,
        "id": "line-16-0550-0968-s006064",
        "junction_group": 17,
        "line": "line-16",
        "platform_length_m": 85.0
      },
      "type": "Feature"
    },
    {
      "geometry": {
        "coordinates": [
          5.642448679615078,
          6.376789234423928
        ],
        "type": "Point"
      },
      "properties": {
        "anchor_kind": null,
        "anchor_name": null,
        "archetype": "interchange",
        "chainage_m": 7173.2,
        "corridor_offset_m": 0.373,
        "id": "line-16-0568-1016-s007173",
        "junction_group": 18,
        "line": "line-16",
        "platform_length_m": 85.0
      },
      "type": "Feature"
    },
    {
      "geometry": {
        "coordinates": [
          5.6507639174530455,
          6.370670384767664
        ],
        "type": "Point"
      },
      "properties": {
        "anchor_kind": "planning:residential",
        "anchor_name": "Residential planning stop; site release open",
        "archetype": "standard",
        "chainage_m": 8374.8,
        "corridor_offset_m": 0.291,
        "id": "line-16-0602-1062-s008375",
        "junction_group": null,
        "line": "line-16",
        "platform_length_m": 85.0
      },
      "type": "Feature"
    },
    {
      "geometry": {
        "coordinates": [
          5.664502136489687,
          6.368870723104056
        ],
        "type": "Point"
      },
      "properties": {
        "anchor_kind": "planning:residential",
        "anchor_name": "Residential planning stop; site release open",
        "archetype": "standard",
        "chainage_m": 9977.7,
        "corridor_offset_m": 0.803,
        "id": "line-16-0612-1138-s009978",
        "junction_group": null,
        "line": "line-16",
        "platform_length_m": 85.0
      },
      "type": "Feature"
    },
    {
      "geometry": {
        "coordinates": [
          5.67643269512677,
          6.350334207968902
        ],
        "type": "Point"
      },
      "properties": {
        "anchor_kind": null,
        "anchor_name": null,
        "archetype": "terminal",
        "chainage_m": 12584.4,
        "corridor_offset_m": 0.0,
        "id": "line-16-0715-1204-s012584",
        "junction_group": 19,
        "line": "line-16",
        "platform_length_m": 85.0
      },
      "type": "Feature"
    },
    {
      "geometry": {
        "coordinates": [
          5.577192139191032,
          6.356093125292445
        ],
        "type": "Point"
      },
      "properties": {
        "anchor_kind": null,
        "anchor_name": null,
        "archetype": "terminal",
        "chainage_m": 0.0,
        "corridor_offset_m": 0.0,
        "id": "line-17-0683-0655-s000000",
        "junction_group": 6,
        "line": "line-17",
        "platform_length_m": 85.0
      },
      "type": "Feature"
    },
    {
      "geometry": {
        "coordinates": [
          5.565080814513993,
          6.355373260627002
        ],
        "type": "Point"
      },
      "properties": {
        "anchor_kind": "planning:residential-priority",
        "anchor_name": "Residential planning stop; site release open",
        "archetype": "standard",
        "chainage_m": 1373.1,
        "corridor_offset_m": 1.098,
        "id": "line-17-0687-0588-s001373",
        "junction_group": null,
        "line": "line-17",
        "platform_length_m": 85.0
      },
      "type": "Feature"
    },
    {
      "geometry": {
        "coordinates": [
          5.560380897475142,
          6.33755661015729
        ],
        "type": "Point"
      },
      "properties": {
        "anchor_kind": null,
        "anchor_name": null,
        "archetype": "terminal",
        "chainage_m": 3568.5,
        "corridor_offset_m": 0.0,
        "id": "line-17-0786-0562-s003569",
        "junction_group": null,
        "line": "line-17",
        "platform_length_m": 85.0
      },
      "type": "Feature"
    },
    {
      "geometry": {
        "coordinates": [
          5.577915203350855,
          6.358072753122413
        ],
        "type": "Point"
      },
      "properties": {
        "anchor_kind": "amenity:hospital",
        "anchor_name": "OSASIMA NURSING AND MATERNITY HOME",
        "archetype": "terminal",
        "chainage_m": 0.0,
        "corridor_offset_m": 0.0,
        "id": "line-18-0672-0659-s000000",
        "junction_group": 6,
        "line": "line-18",
        "platform_length_m": 85.0
      },
      "type": "Feature"
    },
    {
      "geometry": {
        "coordinates": [
          5.573938350471828,
          6.362032008782349
        ],
        "type": "Point"
      },
      "properties": {
        "anchor_kind": null,
        "anchor_name": null,
        "archetype": "interchange",
        "chainage_m": 622.3,
        "corridor_offset_m": 0.004,
        "id": "line-18-0650-0637-s000622",
        "junction_group": 7,
        "line": "line-18",
        "platform_length_m": 85.0
      },
      "type": "Feature"
    },
    {
      "geometry": {
        "coordinates": [
          5.560923195595009,
          6.369230655436778
        ],
        "type": "Point"
      },
      "properties": {
        "anchor_kind": "planning:residential",
        "anchor_name": "Residential planning stop; site release open",
        "archetype": "interchange",
        "chainage_m": 2393.6,
        "corridor_offset_m": 0.322,
        "id": "line-18-0610-0565-s002394",
        "junction_group": 8,
        "line": "line-18",
        "platform_length_m": 85.0
      },
      "type": "Feature"
    },
    {
      "geometry": {
        "coordinates": [
          5.551704127557263,
          6.377869031422093
        ],
        "type": "Point"
      },
      "properties": {
        "anchor_kind": "planning:residential-priority",
        "anchor_name": "Residential planning stop; site release open",
        "archetype": "standard",
        "chainage_m": 3811.3,
        "corridor_offset_m": 0.315,
        "id": "line-18-0562-0514-s003811",
        "junction_group": null,
        "line": "line-18",
        "platform_length_m": 85.0
      },
      "type": "Feature"
    },
    {
      "geometry": {
        "coordinates": [
          5.55224642567713,
          6.395145783392722
        ],
        "type": "Point"
      },
      "properties": {
        "anchor_kind": "planning:residential-priority",
        "anchor_name": "Residential planning stop; site release open",
        "archetype": "halt",
        "chainage_m": 5756.1,
        "corridor_offset_m": 1.456,
        "id": "line-18-0466-0517-s005756",
        "junction_group": null,
        "line": "line-18",
        "platform_length_m": 81.0
      },
      "type": "Feature"
    },
    {
      "geometry": {
        "coordinates": [
          5.569599965512888,
          6.395685681891804
        ],
        "type": "Point"
      },
      "properties": {
        "anchor_kind": null,
        "anchor_name": null,
        "archetype": "terminal",
        "chainage_m": 7701.0,
        "corridor_offset_m": 0.0,
        "id": "line-18-0463-0613-s007701",
        "junction_group": null,
        "line": "line-18",
        "platform_length_m": 85.0
      },
      "type": "Feature"
    },
    {
      "geometry": {
        "coordinates": [
          5.571046093832535,
          6.303183072382392
        ],
        "type": "Point"
      },
      "properties": {
        "anchor_kind": null,
        "anchor_name": null,
        "archetype": "terminal",
        "chainage_m": 0.0,
        "corridor_offset_m": 0.0,
        "id": "line-19-0977-0621-s000000",
        "junction_group": 4,
        "line": "line-19",
        "platform_length_m": 85.0
      },
      "type": "Feature"
    },
    {
      "geometry": {
        "coordinates": [
          5.560380897475142,
          6.310561685203182
        ],
        "type": "Point"
      },
      "properties": {
        "anchor_kind": "planning:residential-priority",
        "anchor_name": "Residential planning stop; site release open",
        "archetype": "standard",
        "chainage_m": 1519.7,
        "corridor_offset_m": 0.601,
        "id": "line-19-0936-0562-s001520",
        "junction_group": null,
        "line": "line-19",
        "platform_length_m": 85.0
      },
      "type": "Feature"
    },
    {
      "geometry": {
        "coordinates": [
          5.565080814513993,
          6.3236992153475144
        ],
        "type": "Point"
      },
      "properties": {
        "anchor_kind": null,
        "anchor_name": null,
        "archetype": "terminal",
        "chainage_m": 3195.0,
        "corridor_offset_m": 0.0,
        "id": "line-19-0863-0588-s003195",
        "junction_group": 20,
        "line": "line-19",
        "platform_length_m": 85.0
      },
      "type": "Feature"
    },
    {
      "geometry": {
        "coordinates": [
          5.564900048474037,
          6.2938248317316345
        ],
        "type": "Point"
      },
      "properties": {
        "anchor_kind": "amenity:hospital",
        "anchor_name": "PRIMARY HEALTH CARE",
        "archetype": "terminal",
        "chainage_m": 0.0,
        "corridor_offset_m": 0.0,
        "id": "line-20-1029-0587-s000000",
        "junction_group": 5,
        "line": "line-20",
        "platform_length_m": 85.0
      },
      "type": "Feature"
    },
    {
      "geometry": {
        "coordinates": [
          5.555861746476246,
          6.274028553431955
        ],
        "type": "Point"
      },
      "properties": {
        "anchor_kind": "planning:residential-priority",
        "anchor_name": "Residential planning stop; site release open",
        "archetype": "halt",
        "chainage_m": 2614.2,
        "corridor_offset_m": 0.747,
        "id": "line-20-1139-0537-s002614",
        "junction_group": null,
        "line": "line-20",
        "platform_length_m": 81.0
      },
      "type": "Feature"
    },
    {
      "geometry": {
        "coordinates": [
          5.569780731552844,
          6.26539017744664
        ],
        "type": "Point"
      },
      "properties": {
        "anchor_kind": null,
        "anchor_name": null,
        "archetype": "terminal",
        "chainage_m": 4551.9,
        "corridor_offset_m": 0.0,
        "id": "line-20-1187-0614-s004552",
        "junction_group": null,
        "line": "line-20",
        "platform_length_m": 85.0
      },
      "type": "Feature"
    },
    {
      "geometry": {
        "coordinates": [
          5.681674910285488,
          6.285906320411763
        ],
        "type": "Point"
      },
      "properties": {
        "anchor_kind": null,
        "anchor_name": null,
        "archetype": "terminal",
        "chainage_m": 0.0,
        "corridor_offset_m": 0.0,
        "id": "line-21-1073-1233-s000000",
        "junction_group": 26,
        "line": "line-21",
        "platform_length_m": 85.0
      },
      "type": "Feature"
    },
    {
      "geometry": {
        "coordinates": [
          5.6692020535285375,
          6.270069297772019
        ],
        "type": "Point"
      },
      "properties": {
        "anchor_kind": null,
        "anchor_name": null,
        "archetype": "terminal",
        "chainage_m": 2331.6,
        "corridor_offset_m": 0.0,
        "id": "line-21-1161-1164-s002332",
        "junction_group": null,
        "line": "line-21",
        "platform_length_m": 85.0
      },
      "type": "Feature"
    },
    {
      "geometry": {
        "coordinates": [
          5.611537686782635,
          6.353753565129756
        ],
        "type": "Point"
      },
      "properties": {
        "anchor_kind": "amenity:hospital",
        "anchor_name": "Azuwa Hospital",
        "archetype": "terminal",
        "chainage_m": 0.0,
        "corridor_offset_m": 0.0,
        "id": "line-22-0696-0845-s000000",
        "junction_group": 25,
        "line": "line-22",
        "platform_length_m": 85.0
      },
      "type": "Feature"
    },
    {
      "geometry": {
        "coordinates": [
          5.618949094420823,
          6.35501332829428
        ],
        "type": "Point"
      },
      "properties": {
        "anchor_kind": "planning:residential-priority",
        "anchor_name": "Residential planning stop; site release open",
        "archetype": "interchange",
        "chainage_m": 878.0,
        "corridor_offset_m": 0.644,
        "id": "line-22-0689-0886-s000878",
        "junction_group": 27,
        "line": "line-22",
        "platform_length_m": 85.0
      },
      "type": "Feature"
    },
    {
      "geometry": {
        "coordinates": [
          5.62382977749963,
          6.368330824604974
        ],
        "type": "Point"
      },
      "properties": {
        "anchor_kind": "amenity:hospital",
        "anchor_name": "A1 Winnes Maternity and Nursing Home",
        "archetype": "terminal",
        "chainage_m": 2581.7,
        "corridor_offset_m": 0.0,
        "id": "line-22-0615-0913-s002582",
        "junction_group": null,
        "line": "line-22",
        "platform_length_m": 85.0
      },
      "type": "Feature"
    },
    {
      "geometry": {
        "coordinates": [
          5.564900048474037,
          6.2938248317316345
        ],
        "type": "Point"
      },
      "properties": {
        "anchor_kind": "amenity:hospital",
        "anchor_name": "PRIMARY HEALTH CARE",
        "archetype": "terminal",
        "chainage_m": 0.0,
        "corridor_offset_m": 0.0,
        "id": "line-23-1029-0587-s000000",
        "junction_group": 5,
        "line": "line-23",
        "platform_length_m": 85.0
      },
      "type": "Feature"
    },
    {
      "geometry": {
        "coordinates": [
          5.547365742598323,
          6.301383410718785
        ],
        "type": "Point"
      },
      "properties": {
        "anchor_kind": null,
        "anchor_name": null,
        "archetype": "terminal",
        "chainage_m": 2287.9,
        "corridor_offset_m": 0.0,
        "id": "line-23-0987-0490-s002288",
        "junction_group": null,
        "line": "line-23",
        "platform_length_m": 85.0
      },
      "type": "Feature"
    },
    {
      "geometry": {
        "coordinates": [
          5.6386525927760065,
          6.360592279451463
        ],
        "type": "Point"
      },
      "properties": {
        "anchor_kind": null,
        "anchor_name": null,
        "archetype": "terminal",
        "chainage_m": 0.0,
        "corridor_offset_m": 0.0,
        "id": "line-24-0658-0995-s000000",
        "junction_group": 28,
        "line": "line-24",
        "platform_length_m": 85.0
      },
      "type": "Feature"
    },
    {
      "geometry": {
        "coordinates": [
          5.654560004292117,
          6.355553226793362
        ],
        "type": "Point"
      },
      "properties": {
        "anchor_kind": "planning:residential-priority",
        "anchor_name": "Residential planning stop; site release open",
        "archetype": "standard",
        "chainage_m": 1992.0,
        "corridor_offset_m": 1.652,
        "id": "line-24-0686-1083-s001992",
        "junction_group": null,
        "line": "line-24",
        "platform_length_m": 85.0
      },
      "type": "Feature"
    },
    {
      "geometry": {
        "coordinates": [
          5.655463834491896,
          6.335576982327322
        ],
        "type": "Point"
      },
      "properties": {
        "anchor_kind": null,
        "anchor_name": null,
        "archetype": "interchange",
        "chainage_m": 4432.0,
        "corridor_offset_m": 0.71,
        "id": "line-24-0797-1088-s004432",
        "junction_group": 29,
        "line": "line-24",
        "platform_length_m": 85.0
      },
      "type": "Feature"
    },
    {
      "geometry": {
        "coordinates": [
          5.655463834491896,
          6.3236992153475144
        ],
        "type": "Point"
      },
      "properties": {
        "anchor_kind": null,
        "anchor_name": null,
        "archetype": "terminal",
        "chainage_m": 5752.0,
        "corridor_offset_m": 0.0,
        "id": "line-24-0863-1088-s005752",
        "junction_group": null,
        "line": "line-24",
        "platform_length_m": 85.0
      },
      "type": "Feature"
    },
    {
      "geometry": {
        "coordinates": [
          5.564900048474037,
          6.2938248317316345
        ],
        "type": "Point"
      },
      "properties": {
        "anchor_kind": "amenity:hospital",
        "anchor_name": "PRIMARY HEALTH CARE",
        "archetype": "terminal",
        "chainage_m": 0.0,
        "corridor_offset_m": 0.0,
        "id": "line-25-1029-0587-s000000",
        "junction_group": 5,
        "line": "line-25",
        "platform_length_m": 85.0
      },
      "type": "Feature"
    },
    {
      "geometry": {
        "coordinates": [
          5.557669406875805,
          6.2938248317316345
        ],
        "type": "Point"
      },
      "properties": {
        "anchor_kind": "planning:residential",
        "anchor_name": "Residential planning stop; site release open",
        "archetype": "interchange",
        "chainage_m": 800.0,
        "corridor_offset_m": 0.378,
        "id": "line-25-1029-0547-s000800",
        "junction_group": 14,
        "line": "line-25",
        "platform_length_m": 85.0
      },
      "type": "Feature"
    },
    {
      "geometry": {
        "coordinates": [
          5.543388889719296,
          6.293644865565273
        ],
        "type": "Point"
      },
      "properties": {
        "anchor_kind": "planning:residential",
        "anchor_name": "Residential planning stop; site release open",
        "archetype": "halt",
        "chainage_m": 2388.3,
        "corridor_offset_m": 1.12,
        "id": "line-25-1030-0468-s002388",
        "junction_group": null,
        "line": "line-25",
        "platform_length_m": 81.0
      },
      "type": "Feature"
    },
    {
      "geometry": {
        "coordinates": [
          5.524227689483981,
          6.292205136234387
        ],
        "type": "Point"
      },
      "properties": {
        "anchor_kind": "planning:residential-priority",
        "anchor_name": "Residential planning stop; site release open",
        "archetype": "halt",
        "chainage_m": 4574.6,
        "corridor_offset_m": 1.989,
        "id": "line-25-1038-0362-s004575",
        "junction_group": null,
        "line": "line-25",
        "platform_length_m": 81.0
      },
      "type": "Feature"
    },
    {
      "geometry": {
        "coordinates": [
          5.511031768567206,
          6.283206827916351
        ],
        "type": "Point"
      },
      "properties": {
        "anchor_kind": "planning:residential-priority",
        "anchor_name": "Residential planning stop; site release open",
        "archetype": "halt",
        "chainage_m": 6448.8,
        "corridor_offset_m": 1.671,
        "id": "line-25-1088-0289-s006449",
        "junction_group": null,
        "line": "line-25",
        "platform_length_m": 81.0
      },
      "type": "Feature"
    },
    {
      "geometry": {
        "coordinates": [
          5.520070070564997,
          6.265750109779361
        ],
        "type": "Point"
      },
      "properties": {
        "anchor_kind": null,
        "anchor_name": null,
        "archetype": "terminal",
        "chainage_m": 8803.0,
        "corridor_offset_m": 0.0,
        "id": "line-25-1185-0339-s008803",
        "junction_group": null,
        "line": "line-25",
        "platform_length_m": 85.0
      },
      "type": "Feature"
    },
    {
      "geometry": {
        "coordinates": [
          5.644979404174459,
          6.315600737861282
        ],
        "type": "Point"
      },
      "properties": {
        "anchor_kind": null,
        "anchor_name": null,
        "archetype": "terminal",
        "chainage_m": 0.0,
        "corridor_offset_m": 0.0,
        "id": "line-26-0908-1030-s000000",
        "junction_group": 30,
        "line": "line-26",
        "platform_length_m": 85.0
      },
      "type": "Feature"
    },
    {
      "geometry": {
        "coordinates": [
          5.628710460578437,
          6.316680534859446
        ],
        "type": "Point"
      },
      "properties": {
        "anchor_kind": "planning:residential",
        "anchor_name": "Residential planning stop; site release open",
        "archetype": "interchange",
        "chainage_m": 3025.6,
        "corridor_offset_m": 0.501,
        "id": "line-26-0902-0940-s003026",
        "junction_group": 31,
        "line": "line-26",
        "platform_length_m": 85.0
      },
      "type": "Feature"
    },
    {
      "geometry": {
        "coordinates": [
          5.619672158580647,
          6.319200061188496
        ],
        "type": "Point"
      },
      "properties": {
        "anchor_kind": "amenity:university",
        "anchor_name": "National Veterinary Reseach Institute",
        "archetype": "terminal",
        "chainage_m": 4216.7,
        "corridor_offset_m": 0.0,
        "id": "line-26-0888-0890-s004217",
        "junction_group": 23,
        "line": "line-26",
        "platform_length_m": 85.0
      },
      "type": "Feature"
    },
    {
      "geometry": {
        "coordinates": [
          5.630518120977995,
          6.274208519598315
        ],
        "type": "Point"
      },
      "properties": {
        "anchor_kind": "amenity:hospital",
        "anchor_name": "Maviscope Hospital & Fertility Centre",
        "archetype": "terminal",
        "chainage_m": 0.0,
        "corridor_offset_m": 0.0,
        "id": "line-27-1138-0950-s000000",
        "junction_group": 21,
        "line": "line-27",
        "platform_length_m": 85.0
      },
      "type": "Feature"
    },
    {
      "geometry": {
        "coordinates": [
          5.6100915584629885,
          6.270069297772019
        ],
        "type": "Point"
      },
      "properties": {
        "anchor_kind": null,
        "anchor_name": null,
        "archetype": "terminal",
        "chainage_m": 2450.5,
        "corridor_offset_m": 0.0,
        "id": "line-27-1161-0837-s002451",
        "junction_group": null,
        "line": "line-27",
        "platform_length_m": 85.0
      },
      "type": "Feature"
    },
    {
      "geometry": {
        "coordinates": [
          5.636664166336493,
          6.375529471259403
        ],
        "type": "Point"
      },
      "properties": {
        "anchor_kind": "amenity:hospital",
        "anchor_name": "Osimike Health Service",
        "archetype": "terminal",
        "chainage_m": 0.0,
        "corridor_offset_m": 0.0,
        "id": "line-28-0575-0984-s000000",
        "junction_group": 32,
        "line": "line-28",
        "platform_length_m": 85.0
      },
      "type": "Feature"
    },
    {
      "geometry": {
        "coordinates": [
          5.642448679615078,
          6.376789234423928
        ],
        "type": "Point"
      },
      "properties": {
        "anchor_kind": null,
        "anchor_name": null,
        "archetype": "interchange",
        "chainage_m": 698.0,
        "corridor_offset_m": 0.125,
        "id": "line-28-0568-1016-s000698",
        "junction_group": 18,
        "line": "line-28",
        "platform_length_m": 85.0
      },
      "type": "Feature"
    },
    {
      "geometry": {
        "coordinates": [
          5.664502136489687,
          6.382368185581111
        ],
        "type": "Point"
      },
      "properties": {
        "anchor_kind": "planning:residential-priority",
        "anchor_name": "Residential planning stop; site release open",
        "archetype": "halt",
        "chainage_m": 3394.8,
        "corridor_offset_m": 0.464,
        "id": "line-28-0537-1138-s003395",
        "junction_group": null,
        "line": "line-28",
        "platform_length_m": 81.0
      },
      "type": "Feature"
    },
    {
      "geometry": {
        "coordinates": [
          5.677517291366505,
          6.373009944930353
        ],
        "type": "Point"
      },
      "properties": {
        "anchor_kind": null,
        "anchor_name": null,
        "archetype": "terminal",
        "chainage_m": 5265.6,
        "corridor_offset_m": 0.0,
        "id": "line-28-0589-1210-s005266",
        "junction_group": null,
        "line": "line-28",
        "platform_length_m": 85.0
      },
      "type": "Feature"
    }
  ],
  "type": "FeatureCollection"
}
