{
  "features": [
    {
      "geometry": {
        "coordinates": [
          -6.521738075193366,
          34.25149041860131
        ],
        "type": "Point"
      },
      "properties": {
        "archetype": "main-heavy",
        "fleet_stalls": 8,
        "line": "line-1",
        "station": "line-1-0603-0820-s000000"
      },
      "type": "Feature"
    },
    {
      "geometry": {
        "coordinates": [
          -6.528259534966918,
          34.22971451247166
        ],
        "type": "Point"
      },
      "properties": {
        "archetype": "main-heavy",
        "fleet_stalls": 8,
        "line": "line-2",
        "station": "line-2-0724-0790-s000000"
      },
      "type": "Feature"
    },
    {
      "geometry": {
        "coordinates": [
          -6.47782691271812,
          34.315198441493
        ],
        "type": "Point"
      },
      "properties": {
        "archetype": "main-heavy",
        "fleet_stalls": 9,
        "line": "line-3",
        "station": "line-3-0249-1022-s019939"
      },
      "type": "Feature"
    }
  ],
  "type": "FeatureCollection"
}
