{
  "features": [
    {
      "geometry": {
        "coordinates": [
          -6.521738075193366,
          34.25149041860131
        ],
        "type": "Point"
      },
      "properties": {
        "anchor_kind": "amenity:hospital",
        "anchor_name": null,
        "archetype": "terminal",
        "chainage_m": 0.0,
        "corridor_offset_m": 0.0,
        "id": "line-1-0603-0820-s000000",
        "junction_group": null,
        "line": "line-1",
        "platform_length_m": 59.5
      },
      "type": "Feature"
    },
    {
      "geometry": {
        "coordinates": [
          -6.5463022403404105,
          34.25436987726308
        ],
        "type": "Point"
      },
      "properties": {
        "anchor_kind": "planning:residential",
        "anchor_name": "Residential planning stop; site release open",
        "archetype": "standard",
        "chainage_m": 2392.5,
        "corridor_offset_m": 0.109,
        "id": "line-1-0587-0707-s002393",
        "junction_group": null,
        "line": "line-1",
        "platform_length_m": 59.5
      },
      "type": "Feature"
    },
    {
      "geometry": {
        "coordinates": [
          -6.5732576074044236,
          34.25742930209121
        ],
        "type": "Point"
      },
      "properties": {
        "anchor_kind": null,
        "anchor_name": null,
        "archetype": "interchange",
        "chainage_m": 5013.4,
        "corridor_offset_m": 0.36,
        "id": "line-1-0570-0583-s005013",
        "junction_group": 0,
        "line": "line-1",
        "platform_length_m": 59.5
      },
      "type": "Feature"
    },
    {
      "geometry": {
        "coordinates": [
          -6.590213402815658,
          34.25940892992118
        ],
        "type": "Point"
      },
      "properties": {
        "anchor_kind": "place:suburb",
        "anchor_name": "La Ville Haute",
        "archetype": "major",
        "chainage_m": 6664.5,
        "corridor_offset_m": 0.442,
        "id": "line-1-0559-0505-s006665",
        "junction_group": null,
        "line": "line-1",
        "platform_length_m": 59.5
      },
      "type": "Feature"
    },
    {
      "geometry": {
        "coordinates": [
          -6.607386580219343,
          34.26138855775115
        ],
        "type": "Point"
      },
      "properties": {
        "anchor_kind": "place:suburb",
        "anchor_name": "Le Valon",
        "archetype": "interchange",
        "chainage_m": 8335.6,
        "corridor_offset_m": 0.529,
        "id": "line-1-0548-0426-s008336",
        "junction_group": 1,
        "line": "line-1",
        "platform_length_m": 59.5
      },
      "type": "Feature"
    },
    {
      "geometry": {
        "coordinates": [
          -6.628690015479611,
          34.263728117913836
        ],
        "type": "Point"
      },
      "properties": {
        "anchor_kind": "planning:residential",
        "anchor_name": "Residential planning stop; site release open",
        "archetype": "standard",
        "chainage_m": 10403.3,
        "corridor_offset_m": 0.687,
        "id": "line-1-0535-0328-s010403",
        "junction_group": null,
        "line": "line-1",
        "platform_length_m": 59.5
      },
      "type": "Feature"
    },
    {
      "geometry": {
        "coordinates": [
          -6.64499366491349,
          34.2657077457438
        ],
        "type": "Point"
      },
      "properties": {
        "anchor_kind": "planning:residential",
        "anchor_name": "Residential planning stop; site release open",
        "archetype": "standard",
        "chainage_m": 11994.5,
        "corridor_offset_m": 0.857,
        "id": "line-1-0524-0253-s011994",
        "junction_group": null,
        "line": "line-1",
        "platform_length_m": 59.5
      },
      "type": "Feature"
    },
    {
      "geometry": {
        "coordinates": [
          -6.660645168370014,
          34.26426801641292
        ],
        "type": "Point"
      },
      "properties": {
        "anchor_kind": "planning:residential",
        "anchor_name": "Residential planning stop; site release open",
        "archetype": "standard",
        "chainage_m": 13595.3,
        "corridor_offset_m": 0.753,
        "id": "line-1-0532-0181-s013595",
        "junction_group": null,
        "line": "line-1",
        "platform_length_m": 59.5
      },
      "type": "Feature"
    },
    {
      "geometry": {
        "coordinates": [
          -6.672818559947309,
          34.26714747507469
        ],
        "type": "Point"
      },
      "properties": {
        "anchor_kind": "tourism:attraction",
        "anchor_name": "Plage Chelihate",
        "archetype": "terminal",
        "chainage_m": 15136.4,
        "corridor_offset_m": 0.0,
        "id": "line-1-0516-0125-s015136",
        "junction_group": null,
        "line": "line-1",
        "platform_length_m": 59.5
      },
      "type": "Feature"
    },
    {
      "geometry": {
        "coordinates": [
          -6.528259534966918,
          34.22971451247166
        ],
        "type": "Point"
      },
      "properties": {
        "anchor_kind": "place:suburb",
        "anchor_name": "Ain Sebaa",
        "archetype": "terminal",
        "chainage_m": 0.0,
        "corridor_offset_m": 0.0,
        "id": "line-2-0724-0790-s000000",
        "junction_group": null,
        "line": "line-2",
        "platform_length_m": 59.5
      },
      "type": "Feature"
    },
    {
      "geometry": {
        "coordinates": [
          -6.545867476355507,
          34.233673768131595
        ],
        "type": "Point"
      },
      "properties": {
        "anchor_kind": null,
        "anchor_name": null,
        "archetype": "interchange",
        "chainage_m": 1814.0,
        "corridor_offset_m": 0.197,
        "id": "line-2-0702-0709-s001814",
        "junction_group": 2,
        "line": "line-2",
        "platform_length_m": 59.5
      },
      "type": "Feature"
    },
    {
      "geometry": {
        "coordinates": [
          -6.566953529623324,
          34.23817292229061
        ],
        "type": "Point"
      },
      "properties": {
        "anchor_kind": "planning:residential",
        "anchor_name": "Residential planning stop; site release open",
        "archetype": "standard",
        "chainage_m": 3972.8,
        "corridor_offset_m": 0.401,
        "id": "line-2-0677-0612-s003973",
        "junction_group": null,
        "line": "line-2",
        "platform_length_m": 59.5
      },
      "type": "Feature"
    },
    {
      "geometry": {
        "coordinates": [
          -6.590648166800561,
          34.24339194111507
        ],
        "type": "Point"
      },
      "properties": {
        "anchor_kind": null,
        "anchor_name": null,
        "archetype": "interchange",
        "chainage_m": 6404.8,
        "corridor_offset_m": 0.679,
        "id": "line-2-0648-0503-s006405",
        "junction_group": 3,
        "line": "line-2",
        "platform_length_m": 59.5
      },
      "type": "Feature"
    },
    {
      "geometry": {
        "coordinates": [
          -6.594126278679788,
          34.24429177194688
        ],
        "type": "Point"
      },
      "properties": {
        "anchor_kind": "leisure:stadium",
        "anchor_name": "Grand terrain et piste de l'Université Ibn tofail",
        "archetype": "interchange",
        "chainage_m": 6766.2,
        "corridor_offset_m": 0.679,
        "id": "line-2-0643-0487-s006766",
        "junction_group": 3,
        "line": "line-2",
        "platform_length_m": 59.5
      },
      "type": "Feature"
    },
    {
      "geometry": {
        "coordinates": [
          -6.613908039992895,
          34.24861095993953
        ],
        "type": "Point"
      },
      "properties": {
        "anchor_kind": "planning:residential",
        "anchor_name": "Residential planning stop; site release open",
        "archetype": "standard",
        "chainage_m": 8796.7,
        "corridor_offset_m": 0.842,
        "id": "line-2-0619-0396-s008797",
        "junction_group": null,
        "line": "line-2",
        "platform_length_m": 59.5
      },
      "type": "Feature"
    },
    {
      "geometry": {
        "coordinates": [
          -6.629559543449418,
          34.252030317100385
        ],
        "type": "Point"
      },
      "properties": {
        "anchor_kind": "planning:residential",
        "anchor_name": "Residential planning stop; site release open",
        "archetype": "standard",
        "chainage_m": 10405.8,
        "corridor_offset_m": 0.983,
        "id": "line-2-0600-0324-s010406",
        "junction_group": null,
        "line": "line-2",
        "platform_length_m": 59.5
      },
      "type": "Feature"
    },
    {
      "geometry": {
        "coordinates": [
          -6.649776068747427,
          34.25634950509305
        ],
        "type": "Point"
      },
      "properties": {
        "anchor_kind": null,
        "anchor_name": null,
        "archetype": "interchange",
        "chainage_m": 12476.4,
        "corridor_offset_m": 1.262,
        "id": "line-2-0576-0231-s012476",
        "junction_group": 4,
        "line": "line-2",
        "platform_length_m": 59.5
      },
      "type": "Feature"
    },
    {
      "geometry": {
        "coordinates": [
          -6.671079504007696,
          34.25904899758846
        ],
        "type": "Point"
      },
      "properties": {
        "anchor_kind": "planning:residential",
        "anchor_name": "Residential planning stop; site release open",
        "archetype": "halt",
        "chainage_m": 15204.3,
        "corridor_offset_m": 0.607,
        "id": "line-2-0561-0133-s015204",
        "junction_group": null,
        "line": "line-2",
        "platform_length_m": 55.5
      },
      "type": "Feature"
    },
    {
      "geometry": {
        "coordinates": [
          -6.677600963781248,
          34.251130486268586
        ],
        "type": "Point"
      },
      "properties": {
        "anchor_kind": "amenity:college",
        "anchor_name": null,
        "archetype": "terminal",
        "chainage_m": 16692.8,
        "corridor_offset_m": 0.0,
        "id": "line-2-0605-0103-s016693",
        "junction_group": null,
        "line": "line-2",
        "platform_length_m": 59.5
      },
      "type": "Feature"
    },
    {
      "geometry": {
        "coordinates": [
          -6.626298813562642,
          34.22431552748083
        ],
        "type": "Point"
      },
      "properties": {
        "anchor_kind": "amenity:hospital",
        "anchor_name": null,
        "archetype": "terminal",
        "chainage_m": 0.0,
        "corridor_offset_m": 0.0,
        "id": "line-3-0754-0339-s000000",
        "junction_group": null,
        "line": "line-3",
        "platform_length_m": 59.5
      },
      "type": "Feature"
    },
    {
      "geometry": {
        "coordinates": [
          -6.607169198226891,
          34.23619329446064
        ],
        "type": "Point"
      },
      "properties": {
        "anchor_kind": "planning:residential",
        "anchor_name": "Residential planning stop; site release open",
        "archetype": "interchange",
        "chainage_m": 2400.5,
        "corridor_offset_m": 0.048,
        "id": "line-3-0688-0427-s002400",
        "junction_group": 5,
        "line": "line-3",
        "platform_length_m": 59.5
      },
      "type": "Feature"
    },
    {
      "geometry": {
        "coordinates": [
          -6.594126278679788,
          34.24429177194688
        ],
        "type": "Point"
      },
      "properties": {
        "anchor_kind": "leisure:stadium",
        "anchor_name": "Grand terrain et piste de l'Université Ibn tofail",
        "archetype": "interchange",
        "chainage_m": 4137.3,
        "corridor_offset_m": 0.047,
        "id": "line-3-0643-0487-s004137",
        "junction_group": 3,
        "line": "line-3",
        "platform_length_m": 59.5
      },
      "type": "Feature"
    },
    {
      "geometry": {
        "coordinates": [
          -6.582387651087395,
          34.251670384767664
        ],
        "type": "Point"
      },
      "properties": {
        "anchor_kind": "planning:residential",
        "anchor_name": "Residential planning stop; site release open",
        "archetype": "major",
        "chainage_m": 5603.8,
        "corridor_offset_m": 0.043,
        "id": "line-3-0602-0541-s005604",
        "junction_group": null,
        "line": "line-3",
        "platform_length_m": 59.5
      },
      "type": "Feature"
    },
    {
      "geometry": {
        "coordinates": [
          -6.5732576074044236,
          34.25742930209121
        ],
        "type": "Point"
      },
      "properties": {
        "anchor_kind": null,
        "anchor_name": null,
        "archetype": "interchange",
        "chainage_m": 6837.8,
        "corridor_offset_m": 0.071,
        "id": "line-3-0570-0583-s006838",
        "junction_group": 0,
        "line": "line-3",
        "platform_length_m": 59.5
      },
      "type": "Feature"
    },
    {
      "geometry": {
        "coordinates": [
          -6.566953529623324,
          34.261568523917504
        ],
        "type": "Point"
      },
      "properties": {
        "anchor_kind": null,
        "anchor_name": null,
        "archetype": "interchange",
        "chainage_m": 7702.1,
        "corridor_offset_m": 0.089,
        "id": "line-3-0547-0612-s007702",
        "junction_group": 6,
        "line": "line-3",
        "platform_length_m": 59.5
      },
      "type": "Feature"
    },
    {
      "geometry": {
        "coordinates": [
          -6.5463022403404105,
          34.27434612172912
        ],
        "type": "Point"
      },
      "properties": {
        "anchor_kind": "planning:residential",
        "anchor_name": "Residential planning stop; site release open",
        "archetype": "standard",
        "chainage_m": 10401.1,
        "corridor_offset_m": 0.05,
        "id": "line-3-0476-0707-s010401",
        "junction_group": null,
        "line": "line-3",
        "platform_length_m": 59.5
      },
      "type": "Feature"
    },
    {
      "geometry": {
        "coordinates": [
          -6.535215758725373,
          34.28136480221718
        ],
        "type": "Point"
      },
      "properties": {
        "anchor_kind": null,
        "anchor_name": null,
        "archetype": "interchange",
        "chainage_m": 11849.6,
        "corridor_offset_m": 0.023,
        "id": "line-3-0437-0758-s011850",
        "junction_group": 7,
        "line": "line-3",
        "platform_length_m": 59.5
      },
      "type": "Feature"
    },
    {
      "geometry": {
        "coordinates": [
          -6.521303311208463,
          34.290003178202504
        ],
        "type": "Point"
      },
      "properties": {
        "anchor_kind": "planning:residential",
        "anchor_name": "Residential planning stop; site release open",
        "archetype": "halt",
        "chainage_m": 13597.6,
        "corridor_offset_m": 0.109,
        "id": "line-3-0389-0822-s013598",
        "junction_group": null,
        "line": "line-3",
        "platform_length_m": 55.5
      },
      "type": "Feature"
    },
    {
      "geometry": {
        "coordinates": [
          -6.508695155646263,
          34.29720182485693
        ],
        "type": "Point"
      },
      "properties": {
        "anchor_kind": "planning:residential",
        "anchor_name": "Residential planning stop; site release open",
        "archetype": "halt",
        "chainage_m": 15194.4,
        "corridor_offset_m": 0.175,
        "id": "line-3-0349-0880-s015194",
        "junction_group": null,
        "line": "line-3",
        "platform_length_m": 55.5
      },
      "type": "Feature"
    },
    {
      "geometry": {
        "coordinates": [
          -6.496304382076516,
          34.30224087751503
        ],
        "type": "Point"
      },
      "properties": {
        "anchor_kind": "planning:residential",
        "anchor_name": "Residential planning stop; site release open",
        "archetype": "halt",
        "chainage_m": 16800.7,
        "corridor_offset_m": 0.455,
        "id": "line-3-0321-0937-s016801",
        "junction_group": null,
        "line": "line-3",
        "platform_length_m": 55.5
      },
      "type": "Feature"
    },
    {
      "geometry": {
        "coordinates": [
          -6.4858700464388335,
          34.309079591836735
        ],
        "type": "Point"
      },
      "properties": {
        "anchor_kind": "planning:residential",
        "anchor_name": "Residential planning stop; site release open",
        "archetype": "halt",
        "chainage_m": 18403.5,
        "corridor_offset_m": 0.361,
        "id": "line-3-0283-0985-s018404",
        "junction_group": null,
        "line": "line-3",
        "platform_length_m": 55.5
      },
      "type": "Feature"
    },
    {
      "geometry": {
        "coordinates": [
          -6.47782691271812,
          34.315198441493
        ],
        "type": "Point"
      },
      "properties": {
        "anchor_kind": "amenity:marketplace",
        "anchor_name": "Souq",
        "archetype": "depot-terminal",
        "chainage_m": 19939.5,
        "corridor_offset_m": 0.0,
        "id": "line-3-0249-1022-s019939",
        "junction_group": null,
        "line": "line-3",
        "platform_length_m": 59.5
      },
      "type": "Feature"
    },
    {
      "geometry": {
        "coordinates": [
          -6.545867476355507,
          34.233673768131595
        ],
        "type": "Point"
      },
      "properties": {
        "anchor_kind": null,
        "anchor_name": null,
        "archetype": "terminal",
        "chainage_m": 0.0,
        "corridor_offset_m": 0.0,
        "id": "line-4-0702-0709-s000000",
        "junction_group": 2,
        "line": "line-4",
        "platform_length_m": 59.5
      },
      "type": "Feature"
    },
    {
      "geometry": {
        "coordinates": [
          -6.563475417744096,
          34.24483167044596
        ],
        "type": "Point"
      },
      "properties": {
        "anchor_kind": "planning:residential",
        "anchor_name": "Residential planning stop; site release open",
        "archetype": "standard",
        "chainage_m": 2394.2,
        "corridor_offset_m": 0.588,
        "id": "line-4-0640-0628-s002394",
        "junction_group": null,
        "line": "line-4",
        "platform_length_m": 59.5
      },
      "type": "Feature"
    },
    {
      "geometry": {
        "coordinates": [
          -6.576735719283651,
          34.245911467444124
        ],
        "type": "Point"
      },
      "properties": {
        "anchor_kind": "planning:residential-priority",
        "anchor_name": "Residential planning stop; site release open",
        "archetype": "major",
        "chainage_m": 3663.9,
        "corridor_offset_m": 0.225,
        "id": "line-4-0634-0567-s003664",
        "junction_group": null,
        "line": "line-4",
        "platform_length_m": 59.5
      },
      "type": "Feature"
    },
    {
      "geometry": {
        "coordinates": [
          -6.590648166800561,
          34.24339194111507
        ],
        "type": "Point"
      },
      "properties": {
        "anchor_kind": null,
        "anchor_name": null,
        "archetype": "interchange",
        "chainage_m": 5059.9,
        "corridor_offset_m": 0.031,
        "id": "line-4-0648-0503-s005060",
        "junction_group": 3,
        "line": "line-4",
        "platform_length_m": 59.5
      },
      "type": "Feature"
    },
    {
      "geometry": {
        "coordinates": [
          -6.607603962211795,
          34.236013328294284
        ],
        "type": "Point"
      },
      "properties": {
        "anchor_kind": null,
        "anchor_name": null,
        "archetype": "interchange",
        "chainage_m": 6959.6,
        "corridor_offset_m": 0.103,
        "id": "line-4-0689-0425-s006960",
        "junction_group": 5,
        "line": "line-4",
        "platform_length_m": 59.5
      },
      "type": "Feature"
    },
    {
      "geometry": {
        "coordinates": [
          -6.610429928113667,
          34.236013328294284
        ],
        "type": "Point"
      },
      "properties": {
        "anchor_kind": "place:neighbourhood",
        "anchor_name": "Bir Rami sud",
        "archetype": "terminal",
        "chainage_m": 7219.6,
        "corridor_offset_m": 0.0,
        "id": "line-4-0689-0412-s007220",
        "junction_group": 5,
        "line": "line-4",
        "platform_length_m": 59.5
      },
      "type": "Feature"
    },
    {
      "geometry": {
        "coordinates": [
          -6.607386580219343,
          34.26138855775115
        ],
        "type": "Point"
      },
      "properties": {
        "anchor_kind": "place:suburb",
        "anchor_name": "Le Valon",
        "archetype": "terminal",
        "chainage_m": 0.0,
        "corridor_offset_m": 0.0,
        "id": "line-5-0548-0426-s000000",
        "junction_group": 1,
        "line": "line-5",
        "platform_length_m": 59.5
      },
      "type": "Feature"
    },
    {
      "geometry": {
        "coordinates": [
          -6.604995378302374,
          34.27236649389915
        ],
        "type": "Point"
      },
      "properties": {
        "anchor_kind": "planning:residential-priority",
        "anchor_name": "Residential planning stop; site release open",
        "archetype": "standard",
        "chainage_m": 1311.1,
        "corridor_offset_m": 0.051,
        "id": "line-5-0487-0437-s001311",
        "junction_group": null,
        "line": "line-5",
        "platform_length_m": 59.5
      },
      "type": "Feature"
    },
    {
      "geometry": {
        "coordinates": [
          -6.605864906272181,
          34.28604392254257
        ],
        "type": "Point"
      },
      "properties": {
        "anchor_kind": "leisure:stadium",
        "anchor_name": null,
        "archetype": "terminal",
        "chainage_m": 2864.3,
        "corridor_offset_m": 0.0,
        "id": "line-5-0411-0433-s002864",
        "junction_group": null,
        "line": "line-5",
        "platform_length_m": 59.5
      },
      "type": "Feature"
    },
    {
      "geometry": {
        "coordinates": [
          -6.649776068747427,
          34.25634950509305
        ],
        "type": "Point"
      },
      "properties": {
        "anchor_kind": null,
        "anchor_name": null,
        "archetype": "terminal",
        "chainage_m": 0.0,
        "corridor_offset_m": 0.0,
        "id": "line-6-0576-0231-s000000",
        "junction_group": 4,
        "line": "line-6",
        "platform_length_m": 59.5
      },
      "type": "Feature"
    },
    {
      "geometry": {
        "coordinates": [
          -6.654123708596462,
          34.2455515351114
        ],
        "type": "Point"
      },
      "properties": {
        "anchor_kind": "planning:residential-priority",
        "anchor_name": "Residential planning stop; site release open",
        "archetype": "standard",
        "chainage_m": 1365.7,
        "corridor_offset_m": 0.169,
        "id": "line-6-0636-0211-s001366",
        "junction_group": null,
        "line": "line-6",
        "platform_length_m": 59.5
      },
      "type": "Feature"
    },
    {
      "geometry": {
        "coordinates": [
          -6.672818559947309,
          34.22827478314077
        ],
        "type": "Point"
      },
      "properties": {
        "anchor_kind": "planning:residential",
        "anchor_name": "Residential planning stop; site release open",
        "archetype": "halt",
        "chainage_m": 3998.1,
        "corridor_offset_m": 0.51,
        "id": "line-6-0732-0125-s003998",
        "junction_group": null,
        "line": "line-6",
        "platform_length_m": 55.5
      },
      "type": "Feature"
    },
    {
      "geometry": {
        "coordinates": [
          -6.672818559947309,
          34.213877489831916
        ],
        "type": "Point"
      },
      "properties": {
        "anchor_kind": "planning:residential",
        "anchor_name": "Residential planning stop; site release open",
        "archetype": "halt",
        "chainage_m": 5598.1,
        "corridor_offset_m": 0.239,
        "id": "line-6-0812-0125-s005598",
        "junction_group": null,
        "line": "line-6",
        "platform_length_m": 55.5
      },
      "type": "Feature"
    },
    {
      "geometry": {
        "coordinates": [
          -6.675209761864278,
          34.2002000611885
        ],
        "type": "Point"
      },
      "properties": {
        "anchor_kind": "planning:residential",
        "anchor_name": "Residential planning stop; site release open",
        "archetype": "halt",
        "chainage_m": 7209.3,
        "corridor_offset_m": 0.669,
        "id": "line-6-0888-0114-s007209",
        "junction_group": null,
        "line": "line-6",
        "platform_length_m": 55.5
      },
      "type": "Feature"
    },
    {
      "geometry": {
        "coordinates": [
          -6.686078861486864,
          34.19120175287046
        ],
        "type": "Point"
      },
      "properties": {
        "anchor_kind": "planning:residential-priority",
        "anchor_name": "Residential planning stop; site release open",
        "archetype": "halt",
        "chainage_m": 8623.5,
        "corridor_offset_m": 0.206,
        "id": "line-6-0938-0064-s008623",
        "junction_group": null,
        "line": "line-6",
        "platform_length_m": 55.5
      },
      "type": "Feature"
    },
    {
      "geometry": {
        "coordinates": [
          -6.676514053818988,
          34.179323985890655
        ],
        "type": "Point"
      },
      "properties": {
        "anchor_kind": null,
        "anchor_name": null,
        "archetype": "terminal",
        "chainage_m": 10308.0,
        "corridor_offset_m": 0.0,
        "id": "line-6-1004-0108-s010308",
        "junction_group": null,
        "line": "line-6",
        "platform_length_m": 59.5
      },
      "type": "Feature"
    },
    {
      "geometry": {
        "coordinates": [
          -6.566953529623324,
          34.261568523917504
        ],
        "type": "Point"
      },
      "properties": {
        "anchor_kind": "amenity:college",
        "anchor_name": "Collège Oum El Banin",
        "archetype": "terminal",
        "chainage_m": 0.0,
        "corridor_offset_m": 0.0,
        "id": "line-7-0547-0612-s000000",
        "junction_group": 6,
        "line": "line-7",
        "platform_length_m": 59.5
      },
      "type": "Feature"
    },
    {
      "geometry": {
        "coordinates": [
          -6.561518979812031,
          34.28136480221718
        ],
        "type": "Point"
      },
      "properties": {
        "anchor_kind": "planning:residential-priority",
        "anchor_name": "Residential planning stop; site release open",
        "archetype": "standard",
        "chainage_m": 2910.2,
        "corridor_offset_m": 1.475,
        "id": "line-7-0437-0637-s002910",
        "junction_group": null,
        "line": "line-7",
        "platform_length_m": 59.5
      },
      "type": "Feature"
    },
    {
      "geometry": {
        "coordinates": [
          -6.535215758725373,
          34.28136480221718
        ],
        "type": "Point"
      },
      "properties": {
        "anchor_kind": null,
        "anchor_name": null,
        "archetype": "interchange",
        "chainage_m": 5330.2,
        "corridor_offset_m": 0.262,
        "id": "line-7-0437-0758-s005330",
        "junction_group": 7,
        "line": "line-7",
        "platform_length_m": 59.5
      },
      "type": "Feature"
    },
    {
      "geometry": {
        "coordinates": [
          -6.52717262500466,
          34.280824903718106
        ],
        "type": "Point"
      },
      "properties": {
        "anchor_kind": null,
        "anchor_name": null,
        "archetype": "terminal",
        "chainage_m": 6095.0,
        "corridor_offset_m": 0.0,
        "id": "line-7-0440-0795-s006095",
        "junction_group": null,
        "line": "line-7",
        "platform_length_m": 59.5
      },
      "type": "Feature"
    }
  ],
  "type": "FeatureCollection"
}
