{
  "features": [
    {
      "geometry": {
        "coordinates": [
          4.508174155257834,
          8.475452606509977
        ],
        "type": "Point"
      },
      "properties": {
        "id": "interchange-000",
        "junction_group": 0,
        "line_count": 2,
        "lines": "line-1,line-3",
        "platform_count": 3,
        "platforms": "line-1-0667-0371-s000417,line-1-0669-0351-s000000,line-3-0667-0371-s006396"
      },
      "type": "Feature"
    },
    {
      "geometry": {
        "coordinates": [
          4.517559714019792,
          8.502207576575604
        ],
        "type": "Point"
      },
      "properties": {
        "id": "interchange-001",
        "junction_group": 1,
        "line_count": 2,
        "lines": "line-2,line-3",
        "platform_count": 2,
        "platforms": "line-2-0520-0416-s002578,line-3-0518-0416-s003020"
      },
      "type": "Feature"
    }
  ],
  "type": "FeatureCollection"
}
