{
  "features": [
    {
      "geometry": {
        "coordinates": [
          89.50126329389222,
          22.912449523089656
        ],
        "type": "Point"
      },
      "properties": {
        "id": "interchange-000",
        "junction_group": 0,
        "line_count": 2,
        "lines": "line-1,line-6",
        "platform_count": 4,
        "platforms": "line-1-0413-0591-s008981,line-1-0436-0603-s009626,line-6-0430-0609-s005866,line-6-0436-0603-s005673"
      },
      "type": "Feature"
    },
    {
      "geometry": {
        "coordinates": [
          89.51754208963973,
          22.897107407407407
        ],
        "type": "Point"
      },
      "properties": {
        "id": "interchange-001",
        "junction_group": 1,
        "line_count": 2,
        "lines": "line-1,line-6",
        "platform_count": 2,
        "platforms": "line-1-0514-0685-s012250,line-6-0514-0685-s009527"
      },
      "type": "Feature"
    },
    {
      "geometry": {
        "coordinates": [
          89.51900425692244,
          22.881900266349923
        ],
        "type": "Point"
      },
      "properties": {
        "id": "interchange-002",
        "junction_group": 2,
        "line_count": 2,
        "lines": "line-1,line-6",
        "platform_count": 2,
        "platforms": "line-1-0598-0692-s014233,line-6-0599-0693-s011527"
      },
      "type": "Feature"
    },
    {
      "geometry": {
        "coordinates": [
          89.5565632103537,
          22.846578445313817
        ],
        "type": "Point"
      },
      "properties": {
        "id": "interchange-003",
        "junction_group": 3,
        "line_count": 5,
        "lines": "line-1,line-2,line-3,line-5,line-6",
        "platform_count": 13,
        "platforms": "line-1-0797-0801-s021555,line-2-0768-0932-s014895,line-2-0774-0863-s013303,line-2-0775-0842-s012874,line-2-0797-0801-s011557,line-3-0772-0936-s019518,line-3-0787-0951-s019094,line-5-0797-0801-s017668,line-5-0829-0929-s014454,line-5-0842-0942-s014086,line-6-0774-0863-s017944,line-6-0791-0917-s019164,line-6-0829-0929-s020024"
      },
      "type": "Feature"
    },
    {
      "geometry": {
        "coordinates": [
          89.5559483502656,
          22.779949433106577
        ],
        "type": "Point"
      },
      "properties": {
        "id": "interchange-004",
        "junction_group": 4,
        "line_count": 2,
        "lines": "line-1,line-6",
        "platform_count": 2,
        "platforms": "line-1-1165-0882-s032441,line-6-1165-0882-s034237"
      },
      "type": "Feature"
    },
    {
      "geometry": {
        "coordinates": [
          89.48888361089861,
          22.79830598207537
        ],
        "type": "Point"
      },
      "properties": {
        "id": "interchange-005",
        "junction_group": 5,
        "line_count": 2,
        "lines": "line-2,line-6",
        "platform_count": 2,
        "platforms": "line-2-1063-0538-s001207,line-6-1063-0538-s044389"
      },
      "type": "Feature"
    },
    {
      "geometry": {
        "coordinates": [
          89.60377746671337,
          22.794466703859673
        ],
        "type": "Point"
      },
      "properties": {
        "id": "interchange-006",
        "junction_group": 6,
        "line_count": 2,
        "lines": "line-3,line-6",
        "platform_count": 3,
        "platforms": "line-3-1075-1120-s011038,line-3-1089-1131-s010667,line-6-1089-1131-s028461"
      },
      "type": "Feature"
    },
    {
      "geometry": {
        "coordinates": [
          89.58699503556849,
          22.80901396897383
        ],
        "type": "Point"
      },
      "properties": {
        "id": "interchange-007",
        "junction_group": 7,
        "line_count": 2,
        "lines": "line-3,line-6",
        "platform_count": 4,
        "platforms": "line-3-0983-1022-s014285,line-3-1032-1048-s013050,line-6-0983-1022-s023956,line-6-1016-1073-s025266"
      },
      "type": "Feature"
    },
    {
      "geometry": {
        "coordinates": [
          89.51533259241252,
          22.77539029022544
        ],
        "type": "Point"
      },
      "properties": {
        "id": "interchange-008",
        "junction_group": 8,
        "line_count": 2,
        "lines": "line-4,line-6",
        "platform_count": 3,
        "platforms": "line-4-1181-0679-s014087,line-4-1195-0671-s014433,line-6-1195-0671-s040258"
      },
      "type": "Feature"
    }
  ],
  "type": "FeatureCollection"
}
