{
  "features": [
    {
      "geometry": {
        "coordinates": [
          71.38297067666576,
          34.00001992585394
        ],
        "type": "Point"
      },
      "properties": {
        "anchor_kind": "amenity:marketplace",
        "anchor_name": "Jamrud Bazar",
        "archetype": "terminal",
        "chainage_m": 0.0,
        "corridor_offset_m": 0.0,
        "id": "line-1-0884-0147-s000000",
        "junction_group": null,
        "line": "line-1",
        "platform_length_m": 85.0
      },
      "type": "Feature"
    },
    {
      "geometry": {
        "coordinates": [
          71.41028122080058,
          33.99930006118849
        ],
        "type": "Point"
      },
      "properties": {
        "anchor_kind": "tourism:attraction",
        "anchor_name": "Shahtaj ROOM",
        "archetype": "halt",
        "chainage_m": 3017.1,
        "corridor_offset_m": 32.958,
        "id": "line-1-0888-0273-s003017",
        "junction_group": null,
        "line": "line-1",
        "platform_length_m": 81.0
      },
      "type": "Feature"
    },
    {
      "geometry": {
        "coordinates": [
          71.43108925442712,
          33.998400230356694
        ],
        "type": "Point"
      },
      "properties": {
        "anchor_kind": "amenity:marketplace",
        "anchor_name": "Afghan Market",
        "archetype": "interchange-elevated",
        "chainage_m": 5044.8,
        "corridor_offset_m": 45.468,
        "id": "line-1-0893-0369-s005045",
        "junction_group": 0,
        "line": "line-1",
        "platform_length_m": 85.0
      },
      "type": "Feature"
    },
    {
      "geometry": {
        "coordinates": [
          71.43542426143264,
          33.99750039952489
        ],
        "type": "Point"
      },
      "properties": {
        "anchor_kind": null,
        "anchor_name": null,
        "archetype": "interchange-elevated",
        "chainage_m": 5486.2,
        "corridor_offset_m": 58.385,
        "id": "line-1-0898-0389-s005486",
        "junction_group": 0,
        "line": "line-1",
        "platform_length_m": 85.0
      },
      "type": "Feature"
    },
    {
      "geometry": {
        "coordinates": [
          71.45211403840393,
          33.996960501025804
        ],
        "type": "Point"
      },
      "properties": {
        "anchor_kind": null,
        "anchor_name": null,
        "archetype": "standard",
        "chainage_m": 7051.0,
        "corridor_offset_m": 33.343,
        "id": "line-1-0901-0466-s007051",
        "junction_group": null,
        "line": "line-1",
        "platform_length_m": 85.0
      },
      "type": "Feature"
    },
    {
      "geometry": {
        "coordinates": [
          71.46815356432438,
          34.002179519850266
        ],
        "type": "Point"
      },
      "properties": {
        "anchor_kind": "place:suburb",
        "anchor_name": "کینال ٹاؤن",
        "archetype": "standard",
        "chainage_m": 9063.8,
        "corridor_offset_m": 17.014,
        "id": "line-1-0872-0540-s009064",
        "junction_group": null,
        "line": "line-1",
        "platform_length_m": 85.0
      },
      "type": "Feature"
    },
    {
      "geometry": {
        "coordinates": [
          71.48094183499069,
          34.00163962135118
        ],
        "type": "Point"
      },
      "properties": {
        "anchor_kind": "amenity:college",
        "anchor_name": "Islamia Collegiate School",
        "archetype": "major",
        "chainage_m": 10280.4,
        "corridor_offset_m": 2.996,
        "id": "line-1-0875-0599-s010280",
        "junction_group": null,
        "line": "line-1",
        "platform_length_m": 85.0
      },
      "type": "Feature"
    },
    {
      "geometry": {
        "coordinates": [
          71.493730105657,
          34.002179519850266
        ],
        "type": "Point"
      },
      "properties": {
        "anchor_kind": "amenity:hospital",
        "anchor_name": "HG225",
        "archetype": "major",
        "chainage_m": 11485.2,
        "corridor_offset_m": 19.349,
        "id": "line-1-0872-0658-s011485",
        "junction_group": null,
        "line": "line-1",
        "platform_length_m": 85.0
      },
      "type": "Feature"
    },
    {
      "geometry": {
        "coordinates": [
          71.51128688402937,
          34.008298369506534
        ],
        "type": "Point"
      },
      "properties": {
        "anchor_kind": null,
        "anchor_name": null,
        "archetype": "standard",
        "chainage_m": 13493.2,
        "corridor_offset_m": 43.403,
        "id": "line-1-0838-0739-s013493",
        "junction_group": null,
        "line": "line-1",
        "platform_length_m": 85.0
      },
      "type": "Feature"
    },
    {
      "geometry": {
        "coordinates": [
          71.52450865539623,
          34.014057286830074
        ],
        "type": "Point"
      },
      "properties": {
        "anchor_kind": null,
        "anchor_name": null,
        "archetype": "standard",
        "chainage_m": 15203.7,
        "corridor_offset_m": 76.427,
        "id": "line-1-0806-0800-s015204",
        "junction_group": null,
        "line": "line-1",
        "platform_length_m": 85.0
      },
      "type": "Feature"
    },
    {
      "geometry": {
        "coordinates": [
          71.53903092886476,
          34.01009803117014
        ],
        "type": "Point"
      },
      "properties": {
        "anchor_kind": "place:suburb",
        "anchor_name": "ڈیفنس کالونی",
        "archetype": "standard",
        "chainage_m": 17519.1,
        "corridor_offset_m": 83.151,
        "id": "line-1-0828-0867-s017519",
        "junction_group": null,
        "line": "line-1",
        "platform_length_m": 85.0
      },
      "type": "Feature"
    },
    {
      "geometry": {
        "coordinates": [
          71.5542034533841,
          34.00469904617932
        ],
        "type": "Point"
      },
      "properties": {
        "anchor_kind": "amenity:hospital",
        "anchor_name": "syed anwar medical centre",
        "archetype": "interchange-elevated",
        "chainage_m": 19522.0,
        "corridor_offset_m": 81.859,
        "id": "line-1-0858-0937-s019522",
        "junction_group": 1,
        "line": "line-1",
        "platform_length_m": 85.0
      },
      "type": "Feature"
    },
    {
      "geometry": {
        "coordinates": [
          71.56547447159848,
          34.01225762516647
        ],
        "type": "Point"
      },
      "properties": {
        "anchor_kind": "amenity:hospital",
        "anchor_name": "Lady Reading Hospital",
        "archetype": "interchange-elevated",
        "chainage_m": 20909.9,
        "corridor_offset_m": 77.875,
        "id": "line-1-0816-0989-s020910",
        "junction_group": 2,
        "line": "line-1",
        "platform_length_m": 85.0
      },
      "type": "Feature"
    },
    {
      "geometry": {
        "coordinates": [
          71.57587848841175,
          34.01765661015729
        ],
        "type": "Point"
      },
      "properties": {
        "anchor_kind": "amenity:marketplace",
        "anchor_name": "Sabzi Mandi",
        "archetype": "major",
        "chainage_m": 22118.4,
        "corridor_offset_m": 96.946,
        "id": "line-1-0786-1037-s022118",
        "junction_group": null,
        "line": "line-1",
        "platform_length_m": 85.0
      },
      "type": "Feature"
    },
    {
      "geometry": {
        "coordinates": [
          71.58888350942833,
          34.01801654249001
        ],
        "type": "Point"
      },
      "properties": {
        "anchor_kind": "public_transport:station",
        "anchor_name": "پشاور شہر",
        "archetype": "major",
        "chainage_m": 23335.0,
        "corridor_offset_m": 76.099,
        "id": "line-1-0784-1097-s023335",
        "junction_group": null,
        "line": "line-1",
        "platform_length_m": 85.0
      },
      "type": "Feature"
    },
    {
      "geometry": {
        "coordinates": [
          71.60860779130347,
          34.018556440989094
        ],
        "type": "Point"
      },
      "properties": {
        "anchor_kind": null,
        "anchor_name": null,
        "archetype": "interchange-elevated",
        "chainage_m": 25179.8,
        "corridor_offset_m": 44.524,
        "id": "line-1-0781-1188-s025180",
        "junction_group": 3,
        "line": "line-1",
        "platform_length_m": 85.0
      },
      "type": "Feature"
    },
    {
      "geometry": {
        "coordinates": [
          71.62291331442171,
          34.01963623798726
        ],
        "type": "Point"
      },
      "properties": {
        "anchor_kind": "tourism:attraction",
        "anchor_name": "Shakir Associates",
        "archetype": "standard",
        "chainage_m": 26549.5,
        "corridor_offset_m": 38.89,
        "id": "line-1-0775-1254-s026550",
        "junction_group": null,
        "line": "line-1",
        "platform_length_m": 85.0
      },
      "type": "Feature"
    },
    {
      "geometry": {
        "coordinates": [
          71.65477561591234,
          34.01981620415362
        ],
        "type": "Point"
      },
      "properties": {
        "anchor_kind": null,
        "anchor_name": null,
        "archetype": "halt",
        "chainage_m": 29564.1,
        "corridor_offset_m": 5.648,
        "id": "line-1-0774-1401-s029564",
        "junction_group": null,
        "line": "line-1",
        "platform_length_m": 81.0
      },
      "type": "Feature"
    },
    {
      "geometry": {
        "coordinates": [
          71.67796790339192,
          34.018916373321815
        ],
        "type": "Point"
      },
      "properties": {
        "anchor_kind": "public_transport:station",
        "anchor_name": "نصرپور",
        "archetype": "terminal",
        "chainage_m": 31773.8,
        "corridor_offset_m": 0.0,
        "id": "line-1-0779-1508-s031774",
        "junction_group": null,
        "line": "line-1",
        "platform_length_m": 85.0
      },
      "type": "Feature"
    },
    {
      "geometry": {
        "coordinates": [
          71.35522663183039,
          33.917415455494364
        ],
        "type": "Point"
      },
      "properties": {
        "anchor_kind": "leisure:stadium",
        "anchor_name": null,
        "archetype": "terminal",
        "chainage_m": 0.0,
        "corridor_offset_m": 0.0,
        "id": "line-2-1343-0019-s000000",
        "junction_group": null,
        "line": "line-2",
        "platform_length_m": 85.0
      },
      "type": "Feature"
    },
    {
      "geometry": {
        "coordinates": [
          71.36823165284697,
          33.93307251196775
        ],
        "type": "Point"
      },
      "properties": {
        "anchor_kind": null,
        "anchor_name": null,
        "archetype": "halt",
        "chainage_m": 2506.5,
        "corridor_offset_m": 9.729,
        "id": "line-2-1256-0079-s002507",
        "junction_group": null,
        "line": "line-2",
        "platform_length_m": 81.0
      },
      "type": "Feature"
    },
    {
      "geometry": {
        "coordinates": [
          71.38340417736632,
          33.94836963610841
        ],
        "type": "Point"
      },
      "properties": {
        "anchor_kind": null,
        "anchor_name": null,
        "archetype": "halt",
        "chainage_m": 5007.0,
        "corridor_offset_m": 41.576,
        "id": "line-2-1171-0149-s005007",
        "junction_group": null,
        "line": "line-2",
        "platform_length_m": 81.0
      },
      "type": "Feature"
    },
    {
      "geometry": {
        "coordinates": [
          71.40941421939948,
          33.95970750458913
        ],
        "type": "Point"
      },
      "properties": {
        "anchor_kind": null,
        "anchor_name": null,
        "archetype": "halt",
        "chainage_m": 8015.8,
        "corridor_offset_m": 31.797,
        "id": "line-2-1108-0269-s008016",
        "junction_group": null,
        "line": "line-2",
        "platform_length_m": 81.0
      },
      "type": "Feature"
    },
    {
      "geometry": {
        "coordinates": [
          71.42371974251772,
          33.96366676024907
        ],
        "type": "Point"
      },
      "properties": {
        "anchor_kind": null,
        "anchor_name": null,
        "archetype": "standard",
        "chainage_m": 9593.2,
        "corridor_offset_m": 63.173,
        "id": "line-2-1086-0335-s009593",
        "junction_group": null,
        "line": "line-2",
        "platform_length_m": 85.0
      },
      "type": "Feature"
    },
    {
      "geometry": {
        "coordinates": [
          71.43629126283375,
          33.969425677572616
        ],
        "type": "Point"
      },
      "properties": {
        "anchor_kind": null,
        "anchor_name": null,
        "archetype": "interchange-elevated",
        "chainage_m": 11168.6,
        "corridor_offset_m": 74.656,
        "id": "line-2-1054-0393-s011169",
        "junction_group": 4,
        "line": "line-2",
        "platform_length_m": 85.0
      },
      "type": "Feature"
    },
    {
      "geometry": {
        "coordinates": [
          71.44539477754536,
          33.976264391894325
        ],
        "type": "Point"
      },
      "properties": {
        "anchor_kind": "amenity:marketplace",
        "anchor_name": "Civic Centre",
        "archetype": "standard",
        "chainage_m": 12622.0,
        "corridor_offset_m": 118.181,
        "id": "line-2-1016-0435-s012622",
        "junction_group": null,
        "line": "line-2",
        "platform_length_m": 85.0
      },
      "type": "Feature"
    },
    {
      "geometry": {
        "coordinates": [
          71.45103028665255,
          33.986162531044165
        ],
        "type": "Point"
      },
      "properties": {
        "anchor_kind": "amenity:marketplace",
        "anchor_name": "Yousafzai Market",
        "archetype": "standard",
        "chainage_m": 14078.8,
        "corridor_offset_m": 151.26,
        "id": "line-2-0961-0461-s014079",
        "junction_group": null,
        "line": "line-2",
        "platform_length_m": 85.0
      },
      "type": "Feature"
    },
    {
      "geometry": {
        "coordinates": [
          71.4662028111719,
          33.995340805528556
        ],
        "type": "Point"
      },
      "properties": {
        "anchor_kind": null,
        "anchor_name": null,
        "archetype": "standard",
        "chainage_m": 16091.6,
        "corridor_offset_m": 160.246,
        "id": "line-2-0910-0531-s016092",
        "junction_group": null,
        "line": "line-2",
        "platform_length_m": 85.0
      },
      "type": "Feature"
    },
    {
      "geometry": {
        "coordinates": [
          71.4789910818382,
          33.99552077169492
        ],
        "type": "Point"
      },
      "properties": {
        "anchor_kind": "amenity:college",
        "anchor_name": "University college for boys",
        "archetype": "major",
        "chainage_m": 17296.4,
        "corridor_offset_m": 131.226,
        "id": "line-2-0909-0590-s017296",
        "junction_group": null,
        "line": "line-2",
        "platform_length_m": 85.0
      },
      "type": "Feature"
    },
    {
      "geometry": {
        "coordinates": [
          71.48831134690009,
          33.998400230356694
        ],
        "type": "Point"
      },
      "properties": {
        "anchor_kind": "amenity:hospital",
        "anchor_name": "IRNUM",
        "archetype": "major",
        "chainage_m": 18497.8,
        "corridor_offset_m": 108.561,
        "id": "line-2-0893-0633-s018498",
        "junction_group": null,
        "line": "line-2",
        "platform_length_m": 85.0
      },
      "type": "Feature"
    },
    {
      "geometry": {
        "coordinates": [
          71.48896159795092,
          34.00883826800561
        ],
        "type": "Point"
      },
      "properties": {
        "anchor_kind": "amenity:university",
        "anchor_name": "peshawar university",
        "archetype": "major",
        "chainage_m": 19699.3,
        "corridor_offset_m": 92.25,
        "id": "line-2-0835-0636-s019699",
        "junction_group": null,
        "line": "line-2",
        "platform_length_m": 85.0
      },
      "type": "Feature"
    },
    {
      "geometry": {
        "coordinates": [
          71.49719811126141,
          34.01909633948817
        ],
        "type": "Point"
      },
      "properties": {
        "anchor_kind": null,
        "anchor_name": null,
        "archetype": "standard",
        "chainage_m": 21713.2,
        "corridor_offset_m": 40.342,
        "id": "line-2-0778-0674-s021713",
        "junction_group": null,
        "line": "line-2",
        "platform_length_m": 85.0
      },
      "type": "Feature"
    },
    {
      "geometry": {
        "coordinates": [
          71.51215388543048,
          34.016216880826406
        ],
        "type": "Point"
      },
      "properties": {
        "anchor_kind": null,
        "anchor_name": null,
        "archetype": "standard",
        "chainage_m": 23716.3,
        "corridor_offset_m": 77.45,
        "id": "line-2-0794-0743-s023716",
        "junction_group": null,
        "line": "line-2",
        "platform_length_m": 85.0
      },
      "type": "Feature"
    },
    {
      "geometry": {
        "coordinates": [
          71.52147415049237,
          34.03061417413526
        ],
        "type": "Point"
      },
      "properties": {
        "anchor_kind": null,
        "anchor_name": null,
        "archetype": "interchange-elevated",
        "chainage_m": 25724.2,
        "corridor_offset_m": 82.871,
        "id": "line-2-0714-0786-s025724",
        "junction_group": 5,
        "line": "line-2",
        "platform_length_m": 85.0
      },
      "type": "Feature"
    },
    {
      "geometry": {
        "coordinates": [
          71.53231166800619,
          34.04303183961415
        ],
        "type": "Point"
      },
      "properties": {
        "anchor_kind": null,
        "anchor_name": null,
        "archetype": "standard",
        "chainage_m": 27727.3,
        "corridor_offset_m": 108.642,
        "id": "line-2-0645-0836-s027727",
        "junction_group": null,
        "line": "line-2",
        "platform_length_m": 85.0
      },
      "type": "Feature"
    },
    {
      "geometry": {
        "coordinates": [
          71.54878469462719,
          34.05275001259763
        ],
        "type": "Point"
      },
      "properties": {
        "anchor_kind": null,
        "anchor_name": null,
        "archetype": "standard",
        "chainage_m": 29729.8,
        "corridor_offset_m": 48.704,
        "id": "line-2-0591-0912-s029730",
        "junction_group": null,
        "line": "line-2",
        "platform_length_m": 85.0
      },
      "type": "Feature"
    },
    {
      "geometry": {
        "coordinates": [
          71.56677497370013,
          34.05598940359212
        ],
        "type": "Point"
      },
      "properties": {
        "anchor_kind": "amenity:university",
        "anchor_name": "شہید بے نظیر بھٹو ویمن یونیورسٹی",
        "archetype": "terminal",
        "chainage_m": 31538.9,
        "corridor_offset_m": 0.0,
        "id": "line-2-0573-0995-s031539",
        "junction_group": null,
        "line": "line-2",
        "platform_length_m": 85.0
      },
      "type": "Feature"
    },
    {
      "geometry": {
        "coordinates": [
          71.39901020258621,
          34.15335109959327
        ],
        "type": "Point"
      },
      "properties": {
        "anchor_kind": "amenity:college",
        "anchor_name": "کیڈٹ کالج وارسک",
        "archetype": "terminal",
        "chainage_m": 0.0,
        "corridor_offset_m": 0.0,
        "id": "line-3-0032-0221-s000000",
        "junction_group": null,
        "line": "line-3",
        "platform_length_m": 85.0
      },
      "type": "Feature"
    },
    {
      "geometry": {
        "coordinates": [
          71.4165669809586,
          34.14201323111255
        ],
        "type": "Point"
      },
      "properties": {
        "anchor_kind": null,
        "anchor_name": null,
        "archetype": "halt",
        "chainage_m": 2505.9,
        "corridor_offset_m": 0.517,
        "id": "line-3-0095-0302-s002506",
        "junction_group": null,
        "line": "line-3",
        "platform_length_m": 81.0
      },
      "type": "Feature"
    },
    {
      "geometry": {
        "coordinates": [
          71.43390700898071,
          34.12959556563366
        ],
        "type": "Point"
      },
      "properties": {
        "anchor_kind": null,
        "anchor_name": null,
        "archetype": "halt",
        "chainage_m": 5005.6,
        "corridor_offset_m": 65.26,
        "id": "line-3-0164-0382-s005006",
        "junction_group": null,
        "line": "line-3",
        "platform_length_m": 81.0
      },
      "type": "Feature"
    },
    {
      "geometry": {
        "coordinates": [
          71.45493179295752,
          34.11303867832847
        ],
        "type": "Point"
      },
      "properties": {
        "anchor_kind": null,
        "anchor_name": null,
        "archetype": "halt",
        "chainage_m": 8024.1,
        "corridor_offset_m": 36.255,
        "id": "line-3-0256-0479-s008024",
        "junction_group": null,
        "line": "line-3",
        "platform_length_m": 81.0
      },
      "type": "Feature"
    },
    {
      "geometry": {
        "coordinates": [
          71.47357232308129,
          34.09324240002879
        ],
        "type": "Point"
      },
      "properties": {
        "anchor_kind": null,
        "anchor_name": null,
        "archetype": "halt",
        "chainage_m": 11042.0,
        "corridor_offset_m": 79.614,
        "id": "line-3-0366-0565-s011042",
        "junction_group": null,
        "line": "line-3",
        "platform_length_m": 81.0
      },
      "type": "Feature"
    },
    {
      "geometry": {
        "coordinates": [
          71.47357232308129,
          34.075245783392724
        ],
        "type": "Point"
      },
      "properties": {
        "anchor_kind": null,
        "anchor_name": null,
        "archetype": "standard",
        "chainage_m": 13042.0,
        "corridor_offset_m": 167.251,
        "id": "line-3-0466-0565-s013042",
        "junction_group": null,
        "line": "line-3",
        "platform_length_m": 85.0
      },
      "type": "Feature"
    },
    {
      "geometry": {
        "coordinates": [
          71.48571034269676,
          34.0648077457438
        ],
        "type": "Point"
      },
      "properties": {
        "anchor_kind": null,
        "anchor_name": null,
        "archetype": "standard",
        "chainage_m": 15045.6,
        "corridor_offset_m": 162.166,
        "id": "line-3-0524-0621-s015046",
        "junction_group": null,
        "line": "line-3",
        "platform_length_m": 85.0
      },
      "type": "Feature"
    },
    {
      "geometry": {
        "coordinates": [
          71.49979911546473,
          34.05526953892668
        ],
        "type": "Point"
      },
      "properties": {
        "anchor_kind": null,
        "anchor_name": null,
        "archetype": "interchange-elevated",
        "chainage_m": 16981.8,
        "corridor_offset_m": 111.391,
        "id": "line-3-0577-0686-s016982",
        "junction_group": 6,
        "line": "line-3",
        "platform_length_m": 85.0
      },
      "type": "Feature"
    },
    {
      "geometry": {
        "coordinates": [
          71.51128688402937,
          34.04339177194687
        ],
        "type": "Point"
      },
      "properties": {
        "anchor_kind": null,
        "anchor_name": null,
        "archetype": "standard",
        "chainage_m": 19076.7,
        "corridor_offset_m": 74.681,
        "id": "line-3-0643-0739-s019077",
        "junction_group": null,
        "line": "line-3",
        "platform_length_m": 85.0
      },
      "type": "Feature"
    },
    {
      "geometry": {
        "coordinates": [
          71.5184396455885,
          34.02827461397257
        ],
        "type": "Point"
      },
      "properties": {
        "anchor_kind": null,
        "anchor_name": null,
        "archetype": "interchange-elevated",
        "chainage_m": 21079.7,
        "corridor_offset_m": 46.021,
        "id": "line-3-0727-0772-s021080",
        "junction_group": 5,
        "line": "line-3",
        "platform_length_m": 85.0
      },
      "type": "Feature"
    },
    {
      "geometry": {
        "coordinates": [
          71.53512942255978,
          34.021975798149946
        ],
        "type": "Point"
      },
      "properties": {
        "anchor_kind": "place:suburb",
        "anchor_name": "شیر علی ٹاؤن",
        "archetype": "standard",
        "chainage_m": 23081.4,
        "corridor_offset_m": 21.82,
        "id": "line-3-0762-0849-s023081",
        "junction_group": null,
        "line": "line-3",
        "platform_length_m": 85.0
      },
      "type": "Feature"
    },
    {
      "geometry": {
        "coordinates": [
          71.54965169602829,
          34.01945627182089
        ],
        "type": "Point"
      },
      "properties": {
        "anchor_kind": "leisure:stadium",
        "anchor_name": "Army Stadium",
        "archetype": "standard",
        "chainage_m": 25088.5,
        "corridor_offset_m": 19.09,
        "id": "line-3-0776-0916-s025089",
        "junction_group": null,
        "line": "line-3",
        "platform_length_m": 85.0
      },
      "type": "Feature"
    },
    {
      "geometry": {
        "coordinates": [
          71.55507045478521,
          34.00775847100745
        ],
        "type": "Point"
      },
      "properties": {
        "anchor_kind": "amenity:college",
        "anchor_name": "Edwardes College Peshawar",
        "archetype": "interchange-elevated",
        "chainage_m": 27101.1,
        "corridor_offset_m": 27.948,
        "id": "line-3-0841-0941-s027101",
        "junction_group": 1,
        "line": "line-3",
        "platform_length_m": 85.0
      },
      "type": "Feature"
    },
    {
      "geometry": {
        "coordinates": [
          71.55983896249128,
          33.999480027354856
        ],
        "type": "Point"
      },
      "properties": {
        "anchor_kind": "amenity:hospital",
        "anchor_name": "Aman hospital",
        "archetype": "major",
        "chainage_m": 28301.9,
        "corridor_offset_m": 51.376,
        "id": "line-3-0887-0963-s028302",
        "junction_group": null,
        "line": "line-3",
        "platform_length_m": 85.0
      },
      "type": "Feature"
    },
    {
      "geometry": {
        "coordinates": [
          71.56590797229903,
          33.99048171903682
        ],
        "type": "Point"
      },
      "properties": {
        "anchor_kind": null,
        "anchor_name": null,
        "archetype": "standard",
        "chainage_m": 30315.3,
        "corridor_offset_m": 46.476,
        "id": "line-3-0937-0991-s030315",
        "junction_group": null,
        "line": "line-3",
        "platform_length_m": 85.0
      },
      "type": "Feature"
    },
    {
      "geometry": {
        "coordinates": [
          71.5808637464681,
          33.99084165136954
        ],
        "type": "Point"
      },
      "properties": {
        "anchor_kind": null,
        "anchor_name": null,
        "archetype": "standard",
        "chainage_m": 32318.4,
        "corridor_offset_m": 22.254,
        "id": "line-3-0935-1060-s032318",
        "junction_group": null,
        "line": "line-3",
        "platform_length_m": 85.0
      },
      "type": "Feature"
    },
    {
      "geometry": {
        "coordinates": [
          71.58368150102169,
          33.98058357988698
        ],
        "type": "Point"
      },
      "properties": {
        "anchor_kind": "amenity:hospital",
        "anchor_name": "Civil Dispensary Gari Atta Muhammad",
        "archetype": "standard",
        "chainage_m": 33577.8,
        "corridor_offset_m": 21.602,
        "id": "line-3-0992-1073-s033578",
        "junction_group": null,
        "line": "line-3",
        "platform_length_m": 85.0
      },
      "type": "Feature"
    },
    {
      "geometry": {
        "coordinates": [
          71.58953376047916,
          33.97302500089983
        ],
        "type": "Point"
      },
      "properties": {
        "anchor_kind": null,
        "anchor_name": null,
        "archetype": "depot-terminal",
        "chainage_m": 34857.2,
        "corridor_offset_m": 5.999,
        "id": "line-3-1034-1100-s034857",
        "junction_group": 7,
        "line": "line-3",
        "platform_length_m": 85.0
      },
      "type": "Feature"
    },
    {
      "geometry": {
        "coordinates": [
          71.59690327238854,
          34.0496905877695
        ],
        "type": "Point"
      },
      "properties": {
        "anchor_kind": null,
        "anchor_name": null,
        "archetype": "terminal",
        "chainage_m": 0.0,
        "corridor_offset_m": 5.999,
        "id": "line-4-0608-1134-s000000",
        "junction_group": 8,
        "line": "line-4",
        "platform_length_m": 85.0
      },
      "type": "Feature"
    },
    {
      "geometry": {
        "coordinates": [
          71.60340578289684,
          34.04879075693769
        ],
        "type": "Point"
      },
      "properties": {
        "anchor_kind": null,
        "anchor_name": null,
        "archetype": "interchange-elevated",
        "chainage_m": 1167.1,
        "corridor_offset_m": 20.784,
        "id": "line-4-0613-1164-s001167",
        "junction_group": 8,
        "line": "line-4",
        "platform_length_m": 85.0
      },
      "type": "Feature"
    },
    {
      "geometry": {
        "coordinates": [
          71.59581952063716,
          34.03745288845697
        ],
        "type": "Point"
      },
      "properties": {
        "anchor_kind": null,
        "anchor_name": null,
        "archetype": "interchange-elevated",
        "chainage_m": 2740.5,
        "corridor_offset_m": 28.522,
        "id": "line-4-0676-1129-s002740",
        "junction_group": 9,
        "line": "line-4",
        "platform_length_m": 85.0
      },
      "type": "Feature"
    },
    {
      "geometry": {
        "coordinates": [
          71.58368150102169,
          34.03385356512975
        ],
        "type": "Point"
      },
      "properties": {
        "anchor_kind": "amenity:college",
        "anchor_name": "Abasyn University Main Campus",
        "archetype": "standard",
        "chainage_m": 4037.9,
        "corridor_offset_m": 18.907,
        "id": "line-4-0696-1073-s004038",
        "junction_group": null,
        "line": "line-4",
        "platform_length_m": 85.0
      },
      "type": "Feature"
    },
    {
      "geometry": {
        "coordinates": [
          71.56959272825372,
          34.02359549364719
        ],
        "type": "Point"
      },
      "properties": {
        "anchor_kind": "place:suburb",
        "anchor_name": "سعید آباد",
        "archetype": "standard",
        "chainage_m": 6044.4,
        "corridor_offset_m": 9.293,
        "id": "line-4-0753-1008-s006044",
        "junction_group": null,
        "line": "line-4",
        "platform_length_m": 85.0
      },
      "type": "Feature"
    },
    {
      "geometry": {
        "coordinates": [
          71.56005571284156,
          34.01261755749919
        ],
        "type": "Point"
      },
      "properties": {
        "anchor_kind": null,
        "anchor_name": null,
        "archetype": "interchange-elevated",
        "chainage_m": 8050.7,
        "corridor_offset_m": 46.622,
        "id": "line-4-0814-0964-s008051",
        "junction_group": 2,
        "line": "line-4",
        "platform_length_m": 85.0
      },
      "type": "Feature"
    },
    {
      "geometry": {
        "coordinates": [
          71.54705069182498,
          33.999480027354856
        ],
        "type": "Point"
      },
      "properties": {
        "anchor_kind": "public_transport:station",
        "anchor_name": "پشاور چھاؤنی",
        "archetype": "standard",
        "chainage_m": 10078.0,
        "corridor_offset_m": 88.422,
        "id": "line-4-0887-0904-s010078",
        "junction_group": null,
        "line": "line-4",
        "platform_length_m": 85.0
      },
      "type": "Feature"
    },
    {
      "geometry": {
        "coordinates": [
          71.53101116590453,
          33.99480090702948
        ],
        "type": "Point"
      },
      "properties": {
        "anchor_kind": "leisure:stadium",
        "anchor_name": "Qayyum Stadium",
        "archetype": "standard",
        "chainage_m": 12097.1,
        "corridor_offset_m": 53.188,
        "id": "line-4-0913-0830-s012097",
        "junction_group": null,
        "line": "line-4",
        "platform_length_m": 85.0
      },
      "type": "Feature"
    },
    {
      "geometry": {
        "coordinates": [
          71.52255790224375,
          33.97968374905518
        ],
        "type": "Point"
      },
      "properties": {
        "anchor_kind": null,
        "anchor_name": null,
        "archetype": "standard",
        "chainage_m": 14100.2,
        "corridor_offset_m": 25.5,
        "id": "line-4-0997-0791-s014100",
        "junction_group": null,
        "line": "line-4",
        "platform_length_m": 85.0
      },
      "type": "Feature"
    },
    {
      "geometry": {
        "coordinates": [
          71.50955288122717,
          33.96600632041176
        ],
        "type": "Point"
      },
      "properties": {
        "anchor_kind": "place:neighbourhood",
        "anchor_name": "Pishatakhara Payan",
        "archetype": "standard",
        "chainage_m": 16117.2,
        "corridor_offset_m": 37.001,
        "id": "line-4-1073-0731-s016117",
        "junction_group": null,
        "line": "line-4",
        "platform_length_m": 85.0
      },
      "type": "Feature"
    },
    {
      "geometry": {
        "coordinates": [
          71.49719811126141,
          33.95214892560198
        ],
        "type": "Point"
      },
      "properties": {
        "anchor_kind": null,
        "anchor_name": null,
        "archetype": "standard",
        "chainage_m": 18129.4,
        "corridor_offset_m": 34.126,
        "id": "line-4-1150-0674-s018129",
        "junction_group": null,
        "line": "line-4",
        "platform_length_m": 85.0
      },
      "type": "Feature"
    },
    {
      "geometry": {
        "coordinates": [
          71.4872275951487,
          33.9364918691286
        ],
        "type": "Point"
      },
      "properties": {
        "anchor_kind": null,
        "anchor_name": null,
        "archetype": "interchange-elevated",
        "chainage_m": 20250.5,
        "corridor_offset_m": 6.642,
        "id": "line-4-1237-0628-s020251",
        "junction_group": 10,
        "line": "line-4",
        "platform_length_m": 85.0
      },
      "type": "Feature"
    },
    {
      "geometry": {
        "coordinates": [
          71.46186780416636,
          33.91759542166073
        ],
        "type": "Point"
      },
      "properties": {
        "anchor_kind": "place:town",
        "anchor_name": "باڑہ",
        "archetype": "terminal",
        "chainage_m": 23725.8,
        "corridor_offset_m": 0.0,
        "id": "line-4-1342-0511-s023726",
        "junction_group": null,
        "line": "line-4",
        "platform_length_m": 85.0
      },
      "type": "Feature"
    },
    {
      "geometry": {
        "coordinates": [
          71.41808423341054,
          34.02521518914444
        ],
        "type": "Point"
      },
      "properties": {
        "anchor_kind": "place:suburb",
        "anchor_name": "Regi Model Town",
        "archetype": "standard",
        "chainage_m": 0.0,
        "corridor_offset_m": 0.0,
        "id": "line-5-0744-0309-s000000",
        "junction_group": null,
        "line": "line-5",
        "platform_length_m": 85.0
      },
      "type": "Feature"
    },
    {
      "geometry": {
        "coordinates": [
          71.43499076073209,
          34.04159211028327
        ],
        "type": "Point"
      },
      "properties": {
        "anchor_kind": null,
        "anchor_name": null,
        "archetype": "standard",
        "chainage_m": 2965.9,
        "corridor_offset_m": 53.327,
        "id": "line-5-0653-0387-s002966",
        "junction_group": null,
        "line": "line-5",
        "platform_length_m": 85.0
      },
      "type": "Feature"
    },
    {
      "geometry": {
        "coordinates": [
          71.4514637873531,
          34.04303183961415
        ],
        "type": "Point"
      },
      "properties": {
        "anchor_kind": null,
        "anchor_name": null,
        "archetype": "standard",
        "chainage_m": 4989.8,
        "corridor_offset_m": 109.207,
        "id": "line-5-0645-0463-s004990",
        "junction_group": null,
        "line": "line-5",
        "platform_length_m": 85.0
      },
      "type": "Feature"
    },
    {
      "geometry": {
        "coordinates": [
          71.46815356432438,
          34.05041045243494
        ],
        "type": "Point"
      },
      "properties": {
        "anchor_kind": null,
        "anchor_name": null,
        "archetype": "standard",
        "chainage_m": 6998.4,
        "corridor_offset_m": 129.607,
        "id": "line-5-0604-0540-s006998",
        "junction_group": null,
        "line": "line-5",
        "platform_length_m": 85.0
      },
      "type": "Feature"
    },
    {
      "geometry": {
        "coordinates": [
          71.48506009164593,
          34.05041045243494
        ],
        "type": "Point"
      },
      "properties": {
        "anchor_kind": null,
        "anchor_name": null,
        "archetype": "standard",
        "chainage_m": 8574.9,
        "corridor_offset_m": 83.154,
        "id": "line-5-0604-0618-s008575",
        "junction_group": null,
        "line": "line-5",
        "platform_length_m": 85.0
      },
      "type": "Feature"
    },
    {
      "geometry": {
        "coordinates": [
          71.49979911546473,
          34.05526953892668
        ],
        "type": "Point"
      },
      "properties": {
        "anchor_kind": null,
        "anchor_name": null,
        "archetype": "interchange-elevated",
        "chainage_m": 10158.6,
        "corridor_offset_m": 29.307,
        "id": "line-5-0577-0686-s010159",
        "junction_group": 6,
        "line": "line-5",
        "platform_length_m": 85.0
      },
      "type": "Feature"
    },
    {
      "geometry": {
        "coordinates": [
          71.51128688402937,
          34.06318805024655
        ],
        "type": "Point"
      },
      "properties": {
        "anchor_kind": null,
        "anchor_name": null,
        "archetype": "standard",
        "chainage_m": 11583.1,
        "corridor_offset_m": 8.852,
        "id": "line-5-0533-0739-s011583",
        "junction_group": null,
        "line": "line-5",
        "platform_length_m": 85.0
      },
      "type": "Feature"
    },
    {
      "geometry": {
        "coordinates": [
          71.52342490364485,
          34.07038669690098
        ],
        "type": "Point"
      },
      "properties": {
        "anchor_kind": null,
        "anchor_name": null,
        "archetype": "standard",
        "chainage_m": 13034.5,
        "corridor_offset_m": 51.351,
        "id": "line-5-0493-0795-s013034",
        "junction_group": null,
        "line": "line-5",
        "platform_length_m": 85.0
      },
      "type": "Feature"
    },
    {
      "geometry": {
        "coordinates": [
          71.54358268622056,
          34.07128652773279
        ],
        "type": "Point"
      },
      "properties": {
        "anchor_kind": null,
        "anchor_name": null,
        "archetype": "standard",
        "chainage_m": 15051.9,
        "corridor_offset_m": 58.777,
        "id": "line-5-0488-0888-s015052",
        "junction_group": null,
        "line": "line-5",
        "platform_length_m": 85.0
      },
      "type": "Feature"
    },
    {
      "geometry": {
        "coordinates": [
          71.56005571284156,
          34.082084497714426
        ],
        "type": "Point"
      },
      "properties": {
        "anchor_kind": null,
        "anchor_name": null,
        "archetype": "standard",
        "chainage_m": 17069.0,
        "corridor_offset_m": 120.66,
        "id": "line-5-0428-0964-s017069",
        "junction_group": null,
        "line": "line-5",
        "platform_length_m": 85.0
      },
      "type": "Feature"
    },
    {
      "geometry": {
        "coordinates": [
          71.57956324436644,
          34.07758534355541
        ],
        "type": "Point"
      },
      "properties": {
        "anchor_kind": "place:neighbourhood",
        "anchor_name": "Green Villas",
        "archetype": "standard",
        "chainage_m": 19076.1,
        "corridor_offset_m": 58.262,
        "id": "line-5-0453-1054-s019076",
        "junction_group": null,
        "line": "line-5",
        "platform_length_m": 85.0
      },
      "type": "Feature"
    },
    {
      "geometry": {
        "coordinates": [
          71.59668652203827,
          34.06732727207285
        ],
        "type": "Point"
      },
      "properties": {
        "anchor_kind": null,
        "anchor_name": null,
        "archetype": "standard",
        "chainage_m": 21510.9,
        "corridor_offset_m": 5.417,
        "id": "line-5-0510-1133-s021511",
        "junction_group": null,
        "line": "line-5",
        "platform_length_m": 85.0
      },
      "type": "Feature"
    },
    {
      "geometry": {
        "coordinates": [
          71.59690327238854,
          34.04879075693769
        ],
        "type": "Point"
      },
      "properties": {
        "anchor_kind": null,
        "anchor_name": null,
        "archetype": "interchange-elevated",
        "chainage_m": 23579.2,
        "corridor_offset_m": 69.399,
        "id": "line-5-0613-1134-s023579",
        "junction_group": 8,
        "line": "line-5",
        "platform_length_m": 85.0
      },
      "type": "Feature"
    },
    {
      "geometry": {
        "coordinates": [
          71.59581952063716,
          34.03745288845697
        ],
        "type": "Point"
      },
      "properties": {
        "anchor_kind": null,
        "anchor_name": null,
        "archetype": "interchange-elevated",
        "chainage_m": 25013.1,
        "corridor_offset_m": 96.109,
        "id": "line-5-0676-1129-s025013",
        "junction_group": 9,
        "line": "line-5",
        "platform_length_m": 85.0
      },
      "type": "Feature"
    },
    {
      "geometry": {
        "coordinates": [
          71.59581952063716,
          34.03295373429795
        ],
        "type": "Point"
      },
      "properties": {
        "anchor_kind": "amenity:hospital",
        "anchor_name": "MMC",
        "archetype": "interchange-elevated",
        "chainage_m": 25529.7,
        "corridor_offset_m": 106.779,
        "id": "line-5-0701-1129-s025530",
        "junction_group": 9,
        "line": "line-5",
        "platform_length_m": 85.0
      },
      "type": "Feature"
    },
    {
      "geometry": {
        "coordinates": [
          71.60167178009463,
          34.0262949861426
        ],
        "type": "Point"
      },
      "properties": {
        "anchor_kind": null,
        "anchor_name": null,
        "archetype": "standard",
        "chainage_m": 26940.2,
        "corridor_offset_m": 16.278,
        "id": "line-5-0738-1156-s026940",
        "junction_group": null,
        "line": "line-5",
        "platform_length_m": 85.0
      },
      "type": "Feature"
    },
    {
      "geometry": {
        "coordinates": [
          71.60860779130347,
          34.018556440989094
        ],
        "type": "Point"
      },
      "properties": {
        "anchor_kind": null,
        "anchor_name": null,
        "archetype": "interchange-elevated",
        "chainage_m": 28351.4,
        "corridor_offset_m": 40.171,
        "id": "line-5-0781-1188-s028351",
        "junction_group": 3,
        "line": "line-5",
        "platform_length_m": 85.0
      },
      "type": "Feature"
    },
    {
      "geometry": {
        "coordinates": [
          71.61077529480623,
          34.00919820033833
        ],
        "type": "Point"
      },
      "properties": {
        "anchor_kind": "amenity:hospital",
        "anchor_name": "Khyber Eye Foundation Hospital, Gulbahar",
        "archetype": "standard",
        "chainage_m": 29559.0,
        "corridor_offset_m": 76.136,
        "id": "line-5-0833-1198-s029559",
        "junction_group": null,
        "line": "line-5",
        "platform_length_m": 85.0
      },
      "type": "Feature"
    },
    {
      "geometry": {
        "coordinates": [
          71.60362253324712,
          33.99444097469676
        ],
        "type": "Point"
      },
      "properties": {
        "anchor_kind": null,
        "anchor_name": null,
        "archetype": "standard",
        "chainage_m": 31583.6,
        "corridor_offset_m": 106.564,
        "id": "line-5-0915-1165-s031584",
        "junction_group": null,
        "line": "line-5",
        "platform_length_m": 85.0
      },
      "type": "Feature"
    },
    {
      "geometry": {
        "coordinates": [
          71.5982037744902,
          33.981303444552424
        ],
        "type": "Point"
      },
      "properties": {
        "anchor_kind": null,
        "anchor_name": null,
        "archetype": "standard",
        "chainage_m": 33599.8,
        "corridor_offset_m": 166.331,
        "id": "line-5-0988-1140-s033600",
        "junction_group": null,
        "line": "line-5",
        "platform_length_m": 85.0
      },
      "type": "Feature"
    },
    {
      "geometry": {
        "coordinates": [
          71.58953376047916,
          33.97302500089983
        ],
        "type": "Point"
      },
      "properties": {
        "anchor_kind": null,
        "anchor_name": null,
        "archetype": "interchange-elevated",
        "chainage_m": 34886.3,
        "corridor_offset_m": 159.04,
        "id": "line-5-1034-1100-s034886",
        "junction_group": 7,
        "line": "line-5",
        "platform_length_m": 85.0
      },
      "type": "Feature"
    },
    {
      "geometry": {
        "coordinates": [
          71.58845000872778,
          33.96780598207537
        ],
        "type": "Point"
      },
      "properties": {
        "anchor_kind": null,
        "anchor_name": null,
        "archetype": "interchange-elevated",
        "chainage_m": 35607.1,
        "corridor_offset_m": 168.53,
        "id": "line-5-1063-1095-s035607",
        "junction_group": 7,
        "line": "line-5",
        "platform_length_m": 85.0
      },
      "type": "Feature"
    },
    {
      "geometry": {
        "coordinates": [
          71.58064699611782,
          33.95970750458913
        ],
        "type": "Point"
      },
      "properties": {
        "anchor_kind": null,
        "anchor_name": null,
        "archetype": "standard",
        "chainage_m": 37611.4,
        "corridor_offset_m": 219.093,
        "id": "line-5-1108-1059-s037611",
        "junction_group": null,
        "line": "line-5",
        "platform_length_m": 85.0
      },
      "type": "Feature"
    },
    {
      "geometry": {
        "coordinates": [
          71.56287346739516,
          33.9548484180974
        ],
        "type": "Point"
      },
      "properties": {
        "anchor_kind": null,
        "anchor_name": null,
        "archetype": "standard",
        "chainage_m": 39625.4,
        "corridor_offset_m": 210.396,
        "id": "line-5-1135-0977-s039625",
        "junction_group": null,
        "line": "line-5",
        "platform_length_m": 85.0
      },
      "type": "Feature"
    },
    {
      "geometry": {
        "coordinates": [
          71.55593745618631,
          33.94369051578303
        ],
        "type": "Point"
      },
      "properties": {
        "anchor_kind": null,
        "anchor_name": null,
        "archetype": "standard",
        "chainage_m": 41130.5,
        "corridor_offset_m": 260.385,
        "id": "line-5-1197-0945-s041130",
        "junction_group": null,
        "line": "line-5",
        "platform_length_m": 85.0
      },
      "type": "Feature"
    },
    {
      "geometry": {
        "coordinates": [
          71.55615420653659,
          33.9305529856387
        ],
        "type": "Point"
      },
      "properties": {
        "anchor_kind": null,
        "anchor_name": null,
        "archetype": "halt",
        "chainage_m": 42631.9,
        "corridor_offset_m": 234.51,
        "id": "line-5-1270-0946-s042632",
        "junction_group": null,
        "line": "line-5",
        "platform_length_m": 81.0
      },
      "type": "Feature"
    },
    {
      "geometry": {
        "coordinates": [
          71.54206543376863,
          33.93397234279955
        ],
        "type": "Point"
      },
      "properties": {
        "anchor_kind": null,
        "anchor_name": null,
        "archetype": "halt",
        "chainage_m": 45658.6,
        "corridor_offset_m": 260.88,
        "id": "line-5-1251-0881-s045659",
        "junction_group": null,
        "line": "line-5",
        "platform_length_m": 81.0
      },
      "type": "Feature"
    },
    {
      "geometry": {
        "coordinates": [
          71.51258738613103,
          33.93271257963503
        ],
        "type": "Point"
      },
      "properties": {
        "anchor_kind": null,
        "anchor_name": null,
        "archetype": "halt",
        "chainage_m": 48668.6,
        "corridor_offset_m": 311.353,
        "id": "line-5-1258-0745-s048669",
        "junction_group": null,
        "line": "line-5",
        "platform_length_m": 81.0
      },
      "type": "Feature"
    },
    {
      "geometry": {
        "coordinates": [
          71.4872275951487,
          33.9364918691286
        ],
        "type": "Point"
      },
      "properties": {
        "anchor_kind": null,
        "anchor_name": null,
        "archetype": "interchange-elevated",
        "chainage_m": 51326.8,
        "corridor_offset_m": 321.147,
        "id": "line-5-1237-0628-s051327",
        "junction_group": 10,
        "line": "line-5",
        "platform_length_m": 85.0
      },
      "type": "Feature"
    },
    {
      "geometry": {
        "coordinates": [
          71.4844098405951,
          33.93883142929129
        ],
        "type": "Point"
      },
      "properties": {
        "anchor_kind": null,
        "anchor_name": null,
        "archetype": "interchange-elevated",
        "chainage_m": 51694.5,
        "corridor_offset_m": 305.458,
        "id": "line-5-1224-0615-s051695",
        "junction_group": 10,
        "line": "line-5",
        "platform_length_m": 85.0
      },
      "type": "Feature"
    },
    {
      "geometry": {
        "coordinates": [
          71.46880381537521,
          33.95142906093654
        ],
        "type": "Point"
      },
      "properties": {
        "anchor_kind": null,
        "anchor_name": null,
        "archetype": "standard",
        "chainage_m": 53714.4,
        "corridor_offset_m": 237.876,
        "id": "line-5-1154-0543-s053714",
        "junction_group": null,
        "line": "line-5",
        "platform_length_m": 85.0
      },
      "type": "Feature"
    },
    {
      "geometry": {
        "coordinates": [
          71.4514637873531,
          33.96024740308822
        ],
        "type": "Point"
      },
      "properties": {
        "anchor_kind": null,
        "anchor_name": null,
        "archetype": "standard",
        "chainage_m": 55720.4,
        "corridor_offset_m": 159.972,
        "id": "line-5-1105-0463-s055720",
        "junction_group": null,
        "line": "line-5",
        "platform_length_m": 85.0
      },
      "type": "Feature"
    },
    {
      "geometry": {
        "coordinates": [
          71.43650801318402,
          33.969425677572616
        ],
        "type": "Point"
      },
      "properties": {
        "anchor_kind": null,
        "anchor_name": null,
        "archetype": "interchange-elevated",
        "chainage_m": 57558.0,
        "corridor_offset_m": 168.229,
        "id": "line-5-1054-0394-s057558",
        "junction_group": 4,
        "line": "line-5",
        "platform_length_m": 85.0
      },
      "type": "Feature"
    },
    {
      "geometry": {
        "coordinates": [
          71.43520751108237,
          33.97050547457078
        ],
        "type": "Point"
      },
      "properties": {
        "anchor_kind": "amenity:marketplace",
        "anchor_name": "Lalazar Market",
        "archetype": "interchange-elevated",
        "chainage_m": 57727.7,
        "corridor_offset_m": 161.668,
        "id": "line-5-1048-0388-s057728",
        "junction_group": 4,
        "line": "line-5",
        "platform_length_m": 85.0
      },
      "type": "Feature"
    },
    {
      "geometry": {
        "coordinates": [
          71.43434050968126,
          33.98670242954324
        ],
        "type": "Point"
      },
      "properties": {
        "anchor_kind": "amenity:university",
        "anchor_name": "University of Engineering and Technology Peshawar",
        "archetype": "standard",
        "chainage_m": 59745.1,
        "corridor_offset_m": 122.866,
        "id": "line-5-0958-0384-s059745",
        "junction_group": null,
        "line": "line-5",
        "platform_length_m": 85.0
      },
      "type": "Feature"
    },
    {
      "geometry": {
        "coordinates": [
          71.43542426143264,
          33.99750039952489
        ],
        "type": "Point"
      },
      "properties": {
        "anchor_kind": null,
        "anchor_name": null,
        "archetype": "interchange-elevated",
        "chainage_m": 61003.1,
        "corridor_offset_m": 120.22,
        "id": "line-5-0898-0389-s061003",
        "junction_group": 0,
        "line": "line-5",
        "platform_length_m": 85.0
      },
      "type": "Feature"
    },
    {
      "geometry": {
        "coordinates": [
          71.42827149987353,
          34.008298369506534
        ],
        "type": "Point"
      },
      "properties": {
        "anchor_kind": null,
        "anchor_name": null,
        "archetype": "standard",
        "chainage_m": 62493.0,
        "corridor_offset_m": 77.723,
        "id": "line-5-0838-0356-s062493",
        "junction_group": null,
        "line": "line-5",
        "platform_length_m": 85.0
      },
      "type": "Feature"
    }
  ],
  "type": "FeatureCollection"
}
