{
  "features": [
    {
      "geometry": {
        "coordinates": [
          30.46855510245305,
          31.031969031422094
        ],
        "type": "Point"
      },
      "properties": {
        "id": "interchange-000",
        "junction_group": 0,
        "line_count": 3,
        "lines": "line-1,line-2,line-3",
        "platform_count": 3,
        "platforms": "line-1-0549-0552-s003688,line-2-0569-0546-s012108,line-3-0568-0561-s008336"
      },
      "type": "Feature"
    }
  ],
  "type": "FeatureCollection"
}
