{
  "features": [
    {
      "geometry": {
        "coordinates": [
          35.00571439009561,
          1.0155427383651872
        ],
        "type": "Point"
      },
      "properties": {
        "id": "interchange-000",
        "junction_group": 0,
        "line_count": 3,
        "lines": "line-1,line-2,line-3",
        "platform_count": 3,
        "platforms": "line-1-0376-0373-s003096,line-2-0376-0373-s008216,line-3-0376-0373-s004284"
      },
      "type": "Feature"
    }
  ],
  "type": "FeatureCollection"
}
