{
  "features": [
    {
      "geometry": {
        "coordinates": [
          13.400549359548307,
          -12.621262916171759
        ],
        "type": "Point"
      },
      "properties": {
        "archetype": "main-heavy",
        "fleet_stalls": 9,
        "line": "line-1",
        "station": "line-1-0800-0524-s020499"
      },
      "type": "Feature"
    },
    {
      "geometry": {
        "coordinates": [
          13.448778019608662,
          -12.557734859446423
        ],
        "type": "Point"
      },
      "properties": {
        "archetype": "main-heavy",
        "fleet_stalls": 8,
        "line": "line-2",
        "station": "line-2-0447-0786-s000000"
      },
      "type": "Feature"
    },
    {
      "geometry": {
        "coordinates": [
          13.412146327425416,
          -12.577171205413382
        ],
        "type": "Point"
      },
      "properties": {
        "archetype": "main-heavy",
        "fleet_stalls": 5,
        "line": "line-3",
        "station": "line-3-0555-0587-s000000"
      },
      "type": "Feature"
    },
    {
      "geometry": {
        "coordinates": [
          13.409385144597533,
          -12.608485318360149
        ],
        "type": "Point"
      },
      "properties": {
        "archetype": "main-heavy",
        "fleet_stalls": 3,
        "line": "line-4",
        "station": "line-4-0729-0572-s000000"
      },
      "type": "Feature"
    },
    {
      "geometry": {
        "coordinates": [
          13.34127596817642,
          -12.613524371018249
        ],
        "type": "Point"
      },
      "properties": {
        "archetype": "main-heavy",
        "fleet_stalls": 2,
        "line": "line-5",
        "station": "line-5-0757-0202-s000000"
      },
      "type": "Feature"
    },
    {
      "geometry": {
        "coordinates": [
          13.431474607220597,
          -12.600566807040277
        ],
        "type": "Point"
      },
      "properties": {
        "archetype": "main-heavy",
        "fleet_stalls": 2,
        "line": "line-6",
        "station": "line-6-0685-0692-s000000"
      },
      "type": "Feature"
    },
    {
      "geometry": {
        "coordinates": [
          13.422454743316178,
          -12.571232321923478
        ],
        "type": "Point"
      },
      "properties": {
        "archetype": "main-heavy",
        "fleet_stalls": 2,
        "line": "line-7",
        "station": "line-7-0522-0643-s000000"
      },
      "type": "Feature"
    },
    {
      "geometry": {
        "coordinates": [
          13.473076428494032,
          -12.521201727675196
        ],
        "type": "Point"
      },
      "properties": {
        "archetype": "main-heavy",
        "fleet_stalls": 2,
        "line": "line-8",
        "station": "line-8-0244-0918-s000000"
      },
      "type": "Feature"
    },
    {
      "geometry": {
        "coordinates": [
          13.400549359548307,
          -12.621262916171759
        ],
        "type": "Point"
      },
      "properties": {
        "archetype": "main-heavy",
        "fleet_stalls": 3,
        "line": "line-9",
        "station": "line-9-0800-0524-s000000"
      },
      "type": "Feature"
    },
    {
      "geometry": {
        "coordinates": [
          13.400549359548307,
          -12.621262916171759
        ],
        "type": "Point"
      },
      "properties": {
        "archetype": "main-heavy",
        "fleet_stalls": 4,
        "line": "line-10",
        "station": "line-10-0800-0524-s000000"
      },
      "type": "Feature"
    },
    {
      "geometry": {
        "coordinates": [
          13.399444886417154,
          -12.583290055069646
        ],
        "type": "Point"
      },
      "properties": {
        "archetype": "main-heavy",
        "fleet_stalls": 2,
        "line": "line-11",
        "station": "line-11-0589-0518-s000000"
      },
      "type": "Feature"
    },
    {
      "geometry": {
        "coordinates": [
          13.45779788351308,
          -12.53955827664399
        ],
        "type": "Point"
      },
      "properties": {
        "archetype": "main-heavy",
        "fleet_stalls": 4,
        "line": "line-12",
        "station": "line-12-0346-0835-s000000"
      },
      "type": "Feature"
    },
    {
      "geometry": {
        "coordinates": [
          13.457061568092312,
          -12.630981089155238
        ],
        "type": "Point"
      },
      "properties": {
        "archetype": "main-heavy",
        "fleet_stalls": 3,
        "line": "line-13",
        "station": "line-13-0854-0831-s000000"
      },
      "type": "Feature"
    },
    {
      "geometry": {
        "coordinates": [
          13.400917517258693,
          -12.620902983839038
        ],
        "type": "Point"
      },
      "properties": {
        "archetype": "main-heavy",
        "fleet_stalls": 2,
        "line": "line-14",
        "station": "line-14-0798-0526-s000000"
      },
      "type": "Feature"
    }
  ],
  "type": "FeatureCollection"
}
