{
  "features": [
    {
      "geometry": {
        "coordinates": [
          13.447121309911932,
          -12.557374927113703
        ],
        "type": "Point"
      },
      "properties": {
        "id": "interchange-000",
        "junction_group": 0,
        "line_count": 2,
        "lines": "line-1,line-2",
        "platform_count": 2,
        "platforms": "line-1-0443-0768-s010012,line-2-0447-0786-s000000"
      },
      "type": "Feature"
    },
    {
      "geometry": {
        "coordinates": [
          13.409937381163111,
          -12.577981053162006
        ],
        "type": "Point"
      },
      "properties": {
        "id": "interchange-001",
        "junction_group": 1,
        "line_count": 2,
        "lines": "line-2,line-3",
        "platform_count": 2,
        "platforms": "line-2-0564-0563-s005535,line-3-0555-0587-s000000"
      },
      "type": "Feature"
    }
  ],
  "type": "FeatureCollection"
}
