{
  "features": [
    {
      "geometry": {
        "coordinates": [
          30.73004156071858,
          28.12456158802145
        ],
        "type": "Point"
      },
      "properties": {
        "anchor_kind": "amenity:college",
        "anchor_name": "كلية الحاسبات والمعلومات",
        "archetype": "terminal",
        "chainage_m": 0.0,
        "corridor_offset_m": 0.0,
        "id": "line-1-0342-0395-s000000",
        "junction_group": null,
        "line": "line-1",
        "platform_length_m": 59.5
      },
      "type": "Feature"
    },
    {
      "geometry": {
        "coordinates": [
          30.755904463907605,
          28.108544599215346
        ],
        "type": "Point"
      },
      "properties": {
        "anchor_kind": null,
        "anchor_name": null,
        "archetype": "interchange",
        "chainage_m": 3450.6,
        "corridor_offset_m": 14.218,
        "id": "line-1-0431-0522-s003451",
        "junction_group": 0,
        "line": "line-1",
        "platform_length_m": 59.5
      },
      "type": "Feature"
    },
    {
      "geometry": {
        "coordinates": [
          30.774843440258625,
          28.0968467984019
        ],
        "type": "Point"
      },
      "properties": {
        "anchor_kind": null,
        "anchor_name": null,
        "archetype": "standard",
        "chainage_m": 6015.5,
        "corridor_offset_m": 0.162,
        "id": "line-1-0496-0615-s006016",
        "junction_group": null,
        "line": "line-1",
        "platform_length_m": 59.5
      },
      "type": "Feature"
    },
    {
      "geometry": {
        "coordinates": [
          30.80172456798265,
          28.080289911096713
        ],
        "type": "Point"
      },
      "properties": {
        "anchor_kind": null,
        "anchor_name": null,
        "archetype": "interchange",
        "chainage_m": 9605.1,
        "corridor_offset_m": 0.232,
        "id": "line-1-0588-0747-s009605",
        "junction_group": 1,
        "line": "line-1",
        "platform_length_m": 59.5
      },
      "type": "Feature"
    },
    {
      "geometry": {
        "coordinates": [
          30.82025625451967,
          28.068952042615987
        ],
        "type": "Point"
      },
      "properties": {
        "anchor_kind": "place:neighbourhood",
        "anchor_name": "المجاورة 9",
        "archetype": "standard",
        "chainage_m": 12087.6,
        "corridor_offset_m": 0.269,
        "id": "line-1-0651-0838-s012088",
        "junction_group": null,
        "line": "line-1",
        "platform_length_m": 59.5
      },
      "type": "Feature"
    },
    {
      "geometry": {
        "coordinates": [
          30.84021345540569,
          28.063013159126083
        ],
        "type": "Point"
      },
      "properties": {
        "anchor_kind": "place:neighbourhood",
        "anchor_name": "إبنى بيتك المرحله 2 الياسمين",
        "archetype": "depot-terminal",
        "chainage_m": 14580.4,
        "corridor_offset_m": 0.0,
        "id": "line-1-0684-0936-s014580",
        "junction_group": null,
        "line": "line-1",
        "platform_length_m": 59.5
      },
      "type": "Feature"
    },
    {
      "geometry": {
        "coordinates": [
          30.73085614034658,
          28.103505546557248
        ],
        "type": "Point"
      },
      "properties": {
        "anchor_kind": "aeroway:aerodrome",
        "anchor_name": "مطار المنيا",
        "archetype": "terminal",
        "chainage_m": 0.0,
        "corridor_offset_m": 0.0,
        "id": "line-2-0459-0399-s000000",
        "junction_group": null,
        "line": "line-2",
        "platform_length_m": 59.5
      },
      "type": "Feature"
    },
    {
      "geometry": {
        "coordinates": [
          30.755904463907605,
          28.108544599215346
        ],
        "type": "Point"
      },
      "properties": {
        "anchor_kind": null,
        "anchor_name": null,
        "archetype": "interchange",
        "chainage_m": 2697.8,
        "corridor_offset_m": 14.14,
        "id": "line-2-0431-0522-s002698",
        "junction_group": 0,
        "line": "line-2",
        "platform_length_m": 59.5
      },
      "type": "Feature"
    },
    {
      "geometry": {
        "coordinates": [
          30.809666719355658,
          28.119882467696073
        ],
        "type": "Point"
      },
      "properties": {
        "anchor_kind": null,
        "anchor_name": null,
        "archetype": "standard",
        "chainage_m": 8529.0,
        "corridor_offset_m": 0.716,
        "id": "line-2-0368-0786-s008529",
        "junction_group": null,
        "line": "line-2",
        "platform_length_m": 59.5
      },
      "type": "Feature"
    },
    {
      "geometry": {
        "coordinates": [
          30.856505047965705,
          28.127980945182305
        ],
        "type": "Point"
      },
      "properties": {
        "anchor_kind": "place:neighbourhood",
        "anchor_name": "بلوك ج",
        "archetype": "terminal",
        "chainage_m": 14377.8,
        "corridor_offset_m": 0.0,
        "id": "line-2-0323-1016-s014378",
        "junction_group": null,
        "line": "line-2",
        "platform_length_m": 59.5
      },
      "type": "Feature"
    },
    {
      "geometry": {
        "coordinates": [
          30.77260334628162,
          28.063553057625167
        ],
        "type": "Point"
      },
      "properties": {
        "anchor_kind": "place:neighbourhood",
        "anchor_name": "عزبة صادق قليني",
        "archetype": "terminal",
        "chainage_m": 0.0,
        "corridor_offset_m": 0.0,
        "id": "line-3-0681-0604-s000000",
        "junction_group": null,
        "line": "line-3",
        "platform_length_m": 59.5
      },
      "type": "Feature"
    },
    {
      "geometry": {
        "coordinates": [
          30.80172456798265,
          28.080289911096713
        ],
        "type": "Point"
      },
      "properties": {
        "anchor_kind": null,
        "anchor_name": null,
        "archetype": "interchange",
        "chainage_m": 3817.9,
        "corridor_offset_m": 0.155,
        "id": "line-3-0588-0747-s003818",
        "junction_group": 1,
        "line": "line-3",
        "platform_length_m": 59.5
      },
      "type": "Feature"
    },
    {
      "geometry": {
        "coordinates": [
          30.817201580914666,
          28.08928821941475
        ],
        "type": "Point"
      },
      "properties": {
        "anchor_kind": "place:neighbourhood",
        "anchor_name": "بلوك و",
        "archetype": "major",
        "chainage_m": 5857.5,
        "corridor_offset_m": 0.164,
        "id": "line-3-0538-0823-s005858",
        "junction_group": null,
        "line": "line-3",
        "platform_length_m": 59.5
      },
      "type": "Feature"
    },
    {
      "geometry": {
        "coordinates": [
          30.832882238753683,
          28.098466493899146
        ],
        "type": "Point"
      },
      "properties": {
        "anchor_kind": null,
        "anchor_name": null,
        "archetype": "halt",
        "chainage_m": 7913.8,
        "corridor_offset_m": 0.301,
        "id": "line-3-0487-0900-s007914",
        "junction_group": null,
        "line": "line-3",
        "platform_length_m": 55.5
      },
      "type": "Feature"
    },
    {
      "geometry": {
        "coordinates": [
          30.857523272500707,
          28.117182975200663
        ],
        "type": "Point"
      },
      "properties": {
        "anchor_kind": "place:neighbourhood",
        "anchor_name": "بلوك ز",
        "archetype": "terminal",
        "chainage_m": 11990.8,
        "corridor_offset_m": 0.0,
        "id": "line-3-0383-1021-s011991",
        "junction_group": null,
        "line": "line-3",
        "platform_length_m": 59.5
      },
      "type": "Feature"
    }
  ],
  "type": "FeatureCollection"
}
