{
  "features": [
    {
      "geometry": {
        "coordinates": [
          31.4675637,
          30.67267266
        ],
        "type": "Point"
      },
      "properties": {
        "chainage_m": 0.0,
        "civil_class": "at-grade",
        "investigation_flags": [
          "fine-soil-plasticity-and-shrink-swell-tests",
          "granular-density-and-groundwater-tests"
        ],
        "lat": 30.67267266,
        "line": "line-1",
        "lon": 31.4675637,
        "sample_id": "segment:line-1-civil-001:0000",
        "scope_id": "line-1-civil-001",
        "scope_type": "civil_segment"
      },
      "type": "Feature"
    },
    {
      "geometry": {
        "coordinates": [
          31.46485057,
          30.66504787
        ],
        "type": "Point"
      },
      "properties": {
        "chainage_m": 1001.206,
        "civil_class": "at-grade",
        "investigation_flags": [
          "fine-soil-plasticity-and-shrink-swell-tests",
          "granular-density-and-groundwater-tests"
        ],
        "lat": 30.66504787,
        "line": "line-1",
        "lon": 31.46485057,
        "sample_id": "segment:line-1-civil-001:0001",
        "scope_id": "line-1-civil-001",
        "scope_type": "civil_segment"
      },
      "type": "Feature"
    },
    {
      "geometry": {
        "coordinates": [
          31.46991668,
          30.65984569
        ],
        "type": "Point"
      },
      "properties": {
        "chainage_m": 1780.35,
        "civil_class": "at-grade",
        "investigation_flags": [
          "acidic-soil-durability-testing",
          "fine-soil-plasticity-and-shrink-swell-tests",
          "granular-density-and-groundwater-tests"
        ],
        "lat": 30.65984569,
        "line": "line-1",
        "lon": 31.46991668,
        "sample_id": "segment:line-1-civil-001:0002",
        "scope_id": "line-1-civil-001",
        "scope_type": "civil_segment"
      },
      "type": "Feature"
    },
    {
      "geometry": {
        "coordinates": [
          31.47155513,
          30.65843285
        ],
        "type": "Point"
      },
      "properties": {
        "chainage_m": 2002.412,
        "civil_class": "at-grade",
        "investigation_flags": [
          "acidic-soil-durability-testing",
          "fine-soil-plasticity-and-shrink-swell-tests",
          "granular-density-and-groundwater-tests"
        ],
        "lat": 30.65843285,
        "line": "line-1",
        "lon": 31.47155513,
        "sample_id": "segment:line-1-civil-001:0003",
        "scope_id": "line-1-civil-001",
        "scope_type": "civil_segment"
      },
      "type": "Feature"
    },
    {
      "geometry": {
        "coordinates": [
          31.47762986,
          30.65161661
        ],
        "type": "Point"
      },
      "properties": {
        "chainage_m": 3003.618,
        "civil_class": "at-grade",
        "investigation_flags": [
          "fine-soil-plasticity-and-shrink-swell-tests",
          "granular-density-and-groundwater-tests"
        ],
        "lat": 30.65161661,
        "line": "line-1",
        "lon": 31.47762986,
        "sample_id": "segment:line-1-civil-001:0004",
        "scope_id": "line-1-civil-001",
        "scope_type": "civil_segment"
      },
      "type": "Feature"
    },
    {
      "geometry": {
        "coordinates": [
          31.4815468,
          30.64818974
        ],
        "type": "Point"
      },
      "properties": {
        "chainage_m": 3560.7,
        "civil_class": "at-grade",
        "investigation_flags": [
          "acidic-soil-durability-testing",
          "fine-soil-plasticity-and-shrink-swell-tests",
          "granular-density-and-groundwater-tests"
        ],
        "lat": 30.64818974,
        "line": "line-1",
        "lon": 31.4815468,
        "sample_id": "segment:line-1-civil-001:0005",
        "scope_id": "line-1-civil-001",
        "scope_type": "civil_segment"
      },
      "type": "Feature"
    },
    {
      "geometry": {
        "coordinates": [
          31.4815468,
          30.64818974
        ],
        "type": "Point"
      },
      "properties": {
        "chainage_m": 3560.7,
        "civil_class": "elevated",
        "investigation_flags": [
          "acidic-soil-durability-testing",
          "fine-soil-plasticity-and-shrink-swell-tests",
          "granular-density-and-groundwater-tests"
        ],
        "lat": 30.64818974,
        "line": "line-1",
        "lon": 31.4815468,
        "sample_id": "segment:line-1-civil-002:0000",
        "scope_id": "line-1-civil-002",
        "scope_type": "civil_segment"
      },
      "type": "Feature"
    },
    {
      "geometry": {
        "coordinates": [
          31.48451834,
          30.6402359
        ],
        "type": "Point"
      },
      "properties": {
        "chainage_m": 4562.584,
        "civil_class": "elevated",
        "investigation_flags": [
          "acidic-soil-durability-testing",
          "fine-soil-plasticity-and-shrink-swell-tests",
          "granular-density-and-groundwater-tests"
        ],
        "lat": 30.6402359,
        "line": "line-1",
        "lon": 31.48451834,
        "sample_id": "segment:line-1-civil-002:0001",
        "scope_id": "line-1-civil-002",
        "scope_type": "civil_segment"
      },
      "type": "Feature"
    },
    {
      "geometry": {
        "coordinates": [
          31.48759919,
          30.63242701
        ],
        "type": "Point"
      },
      "properties": {
        "chainage_m": 5564.469,
        "civil_class": "elevated",
        "investigation_flags": [
          "acidic-soil-durability-testing",
          "fine-soil-plasticity-and-shrink-swell-tests",
          "granular-density-and-groundwater-tests"
        ],
        "lat": 30.63242701,
        "line": "line-1",
        "lon": 31.48759919,
        "sample_id": "segment:line-1-civil-002:0002",
        "scope_id": "line-1-civil-002",
        "scope_type": "civil_segment"
      },
      "type": "Feature"
    },
    {
      "geometry": {
        "coordinates": [
          31.49057058,
          30.62457897
        ],
        "type": "Point"
      },
      "properties": {
        "chainage_m": 6566.353,
        "civil_class": "elevated",
        "investigation_flags": [
          "acidic-soil-durability-testing",
          "fine-soil-plasticity-and-shrink-swell-tests",
          "granular-density-and-groundwater-tests"
        ],
        "lat": 30.62457897,
        "line": "line-1",
        "lon": 31.49057058,
        "sample_id": "segment:line-1-civil-002:0003",
        "scope_id": "line-1-civil-002",
        "scope_type": "civil_segment"
      },
      "type": "Feature"
    },
    {
      "geometry": {
        "coordinates": [
          31.49281677,
          30.61858029
        ],
        "type": "Point"
      },
      "properties": {
        "chainage_m": 7345.65,
        "civil_class": "elevated",
        "investigation_flags": [
          "acidic-soil-durability-testing",
          "fine-soil-plasticity-and-shrink-swell-tests",
          "granular-density-and-groundwater-tests"
        ],
        "lat": 30.61858029,
        "line": "line-1",
        "lon": 31.49281677,
        "sample_id": "segment:line-1-civil-002:0004",
        "scope_id": "line-1-civil-002",
        "scope_type": "civil_segment"
      },
      "type": "Feature"
    },
    {
      "geometry": {
        "coordinates": [
          31.49351008,
          30.6168252
        ],
        "type": "Point"
      },
      "properties": {
        "chainage_m": 7568.237,
        "civil_class": "elevated",
        "investigation_flags": [
          "acidic-soil-durability-testing",
          "fine-soil-plasticity-and-shrink-swell-tests",
          "granular-density-and-groundwater-tests"
        ],
        "lat": 30.6168252,
        "line": "line-1",
        "lon": 31.49351008,
        "sample_id": "segment:line-1-civil-002:0005",
        "scope_id": "line-1-civil-002",
        "scope_type": "civil_segment"
      },
      "type": "Feature"
    },
    {
      "geometry": {
        "coordinates": [
          31.49657342,
          30.60890487
        ],
        "type": "Point"
      },
      "properties": {
        "chainage_m": 8570.122,
        "civil_class": "elevated",
        "investigation_flags": [
          "acidic-soil-durability-testing",
          "fine-soil-plasticity-and-shrink-swell-tests",
          "granular-density-and-groundwater-tests"
        ],
        "lat": 30.60890487,
        "line": "line-1",
        "lon": 31.49657342,
        "sample_id": "segment:line-1-civil-002:0006",
        "scope_id": "line-1-civil-002",
        "scope_type": "civil_segment"
      },
      "type": "Feature"
    },
    {
      "geometry": {
        "coordinates": [
          31.49958715,
          30.60096688
        ],
        "type": "Point"
      },
      "properties": {
        "chainage_m": 9572.006,
        "civil_class": "elevated",
        "investigation_flags": [
          "fine-soil-plasticity-and-shrink-swell-tests",
          "granular-density-and-groundwater-tests"
        ],
        "lat": 30.60096688,
        "line": "line-1",
        "lon": 31.49958715,
        "sample_id": "segment:line-1-civil-002:0007",
        "scope_id": "line-1-civil-002",
        "scope_type": "civil_segment"
      },
      "type": "Feature"
    },
    {
      "geometry": {
        "coordinates": [
          31.50262581,
          30.59303798
        ],
        "type": "Point"
      },
      "properties": {
        "chainage_m": 10573.89,
        "civil_class": "elevated",
        "investigation_flags": [
          "fine-soil-plasticity-and-shrink-swell-tests",
          "granular-density-and-groundwater-tests"
        ],
        "lat": 30.59303798,
        "line": "line-1",
        "lon": 31.50262581,
        "sample_id": "segment:line-1-civil-002:0008",
        "scope_id": "line-1-civil-002",
        "scope_type": "civil_segment"
      },
      "type": "Feature"
    },
    {
      "geometry": {
        "coordinates": [
          31.50429787,
          30.58862635
        ],
        "type": "Point"
      },
      "properties": {
        "chainage_m": 11130.6,
        "civil_class": "elevated",
        "investigation_flags": [
          "granular-density-and-groundwater-tests"
        ],
        "lat": 30.58862635,
        "line": "line-1",
        "lon": 31.50429787,
        "sample_id": "segment:line-1-civil-002:0009",
        "scope_id": "line-1-civil-002",
        "scope_type": "civil_segment"
      },
      "type": "Feature"
    },
    {
      "geometry": {
        "coordinates": [
          31.50429787,
          30.58862635
        ],
        "type": "Point"
      },
      "properties": {
        "chainage_m": 11130.6,
        "civil_class": "bridge",
        "investigation_flags": [
          "granular-density-and-groundwater-tests"
        ],
        "lat": 30.58862635,
        "line": "line-1",
        "lon": 31.50429787,
        "sample_id": "segment:line-1-civil-003:0000",
        "scope_id": "line-1-civil-003",
        "scope_type": "civil_segment"
      },
      "type": "Feature"
    },
    {
      "geometry": {
        "coordinates": [
          31.50440232,
          30.58853628
        ],
        "type": "Point"
      },
      "properties": {
        "chainage_m": 11144.75,
        "civil_class": "bridge",
        "investigation_flags": [
          "granular-density-and-groundwater-tests"
        ],
        "lat": 30.58853628,
        "line": "line-1",
        "lon": 31.50440232,
        "sample_id": "segment:line-1-civil-003:0001",
        "scope_id": "line-1-civil-003",
        "scope_type": "civil_segment"
      },
      "type": "Feature"
    },
    {
      "geometry": {
        "coordinates": [
          31.50450413,
          30.58844526
        ],
        "type": "Point"
      },
      "properties": {
        "chainage_m": 11158.9,
        "civil_class": "bridge",
        "investigation_flags": [
          "granular-density-and-groundwater-tests"
        ],
        "lat": 30.58844526,
        "line": "line-1",
        "lon": 31.50450413,
        "sample_id": "segment:line-1-civil-003:0002",
        "scope_id": "line-1-civil-003",
        "scope_type": "civil_segment"
      },
      "type": "Feature"
    },
    {
      "geometry": {
        "coordinates": [
          31.50450413,
          30.58844526
        ],
        "type": "Point"
      },
      "properties": {
        "chainage_m": 11158.9,
        "civil_class": "elevated",
        "investigation_flags": [
          "granular-density-and-groundwater-tests"
        ],
        "lat": 30.58844526,
        "line": "line-1",
        "lon": 31.50450413,
        "sample_id": "segment:line-1-civil-004:0000",
        "scope_id": "line-1-civil-004",
        "scope_type": "civil_segment"
      },
      "type": "Feature"
    },
    {
      "geometry": {
        "coordinates": [
          31.50742598,
          30.58047463
        ],
        "type": "Point"
      },
      "properties": {
        "chainage_m": 12160.684,
        "civil_class": "elevated",
        "investigation_flags": [
          "granular-density-and-groundwater-tests"
        ],
        "lat": 30.58047463,
        "line": "line-1",
        "lon": 31.50742598,
        "sample_id": "segment:line-1-civil-004:0001",
        "scope_id": "line-1-civil-004",
        "scope_type": "civil_segment"
      },
      "type": "Feature"
    },
    {
      "geometry": {
        "coordinates": [
          31.51041012,
          30.57273771
        ],
        "type": "Point"
      },
      "properties": {
        "chainage_m": 13162.467,
        "civil_class": "elevated",
        "investigation_flags": [
          "fine-soil-plasticity-and-shrink-swell-tests",
          "granular-density-and-groundwater-tests"
        ],
        "lat": 30.57273771,
        "line": "line-1",
        "lon": 31.51041012,
        "sample_id": "segment:line-1-civil-004:0002",
        "scope_id": "line-1-civil-004",
        "scope_type": "civil_segment"
      },
      "type": "Feature"
    },
    {
      "geometry": {
        "coordinates": [
          31.51137557,
          30.57045187
        ],
        "type": "Point"
      },
      "properties": {
        "chainage_m": 13465.7,
        "civil_class": "elevated",
        "investigation_flags": [
          "fine-soil-plasticity-and-shrink-swell-tests",
          "granular-density-and-groundwater-tests"
        ],
        "lat": 30.57045187,
        "line": "line-1",
        "lon": 31.51137557,
        "sample_id": "segment:line-1-civil-004:0003",
        "scope_id": "line-1-civil-004",
        "scope_type": "civil_segment"
      },
      "type": "Feature"
    },
    {
      "geometry": {
        "coordinates": [
          31.51347836,
          30.56503116
        ],
        "type": "Point"
      },
      "properties": {
        "chainage_m": 14164.251,
        "civil_class": "elevated",
        "investigation_flags": [
          "granular-density-and-groundwater-tests"
        ],
        "lat": 30.56503116,
        "line": "line-1",
        "lon": 31.51347836,
        "sample_id": "segment:line-1-civil-004:0004",
        "scope_id": "line-1-civil-004",
        "scope_type": "civil_segment"
      },
      "type": "Feature"
    },
    {
      "geometry": {
        "coordinates": [
          31.51646032,
          30.55708254
        ],
        "type": "Point"
      },
      "properties": {
        "chainage_m": 15166.035,
        "civil_class": "elevated",
        "investigation_flags": [
          "fine-soil-plasticity-and-shrink-swell-tests",
          "granular-density-and-groundwater-tests"
        ],
        "lat": 30.55708254,
        "line": "line-1",
        "lon": 31.51646032,
        "sample_id": "segment:line-1-civil-004:0005",
        "scope_id": "line-1-civil-004",
        "scope_type": "civil_segment"
      },
      "type": "Feature"
    },
    {
      "geometry": {
        "coordinates": [
          31.51827853,
          30.55227529
        ],
        "type": "Point"
      },
      "properties": {
        "chainage_m": 15772.5,
        "civil_class": "elevated",
        "investigation_flags": [
          "fine-soil-plasticity-and-shrink-swell-tests",
          "granular-density-and-groundwater-tests"
        ],
        "lat": 30.55227529,
        "line": "line-1",
        "lon": 31.51827853,
        "sample_id": "segment:line-1-civil-004:0006",
        "scope_id": "line-1-civil-004",
        "scope_type": "civil_segment"
      },
      "type": "Feature"
    },
    {
      "geometry": {
        "coordinates": [
          31.47695534,
          30.59186785
        ],
        "type": "Point"
      },
      "properties": {
        "chainage_m": 0.0,
        "civil_class": "elevated",
        "investigation_flags": [
          "fine-soil-plasticity-and-shrink-swell-tests",
          "granular-density-and-groundwater-tests"
        ],
        "lat": 30.59186785,
        "line": "line-2",
        "lon": 31.47695534,
        "sample_id": "segment:line-2-civil-005:0000",
        "scope_id": "line-2-civil-005",
        "scope_type": "civil_segment"
      },
      "type": "Feature"
    },
    {
      "geometry": {
        "coordinates": [
          31.48647105,
          30.5899612
        ],
        "type": "Point"
      },
      "properties": {
        "chainage_m": 999.628,
        "civil_class": "elevated",
        "investigation_flags": [
          "granular-density-and-groundwater-tests"
        ],
        "lat": 30.5899612,
        "line": "line-2",
        "lon": 31.48647105,
        "sample_id": "segment:line-2-civil-005:0001",
        "scope_id": "line-2-civil-005",
        "scope_type": "civil_segment"
      },
      "type": "Feature"
    },
    {
      "geometry": {
        "coordinates": [
          31.48985204,
          30.58934832
        ],
        "type": "Point"
      },
      "properties": {
        "chainage_m": 1351.85,
        "civil_class": "elevated",
        "investigation_flags": [
          "granular-density-and-groundwater-tests"
        ],
        "lat": 30.58934832,
        "line": "line-2",
        "lon": 31.48985204,
        "sample_id": "segment:line-2-civil-005:0002",
        "scope_id": "line-2-civil-005",
        "scope_type": "civil_segment"
      },
      "type": "Feature"
    },
    {
      "geometry": {
        "coordinates": [
          31.49588077,
          30.58808856
        ],
        "type": "Point"
      },
      "properties": {
        "chainage_m": 1999.257,
        "civil_class": "elevated",
        "investigation_flags": [
          "fine-soil-plasticity-and-shrink-swell-tests",
          "granular-density-and-groundwater-tests"
        ],
        "lat": 30.58808856,
        "line": "line-2",
        "lon": 31.49588077,
        "sample_id": "segment:line-2-civil-005:0003",
        "scope_id": "line-2-civil-005",
        "scope_type": "civil_segment"
      },
      "type": "Feature"
    },
    {
      "geometry": {
        "coordinates": [
          31.50262581,
          30.58682831
        ],
        "type": "Point"
      },
      "properties": {
        "chainage_m": 2703.7,
        "civil_class": "elevated",
        "investigation_flags": [
          "granular-density-and-groundwater-tests"
        ],
        "lat": 30.58682831,
        "line": "line-2",
        "lon": 31.50262581,
        "sample_id": "segment:line-2-civil-005:0004",
        "scope_id": "line-2-civil-005",
        "scope_type": "civil_segment"
      },
      "type": "Feature"
    },
    {
      "geometry": {
        "coordinates": [
          31.50262581,
          30.58682831
        ],
        "type": "Point"
      },
      "properties": {
        "chainage_m": 2703.7,
        "civil_class": "bridge",
        "investigation_flags": [
          "granular-density-and-groundwater-tests"
        ],
        "lat": 30.58682831,
        "line": "line-2",
        "lon": 31.50262581,
        "sample_id": "segment:line-2-civil-006:0000",
        "scope_id": "line-2-civil-006",
        "scope_type": "civil_segment"
      },
      "type": "Feature"
    },
    {
      "geometry": {
        "coordinates": [
          31.50262658,
          30.58664883
        ],
        "type": "Point"
      },
      "properties": {
        "chainage_m": 2723.7,
        "civil_class": "bridge",
        "investigation_flags": [
          "granular-density-and-groundwater-tests"
        ],
        "lat": 30.58664883,
        "line": "line-2",
        "lon": 31.50262658,
        "sample_id": "segment:line-2-civil-006:0001",
        "scope_id": "line-2-civil-006",
        "scope_type": "civil_segment"
      },
      "type": "Feature"
    },
    {
      "geometry": {
        "coordinates": [
          31.50283481,
          30.58664883
        ],
        "type": "Point"
      },
      "properties": {
        "chainage_m": 2743.7,
        "civil_class": "bridge",
        "investigation_flags": [
          "granular-density-and-groundwater-tests"
        ],
        "lat": 30.58664883,
        "line": "line-2",
        "lon": 31.50283481,
        "sample_id": "segment:line-2-civil-006:0002",
        "scope_id": "line-2-civil-006",
        "scope_type": "civil_segment"
      },
      "type": "Feature"
    },
    {
      "geometry": {
        "coordinates": [
          31.50283481,
          30.58664883
        ],
        "type": "Point"
      },
      "properties": {
        "chainage_m": 2743.7,
        "civil_class": "elevated",
        "investigation_flags": [
          "granular-density-and-groundwater-tests"
        ],
        "lat": 30.58664883,
        "line": "line-2",
        "lon": 31.50283481,
        "sample_id": "segment:line-2-civil-007:0000",
        "scope_id": "line-2-civil-007",
        "scope_type": "civil_segment"
      },
      "type": "Feature"
    },
    {
      "geometry": {
        "coordinates": [
          31.51240115,
          30.58484917
        ],
        "type": "Point"
      },
      "properties": {
        "chainage_m": 3743.267,
        "civil_class": "elevated",
        "investigation_flags": [
          "fine-soil-plasticity-and-shrink-swell-tests",
          "granular-density-and-groundwater-tests"
        ],
        "lat": 30.58484917,
        "line": "line-2",
        "lon": 31.51240115,
        "sample_id": "segment:line-2-civil-007:0001",
        "scope_id": "line-2-civil-007",
        "scope_type": "civil_segment"
      },
      "type": "Feature"
    },
    {
      "geometry": {
        "coordinates": [
          31.52188135,
          30.58286954
        ],
        "type": "Point"
      },
      "properties": {
        "chainage_m": 4742.835,
        "civil_class": "elevated",
        "investigation_flags": [
          "fine-soil-plasticity-and-shrink-swell-tests",
          "granular-density-and-groundwater-tests"
        ],
        "lat": 30.58286954,
        "line": "line-2",
        "lon": 31.52188135,
        "sample_id": "segment:line-2-civil-007:0002",
        "scope_id": "line-2-civil-007",
        "scope_type": "civil_segment"
      },
      "type": "Feature"
    },
    {
      "geometry": {
        "coordinates": [
          31.53050081,
          30.58114852
        ],
        "type": "Point"
      },
      "properties": {
        "chainage_m": 5648.05,
        "civil_class": "elevated",
        "investigation_flags": [
          "acidic-soil-durability-testing",
          "fine-soil-plasticity-and-shrink-swell-tests",
          "granular-density-and-groundwater-tests"
        ],
        "lat": 30.58114852,
        "line": "line-2",
        "lon": 31.53050081,
        "sample_id": "segment:line-2-civil-007:0003",
        "scope_id": "line-2-civil-007",
        "scope_type": "civil_segment"
      },
      "type": "Feature"
    },
    {
      "geometry": {
        "coordinates": [
          31.53144136,
          30.58105734
        ],
        "type": "Point"
      },
      "properties": {
        "chainage_m": 5742.402,
        "civil_class": "elevated",
        "investigation_flags": [
          "granular-density-and-groundwater-tests"
        ],
        "lat": 30.58105734,
        "line": "line-2",
        "lon": 31.53144136,
        "sample_id": "segment:line-2-civil-007:0004",
        "scope_id": "line-2-civil-007",
        "scope_type": "civil_segment"
      },
      "type": "Feature"
    },
    {
      "geometry": {
        "coordinates": [
          31.54068311,
          30.57909025
        ],
        "type": "Point"
      },
      "properties": {
        "chainage_m": 6741.97,
        "civil_class": "elevated",
        "investigation_flags": [
          "fine-soil-plasticity-and-shrink-swell-tests",
          "granular-density-and-groundwater-tests"
        ],
        "lat": 30.57909025,
        "line": "line-2",
        "lon": 31.54068311,
        "sample_id": "segment:line-2-civil-007:0005",
        "scope_id": "line-2-civil-007",
        "scope_type": "civil_segment"
      },
      "type": "Feature"
    },
    {
      "geometry": {
        "coordinates": [
          31.55023748,
          30.57726697
        ],
        "type": "Point"
      },
      "properties": {
        "chainage_m": 7741.537,
        "civil_class": "elevated",
        "investigation_flags": [
          "acidic-soil-durability-testing",
          "fine-soil-plasticity-and-shrink-swell-tests",
          "granular-density-and-groundwater-tests"
        ],
        "lat": 30.57726697,
        "line": "line-2",
        "lon": 31.55023748,
        "sample_id": "segment:line-2-civil-007:0006",
        "scope_id": "line-2-civil-007",
        "scope_type": "civil_segment"
      },
      "type": "Feature"
    },
    {
      "geometry": {
        "coordinates": [
          31.5579321,
          30.57567089
        ],
        "type": "Point"
      },
      "properties": {
        "chainage_m": 8552.4,
        "civil_class": "elevated",
        "investigation_flags": [
          "fine-soil-plasticity-and-shrink-swell-tests",
          "granular-density-and-groundwater-tests"
        ],
        "lat": 30.57567089,
        "line": "line-2",
        "lon": 31.5579321,
        "sample_id": "segment:line-2-civil-007:0007",
        "scope_id": "line-2-civil-007",
        "scope_type": "civil_segment"
      },
      "type": "Feature"
    },
    {
      "geometry": {
        "coordinates": [
          31.42665792,
          30.62300199
        ],
        "type": "Point"
      },
      "properties": {
        "chainage_m": 0.0,
        "civil_class": "elevated",
        "investigation_flags": [
          "fine-soil-plasticity-and-shrink-swell-tests",
          "granular-density-and-groundwater-tests"
        ],
        "lat": 30.62300199,
        "line": "line-3",
        "lon": 31.42665792,
        "sample_id": "segment:line-3-civil-008:0000",
        "scope_id": "line-3-civil-008",
        "scope_type": "civil_segment"
      },
      "type": "Feature"
    },
    {
      "geometry": {
        "coordinates": [
          31.42676226,
          30.62291202
        ],
        "type": "Point"
      },
      "properties": {
        "chainage_m": 14.15,
        "civil_class": "elevated",
        "investigation_flags": [
          "fine-soil-plasticity-and-shrink-swell-tests",
          "granular-density-and-groundwater-tests"
        ],
        "lat": 30.62291202,
        "line": "line-3",
        "lon": 31.42676226,
        "sample_id": "segment:line-3-civil-008:0001",
        "scope_id": "line-3-civil-008",
        "scope_type": "civil_segment"
      },
      "type": "Feature"
    },
    {
      "geometry": {
        "coordinates": [
          31.4268666,
          30.62282205
        ],
        "type": "Point"
      },
      "properties": {
        "chainage_m": 28.3,
        "civil_class": "elevated",
        "investigation_flags": [
          "fine-soil-plasticity-and-shrink-swell-tests",
          "granular-density-and-groundwater-tests"
        ],
        "lat": 30.62282205,
        "line": "line-3",
        "lon": 31.4268666,
        "sample_id": "segment:line-3-civil-008:0002",
        "scope_id": "line-3-civil-008",
        "scope_type": "civil_segment"
      },
      "type": "Feature"
    },
    {
      "geometry": {
        "coordinates": [
          31.4268666,
          30.62282205
        ],
        "type": "Point"
      },
      "properties": {
        "chainage_m": 28.3,
        "civil_class": "at-grade",
        "investigation_flags": [
          "fine-soil-plasticity-and-shrink-swell-tests",
          "granular-density-and-groundwater-tests"
        ],
        "lat": 30.62282205,
        "line": "line-3",
        "lon": 31.4268666,
        "sample_id": "segment:line-3-civil-009:0000",
        "scope_id": "line-3-civil-009",
        "scope_type": "civil_segment"
      },
      "type": "Feature"
    },
    {
      "geometry": {
        "coordinates": [
          31.43106914,
          30.620098
        ],
        "type": "Point"
      },
      "properties": {
        "chainage_m": 556.7,
        "civil_class": "at-grade",
        "investigation_flags": [
          "acidic-soil-durability-testing",
          "fine-soil-plasticity-and-shrink-swell-tests",
          "granular-density-and-groundwater-tests"
        ],
        "lat": 30.620098,
        "line": "line-3",
        "lon": 31.43106914,
        "sample_id": "segment:line-3-civil-009:0001",
        "scope_id": "line-3-civil-009",
        "scope_type": "civil_segment"
      },
      "type": "Feature"
    },
    {
      "geometry": {
        "coordinates": [
          31.43473963,
          30.61747281
        ],
        "type": "Point"
      },
      "properties": {
        "chainage_m": 1029.499,
        "civil_class": "at-grade",
        "investigation_flags": [
          "acidic-soil-durability-testing",
          "fine-soil-plasticity-and-shrink-swell-tests",
          "granular-density-and-groundwater-tests"
        ],
        "lat": 30.61747281,
        "line": "line-3",
        "lon": 31.43473963,
        "sample_id": "segment:line-3-civil-009:0002",
        "scope_id": "line-3-civil-009",
        "scope_type": "civil_segment"
      },
      "type": "Feature"
    },
    {
      "geometry": {
        "coordinates": [
          31.43520902,
          30.61724308
        ],
        "type": "Point"
      },
      "properties": {
        "chainage_m": 1085.1,
        "civil_class": "at-grade",
        "investigation_flags": [
          "fine-soil-plasticity-and-shrink-swell-tests",
          "granular-density-and-groundwater-tests"
        ],
        "lat": 30.61724308,
        "line": "line-3",
        "lon": 31.43520902,
        "sample_id": "segment:line-3-civil-009:0003",
        "scope_id": "line-3-civil-009",
        "scope_type": "civil_segment"
      },
      "type": "Feature"
    },
    {
      "geometry": {
        "coordinates": [
          31.43520902,
          30.61724308
        ],
        "type": "Point"
      },
      "properties": {
        "chainage_m": 1085.1,
        "civil_class": "elevated",
        "investigation_flags": [
          "fine-soil-plasticity-and-shrink-swell-tests",
          "granular-density-and-groundwater-tests"
        ],
        "lat": 30.61724308,
        "line": "line-3",
        "lon": 31.43520902,
        "sample_id": "segment:line-3-civil-010:0000",
        "scope_id": "line-3-civil-010",
        "scope_type": "civil_segment"
      },
      "type": "Feature"
    },
    {
      "geometry": {
        "coordinates": [
          31.4449502,
          30.61580335
        ],
        "type": "Point"
      },
      "properties": {
        "chainage_m": 2084.766,
        "civil_class": "elevated",
        "investigation_flags": [
          "fine-soil-plasticity-and-shrink-swell-tests",
          "granular-density-and-groundwater-tests"
        ],
        "lat": 30.61580335,
        "line": "line-3",
        "lon": 31.4449502,
        "sample_id": "segment:line-3-civil-010:0001",
        "scope_id": "line-3-civil-010",
        "scope_type": "civil_segment"
      },
      "type": "Feature"
    },
    {
      "geometry": {
        "coordinates": [
          31.45469124,
          30.61436362
        ],
        "type": "Point"
      },
      "properties": {
        "chainage_m": 3084.431,
        "civil_class": "elevated",
        "investigation_flags": [
          "fine-soil-plasticity-and-shrink-swell-tests",
          "granular-density-and-groundwater-tests"
        ],
        "lat": 30.61436362,
        "line": "line-3",
        "lon": 31.45469124,
        "sample_id": "segment:line-3-civil-010:0002",
        "scope_id": "line-3-civil-010",
        "scope_type": "civil_segment"
      },
      "type": "Feature"
    },
    {
      "geometry": {
        "coordinates": [
          31.46437153,
          30.61279707
        ],
        "type": "Point"
      },
      "properties": {
        "chainage_m": 4084.097,
        "civil_class": "elevated",
        "investigation_flags": [
          "fine-soil-plasticity-and-shrink-swell-tests",
          "granular-density-and-groundwater-tests"
        ],
        "lat": 30.61279707,
        "line": "line-3",
        "lon": 31.46437153,
        "sample_id": "segment:line-3-civil-010:0003",
        "scope_id": "line-3-civil-010",
        "scope_type": "civil_segment"
      },
      "type": "Feature"
    },
    {
      "geometry": {
        "coordinates": [
          31.47408689,
          30.61130419
        ],
        "type": "Point"
      },
      "properties": {
        "chainage_m": 5083.763,
        "civil_class": "elevated",
        "investigation_flags": [
          "acidic-soil-durability-testing",
          "fine-soil-plasticity-and-shrink-swell-tests",
          "granular-density-and-groundwater-tests"
        ],
        "lat": 30.61130419,
        "line": "line-3",
        "lon": 31.47408689,
        "sample_id": "segment:line-3-civil-010:0004",
        "scope_id": "line-3-civil-010",
        "scope_type": "civil_segment"
      },
      "type": "Feature"
    },
    {
      "geometry": {
        "coordinates": [
          31.4838275,
          30.60986446
        ],
        "type": "Point"
      },
      "properties": {
        "chainage_m": 6083.429,
        "civil_class": "elevated",
        "investigation_flags": [
          "acidic-soil-durability-testing",
          "fine-soil-plasticity-and-shrink-swell-tests",
          "granular-density-and-groundwater-tests"
        ],
        "lat": 30.60986446,
        "line": "line-3",
        "lon": 31.4838275,
        "sample_id": "segment:line-3-civil-010:0005",
        "scope_id": "line-3-civil-010",
        "scope_type": "civil_segment"
      },
      "type": "Feature"
    },
    {
      "geometry": {
        "coordinates": [
          31.48902916,
          30.60899133
        ],
        "type": "Point"
      },
      "properties": {
        "chainage_m": 6622.05,
        "civil_class": "elevated",
        "investigation_flags": [
          "acidic-soil-durability-testing",
          "fine-soil-plasticity-and-shrink-swell-tests",
          "granular-density-and-groundwater-tests"
        ],
        "lat": 30.60899133,
        "line": "line-3",
        "lon": 31.48902916,
        "sample_id": "segment:line-3-civil-010:0006",
        "scope_id": "line-3-civil-010",
        "scope_type": "civil_segment"
      },
      "type": "Feature"
    },
    {
      "geometry": {
        "coordinates": [
          31.49356798,
          30.60842473
        ],
        "type": "Point"
      },
      "properties": {
        "chainage_m": 7083.094,
        "civil_class": "elevated",
        "investigation_flags": [
          "acidic-soil-durability-testing",
          "fine-soil-plasticity-and-shrink-swell-tests",
          "granular-density-and-groundwater-tests"
        ],
        "lat": 30.60842473,
        "line": "line-3",
        "lon": 31.49356798,
        "sample_id": "segment:line-3-civil-010:0007",
        "scope_id": "line-3-civil-010",
        "scope_type": "civil_segment"
      },
      "type": "Feature"
    },
    {
      "geometry": {
        "coordinates": [
          31.50329186,
          30.60695056
        ],
        "type": "Point"
      },
      "properties": {
        "chainage_m": 8082.76,
        "civil_class": "elevated",
        "investigation_flags": [
          "fine-soil-plasticity-and-shrink-swell-tests",
          "granular-density-and-groundwater-tests"
        ],
        "lat": 30.60695056,
        "line": "line-3",
        "lon": 31.50329186,
        "sample_id": "segment:line-3-civil-010:0008",
        "scope_id": "line-3-civil-010",
        "scope_type": "civil_segment"
      },
      "type": "Feature"
    },
    {
      "geometry": {
        "coordinates": [
          31.51296252,
          30.60536531
        ],
        "type": "Point"
      },
      "properties": {
        "chainage_m": 9082.426,
        "civil_class": "elevated",
        "investigation_flags": [
          "fine-soil-plasticity-and-shrink-swell-tests",
          "granular-density-and-groundwater-tests"
        ],
        "lat": 30.60536531,
        "line": "line-3",
        "lon": 31.51296252,
        "sample_id": "segment:line-3-civil-010:0009",
        "scope_id": "line-3-civil-010",
        "scope_type": "civil_segment"
      },
      "type": "Feature"
    },
    {
      "geometry": {
        "coordinates": [
          31.52270257,
          30.60392558
        ],
        "type": "Point"
      },
      "properties": {
        "chainage_m": 10082.092,
        "civil_class": "elevated",
        "investigation_flags": [
          "acidic-soil-durability-testing",
          "fine-soil-plasticity-and-shrink-swell-tests",
          "granular-density-and-groundwater-tests"
        ],
        "lat": 30.60392558,
        "line": "line-3",
        "lon": 31.52270257,
        "sample_id": "segment:line-3-civil-010:0010",
        "scope_id": "line-3-civil-010",
        "scope_type": "civil_segment"
      },
      "type": "Feature"
    },
    {
      "geometry": {
        "coordinates": [
          31.53244248,
          30.60248585
        ],
        "type": "Point"
      },
      "properties": {
        "chainage_m": 11081.757,
        "civil_class": "elevated",
        "investigation_flags": [
          "fine-soil-plasticity-and-shrink-swell-tests",
          "granular-density-and-groundwater-tests"
        ],
        "lat": 30.60248585,
        "line": "line-3",
        "lon": 31.53244248,
        "sample_id": "segment:line-3-civil-010:0011",
        "scope_id": "line-3-civil-010",
        "scope_type": "civil_segment"
      },
      "type": "Feature"
    },
    {
      "geometry": {
        "coordinates": [
          31.54218226,
          30.60104612
        ],
        "type": "Point"
      },
      "properties": {
        "chainage_m": 12081.423,
        "civil_class": "elevated",
        "investigation_flags": [
          "fine-soil-plasticity-and-shrink-swell-tests",
          "granular-density-and-groundwater-tests"
        ],
        "lat": 30.60104612,
        "line": "line-3",
        "lon": 31.54218226,
        "sample_id": "segment:line-3-civil-010:0012",
        "scope_id": "line-3-civil-010",
        "scope_type": "civil_segment"
      },
      "type": "Feature"
    },
    {
      "geometry": {
        "coordinates": [
          31.54290548,
          30.60086616
        ],
        "type": "Point"
      },
      "properties": {
        "chainage_m": 12159.0,
        "civil_class": "elevated",
        "investigation_flags": [
          "fine-soil-plasticity-and-shrink-swell-tests",
          "granular-density-and-groundwater-tests"
        ],
        "lat": 30.60086616,
        "line": "line-3",
        "lon": 31.54290548,
        "sample_id": "segment:line-3-civil-010:0013",
        "scope_id": "line-3-civil-010",
        "scope_type": "civil_segment"
      },
      "type": "Feature"
    },
    {
      "geometry": {
        "coordinates": [
          31.4675637,
          30.67267266
        ],
        "type": "Point"
      },
      "properties": {
        "chainage_m": 0.0,
        "civil_class": "station",
        "investigation_flags": [
          "fine-soil-plasticity-and-shrink-swell-tests",
          "granular-density-and-groundwater-tests"
        ],
        "lat": 30.67267266,
        "line": "line-1",
        "lon": 31.4675637,
        "sample_id": "station:line-1-0078-0386-s000000",
        "scope_id": "line-1-0078-0386-s000000",
        "scope_type": "station"
      },
      "type": "Feature"
    },
    {
      "geometry": {
        "coordinates": [
          31.4813381,
          30.64855719
        ],
        "type": "Point"
      },
      "properties": {
        "chainage_m": 3512.4,
        "civil_class": "station",
        "investigation_flags": [
          "acidic-soil-durability-testing",
          "fine-soil-plasticity-and-shrink-swell-tests",
          "granular-density-and-groundwater-tests"
        ],
        "lat": 30.64855719,
        "line": "line-1",
        "lon": 31.4813381,
        "sample_id": "station:line-1-0212-0452-s003512",
        "scope_id": "line-1-0212-0452-s003512",
        "scope_type": "station"
      },
      "type": "Feature"
    },
    {
      "geometry": {
        "coordinates": [
          31.49177325,
          30.62120233
        ],
        "type": "Point"
      },
      "properties": {
        "chainage_m": 7001.8,
        "civil_class": "station",
        "investigation_flags": [
          "fine-soil-plasticity-and-shrink-swell-tests",
          "granular-density-and-groundwater-tests"
        ],
        "lat": 30.62120233,
        "line": "line-1",
        "lon": 31.49177325,
        "sample_id": "station:line-1-0364-0502-s007002",
        "scope_id": "line-1-0364-0502-s007002",
        "scope_type": "station"
      },
      "type": "Feature"
    },
    {
      "geometry": {
        "coordinates": [
          31.49699083,
          30.60788484
        ],
        "type": "Point"
      },
      "properties": {
        "chainage_m": 8700.6,
        "civil_class": "station",
        "investigation_flags": [
          "acidic-soil-durability-testing",
          "fine-soil-plasticity-and-shrink-swell-tests",
          "granular-density-and-groundwater-tests"
        ],
        "lat": 30.60788484,
        "line": "line-1",
        "lon": 31.49699083,
        "sample_id": "station:line-1-0438-0527-s008701",
        "scope_id": "line-1-0438-0527-s008701",
        "scope_type": "station"
      },
      "type": "Feature"
    },
    {
      "geometry": {
        "coordinates": [
          31.50095618,
          30.5974468
        ],
        "type": "Point"
      },
      "properties": {
        "chainage_m": 10018.0,
        "civil_class": "station",
        "investigation_flags": [
          "fine-soil-plasticity-and-shrink-swell-tests",
          "granular-density-and-groundwater-tests"
        ],
        "lat": 30.5974468,
        "line": "line-1",
        "lon": 31.50095618,
        "sample_id": "station:line-1-0496-0546-s010018",
        "scope_id": "line-1-0496-0546-s010018",
        "scope_type": "station"
      },
      "type": "Feature"
    },
    {
      "geometry": {
        "coordinates": [
          31.50533895,
          30.58610893
        ],
        "type": "Point"
      },
      "properties": {
        "chainage_m": 11452.0,
        "civil_class": "station",
        "investigation_flags": [
          "granular-density-and-groundwater-tests"
        ],
        "lat": 30.58610893,
        "line": "line-1",
        "lon": 31.50533895,
        "sample_id": "station:line-1-0559-0567-s011452",
        "scope_id": "line-1-0559-0567-s011452",
        "scope_type": "station"
      },
      "type": "Feature"
    },
    {
      "geometry": {
        "coordinates": [
          31.51180874,
          30.56937208
        ],
        "type": "Point"
      },
      "properties": {
        "chainage_m": 13604.0,
        "civil_class": "station",
        "investigation_flags": [
          "granular-density-and-groundwater-tests"
        ],
        "lat": 30.56937208,
        "line": "line-1",
        "lon": 31.51180874,
        "sample_id": "station:line-1-0652-0598-s013604",
        "scope_id": "line-1-0652-0598-s013604",
        "scope_type": "station"
      },
      "type": "Feature"
    },
    {
      "geometry": {
        "coordinates": [
          31.51827853,
          30.55227529
        ],
        "type": "Point"
      },
      "properties": {
        "chainage_m": 15772.5,
        "civil_class": "station",
        "investigation_flags": [
          "fine-soil-plasticity-and-shrink-swell-tests",
          "granular-density-and-groundwater-tests"
        ],
        "lat": 30.55227529,
        "line": "line-1",
        "lon": 31.51827853,
        "sample_id": "station:line-1-0747-0629-s015772",
        "scope_id": "line-1-0747-0629-s015772",
        "scope_type": "station"
      },
      "type": "Feature"
    },
    {
      "geometry": {
        "coordinates": [
          31.47695534,
          30.59186785
        ],
        "type": "Point"
      },
      "properties": {
        "chainage_m": 0.0,
        "civil_class": "station",
        "investigation_flags": [
          "fine-soil-plasticity-and-shrink-swell-tests",
          "granular-density-and-groundwater-tests"
        ],
        "lat": 30.59186785,
        "line": "line-2",
        "lon": 31.47695534,
        "sample_id": "station:line-2-0527-0431-s000000",
        "scope_id": "line-2-0527-0431-s000000",
        "scope_type": "station"
      },
      "type": "Feature"
    },
    {
      "geometry": {
        "coordinates": [
          31.50533895,
          30.58610893
        ],
        "type": "Point"
      },
      "properties": {
        "chainage_m": 3008.5,
        "civil_class": "station",
        "investigation_flags": [
          "granular-density-and-groundwater-tests"
        ],
        "lat": 30.58610893,
        "line": "line-2",
        "lon": 31.50533895,
        "sample_id": "station:line-2-0559-0567-s003009",
        "scope_id": "line-2-0559-0567-s003009",
        "scope_type": "station"
      },
      "type": "Feature"
    },
    {
      "geometry": {
        "coordinates": [
          31.53184422,
          30.58088991
        ],
        "type": "Point"
      },
      "properties": {
        "chainage_m": 5788.8,
        "civil_class": "station",
        "investigation_flags": [
          "acidic-soil-durability-testing",
          "fine-soil-plasticity-and-shrink-swell-tests",
          "granular-density-and-groundwater-tests"
        ],
        "lat": 30.58088991,
        "line": "line-2",
        "lon": 31.53184422,
        "sample_id": "station:line-2-0588-0694-s005789",
        "scope_id": "line-2-0588-0694-s005789",
        "scope_type": "station"
      },
      "type": "Feature"
    },
    {
      "geometry": {
        "coordinates": [
          31.5579321,
          30.57567089
        ],
        "type": "Point"
      },
      "properties": {
        "chainage_m": 8552.4,
        "civil_class": "station",
        "investigation_flags": [
          "fine-soil-plasticity-and-shrink-swell-tests",
          "granular-density-and-groundwater-tests"
        ],
        "lat": 30.57567089,
        "line": "line-2",
        "lon": 31.5579321,
        "sample_id": "station:line-2-0617-0819-s008552",
        "scope_id": "line-2-0617-0819-s008552",
        "scope_type": "station"
      },
      "type": "Feature"
    },
    {
      "geometry": {
        "coordinates": [
          31.42665792,
          30.62300199
        ],
        "type": "Point"
      },
      "properties": {
        "chainage_m": 0.0,
        "civil_class": "station",
        "investigation_flags": [
          "fine-soil-plasticity-and-shrink-swell-tests",
          "granular-density-and-groundwater-tests"
        ],
        "lat": 30.62300199,
        "line": "line-3",
        "lon": 31.42665792,
        "sample_id": "station:line-3-0354-0190-s000000",
        "scope_id": "line-3-0354-0190-s000000",
        "scope_type": "station"
      },
      "type": "Feature"
    },
    {
      "geometry": {
        "coordinates": [
          31.46088521,
          30.61328382
        ],
        "type": "Point"
      },
      "properties": {
        "chainage_m": 3727.4,
        "civil_class": "station",
        "investigation_flags": [
          "fine-soil-plasticity-and-shrink-swell-tests",
          "granular-density-and-groundwater-tests"
        ],
        "lat": 30.61328382,
        "line": "line-3",
        "lon": 31.46088521,
        "sample_id": "station:line-3-0408-0354-s003727",
        "scope_id": "line-3-0408-0354-s003727",
        "scope_type": "station"
      },
      "type": "Feature"
    },
    {
      "geometry": {
        "coordinates": [
          31.49699083,
          30.60788484
        ],
        "type": "Point"
      },
      "properties": {
        "chainage_m": 7435.9,
        "civil_class": "station",
        "investigation_flags": [
          "acidic-soil-durability-testing",
          "fine-soil-plasticity-and-shrink-swell-tests",
          "granular-density-and-groundwater-tests"
        ],
        "lat": 30.60788484,
        "line": "line-3",
        "lon": 31.49699083,
        "sample_id": "station:line-3-0438-0527-s007436",
        "scope_id": "line-3-0438-0527-s007436",
        "scope_type": "station"
      },
      "type": "Feature"
    },
    {
      "geometry": {
        "coordinates": [
          31.51994815,
          30.60428551
        ],
        "type": "Point"
      },
      "properties": {
        "chainage_m": 9801.6,
        "civil_class": "station",
        "investigation_flags": [
          "fine-soil-plasticity-and-shrink-swell-tests",
          "granular-density-and-groundwater-tests"
        ],
        "lat": 30.60428551,
        "line": "line-3",
        "lon": 31.51994815,
        "sample_id": "station:line-3-0458-0637-s009802",
        "scope_id": "line-3-0458-0637-s009802",
        "scope_type": "station"
      },
      "type": "Feature"
    },
    {
      "geometry": {
        "coordinates": [
          31.54290548,
          30.60086616
        ],
        "type": "Point"
      },
      "properties": {
        "chainage_m": 12159.0,
        "civil_class": "station",
        "investigation_flags": [
          "fine-soil-plasticity-and-shrink-swell-tests",
          "granular-density-and-groundwater-tests"
        ],
        "lat": 30.60086616,
        "line": "line-3",
        "lon": 31.54290548,
        "sample_id": "station:line-3-0477-0747-s012159",
        "scope_id": "line-3-0477-0747-s012159",
        "scope_type": "station"
      },
      "type": "Feature"
    }
  ],
  "type": "FeatureCollection"
}
