{
  "features": [
    {
      "geometry": {
        "coordinates": [
          73.94047038,
          31.72194697
        ],
        "type": "Point"
      },
      "properties": {
        "chainage_m": 0.0,
        "civil_class": "elevated",
        "investigation_flags": [
          "fine-soil-plasticity-and-shrink-swell-tests"
        ],
        "lat": 31.72194697,
        "line": "line-1",
        "lon": 73.94047038,
        "sample_id": "segment:line-1-civil-001:0000",
        "scope_id": "line-1-civil-001",
        "scope_type": "civil_segment"
      },
      "type": "Feature"
    },
    {
      "geometry": {
        "coordinates": [
          73.94057601,
          31.72194697
        ],
        "type": "Point"
      },
      "properties": {
        "chainage_m": 10.0,
        "civil_class": "elevated",
        "investigation_flags": [
          "fine-soil-plasticity-and-shrink-swell-tests"
        ],
        "lat": 31.72194697,
        "line": "line-1",
        "lon": 73.94057601,
        "sample_id": "segment:line-1-civil-001:0001",
        "scope_id": "line-1-civil-001",
        "scope_type": "civil_segment"
      },
      "type": "Feature"
    },
    {
      "geometry": {
        "coordinates": [
          73.94068162,
          31.72194693
        ],
        "type": "Point"
      },
      "properties": {
        "chainage_m": 20.0,
        "civil_class": "elevated",
        "investigation_flags": [
          "fine-soil-plasticity-and-shrink-swell-tests"
        ],
        "lat": 31.72194693,
        "line": "line-1",
        "lon": 73.94068162,
        "sample_id": "segment:line-1-civil-001:0002",
        "scope_id": "line-1-civil-001",
        "scope_type": "civil_segment"
      },
      "type": "Feature"
    },
    {
      "geometry": {
        "coordinates": [
          73.94068162,
          31.72194693
        ],
        "type": "Point"
      },
      "properties": {
        "chainage_m": 20.0,
        "civil_class": "elevated",
        "investigation_flags": [
          "fine-soil-plasticity-and-shrink-swell-tests"
        ],
        "lat": 31.72194693,
        "line": "line-1",
        "lon": 73.94068162,
        "sample_id": "segment:line-1-civil-002:0000",
        "scope_id": "line-1-civil-002",
        "scope_type": "civil_segment"
      },
      "type": "Feature"
    },
    {
      "geometry": {
        "coordinates": [
          73.94086197,
          31.72179325
        ],
        "type": "Point"
      },
      "properties": {
        "chainage_m": 44.142,
        "civil_class": "elevated",
        "investigation_flags": [
          "fine-soil-plasticity-and-shrink-swell-tests"
        ],
        "lat": 31.72179325,
        "line": "line-1",
        "lon": 73.94086197,
        "sample_id": "segment:line-1-civil-002:0001",
        "scope_id": "line-1-civil-002",
        "scope_type": "civil_segment"
      },
      "type": "Feature"
    },
    {
      "geometry": {
        "coordinates": [
          73.94110393,
          31.721767
        ],
        "type": "Point"
      },
      "properties": {
        "chainage_m": 68.284,
        "civil_class": "elevated",
        "investigation_flags": [
          "fine-soil-plasticity-and-shrink-swell-tests"
        ],
        "lat": 31.721767,
        "line": "line-1",
        "lon": 73.94110393,
        "sample_id": "segment:line-1-civil-002:0002",
        "scope_id": "line-1-civil-002",
        "scope_type": "civil_segment"
      },
      "type": "Feature"
    },
    {
      "geometry": {
        "coordinates": [
          73.94110393,
          31.721767
        ],
        "type": "Point"
      },
      "properties": {
        "chainage_m": 68.284,
        "civil_class": "elevated",
        "investigation_flags": [
          "fine-soil-plasticity-and-shrink-swell-tests"
        ],
        "lat": 31.721767,
        "line": "line-1",
        "lon": 73.94110393,
        "sample_id": "segment:line-1-civil-003:0000",
        "scope_id": "line-1-civil-003",
        "scope_type": "civil_segment"
      },
      "type": "Feature"
    },
    {
      "geometry": {
        "coordinates": [
          73.95061062,
          31.71960741
        ],
        "type": "Point"
      },
      "properties": {
        "chainage_m": 1067.904,
        "civil_class": "elevated",
        "investigation_flags": [
          "fine-soil-plasticity-and-shrink-swell-tests"
        ],
        "lat": 31.71960741,
        "line": "line-1",
        "lon": 73.95061062,
        "sample_id": "segment:line-1-civil-003:0001",
        "scope_id": "line-1-civil-003",
        "scope_type": "civil_segment"
      },
      "type": "Feature"
    },
    {
      "geometry": {
        "coordinates": [
          73.9601171,
          31.71744781
        ],
        "type": "Point"
      },
      "properties": {
        "chainage_m": 2067.524,
        "civil_class": "elevated",
        "investigation_flags": [
          "fine-soil-plasticity-and-shrink-swell-tests",
          "granular-density-and-groundwater-tests"
        ],
        "lat": 31.71744781,
        "line": "line-1",
        "lon": 73.9601171,
        "sample_id": "segment:line-1-civil-003:0002",
        "scope_id": "line-1-civil-003",
        "scope_type": "civil_segment"
      },
      "type": "Feature"
    },
    {
      "geometry": {
        "coordinates": [
          73.96949986,
          31.71528822
        ],
        "type": "Point"
      },
      "properties": {
        "chainage_m": 3067.144,
        "civil_class": "elevated",
        "investigation_flags": [
          "fine-soil-plasticity-and-shrink-swell-tests",
          "granular-density-and-groundwater-tests"
        ],
        "lat": 31.71528822,
        "line": "line-1",
        "lon": 73.96949986,
        "sample_id": "segment:line-1-civil-003:0003",
        "scope_id": "line-1-civil-003",
        "scope_type": "civil_segment"
      },
      "type": "Feature"
    },
    {
      "geometry": {
        "coordinates": [
          73.97888242,
          31.71312863
        ],
        "type": "Point"
      },
      "properties": {
        "chainage_m": 4066.764,
        "civil_class": "elevated",
        "investigation_flags": [
          "fine-soil-plasticity-and-shrink-swell-tests",
          "granular-density-and-groundwater-tests",
          "silt-moisture-frost-and-erosion-review"
        ],
        "lat": 31.71312863,
        "line": "line-1",
        "lon": 73.97888242,
        "sample_id": "segment:line-1-civil-003:0004",
        "scope_id": "line-1-civil-003",
        "scope_type": "civil_segment"
      },
      "type": "Feature"
    },
    {
      "geometry": {
        "coordinates": [
          73.97901536,
          31.71312863
        ],
        "type": "Point"
      },
      "properties": {
        "chainage_m": 4079.361,
        "civil_class": "elevated",
        "investigation_flags": [
          "fine-soil-plasticity-and-shrink-swell-tests",
          "silt-moisture-frost-and-erosion-review"
        ],
        "lat": 31.71312863,
        "line": "line-1",
        "lon": 73.97901536,
        "sample_id": "segment:line-1-civil-003:0005",
        "scope_id": "line-1-civil-003",
        "scope_type": "civil_segment"
      },
      "type": "Feature"
    },
    {
      "geometry": {
        "coordinates": [
          73.98826478,
          31.71096903
        ],
        "type": "Point"
      },
      "properties": {
        "chainage_m": 5066.384,
        "civil_class": "elevated",
        "investigation_flags": [
          "fine-soil-plasticity-and-shrink-swell-tests",
          "granular-density-and-groundwater-tests"
        ],
        "lat": 31.71096903,
        "line": "line-1",
        "lon": 73.98826478,
        "sample_id": "segment:line-1-civil-003:0006",
        "scope_id": "line-1-civil-003",
        "scope_type": "civil_segment"
      },
      "type": "Feature"
    },
    {
      "geometry": {
        "coordinates": [
          73.99764694,
          31.70880944
        ],
        "type": "Point"
      },
      "properties": {
        "chainage_m": 6066.004,
        "civil_class": "elevated",
        "investigation_flags": [
          "fine-soil-plasticity-and-shrink-swell-tests"
        ],
        "lat": 31.70880944,
        "line": "line-1",
        "lon": 73.99764694,
        "sample_id": "segment:line-1-civil-003:0007",
        "scope_id": "line-1-civil-003",
        "scope_type": "civil_segment"
      },
      "type": "Feature"
    },
    {
      "geometry": {
        "coordinates": [
          74.00715241,
          31.70664984
        ],
        "type": "Point"
      },
      "properties": {
        "chainage_m": 7065.624,
        "civil_class": "elevated",
        "investigation_flags": [
          "fine-soil-plasticity-and-shrink-swell-tests"
        ],
        "lat": 31.70664984,
        "line": "line-1",
        "lon": 74.00715241,
        "sample_id": "segment:line-1-civil-003:0008",
        "scope_id": "line-1-civil-003",
        "scope_type": "civil_segment"
      },
      "type": "Feature"
    },
    {
      "geometry": {
        "coordinates": [
          74.01665768,
          31.70449025
        ],
        "type": "Point"
      },
      "properties": {
        "chainage_m": 8065.244,
        "civil_class": "elevated",
        "investigation_flags": [
          "fine-soil-plasticity-and-shrink-swell-tests",
          "granular-density-and-groundwater-tests"
        ],
        "lat": 31.70449025,
        "line": "line-1",
        "lon": 74.01665768,
        "sample_id": "segment:line-1-civil-003:0009",
        "scope_id": "line-1-civil-003",
        "scope_type": "civil_segment"
      },
      "type": "Feature"
    },
    {
      "geometry": {
        "coordinates": [
          74.01692344,
          31.70449005
        ],
        "type": "Point"
      },
      "properties": {
        "chainage_m": 8090.437,
        "civil_class": "elevated",
        "investigation_flags": [
          "fine-soil-plasticity-and-shrink-swell-tests",
          "granular-density-and-groundwater-tests"
        ],
        "lat": 31.70449005,
        "line": "line-1",
        "lon": 74.01692344,
        "sample_id": "segment:line-1-civil-003:0010",
        "scope_id": "line-1-civil-003",
        "scope_type": "civil_segment"
      },
      "type": "Feature"
    },
    {
      "geometry": {
        "coordinates": [
          74.01692344,
          31.70449005
        ],
        "type": "Point"
      },
      "properties": {
        "chainage_m": 8090.437,
        "civil_class": "elevated",
        "investigation_flags": [
          "fine-soil-plasticity-and-shrink-swell-tests",
          "granular-density-and-groundwater-tests"
        ],
        "lat": 31.70449005,
        "line": "line-1",
        "lon": 74.01692344,
        "sample_id": "segment:line-1-civil-004:0000",
        "scope_id": "line-1-civil-004",
        "scope_type": "civil_segment"
      },
      "type": "Feature"
    },
    {
      "geometry": {
        "coordinates": [
          74.01710372,
          31.70433644
        ],
        "type": "Point"
      },
      "properties": {
        "chainage_m": 8114.568,
        "civil_class": "elevated",
        "investigation_flags": [
          "fine-soil-plasticity-and-shrink-swell-tests",
          "granular-density-and-groundwater-tests"
        ],
        "lat": 31.70433644,
        "line": "line-1",
        "lon": 74.01710372,
        "sample_id": "segment:line-1-civil-004:0001",
        "scope_id": "line-1-civil-004",
        "scope_type": "civil_segment"
      },
      "type": "Feature"
    },
    {
      "geometry": {
        "coordinates": [
          74.0173456,
          31.70431028
        ],
        "type": "Point"
      },
      "properties": {
        "chainage_m": 8138.7,
        "civil_class": "elevated",
        "investigation_flags": [
          "fine-soil-plasticity-and-shrink-swell-tests",
          "granular-density-and-groundwater-tests"
        ],
        "lat": 31.70431028,
        "line": "line-1",
        "lon": 74.0173456,
        "sample_id": "segment:line-1-civil-004:0002",
        "scope_id": "line-1-civil-004",
        "scope_type": "civil_segment"
      },
      "type": "Feature"
    },
    {
      "geometry": {
        "coordinates": [
          73.95271973,
          31.71906751
        ],
        "type": "Point"
      },
      "properties": {
        "chainage_m": 0.0,
        "civil_class": "elevated",
        "investigation_flags": [
          "fine-soil-plasticity-and-shrink-swell-tests"
        ],
        "lat": 31.71906751,
        "line": "line-2",
        "lon": 73.95271973,
        "sample_id": "segment:line-2-civil-005:0000",
        "scope_id": "line-2-civil-005",
        "scope_type": "civil_segment"
      },
      "type": "Feature"
    },
    {
      "geometry": {
        "coordinates": [
          73.95282536,
          31.71906751
        ],
        "type": "Point"
      },
      "properties": {
        "chainage_m": 10.0,
        "civil_class": "elevated",
        "investigation_flags": [
          "fine-soil-plasticity-and-shrink-swell-tests"
        ],
        "lat": 31.71906751,
        "line": "line-2",
        "lon": 73.95282536,
        "sample_id": "segment:line-2-civil-005:0001",
        "scope_id": "line-2-civil-005",
        "scope_type": "civil_segment"
      },
      "type": "Feature"
    },
    {
      "geometry": {
        "coordinates": [
          73.95293097,
          31.71906747
        ],
        "type": "Point"
      },
      "properties": {
        "chainage_m": 20.0,
        "civil_class": "elevated",
        "investigation_flags": [
          "fine-soil-plasticity-and-shrink-swell-tests"
        ],
        "lat": 31.71906747,
        "line": "line-2",
        "lon": 73.95293097,
        "sample_id": "segment:line-2-civil-005:0002",
        "scope_id": "line-2-civil-005",
        "scope_type": "civil_segment"
      },
      "type": "Feature"
    },
    {
      "geometry": {
        "coordinates": [
          73.95293097,
          31.71906747
        ],
        "type": "Point"
      },
      "properties": {
        "chainage_m": 20.0,
        "civil_class": "elevated",
        "investigation_flags": [
          "fine-soil-plasticity-and-shrink-swell-tests"
        ],
        "lat": 31.71906747,
        "line": "line-2",
        "lon": 73.95293097,
        "sample_id": "segment:line-2-civil-006:0000",
        "scope_id": "line-2-civil-006",
        "scope_type": "civil_segment"
      },
      "type": "Feature"
    },
    {
      "geometry": {
        "coordinates": [
          73.95311132,
          31.71891379
        ],
        "type": "Point"
      },
      "properties": {
        "chainage_m": 44.142,
        "civil_class": "elevated",
        "investigation_flags": [
          "fine-soil-plasticity-and-shrink-swell-tests"
        ],
        "lat": 31.71891379,
        "line": "line-2",
        "lon": 73.95311132,
        "sample_id": "segment:line-2-civil-006:0001",
        "scope_id": "line-2-civil-006",
        "scope_type": "civil_segment"
      },
      "type": "Feature"
    },
    {
      "geometry": {
        "coordinates": [
          73.95335328,
          31.71888754
        ],
        "type": "Point"
      },
      "properties": {
        "chainage_m": 68.284,
        "civil_class": "elevated",
        "investigation_flags": [
          "fine-soil-plasticity-and-shrink-swell-tests"
        ],
        "lat": 31.71888754,
        "line": "line-2",
        "lon": 73.95335328,
        "sample_id": "segment:line-2-civil-006:0002",
        "scope_id": "line-2-civil-006",
        "scope_type": "civil_segment"
      },
      "type": "Feature"
    },
    {
      "geometry": {
        "coordinates": [
          73.95335328,
          31.71888754
        ],
        "type": "Point"
      },
      "properties": {
        "chainage_m": 68.284,
        "civil_class": "elevated",
        "investigation_flags": [
          "fine-soil-plasticity-and-shrink-swell-tests"
        ],
        "lat": 31.71888754,
        "line": "line-2",
        "lon": 73.95335328,
        "sample_id": "segment:line-2-civil-007:0000",
        "scope_id": "line-2-civil-007",
        "scope_type": "civil_segment"
      },
      "type": "Feature"
    },
    {
      "geometry": {
        "coordinates": [
          73.96261266,
          31.71672795
        ],
        "type": "Point"
      },
      "properties": {
        "chainage_m": 1067.928,
        "civil_class": "elevated",
        "investigation_flags": [
          "fine-soil-plasticity-and-shrink-swell-tests",
          "granular-density-and-groundwater-tests"
        ],
        "lat": 31.71672795,
        "line": "line-2",
        "lon": 73.96261266,
        "sample_id": "segment:line-2-civil-007:0001",
        "scope_id": "line-2-civil-007",
        "scope_type": "civil_segment"
      },
      "type": "Feature"
    },
    {
      "geometry": {
        "coordinates": [
          73.97187183,
          31.71456835
        ],
        "type": "Point"
      },
      "properties": {
        "chainage_m": 2067.572,
        "civil_class": "elevated",
        "investigation_flags": [
          "fine-soil-plasticity-and-shrink-swell-tests",
          "granular-density-and-groundwater-tests",
          "silt-moisture-frost-and-erosion-review"
        ],
        "lat": 31.71456835,
        "line": "line-2",
        "lon": 73.97187183,
        "sample_id": "segment:line-2-civil-007:0002",
        "scope_id": "line-2-civil-007",
        "scope_type": "civil_segment"
      },
      "type": "Feature"
    },
    {
      "geometry": {
        "coordinates": [
          73.98124755,
          31.71239478
        ],
        "type": "Point"
      },
      "properties": {
        "chainage_m": 3067.217,
        "civil_class": "elevated",
        "investigation_flags": [
          "fine-soil-plasticity-and-shrink-swell-tests"
        ],
        "lat": 31.71239478,
        "line": "line-2",
        "lon": 73.98124755,
        "sample_id": "segment:line-2-civil-007:0003",
        "scope_id": "line-2-civil-007",
        "scope_type": "civil_segment"
      },
      "type": "Feature"
    },
    {
      "geometry": {
        "coordinates": [
          73.98471689,
          31.71150893
        ],
        "type": "Point"
      },
      "properties": {
        "chainage_m": 3448.234,
        "civil_class": "elevated",
        "investigation_flags": [
          "fine-soil-plasticity-and-shrink-swell-tests",
          "granular-density-and-groundwater-tests"
        ],
        "lat": 31.71150893,
        "line": "line-2",
        "lon": 73.98471689,
        "sample_id": "segment:line-2-civil-007:0004",
        "scope_id": "line-2-civil-007",
        "scope_type": "civil_segment"
      },
      "type": "Feature"
    },
    {
      "geometry": {
        "coordinates": [
          73.99045457,
          31.71012815
        ],
        "type": "Point"
      },
      "properties": {
        "chainage_m": 4066.861,
        "civil_class": "elevated",
        "investigation_flags": [
          "fine-soil-plasticity-and-shrink-swell-tests",
          "granular-density-and-groundwater-tests"
        ],
        "lat": 31.71012815,
        "line": "line-2",
        "lon": 73.99045457,
        "sample_id": "segment:line-2-civil-007:0005",
        "scope_id": "line-2-civil-007",
        "scope_type": "civil_segment"
      },
      "type": "Feature"
    },
    {
      "geometry": {
        "coordinates": [
          73.99968463,
          31.70790961
        ],
        "type": "Point"
      },
      "properties": {
        "chainage_m": 5066.505,
        "civil_class": "elevated",
        "investigation_flags": [
          "fine-soil-plasticity-and-shrink-swell-tests",
          "granular-density-and-groundwater-tests"
        ],
        "lat": 31.70790961,
        "line": "line-2",
        "lon": 73.99968463,
        "sample_id": "segment:line-2-civil-007:0006",
        "scope_id": "line-2-civil-007",
        "scope_type": "civil_segment"
      },
      "type": "Feature"
    },
    {
      "geometry": {
        "coordinates": [
          74.00894299,
          31.70575001
        ],
        "type": "Point"
      },
      "properties": {
        "chainage_m": 6066.149,
        "civil_class": "elevated",
        "investigation_flags": [
          "fine-soil-plasticity-and-shrink-swell-tests",
          "granular-density-and-groundwater-tests"
        ],
        "lat": 31.70575001,
        "line": "line-2",
        "lon": 74.00894299,
        "sample_id": "segment:line-2-civil-007:0007",
        "scope_id": "line-2-civil-007",
        "scope_type": "civil_segment"
      },
      "type": "Feature"
    },
    {
      "geometry": {
        "coordinates": [
          74.01607818,
          31.70413032
        ],
        "type": "Point"
      },
      "properties": {
        "chainage_m": 6828.183,
        "civil_class": "elevated",
        "investigation_flags": [
          "fine-soil-plasticity-and-shrink-swell-tests",
          "granular-density-and-groundwater-tests"
        ],
        "lat": 31.70413032,
        "line": "line-2",
        "lon": 74.01607818,
        "sample_id": "segment:line-2-civil-007:0008",
        "scope_id": "line-2-civil-007",
        "scope_type": "civil_segment"
      },
      "type": "Feature"
    },
    {
      "geometry": {
        "coordinates": [
          74.01607818,
          31.70413032
        ],
        "type": "Point"
      },
      "properties": {
        "chainage_m": 6828.183,
        "civil_class": "elevated",
        "investigation_flags": [
          "fine-soil-plasticity-and-shrink-swell-tests",
          "granular-density-and-groundwater-tests"
        ],
        "lat": 31.70413032,
        "line": "line-2",
        "lon": 74.01607818,
        "sample_id": "segment:line-2-civil-008:0000",
        "scope_id": "line-2-civil-008",
        "scope_type": "civil_segment"
      },
      "type": "Feature"
    },
    {
      "geometry": {
        "coordinates": [
          74.01625861,
          31.70397678
        ],
        "type": "Point"
      },
      "properties": {
        "chainage_m": 6852.325,
        "civil_class": "elevated",
        "investigation_flags": [
          "fine-soil-plasticity-and-shrink-swell-tests",
          "granular-density-and-groundwater-tests"
        ],
        "lat": 31.70397678,
        "line": "line-2",
        "lon": 74.01625861,
        "sample_id": "segment:line-2-civil-008:0001",
        "scope_id": "line-2-civil-008",
        "scope_type": "civil_segment"
      },
      "type": "Feature"
    },
    {
      "geometry": {
        "coordinates": [
          74.01650048,
          31.70395035
        ],
        "type": "Point"
      },
      "properties": {
        "chainage_m": 6876.468,
        "civil_class": "elevated",
        "investigation_flags": [
          "fine-soil-plasticity-and-shrink-swell-tests",
          "granular-density-and-groundwater-tests"
        ],
        "lat": 31.70395035,
        "line": "line-2",
        "lon": 74.01650048,
        "sample_id": "segment:line-2-civil-008:0002",
        "scope_id": "line-2-civil-008",
        "scope_type": "civil_segment"
      },
      "type": "Feature"
    },
    {
      "geometry": {
        "coordinates": [
          74.01650048,
          31.70395035
        ],
        "type": "Point"
      },
      "properties": {
        "chainage_m": 6876.468,
        "civil_class": "elevated",
        "investigation_flags": [
          "fine-soil-plasticity-and-shrink-swell-tests",
          "granular-density-and-groundwater-tests"
        ],
        "lat": 31.70395035,
        "line": "line-2",
        "lon": 74.01650048,
        "sample_id": "segment:line-2-civil-009:0000",
        "scope_id": "line-2-civil-009",
        "scope_type": "civil_segment"
      },
      "type": "Feature"
    },
    {
      "geometry": {
        "coordinates": [
          74.01650065,
          31.70395035
        ],
        "type": "Point"
      },
      "properties": {
        "chainage_m": 6876.484,
        "civil_class": "elevated",
        "investigation_flags": [
          "fine-soil-plasticity-and-shrink-swell-tests",
          "granular-density-and-groundwater-tests"
        ],
        "lat": 31.70395035,
        "line": "line-2",
        "lon": 74.01650065,
        "sample_id": "segment:line-2-civil-009:0001",
        "scope_id": "line-2-civil-009",
        "scope_type": "civil_segment"
      },
      "type": "Feature"
    },
    {
      "geometry": {
        "coordinates": [
          74.01650082,
          31.70395035
        ],
        "type": "Point"
      },
      "properties": {
        "chainage_m": 6876.5,
        "civil_class": "elevated",
        "investigation_flags": [
          "fine-soil-plasticity-and-shrink-swell-tests",
          "granular-density-and-groundwater-tests"
        ],
        "lat": 31.70395035,
        "line": "line-2",
        "lon": 74.01650082,
        "sample_id": "segment:line-2-civil-009:0002",
        "scope_id": "line-2-civil-009",
        "scope_type": "civil_segment"
      },
      "type": "Feature"
    },
    {
      "geometry": {
        "coordinates": [
          73.94047038,
          31.72194697
        ],
        "type": "Point"
      },
      "properties": {
        "chainage_m": 0.0,
        "civil_class": "station",
        "investigation_flags": [
          "fine-soil-plasticity-and-shrink-swell-tests"
        ],
        "lat": 31.72194697,
        "line": "line-1",
        "lon": 73.94047038,
        "sample_id": "station:line-1-0501-0372-s000000",
        "scope_id": "line-1-0501-0372-s000000",
        "scope_type": "station"
      },
      "type": "Feature"
    },
    {
      "geometry": {
        "coordinates": [
          73.95271973,
          31.71906751
        ],
        "type": "Point"
      },
      "properties": {
        "chainage_m": 1292.5,
        "civil_class": "station",
        "investigation_flags": [
          "fine-soil-plasticity-and-shrink-swell-tests"
        ],
        "lat": 31.71906751,
        "line": "line-1",
        "lon": 73.95271973,
        "sample_id": "station:line-1-0517-0430-s001293",
        "scope_id": "line-1-0517-0430-s001293",
        "scope_type": "station"
      },
      "type": "Feature"
    },
    {
      "geometry": {
        "coordinates": [
          73.95356451,
          31.71888754
        ],
        "type": "Point"
      },
      "properties": {
        "chainage_m": 1380.8,
        "civil_class": "station",
        "investigation_flags": [
          "fine-soil-plasticity-and-shrink-swell-tests"
        ],
        "lat": 31.71888754,
        "line": "line-1",
        "lon": 73.95356451,
        "sample_id": "station:line-1-0518-0434-s001381",
        "scope_id": "line-1-0518-0434-s001381",
        "scope_type": "station"
      },
      "type": "Feature"
    },
    {
      "geometry": {
        "coordinates": [
          73.9544093,
          31.71870758
        ],
        "type": "Point"
      },
      "properties": {
        "chainage_m": 1469.1,
        "civil_class": "station",
        "investigation_flags": [
          "fine-soil-plasticity-and-shrink-swell-tests",
          "granular-density-and-groundwater-tests"
        ],
        "lat": 31.71870758,
        "line": "line-1",
        "lon": 73.9544093,
        "sample_id": "station:line-1-0519-0438-s001469",
        "scope_id": "line-1-0519-0438-s001469",
        "scope_type": "station"
      },
      "type": "Feature"
    },
    {
      "geometry": {
        "coordinates": [
          73.95525408,
          31.71852761
        ],
        "type": "Point"
      },
      "properties": {
        "chainage_m": 1557.4,
        "civil_class": "station",
        "investigation_flags": [
          "fine-soil-plasticity-and-shrink-swell-tests",
          "granular-density-and-groundwater-tests"
        ],
        "lat": 31.71852761,
        "line": "line-1",
        "lon": 73.95525408,
        "sample_id": "station:line-1-0520-0442-s001557",
        "scope_id": "line-1-0520-0442-s001557",
        "scope_type": "station"
      },
      "type": "Feature"
    },
    {
      "geometry": {
        "coordinates": [
          73.95588767,
          31.71834764
        ],
        "type": "Point"
      },
      "properties": {
        "chainage_m": 1625.7,
        "civil_class": "station",
        "investigation_flags": [
          "fine-soil-plasticity-and-shrink-swell-tests",
          "granular-density-and-groundwater-tests"
        ],
        "lat": 31.71834764,
        "line": "line-1",
        "lon": 73.95588767,
        "sample_id": "station:line-1-0521-0445-s001626",
        "scope_id": "line-1-0521-0445-s001626",
        "scope_type": "station"
      },
      "type": "Feature"
    },
    {
      "geometry": {
        "coordinates": [
          73.95652125,
          31.71816768
        ],
        "type": "Point"
      },
      "properties": {
        "chainage_m": 1694.0,
        "civil_class": "station",
        "investigation_flags": [
          "fine-soil-plasticity-and-shrink-swell-tests",
          "granular-density-and-groundwater-tests"
        ],
        "lat": 31.71816768,
        "line": "line-1",
        "lon": 73.95652125,
        "sample_id": "station:line-1-0522-0448-s001694",
        "scope_id": "line-1-0522-0448-s001694",
        "scope_type": "station"
      },
      "type": "Feature"
    },
    {
      "geometry": {
        "coordinates": [
          73.95736604,
          31.71798771
        ],
        "type": "Point"
      },
      "properties": {
        "chainage_m": 1782.3,
        "civil_class": "station",
        "investigation_flags": [
          "fine-soil-plasticity-and-shrink-swell-tests",
          "granular-density-and-groundwater-tests"
        ],
        "lat": 31.71798771,
        "line": "line-1",
        "lon": 73.95736604,
        "sample_id": "station:line-1-0523-0452-s001782",
        "scope_id": "line-1-0523-0452-s001782",
        "scope_type": "station"
      },
      "type": "Feature"
    },
    {
      "geometry": {
        "coordinates": [
          73.95821082,
          31.71780775
        ],
        "type": "Point"
      },
      "properties": {
        "chainage_m": 1870.5,
        "civil_class": "station",
        "investigation_flags": [
          "fine-soil-plasticity-and-shrink-swell-tests",
          "granular-density-and-groundwater-tests"
        ],
        "lat": 31.71780775,
        "line": "line-1",
        "lon": 73.95821082,
        "sample_id": "station:line-1-0524-0456-s001871",
        "scope_id": "line-1-0524-0456-s001871",
        "scope_type": "station"
      },
      "type": "Feature"
    },
    {
      "geometry": {
        "coordinates": [
          73.9590556,
          31.71762778
        ],
        "type": "Point"
      },
      "properties": {
        "chainage_m": 1958.8,
        "civil_class": "station",
        "investigation_flags": [
          "fine-soil-plasticity-and-shrink-swell-tests",
          "granular-density-and-groundwater-tests"
        ],
        "lat": 31.71762778,
        "line": "line-1",
        "lon": 73.9590556,
        "sample_id": "station:line-1-0525-0460-s001959",
        "scope_id": "line-1-0525-0460-s001959",
        "scope_type": "station"
      },
      "type": "Feature"
    },
    {
      "geometry": {
        "coordinates": [
          73.95990038,
          31.71744781
        ],
        "type": "Point"
      },
      "properties": {
        "chainage_m": 2047.1,
        "civil_class": "station",
        "investigation_flags": [
          "fine-soil-plasticity-and-shrink-swell-tests",
          "granular-density-and-groundwater-tests"
        ],
        "lat": 31.71744781,
        "line": "line-1",
        "lon": 73.95990038,
        "sample_id": "station:line-1-0526-0464-s002047",
        "scope_id": "line-1-0526-0464-s002047",
        "scope_type": "station"
      },
      "type": "Feature"
    },
    {
      "geometry": {
        "coordinates": [
          73.96074517,
          31.71726785
        ],
        "type": "Point"
      },
      "properties": {
        "chainage_m": 2135.4,
        "civil_class": "station",
        "investigation_flags": [
          "fine-soil-plasticity-and-shrink-swell-tests",
          "granular-density-and-groundwater-tests"
        ],
        "lat": 31.71726785,
        "line": "line-1",
        "lon": 73.96074517,
        "sample_id": "station:line-1-0527-0468-s002135",
        "scope_id": "line-1-0527-0468-s002135",
        "scope_type": "station"
      },
      "type": "Feature"
    },
    {
      "geometry": {
        "coordinates": [
          73.96201234,
          31.71690791
        ],
        "type": "Point"
      },
      "properties": {
        "chainage_m": 2283.7,
        "civil_class": "station",
        "investigation_flags": [
          "fine-soil-plasticity-and-shrink-swell-tests",
          "granular-density-and-groundwater-tests"
        ],
        "lat": 31.71690791,
        "line": "line-1",
        "lon": 73.96201234,
        "sample_id": "station:line-1-0529-0474-s002284",
        "scope_id": "line-1-0529-0474-s002284",
        "scope_type": "station"
      },
      "type": "Feature"
    },
    {
      "geometry": {
        "coordinates": [
          73.96285712,
          31.71672795
        ],
        "type": "Point"
      },
      "properties": {
        "chainage_m": 2372.0,
        "civil_class": "station",
        "investigation_flags": [
          "fine-soil-plasticity-and-shrink-swell-tests",
          "granular-density-and-groundwater-tests"
        ],
        "lat": 31.71672795,
        "line": "line-1",
        "lon": 73.96285712,
        "sample_id": "station:line-1-0530-0478-s002372",
        "scope_id": "line-1-0530-0478-s002372",
        "scope_type": "station"
      },
      "type": "Feature"
    },
    {
      "geometry": {
        "coordinates": [
          73.96370191,
          31.71654798
        ],
        "type": "Point"
      },
      "properties": {
        "chainage_m": 2460.2,
        "civil_class": "station",
        "investigation_flags": [
          "fine-soil-plasticity-and-shrink-swell-tests",
          "granular-density-and-groundwater-tests"
        ],
        "lat": 31.71654798,
        "line": "line-1",
        "lon": 73.96370191,
        "sample_id": "station:line-1-0531-0482-s002460",
        "scope_id": "line-1-0531-0482-s002460",
        "scope_type": "station"
      },
      "type": "Feature"
    },
    {
      "geometry": {
        "coordinates": [
          73.97890799,
          31.71312863
        ],
        "type": "Point"
      },
      "properties": {
        "chainage_m": 4069.4,
        "civil_class": "station",
        "investigation_flags": [
          "fine-soil-plasticity-and-shrink-swell-tests",
          "granular-density-and-groundwater-tests",
          "silt-moisture-frost-and-erosion-review"
        ],
        "lat": 31.71312863,
        "line": "line-1",
        "lon": 73.97890799,
        "sample_id": "station:line-1-0550-0554-s004069",
        "scope_id": "line-1-0550-0554-s004069",
        "scope_type": "station"
      },
      "type": "Feature"
    },
    {
      "geometry": {
        "coordinates": [
          73.99242452,
          31.7100692
        ],
        "type": "Point"
      },
      "properties": {
        "chainage_m": 5501.9,
        "civil_class": "station",
        "investigation_flags": [
          "fine-soil-plasticity-and-shrink-swell-tests",
          "granular-density-and-groundwater-tests"
        ],
        "lat": 31.7100692,
        "line": "line-1",
        "lon": 73.99242452,
        "sample_id": "station:line-1-0567-0618-s005502",
        "scope_id": "line-1-0567-0618-s005502",
        "scope_type": "station"
      },
      "type": "Feature"
    },
    {
      "geometry": {
        "coordinates": [
          74.0173456,
          31.70431028
        ],
        "type": "Point"
      },
      "properties": {
        "chainage_m": 8138.7,
        "civil_class": "station",
        "investigation_flags": [
          "fine-soil-plasticity-and-shrink-swell-tests",
          "granular-density-and-groundwater-tests"
        ],
        "lat": 31.70431028,
        "line": "line-1",
        "lon": 74.0173456,
        "sample_id": "station:line-1-0599-0736-s008139",
        "scope_id": "line-1-0599-0736-s008139",
        "scope_type": "station"
      },
      "type": "Feature"
    },
    {
      "geometry": {
        "coordinates": [
          73.95271973,
          31.71906751
        ],
        "type": "Point"
      },
      "properties": {
        "chainage_m": 0.0,
        "civil_class": "station",
        "investigation_flags": [
          "fine-soil-plasticity-and-shrink-swell-tests"
        ],
        "lat": 31.71906751,
        "line": "line-2",
        "lon": 73.95271973,
        "sample_id": "station:line-2-0517-0430-s000000",
        "scope_id": "line-2-0517-0430-s000000",
        "scope_type": "station"
      },
      "type": "Feature"
    },
    {
      "geometry": {
        "coordinates": [
          73.95356451,
          31.71888754
        ],
        "type": "Point"
      },
      "properties": {
        "chainage_m": 88.3,
        "civil_class": "station",
        "investigation_flags": [
          "fine-soil-plasticity-and-shrink-swell-tests"
        ],
        "lat": 31.71888754,
        "line": "line-2",
        "lon": 73.95356451,
        "sample_id": "station:line-2-0518-0434-s000088",
        "scope_id": "line-2-0518-0434-s000088",
        "scope_type": "station"
      },
      "type": "Feature"
    },
    {
      "geometry": {
        "coordinates": [
          73.9544093,
          31.71870758
        ],
        "type": "Point"
      },
      "properties": {
        "chainage_m": 176.6,
        "civil_class": "station",
        "investigation_flags": [
          "fine-soil-plasticity-and-shrink-swell-tests",
          "granular-density-and-groundwater-tests"
        ],
        "lat": 31.71870758,
        "line": "line-2",
        "lon": 73.9544093,
        "sample_id": "station:line-2-0519-0438-s000177",
        "scope_id": "line-2-0519-0438-s000177",
        "scope_type": "station"
      },
      "type": "Feature"
    },
    {
      "geometry": {
        "coordinates": [
          73.95525408,
          31.71852761
        ],
        "type": "Point"
      },
      "properties": {
        "chainage_m": 264.9,
        "civil_class": "station",
        "investigation_flags": [
          "fine-soil-plasticity-and-shrink-swell-tests",
          "granular-density-and-groundwater-tests"
        ],
        "lat": 31.71852761,
        "line": "line-2",
        "lon": 73.95525408,
        "sample_id": "station:line-2-0520-0442-s000265",
        "scope_id": "line-2-0520-0442-s000265",
        "scope_type": "station"
      },
      "type": "Feature"
    },
    {
      "geometry": {
        "coordinates": [
          73.95588767,
          31.71834764
        ],
        "type": "Point"
      },
      "properties": {
        "chainage_m": 344.9,
        "civil_class": "station",
        "investigation_flags": [
          "fine-soil-plasticity-and-shrink-swell-tests",
          "granular-density-and-groundwater-tests"
        ],
        "lat": 31.71834764,
        "line": "line-2",
        "lon": 73.95588767,
        "sample_id": "station:line-2-0521-0445-s000345",
        "scope_id": "line-2-0521-0445-s000345",
        "scope_type": "station"
      },
      "type": "Feature"
    },
    {
      "geometry": {
        "coordinates": [
          73.95652125,
          31.71816768
        ],
        "type": "Point"
      },
      "properties": {
        "chainage_m": 413.1,
        "civil_class": "station",
        "investigation_flags": [
          "fine-soil-plasticity-and-shrink-swell-tests",
          "granular-density-and-groundwater-tests"
        ],
        "lat": 31.71816768,
        "line": "line-2",
        "lon": 73.95652125,
        "sample_id": "station:line-2-0522-0448-s000413",
        "scope_id": "line-2-0522-0448-s000413",
        "scope_type": "station"
      },
      "type": "Feature"
    },
    {
      "geometry": {
        "coordinates": [
          73.95736604,
          31.71798771
        ],
        "type": "Point"
      },
      "properties": {
        "chainage_m": 501.4,
        "civil_class": "station",
        "investigation_flags": [
          "fine-soil-plasticity-and-shrink-swell-tests",
          "granular-density-and-groundwater-tests"
        ],
        "lat": 31.71798771,
        "line": "line-2",
        "lon": 73.95736604,
        "sample_id": "station:line-2-0523-0452-s000501",
        "scope_id": "line-2-0523-0452-s000501",
        "scope_type": "station"
      },
      "type": "Feature"
    },
    {
      "geometry": {
        "coordinates": [
          73.95821082,
          31.71780775
        ],
        "type": "Point"
      },
      "properties": {
        "chainage_m": 589.7,
        "civil_class": "station",
        "investigation_flags": [
          "fine-soil-plasticity-and-shrink-swell-tests",
          "granular-density-and-groundwater-tests"
        ],
        "lat": 31.71780775,
        "line": "line-2",
        "lon": 73.95821082,
        "sample_id": "station:line-2-0524-0456-s000590",
        "scope_id": "line-2-0524-0456-s000590",
        "scope_type": "station"
      },
      "type": "Feature"
    },
    {
      "geometry": {
        "coordinates": [
          73.9590556,
          31.71762778
        ],
        "type": "Point"
      },
      "properties": {
        "chainage_m": 678.0,
        "civil_class": "station",
        "investigation_flags": [
          "fine-soil-plasticity-and-shrink-swell-tests",
          "granular-density-and-groundwater-tests"
        ],
        "lat": 31.71762778,
        "line": "line-2",
        "lon": 73.9590556,
        "sample_id": "station:line-2-0525-0460-s000678",
        "scope_id": "line-2-0525-0460-s000678",
        "scope_type": "station"
      },
      "type": "Feature"
    },
    {
      "geometry": {
        "coordinates": [
          73.95990038,
          31.71744781
        ],
        "type": "Point"
      },
      "properties": {
        "chainage_m": 766.3,
        "civil_class": "station",
        "investigation_flags": [
          "fine-soil-plasticity-and-shrink-swell-tests",
          "granular-density-and-groundwater-tests"
        ],
        "lat": 31.71744781,
        "line": "line-2",
        "lon": 73.95990038,
        "sample_id": "station:line-2-0526-0464-s000766",
        "scope_id": "line-2-0526-0464-s000766",
        "scope_type": "station"
      },
      "type": "Feature"
    },
    {
      "geometry": {
        "coordinates": [
          73.96074517,
          31.71726785
        ],
        "type": "Point"
      },
      "properties": {
        "chainage_m": 854.6,
        "civil_class": "station",
        "investigation_flags": [
          "fine-soil-plasticity-and-shrink-swell-tests",
          "granular-density-and-groundwater-tests"
        ],
        "lat": 31.71726785,
        "line": "line-2",
        "lon": 73.96074517,
        "sample_id": "station:line-2-0527-0468-s000855",
        "scope_id": "line-2-0527-0468-s000855",
        "scope_type": "station"
      },
      "type": "Feature"
    },
    {
      "geometry": {
        "coordinates": [
          73.96201234,
          31.71690791
        ],
        "type": "Point"
      },
      "properties": {
        "chainage_m": 1002.8,
        "civil_class": "station",
        "investigation_flags": [
          "fine-soil-plasticity-and-shrink-swell-tests",
          "granular-density-and-groundwater-tests"
        ],
        "lat": 31.71690791,
        "line": "line-2",
        "lon": 73.96201234,
        "sample_id": "station:line-2-0529-0474-s001003",
        "scope_id": "line-2-0529-0474-s001003",
        "scope_type": "station"
      },
      "type": "Feature"
    },
    {
      "geometry": {
        "coordinates": [
          73.96285712,
          31.71672795
        ],
        "type": "Point"
      },
      "properties": {
        "chainage_m": 1091.1,
        "civil_class": "station",
        "investigation_flags": [
          "fine-soil-plasticity-and-shrink-swell-tests",
          "granular-density-and-groundwater-tests"
        ],
        "lat": 31.71672795,
        "line": "line-2",
        "lon": 73.96285712,
        "sample_id": "station:line-2-0530-0478-s001091",
        "scope_id": "line-2-0530-0478-s001091",
        "scope_type": "station"
      },
      "type": "Feature"
    },
    {
      "geometry": {
        "coordinates": [
          73.96370191,
          31.71654798
        ],
        "type": "Point"
      },
      "properties": {
        "chainage_m": 1179.4,
        "civil_class": "station",
        "investigation_flags": [
          "fine-soil-plasticity-and-shrink-swell-tests",
          "granular-density-and-groundwater-tests"
        ],
        "lat": 31.71654798,
        "line": "line-2",
        "lon": 73.96370191,
        "sample_id": "station:line-2-0531-0482-s001179",
        "scope_id": "line-2-0531-0482-s001179",
        "scope_type": "station"
      },
      "type": "Feature"
    },
    {
      "geometry": {
        "coordinates": [
          73.9786968,
          31.71294866
        ],
        "type": "Point"
      },
      "properties": {
        "chainage_m": 2800.2,
        "civil_class": "station",
        "investigation_flags": [
          "fine-soil-plasticity-and-shrink-swell-tests",
          "silt-moisture-frost-and-erosion-review"
        ],
        "lat": 31.71294866,
        "line": "line-2",
        "lon": 73.9786968,
        "sample_id": "station:line-2-0551-0553-s002800",
        "scope_id": "line-2-0551-0553-s002800",
        "scope_type": "station"
      },
      "type": "Feature"
    },
    {
      "geometry": {
        "coordinates": [
          73.99559245,
          31.7089894
        ],
        "type": "Point"
      },
      "properties": {
        "chainage_m": 4617.6,
        "civil_class": "station",
        "investigation_flags": [
          "fine-soil-plasticity-and-shrink-swell-tests",
          "granular-density-and-groundwater-tests"
        ],
        "lat": 31.7089894,
        "line": "line-2",
        "lon": 73.99559245,
        "sample_id": "station:line-2-0573-0633-s004618",
        "scope_id": "line-2-0573-0633-s004618",
        "scope_type": "station"
      },
      "type": "Feature"
    },
    {
      "geometry": {
        "coordinates": [
          74.01650082,
          31.70395035
        ],
        "type": "Point"
      },
      "properties": {
        "chainage_m": 6876.5,
        "civil_class": "station",
        "investigation_flags": [
          "fine-soil-plasticity-and-shrink-swell-tests",
          "granular-density-and-groundwater-tests"
        ],
        "lat": 31.70395035,
        "line": "line-2",
        "lon": 74.01650082,
        "sample_id": "station:line-2-0601-0732-s006876",
        "scope_id": "line-2-0601-0732-s006876",
        "scope_type": "station"
      },
      "type": "Feature"
    }
  ],
  "type": "FeatureCollection"
}
