{
  "features": [
    {
      "geometry": {
        "coordinates": [
          30.829436154046682,
          29.33038449771443
        ],
        "type": "Point"
      },
      "properties": {
        "id": "interchange-000",
        "junction_group": 0,
        "line_count": 2,
        "lines": "line-1,line-2",
        "platform_count": 2,
        "platforms": "line-1-0428-0486-s008851,line-2-0428-0486-s011942"
      },
      "type": "Feature"
    },
    {
      "geometry": {
        "coordinates": [
          30.851275891619032,
          29.302129809595794
        ],
        "type": "Point"
      },
      "properties": {
        "id": "interchange-001",
        "junction_group": 1,
        "line_count": 2,
        "lines": "line-1,line-3",
        "platform_count": 2,
        "platforms": "line-1-0585-0592-s013080,line-3-0585-0592-s009315"
      },
      "type": "Feature"
    },
    {
      "geometry": {
        "coordinates": [
          30.86240179566532,
          29.314727441241047
        ],
        "type": "Point"
      },
      "properties": {
        "id": "interchange-002",
        "junction_group": 2,
        "line_count": 2,
        "lines": "line-2,line-3",
        "platform_count": 2,
        "platforms": "line-2-0515-0646-s007907,line-3-0515-0646-s011168"
      },
      "type": "Feature"
    }
  ],
  "type": "FeatureCollection"
}
