{
  "features": [
    {
      "geometry": {
        "coordinates": [
          10.086756826566335,
          3.8036220278587627
        ],
        "type": "Point"
      },
      "properties": {
        "anchor_kind": "place:town",
        "anchor_name": "Ekité",
        "archetype": "terminal",
        "chainage_m": 0.0,
        "corridor_offset_m": 0.0,
        "id": "line-1-0355-0117-s000000",
        "junction_group": null,
        "line": "line-1",
        "platform_length_m": 49.0
      },
      "type": "Feature"
    },
    {
      "geometry": {
        "coordinates": [
          10.101161474441286,
          3.806501486520534
        ],
        "type": "Point"
      },
      "properties": {
        "anchor_kind": null,
        "anchor_name": null,
        "archetype": "standard",
        "chainage_m": 2018.2,
        "corridor_offset_m": 0.387,
        "id": "line-1-0339-0197-s002018",
        "junction_group": null,
        "line": "line-1",
        "platform_length_m": 49.0
      },
      "type": "Feature"
    },
    {
      "geometry": {
        "coordinates": [
          10.114485773725615,
          3.801282467696073
        ],
        "type": "Point"
      },
      "properties": {
        "anchor_kind": null,
        "anchor_name": null,
        "archetype": "standard",
        "chainage_m": 4020.1,
        "corridor_offset_m": 0.343,
        "id": "line-1-0368-0271-s004020",
        "junction_group": null,
        "line": "line-1",
        "platform_length_m": 49.0
      },
      "type": "Feature"
    },
    {
      "geometry": {
        "coordinates": [
          10.123128562450587,
          3.801282467696073
        ],
        "type": "Point"
      },
      "properties": {
        "anchor_kind": null,
        "anchor_name": null,
        "archetype": "major",
        "chainage_m": 5232.7,
        "corridor_offset_m": 0.701,
        "id": "line-1-0368-0319-s005233",
        "junction_group": null,
        "line": "line-1",
        "platform_length_m": 49.0
      },
      "type": "Feature"
    },
    {
      "geometry": {
        "coordinates": [
          10.132131467372432,
          3.7996627721988268
        ],
        "type": "Point"
      },
      "properties": {
        "anchor_kind": null,
        "anchor_name": null,
        "archetype": "major",
        "chainage_m": 7313.8,
        "corridor_offset_m": 0.175,
        "id": "line-1-0377-0369-s007314",
        "junction_group": null,
        "line": "line-1",
        "platform_length_m": 49.0
      },
      "type": "Feature"
    },
    {
      "geometry": {
        "coordinates": [
          10.143475127573955,
          3.7879649713853794
        ],
        "type": "Point"
      },
      "properties": {
        "anchor_kind": "place:neighbourhood",
        "anchor_name": "Ntoumba",
        "archetype": "depot-terminal",
        "chainage_m": 9610.0,
        "corridor_offset_m": 0.0,
        "id": "line-1-0442-0432-s009610",
        "junction_group": null,
        "line": "line-1",
        "platform_length_m": 49.0
      },
      "type": "Feature"
    }
  ],
  "type": "FeatureCollection"
}
