{
  "features": [
    {
      "geometry": {
        "coordinates": [
          15.0070676783078,
          -7.60147272792715
        ],
        "type": "Point"
      },
      "properties": {
        "anchor_kind": "amenity:university",
        "anchor_name": "Universidade Kimpa Vita",
        "archetype": "terminal",
        "chainage_m": 0.0,
        "corridor_offset_m": 0.0,
        "id": "line-1-0510-0252-s000000",
        "junction_group": null,
        "line": "line-1",
        "platform_length_m": 59.5
      },
      "type": "Feature"
    },
    {
      "geometry": {
        "coordinates": [
          15.019393231277823,
          -7.609931137746104
        ],
        "type": "Point"
      },
      "properties": {
        "anchor_kind": null,
        "anchor_name": null,
        "archetype": "standard",
        "chainage_m": 2007.9,
        "corridor_offset_m": 0.081,
        "id": "line-1-0557-0320-s002008",
        "junction_group": null,
        "line": "line-1",
        "platform_length_m": 59.5
      },
      "type": "Feature"
    },
    {
      "geometry": {
        "coordinates": [
          15.032806333039316,
          -7.603272389590757
        ],
        "type": "Point"
      },
      "properties": {
        "anchor_kind": "aeroway:aerodrome",
        "anchor_name": "Aeroporto Provincial do Uíge",
        "archetype": "standard",
        "chainage_m": 4009.8,
        "corridor_offset_m": 0.192,
        "id": "line-1-0520-0394-s004010",
        "junction_group": null,
        "line": "line-1",
        "platform_length_m": 59.5
      },
      "type": "Feature"
    },
    {
      "geometry": {
        "coordinates": [
          15.047306983592282,
          -7.596793607601771
        ],
        "type": "Point"
      },
      "properties": {
        "anchor_kind": null,
        "anchor_name": null,
        "archetype": "standard",
        "chainage_m": 6032.9,
        "corridor_offset_m": 0.748,
        "id": "line-1-0484-0474-s006033",
        "junction_group": null,
        "line": "line-1",
        "platform_length_m": 59.5
      },
      "type": "Feature"
    },
    {
      "geometry": {
        "coordinates": [
          15.060357569089952,
          -7.608851340747939
        ],
        "type": "Point"
      },
      "properties": {
        "anchor_kind": null,
        "anchor_name": null,
        "archetype": "standard",
        "chainage_m": 8250.6,
        "corridor_offset_m": 0.814,
        "id": "line-1-0551-0546-s008251",
        "junction_group": null,
        "line": "line-1",
        "platform_length_m": 59.5
      },
      "type": "Feature"
    },
    {
      "geometry": {
        "coordinates": [
          15.06017631095804,
          -7.6156900550696465
        ],
        "type": "Point"
      },
      "properties": {
        "anchor_kind": null,
        "anchor_name": null,
        "archetype": "standard",
        "chainage_m": 9777.7,
        "corridor_offset_m": 0.876,
        "id": "line-1-0589-0545-s009778",
        "junction_group": null,
        "line": "line-1",
        "platform_length_m": 59.5
      },
      "type": "Feature"
    },
    {
      "geometry": {
        "coordinates": [
          15.055463599528327,
          -7.630987179210308
        ],
        "type": "Point"
      },
      "properties": {
        "anchor_kind": "amenity:marketplace",
        "anchor_name": null,
        "archetype": "depot-terminal",
        "chainage_m": 12024.8,
        "corridor_offset_m": 0.0,
        "id": "line-1-0674-0519-s012025",
        "junction_group": null,
        "line": "line-1",
        "platform_length_m": 59.5
      },
      "type": "Feature"
    }
  ],
  "type": "FeatureCollection"
}
