{
  "features": [
    {
      "geometry": {
        "coordinates": [
          32.6241985369459,
          25.687408591584784
        ],
        "type": "Point"
      },
      "properties": {
        "id": "interchange-000",
        "junction_group": 0,
        "line_count": 2,
        "lines": "line-1,line-2",
        "platform_count": 2,
        "platforms": "line-1-0549-0474-s006421,line-2-0549-0474-s013425"
      },
      "type": "Feature"
    },
    {
      "geometry": {
        "coordinates": [
          32.64572992154054,
          25.709364463880792
        ],
        "type": "Point"
      },
      "properties": {
        "id": "interchange-001",
        "junction_group": 1,
        "line_count": 2,
        "lines": "line-2,line-3",
        "platform_count": 2,
        "platforms": "line-2-0427-0582-s018810,line-3-0427-0582-s007594"
      },
      "type": "Feature"
    }
  ],
  "type": "FeatureCollection"
}
