{
  "features": [
    {
      "geometry": {
        "coordinates": [
          43.903757438377035,
          36.30821221610337
        ],
        "type": "Point"
      },
      "properties": {
        "charger_bus_voltage_v": 650.0,
        "charger_contact_count": 6,
        "charger_efficiency": 0.98,
        "charger_max_current_a": 2475.0,
        "charger_max_kw": 1500.0,
        "grid_export_kw": 9000.0,
        "grid_import_kw": 9000.0,
        "line": "line-1",
        "pv_nameplate_kw": 5000.0,
        "station": "line-1-0065-0241-s000000",
        "storage_capacity_kwh": 40000.0,
        "storage_initial_soc": 0.6,
        "storage_max_charge_kw": 10000.0,
        "storage_max_discharge_kw": 10000.0,
        "storage_module_kwh": 500.0,
        "tier": "depot-main"
      },
      "type": "Feature"
    },
    {
      "geometry": {
        "coordinates": [
          43.982557161712315,
          36.23298635856459
        ],
        "type": "Point"
      },
      "properties": {
        "charger_bus_voltage_v": 650.0,
        "charger_contact_count": 6,
        "charger_efficiency": 0.98,
        "charger_max_current_a": 2475.0,
        "charger_max_kw": 1500.0,
        "grid_export_kw": 1500.0,
        "grid_import_kw": 1500.0,
        "line": "line-1",
        "pv_nameplate_kw": 300.0,
        "station": "line-1-0483-0595-s013351",
        "storage_capacity_kwh": 1500.0,
        "storage_initial_soc": 0.5,
        "storage_max_charge_kw": 1500.0,
        "storage_max_discharge_kw": 1500.0,
        "storage_module_kwh": 500.0,
        "tier": "standard"
      },
      "type": "Feature"
    },
    {
      "geometry": {
        "coordinates": [
          44.00036500879373,
          36.207971061440446
        ],
        "type": "Point"
      },
      "properties": {
        "charger_bus_voltage_v": 650.0,
        "charger_contact_count": 6,
        "charger_efficiency": 0.98,
        "charger_max_current_a": 2475.0,
        "charger_max_kw": 1500.0,
        "grid_export_kw": 1800.0,
        "grid_import_kw": 1800.0,
        "line": "line-1",
        "pv_nameplate_kw": 300.0,
        "station": "line-1-0622-0675-s016911",
        "storage_capacity_kwh": 1500.0,
        "storage_initial_soc": 0.5,
        "storage_max_charge_kw": 1500.0,
        "storage_max_discharge_kw": 1500.0,
        "storage_module_kwh": 500.0,
        "tier": "interchange"
      },
      "type": "Feature"
    },
    {
      "geometry": {
        "coordinates": [
          44.01260790366221,
          36.19069430946982
        ],
        "type": "Point"
      },
      "properties": {
        "charger_bus_voltage_v": 650.0,
        "charger_contact_count": 6,
        "charger_efficiency": 0.98,
        "charger_max_current_a": 2475.0,
        "charger_max_kw": 1500.0,
        "grid_export_kw": 1800.0,
        "grid_import_kw": 1800.0,
        "line": "line-1",
        "pv_nameplate_kw": 300.0,
        "station": "line-1-0718-0730-s019368",
        "storage_capacity_kwh": 1500.0,
        "storage_initial_soc": 0.5,
        "storage_max_charge_kw": 1500.0,
        "storage_max_discharge_kw": 1500.0,
        "storage_module_kwh": 500.0,
        "tier": "major"
      },
      "type": "Feature"
    },
    {
      "geometry": {
        "coordinates": [
          44.02062143484885,
          36.17917647482273
        ],
        "type": "Point"
      },
      "properties": {
        "charger_bus_voltage_v": 650.0,
        "charger_contact_count": 6,
        "charger_efficiency": 0.98,
        "charger_max_current_a": 2475.0,
        "charger_max_kw": 1500.0,
        "grid_export_kw": 1800.0,
        "grid_import_kw": 1800.0,
        "line": "line-1",
        "pv_nameplate_kw": 300.0,
        "station": "line-1-0782-0766-s020993",
        "storage_capacity_kwh": 1500.0,
        "storage_initial_soc": 0.5,
        "storage_max_charge_kw": 1500.0,
        "storage_max_discharge_kw": 1500.0,
        "storage_module_kwh": 500.0,
        "tier": "interchange"
      },
      "type": "Feature"
    },
    {
      "geometry": {
        "coordinates": [
          44.026854181327344,
          36.17053809883742
        ],
        "type": "Point"
      },
      "properties": {
        "charger_bus_voltage_v": 650.0,
        "charger_contact_count": 6,
        "charger_efficiency": 0.98,
        "charger_max_current_a": 2475.0,
        "charger_max_kw": 1500.0,
        "grid_export_kw": 1800.0,
        "grid_import_kw": 1800.0,
        "line": "line-1",
        "pv_nameplate_kw": 300.0,
        "station": "line-1-0830-0794-s022220",
        "storage_capacity_kwh": 1500.0,
        "storage_initial_soc": 0.5,
        "storage_max_charge_kw": 1500.0,
        "storage_max_discharge_kw": 1500.0,
        "storage_module_kwh": 500.0,
        "tier": "interchange"
      },
      "type": "Feature"
    },
    {
      "geometry": {
        "coordinates": [
          44.02908016221252,
          36.167298707842924
        ],
        "type": "Point"
      },
      "properties": {
        "charger_bus_voltage_v": 650.0,
        "charger_contact_count": 6,
        "charger_efficiency": 0.98,
        "charger_max_current_a": 2475.0,
        "charger_max_kw": 1500.0,
        "grid_export_kw": 1800.0,
        "grid_import_kw": 1800.0,
        "line": "line-1",
        "pv_nameplate_kw": 300.0,
        "station": "line-1-0848-0804-s022675",
        "storage_capacity_kwh": 1500.0,
        "storage_initial_soc": 0.5,
        "storage_max_charge_kw": 1500.0,
        "storage_max_discharge_kw": 1500.0,
        "storage_module_kwh": 500.0,
        "tier": "interchange"
      },
      "type": "Feature"
    },
    {
      "geometry": {
        "coordinates": [
          44.04043266472692,
          36.151281719036824
        ],
        "type": "Point"
      },
      "properties": {
        "charger_bus_voltage_v": 650.0,
        "charger_contact_count": 6,
        "charger_efficiency": 0.98,
        "charger_max_current_a": 2475.0,
        "charger_max_kw": 1500.0,
        "grid_export_kw": 1500.0,
        "grid_import_kw": 1500.0,
        "line": "line-1",
        "pv_nameplate_kw": 300.0,
        "station": "line-1-0937-0855-s024948",
        "storage_capacity_kwh": 1500.0,
        "storage_initial_soc": 0.5,
        "storage_max_charge_kw": 1500.0,
        "storage_max_discharge_kw": 1500.0,
        "storage_module_kwh": 500.0,
        "tier": "standard"
      },
      "type": "Feature"
    },
    {
      "geometry": {
        "coordinates": [
          44.05178516724133,
          36.13544469639708
        ],
        "type": "Point"
      },
      "properties": {
        "charger_bus_voltage_v": 650.0,
        "charger_contact_count": 6,
        "charger_efficiency": 0.98,
        "charger_max_current_a": 2475.0,
        "charger_max_kw": 1500.0,
        "grid_export_kw": 1500.0,
        "grid_import_kw": 1500.0,
        "line": "line-1",
        "pv_nameplate_kw": 300.0,
        "station": "line-1-1025-0906-s027212",
        "storage_capacity_kwh": 1500.0,
        "storage_initial_soc": 0.5,
        "storage_max_charge_kw": 1500.0,
        "storage_max_discharge_kw": 1500.0,
        "storage_module_kwh": 500.0,
        "tier": "standard"
      },
      "type": "Feature"
    },
    {
      "geometry": {
        "coordinates": [
          44.06291507166721,
          36.119607673757336
        ],
        "type": "Point"
      },
      "properties": {
        "charger_bus_voltage_v": 650.0,
        "charger_contact_count": 6,
        "charger_efficiency": 0.98,
        "charger_max_current_a": 2475.0,
        "charger_max_kw": 1500.0,
        "grid_export_kw": 2400.0,
        "grid_import_kw": 2400.0,
        "line": "line-1",
        "pv_nameplate_kw": 300.0,
        "station": "line-1-1113-0956-s029469",
        "storage_capacity_kwh": 1500.0,
        "storage_initial_soc": 0.6,
        "storage_max_charge_kw": 1500.0,
        "storage_max_discharge_kw": 1500.0,
        "storage_module_kwh": 500.0,
        "tier": "terminal"
      },
      "type": "Feature"
    },
    {
      "geometry": {
        "coordinates": [
          43.96719789360459,
          36.115108519598316
        ],
        "type": "Point"
      },
      "properties": {
        "charger_bus_voltage_v": 650.0,
        "charger_contact_count": 6,
        "charger_efficiency": 0.98,
        "charger_max_current_a": 2475.0,
        "charger_max_kw": 1500.0,
        "grid_export_kw": 2400.0,
        "grid_import_kw": 2400.0,
        "line": "line-2",
        "pv_nameplate_kw": 300.0,
        "station": "line-2-1138-0526-s000000",
        "storage_capacity_kwh": 1500.0,
        "storage_initial_soc": 0.6,
        "storage_max_charge_kw": 1500.0,
        "storage_max_discharge_kw": 1500.0,
        "storage_module_kwh": 500.0,
        "tier": "terminal"
      },
      "type": "Feature"
    },
    {
      "geometry": {
        "coordinates": [
          43.99591304702338,
          36.14948205737321
        ],
        "type": "Point"
      },
      "properties": {
        "charger_bus_voltage_v": 650.0,
        "charger_contact_count": 6,
        "charger_efficiency": 0.98,
        "charger_max_current_a": 2475.0,
        "charger_max_kw": 1500.0,
        "grid_export_kw": 1500.0,
        "grid_import_kw": 1500.0,
        "line": "line-2",
        "pv_nameplate_kw": 300.0,
        "station": "line-2-0947-0655-s005158",
        "storage_capacity_kwh": 1500.0,
        "storage_initial_soc": 0.5,
        "storage_max_charge_kw": 1500.0,
        "storage_max_discharge_kw": 1500.0,
        "storage_module_kwh": 500.0,
        "tier": "standard"
      },
      "type": "Feature"
    },
    {
      "geometry": {
        "coordinates": [
          44.01149491321962,
          36.16819853867473
        ],
        "type": "Point"
      },
      "properties": {
        "charger_bus_voltage_v": 650.0,
        "charger_contact_count": 6,
        "charger_efficiency": 0.98,
        "charger_max_current_a": 2475.0,
        "charger_max_kw": 1500.0,
        "grid_export_kw": 1800.0,
        "grid_import_kw": 1800.0,
        "line": "line-2",
        "pv_nameplate_kw": 300.0,
        "station": "line-2-0843-0725-s007947",
        "storage_capacity_kwh": 1500.0,
        "storage_initial_soc": 0.5,
        "storage_max_charge_kw": 1500.0,
        "storage_max_discharge_kw": 1500.0,
        "storage_module_kwh": 500.0,
        "tier": "interchange"
      },
      "type": "Feature"
    },
    {
      "geometry": {
        "coordinates": [
          44.02062143484885,
          36.17917647482273
        ],
        "type": "Point"
      },
      "properties": {
        "charger_bus_voltage_v": 650.0,
        "charger_contact_count": 6,
        "charger_efficiency": 0.98,
        "charger_max_current_a": 2475.0,
        "charger_max_kw": 1500.0,
        "grid_export_kw": 1800.0,
        "grid_import_kw": 1800.0,
        "line": "line-2",
        "pv_nameplate_kw": 300.0,
        "station": "line-2-0782-0766-s009589",
        "storage_capacity_kwh": 1500.0,
        "storage_initial_soc": 0.5,
        "storage_max_charge_kw": 1500.0,
        "storage_max_discharge_kw": 1500.0,
        "storage_module_kwh": 500.0,
        "tier": "interchange"
      },
      "type": "Feature"
    },
    {
      "geometry": {
        "coordinates": [
          44.034422516336946,
          36.19573336212792
        ],
        "type": "Point"
      },
      "properties": {
        "charger_bus_voltage_v": 650.0,
        "charger_contact_count": 6,
        "charger_efficiency": 0.98,
        "charger_max_current_a": 2475.0,
        "charger_max_kw": 1500.0,
        "grid_export_kw": 1800.0,
        "grid_import_kw": 1800.0,
        "line": "line-2",
        "pv_nameplate_kw": 300.0,
        "station": "line-2-0690-0828-s012071",
        "storage_capacity_kwh": 1500.0,
        "storage_initial_soc": 0.5,
        "storage_max_charge_kw": 1500.0,
        "storage_max_discharge_kw": 1500.0,
        "storage_module_kwh": 500.0,
        "tier": "interchange"
      },
      "type": "Feature"
    },
    {
      "geometry": {
        "coordinates": [
          44.04354903796617,
          36.20671129827593
        ],
        "type": "Point"
      },
      "properties": {
        "charger_bus_voltage_v": 650.0,
        "charger_contact_count": 6,
        "charger_efficiency": 0.98,
        "charger_max_current_a": 2475.0,
        "charger_max_kw": 1500.0,
        "grid_export_kw": 1800.0,
        "grid_import_kw": 1800.0,
        "line": "line-2",
        "pv_nameplate_kw": 300.0,
        "station": "line-2-0629-0869-s013724",
        "storage_capacity_kwh": 1500.0,
        "storage_initial_soc": 0.5,
        "storage_max_charge_kw": 1500.0,
        "storage_max_discharge_kw": 1500.0,
        "storage_module_kwh": 500.0,
        "tier": "interchange"
      },
      "type": "Feature"
    },
    {
      "geometry": {
        "coordinates": [
          44.06291507166721,
          36.22992693373646
        ],
        "type": "Point"
      },
      "properties": {
        "charger_bus_voltage_v": 650.0,
        "charger_contact_count": 6,
        "charger_efficiency": 0.98,
        "charger_max_current_a": 2475.0,
        "charger_max_kw": 1500.0,
        "grid_export_kw": 1500.0,
        "grid_import_kw": 1500.0,
        "line": "line-2",
        "pv_nameplate_kw": 300.0,
        "station": "line-2-0500-0956-s017189",
        "storage_capacity_kwh": 1500.0,
        "storage_initial_soc": 0.5,
        "storage_max_charge_kw": 1500.0,
        "storage_max_discharge_kw": 1500.0,
        "storage_module_kwh": 500.0,
        "tier": "standard"
      },
      "type": "Feature"
    },
    {
      "geometry": {
        "coordinates": [
          44.08250370345678,
          36.25332253536335
        ],
        "type": "Point"
      },
      "properties": {
        "charger_bus_voltage_v": 650.0,
        "charger_contact_count": 6,
        "charger_efficiency": 0.98,
        "charger_max_current_a": 2475.0,
        "charger_max_kw": 1500.0,
        "grid_export_kw": 1500.0,
        "grid_import_kw": 1500.0,
        "line": "line-2",
        "pv_nameplate_kw": 300.0,
        "station": "line-2-0370-1044-s020694",
        "storage_capacity_kwh": 1500.0,
        "storage_initial_soc": 0.5,
        "storage_max_charge_kw": 1500.0,
        "storage_max_discharge_kw": 1500.0,
        "storage_module_kwh": 500.0,
        "tier": "standard"
      },
      "type": "Feature"
    },
    {
      "geometry": {
        "coordinates": [
          44.14527636441878,
          36.31505093042508
        ],
        "type": "Point"
      },
      "properties": {
        "charger_bus_voltage_v": 650.0,
        "charger_contact_count": 6,
        "charger_efficiency": 0.98,
        "charger_max_current_a": 2475.0,
        "charger_max_kw": 1500.0,
        "grid_export_kw": 9000.0,
        "grid_import_kw": 9000.0,
        "line": "line-2",
        "pv_nameplate_kw": 5000.0,
        "station": "line-2-0027-1326-s030769",
        "storage_capacity_kwh": 40000.0,
        "storage_initial_soc": 0.6,
        "storage_max_charge_kw": 10000.0,
        "storage_max_discharge_kw": 10000.0,
        "storage_module_kwh": 500.0,
        "tier": "depot-main"
      },
      "type": "Feature"
    },
    {
      "geometry": {
        "coordinates": [
          43.9585165681524,
          36.20923082460497
        ],
        "type": "Point"
      },
      "properties": {
        "charger_bus_voltage_v": 650.0,
        "charger_contact_count": 6,
        "charger_efficiency": 0.98,
        "charger_max_current_a": 2475.0,
        "charger_max_kw": 1500.0,
        "grid_export_kw": 9000.0,
        "grid_import_kw": 9000.0,
        "line": "line-3",
        "pv_nameplate_kw": 5000.0,
        "station": "line-3-0615-0487-s000000",
        "storage_capacity_kwh": 40000.0,
        "storage_initial_soc": 0.6,
        "storage_max_charge_kw": 10000.0,
        "storage_max_discharge_kw": 10000.0,
        "storage_module_kwh": 500.0,
        "tier": "depot-main"
      },
      "type": "Feature"
    },
    {
      "geometry": {
        "coordinates": [
          43.97944078847306,
          36.208690926105895
        ],
        "type": "Point"
      },
      "properties": {
        "charger_bus_voltage_v": 650.0,
        "charger_contact_count": 6,
        "charger_efficiency": 0.98,
        "charger_max_current_a": 2475.0,
        "charger_max_kw": 1500.0,
        "grid_export_kw": 1500.0,
        "grid_import_kw": 1500.0,
        "line": "line-3",
        "pv_nameplate_kw": 300.0,
        "station": "line-3-0618-0581-s001905",
        "storage_capacity_kwh": 1500.0,
        "storage_initial_soc": 0.5,
        "storage_max_charge_kw": 1500.0,
        "storage_max_discharge_kw": 1500.0,
        "storage_module_kwh": 500.0,
        "tier": "standard"
      },
      "type": "Feature"
    },
    {
      "geometry": {
        "coordinates": [
          44.00036500879373,
          36.207971061440446
        ],
        "type": "Point"
      },
      "properties": {
        "charger_bus_voltage_v": 650.0,
        "charger_contact_count": 6,
        "charger_efficiency": 0.98,
        "charger_max_current_a": 2475.0,
        "charger_max_kw": 1500.0,
        "grid_export_kw": 1800.0,
        "grid_import_kw": 1800.0,
        "line": "line-3",
        "pv_nameplate_kw": 300.0,
        "station": "line-3-0622-0675-s003818",
        "storage_capacity_kwh": 1500.0,
        "storage_initial_soc": 0.5,
        "storage_max_charge_kw": 1500.0,
        "storage_max_discharge_kw": 1500.0,
        "storage_module_kwh": 500.0,
        "tier": "interchange"
      },
      "type": "Feature"
    },
    {
      "geometry": {
        "coordinates": [
          44.024405602353646,
          36.207251196775005
        ],
        "type": "Point"
      },
      "properties": {
        "charger_bus_voltage_v": 650.0,
        "charger_contact_count": 6,
        "charger_efficiency": 0.98,
        "charger_max_current_a": 2475.0,
        "charger_max_kw": 1500.0,
        "grid_export_kw": 1800.0,
        "grid_import_kw": 1800.0,
        "line": "line-3",
        "pv_nameplate_kw": 300.0,
        "station": "line-3-0626-0783-s006011",
        "storage_capacity_kwh": 1500.0,
        "storage_initial_soc": 0.5,
        "storage_max_charge_kw": 1500.0,
        "storage_max_discharge_kw": 1500.0,
        "storage_module_kwh": 500.0,
        "tier": "major"
      },
      "type": "Feature"
    },
    {
      "geometry": {
        "coordinates": [
          44.03776148766471,
          36.206891264442284
        ],
        "type": "Point"
      },
      "properties": {
        "charger_bus_voltage_v": 650.0,
        "charger_contact_count": 6,
        "charger_efficiency": 0.98,
        "charger_max_current_a": 2475.0,
        "charger_max_kw": 1500.0,
        "grid_export_kw": 1800.0,
        "grid_import_kw": 1800.0,
        "line": "line-3",
        "pv_nameplate_kw": 300.0,
        "station": "line-3-0628-0843-s007228",
        "storage_capacity_kwh": 1500.0,
        "storage_initial_soc": 0.5,
        "storage_max_charge_kw": 1500.0,
        "storage_max_discharge_kw": 1500.0,
        "storage_module_kwh": 500.0,
        "tier": "interchange"
      },
      "type": "Feature"
    },
    {
      "geometry": {
        "coordinates": [
          44.04354903796617,
          36.20671129827593
        ],
        "type": "Point"
      },
      "properties": {
        "charger_bus_voltage_v": 650.0,
        "charger_contact_count": 6,
        "charger_efficiency": 0.98,
        "charger_max_current_a": 2475.0,
        "charger_max_kw": 1500.0,
        "grid_export_kw": 1800.0,
        "grid_import_kw": 1800.0,
        "line": "line-3",
        "pv_nameplate_kw": 300.0,
        "station": "line-3-0629-0869-s007756",
        "storage_capacity_kwh": 1500.0,
        "storage_initial_soc": 0.5,
        "storage_max_charge_kw": 1500.0,
        "storage_max_discharge_kw": 1500.0,
        "storage_module_kwh": 500.0,
        "tier": "interchange"
      },
      "type": "Feature"
    },
    {
      "geometry": {
        "coordinates": [
          44.05735011945427,
          36.206351365943206
        ],
        "type": "Point"
      },
      "properties": {
        "charger_bus_voltage_v": 650.0,
        "charger_contact_count": 6,
        "charger_efficiency": 0.98,
        "charger_max_current_a": 2475.0,
        "charger_max_kw": 1500.0,
        "grid_export_kw": 1500.0,
        "grid_import_kw": 1500.0,
        "line": "line-3",
        "pv_nameplate_kw": 300.0,
        "station": "line-3-0631-0931-s009013",
        "storage_capacity_kwh": 1500.0,
        "storage_initial_soc": 0.5,
        "storage_max_charge_kw": 1500.0,
        "storage_max_discharge_kw": 1500.0,
        "storage_module_kwh": 500.0,
        "tier": "standard"
      },
      "type": "Feature"
    },
    {
      "geometry": {
        "coordinates": [
          44.11745160335406,
          36.20473167044596
        ],
        "type": "Point"
      },
      "properties": {
        "charger_bus_voltage_v": 650.0,
        "charger_contact_count": 6,
        "charger_efficiency": 0.98,
        "charger_max_current_a": 2475.0,
        "charger_max_kw": 1500.0,
        "grid_export_kw": 1500.0,
        "grid_import_kw": 1500.0,
        "line": "line-3",
        "pv_nameplate_kw": 300.0,
        "station": "line-3-0640-1201-s014515",
        "storage_capacity_kwh": 1500.0,
        "storage_initial_soc": 0.5,
        "storage_max_charge_kw": 1500.0,
        "storage_max_discharge_kw": 1500.0,
        "storage_module_kwh": 500.0,
        "tier": "standard"
      },
      "type": "Feature"
    },
    {
      "geometry": {
        "coordinates": [
          44.16531019238538,
          36.211030486268584
        ],
        "type": "Point"
      },
      "properties": {
        "charger_bus_voltage_v": 650.0,
        "charger_contact_count": 6,
        "charger_efficiency": 0.98,
        "charger_max_current_a": 2475.0,
        "charger_max_kw": 1500.0,
        "grid_export_kw": 2400.0,
        "grid_import_kw": 2400.0,
        "line": "line-3",
        "pv_nameplate_kw": 300.0,
        "station": "line-3-0605-1416-s020013",
        "storage_capacity_kwh": 1500.0,
        "storage_initial_soc": 0.6,
        "storage_max_charge_kw": 1500.0,
        "storage_max_discharge_kw": 1500.0,
        "storage_module_kwh": 500.0,
        "tier": "terminal"
      },
      "type": "Feature"
    },
    {
      "geometry": {
        "coordinates": [
          44.07738394742087,
          36.31973005075046
        ],
        "type": "Point"
      },
      "properties": {
        "charger_bus_voltage_v": 650.0,
        "charger_contact_count": 6,
        "charger_efficiency": 0.98,
        "charger_max_current_a": 2475.0,
        "charger_max_kw": 1500.0,
        "grid_export_kw": 9000.0,
        "grid_import_kw": 9000.0,
        "line": "line-4",
        "pv_nameplate_kw": 5000.0,
        "station": "line-4-0001-1021-s000000",
        "storage_capacity_kwh": 40000.0,
        "storage_initial_soc": 0.6,
        "storage_max_charge_kw": 10000.0,
        "storage_max_discharge_kw": 10000.0,
        "storage_module_kwh": 500.0,
        "tier": "depot-main"
      },
      "type": "Feature"
    },
    {
      "geometry": {
        "coordinates": [
          44.043994234143206,
          36.227047475074684
        ],
        "type": "Point"
      },
      "properties": {
        "charger_bus_voltage_v": 650.0,
        "charger_contact_count": 6,
        "charger_efficiency": 0.98,
        "charger_max_current_a": 2475.0,
        "charger_max_kw": 1500.0,
        "grid_export_kw": 1500.0,
        "grid_import_kw": 1500.0,
        "line": "line-4",
        "pv_nameplate_kw": 300.0,
        "station": "line-4-0516-0871-s012677",
        "storage_capacity_kwh": 1500.0,
        "storage_initial_soc": 0.5,
        "storage_max_charge_kw": 1500.0,
        "storage_max_discharge_kw": 1500.0,
        "storage_module_kwh": 500.0,
        "tier": "standard"
      },
      "type": "Feature"
    },
    {
      "geometry": {
        "coordinates": [
          44.03776148766471,
          36.206891264442284
        ],
        "type": "Point"
      },
      "properties": {
        "charger_bus_voltage_v": 650.0,
        "charger_contact_count": 6,
        "charger_efficiency": 0.98,
        "charger_max_current_a": 2475.0,
        "charger_max_kw": 1500.0,
        "grid_export_kw": 1800.0,
        "grid_import_kw": 1800.0,
        "line": "line-4",
        "pv_nameplate_kw": 300.0,
        "station": "line-4-0628-0843-s015172",
        "storage_capacity_kwh": 1500.0,
        "storage_initial_soc": 0.5,
        "storage_max_charge_kw": 1500.0,
        "storage_max_discharge_kw": 1500.0,
        "storage_module_kwh": 500.0,
        "tier": "interchange"
      },
      "type": "Feature"
    },
    {
      "geometry": {
        "coordinates": [
          44.034422516336946,
          36.19573336212792
        ],
        "type": "Point"
      },
      "properties": {
        "charger_bus_voltage_v": 650.0,
        "charger_contact_count": 6,
        "charger_efficiency": 0.98,
        "charger_max_current_a": 2475.0,
        "charger_max_kw": 1500.0,
        "grid_export_kw": 1800.0,
        "grid_import_kw": 1800.0,
        "line": "line-4",
        "pv_nameplate_kw": 300.0,
        "station": "line-4-0690-0828-s016548",
        "storage_capacity_kwh": 1500.0,
        "storage_initial_soc": 0.5,
        "storage_max_charge_kw": 1500.0,
        "storage_max_discharge_kw": 1500.0,
        "storage_module_kwh": 500.0,
        "tier": "interchange"
      },
      "type": "Feature"
    },
    {
      "geometry": {
        "coordinates": [
          44.026854181327344,
          36.17053809883742
        ],
        "type": "Point"
      },
      "properties": {
        "charger_bus_voltage_v": 650.0,
        "charger_contact_count": 6,
        "charger_efficiency": 0.98,
        "charger_max_current_a": 2475.0,
        "charger_max_kw": 1500.0,
        "grid_export_kw": 1800.0,
        "grid_import_kw": 1800.0,
        "line": "line-4",
        "pv_nameplate_kw": 300.0,
        "station": "line-4-0830-0794-s019654",
        "storage_capacity_kwh": 1500.0,
        "storage_initial_soc": 0.5,
        "storage_max_charge_kw": 1500.0,
        "storage_max_discharge_kw": 1500.0,
        "storage_module_kwh": 500.0,
        "tier": "interchange"
      },
      "type": "Feature"
    },
    {
      "geometry": {
        "coordinates": [
          44.02574119088475,
          36.16747867400929
        ],
        "type": "Point"
      },
      "properties": {
        "charger_bus_voltage_v": 650.0,
        "charger_contact_count": 6,
        "charger_efficiency": 0.98,
        "charger_max_current_a": 2475.0,
        "charger_max_kw": 1500.0,
        "grid_export_kw": 1800.0,
        "grid_import_kw": 1800.0,
        "line": "line-4",
        "pv_nameplate_kw": 300.0,
        "station": "line-4-0847-0789-s020047",
        "storage_capacity_kwh": 1500.0,
        "storage_initial_soc": 0.5,
        "storage_max_charge_kw": 1500.0,
        "storage_max_discharge_kw": 1500.0,
        "storage_module_kwh": 500.0,
        "tier": "interchange"
      },
      "type": "Feature"
    },
    {
      "geometry": {
        "coordinates": [
          44.021734425291434,
          36.15398121153223
        ],
        "type": "Point"
      },
      "properties": {
        "charger_bus_voltage_v": 650.0,
        "charger_contact_count": 6,
        "charger_efficiency": 0.98,
        "charger_max_current_a": 2475.0,
        "charger_max_kw": 1500.0,
        "grid_export_kw": 1800.0,
        "grid_import_kw": 1800.0,
        "line": "line-4",
        "pv_nameplate_kw": 300.0,
        "station": "line-4-0922-0771-s021696",
        "storage_capacity_kwh": 1500.0,
        "storage_initial_soc": 0.5,
        "storage_max_charge_kw": 1500.0,
        "storage_max_discharge_kw": 1500.0,
        "storage_module_kwh": 500.0,
        "tier": "major"
      },
      "type": "Feature"
    },
    {
      "geometry": {
        "coordinates": [
          44.0175050616096,
          36.14048374905518
        ],
        "type": "Point"
      },
      "properties": {
        "charger_bus_voltage_v": 650.0,
        "charger_contact_count": 6,
        "charger_efficiency": 0.98,
        "charger_max_current_a": 2475.0,
        "charger_max_kw": 1500.0,
        "grid_export_kw": 1800.0,
        "grid_import_kw": 1800.0,
        "line": "line-4",
        "pv_nameplate_kw": 300.0,
        "station": "line-4-0997-0752-s023353",
        "storage_capacity_kwh": 1500.0,
        "storage_initial_soc": 0.5,
        "storage_max_charge_kw": 1500.0,
        "storage_max_discharge_kw": 1500.0,
        "storage_module_kwh": 500.0,
        "tier": "major"
      },
      "type": "Feature"
    },
    {
      "geometry": {
        "coordinates": [
          44.01349829601628,
          36.12698628657812
        ],
        "type": "Point"
      },
      "properties": {
        "charger_bus_voltage_v": 650.0,
        "charger_contact_count": 6,
        "charger_efficiency": 0.98,
        "charger_max_current_a": 2475.0,
        "charger_max_kw": 1500.0,
        "grid_export_kw": 2400.0,
        "grid_import_kw": 2400.0,
        "line": "line-4",
        "pv_nameplate_kw": 300.0,
        "station": "line-4-1072-0734-s025002",
        "storage_capacity_kwh": 1500.0,
        "storage_initial_soc": 0.6,
        "storage_max_charge_kw": 1500.0,
        "storage_max_discharge_kw": 1500.0,
        "storage_module_kwh": 500.0,
        "tier": "terminal"
      },
      "type": "Feature"
    },
    {
      "geometry": {
        "coordinates": [
          43.953174214027975,
          36.17089803117014
        ],
        "type": "Point"
      },
      "properties": {
        "charger_bus_voltage_v": 650.0,
        "charger_contact_count": 6,
        "charger_efficiency": 0.98,
        "charger_max_current_a": 2475.0,
        "charger_max_kw": 1500.0,
        "grid_export_kw": 9000.0,
        "grid_import_kw": 9000.0,
        "line": "line-5",
        "pv_nameplate_kw": 5000.0,
        "station": "line-5-0828-0463-s000000",
        "storage_capacity_kwh": 40000.0,
        "storage_initial_soc": 0.6,
        "storage_max_charge_kw": 10000.0,
        "storage_max_discharge_kw": 10000.0,
        "storage_module_kwh": 500.0,
        "tier": "depot-main"
      },
      "type": "Feature"
    },
    {
      "geometry": {
        "coordinates": [
          43.98589613304008,
          36.16927833567289
        ],
        "type": "Point"
      },
      "properties": {
        "charger_bus_voltage_v": 650.0,
        "charger_contact_count": 6,
        "charger_efficiency": 0.98,
        "charger_max_current_a": 2475.0,
        "charger_max_kw": 1500.0,
        "grid_export_kw": 1500.0,
        "grid_import_kw": 1500.0,
        "line": "line-5",
        "pv_nameplate_kw": 300.0,
        "station": "line-5-0837-0610-s003015",
        "storage_capacity_kwh": 1500.0,
        "storage_initial_soc": 0.5,
        "storage_max_charge_kw": 1500.0,
        "storage_max_discharge_kw": 1500.0,
        "storage_module_kwh": 500.0,
        "tier": "standard"
      },
      "type": "Feature"
    },
    {
      "geometry": {
        "coordinates": [
          44.01149491321962,
          36.16819853867473
        ],
        "type": "Point"
      },
      "properties": {
        "charger_bus_voltage_v": 650.0,
        "charger_contact_count": 6,
        "charger_efficiency": 0.98,
        "charger_max_current_a": 2475.0,
        "charger_max_kw": 1500.0,
        "grid_export_kw": 1800.0,
        "grid_import_kw": 1800.0,
        "line": "line-5",
        "pv_nameplate_kw": 300.0,
        "station": "line-5-0843-0725-s005364",
        "storage_capacity_kwh": 1500.0,
        "storage_initial_soc": 0.5,
        "storage_max_charge_kw": 1500.0,
        "storage_max_discharge_kw": 1500.0,
        "storage_module_kwh": 500.0,
        "tier": "interchange"
      },
      "type": "Feature"
    },
    {
      "geometry": {
        "coordinates": [
          44.02574119088475,
          36.16747867400929
        ],
        "type": "Point"
      },
      "properties": {
        "charger_bus_voltage_v": 650.0,
        "charger_contact_count": 6,
        "charger_efficiency": 0.98,
        "charger_max_current_a": 2475.0,
        "charger_max_kw": 1500.0,
        "grid_export_kw": 1800.0,
        "grid_import_kw": 1800.0,
        "line": "line-5",
        "pv_nameplate_kw": 300.0,
        "station": "line-5-0847-0789-s006677",
        "storage_capacity_kwh": 1500.0,
        "storage_initial_soc": 0.5,
        "storage_max_charge_kw": 1500.0,
        "storage_max_discharge_kw": 1500.0,
        "storage_module_kwh": 500.0,
        "tier": "interchange"
      },
      "type": "Feature"
    },
    {
      "geometry": {
        "coordinates": [
          44.02908016221252,
          36.167298707842924
        ],
        "type": "Point"
      },
      "properties": {
        "charger_bus_voltage_v": 650.0,
        "charger_contact_count": 6,
        "charger_efficiency": 0.98,
        "charger_max_current_a": 2475.0,
        "charger_max_kw": 1500.0,
        "grid_export_kw": 1800.0,
        "grid_import_kw": 1800.0,
        "line": "line-5",
        "pv_nameplate_kw": 300.0,
        "station": "line-5-0848-0804-s006986",
        "storage_capacity_kwh": 1500.0,
        "storage_initial_soc": 0.5,
        "storage_max_charge_kw": 1500.0,
        "storage_max_discharge_kw": 1500.0,
        "storage_module_kwh": 500.0,
        "tier": "interchange"
      },
      "type": "Feature"
    },
    {
      "geometry": {
        "coordinates": [
          44.051339971064294,
          36.16621891084476
        ],
        "type": "Point"
      },
      "properties": {
        "charger_bus_voltage_v": 650.0,
        "charger_contact_count": 6,
        "charger_efficiency": 0.98,
        "charger_max_current_a": 2475.0,
        "charger_max_kw": 1500.0,
        "grid_export_kw": 1500.0,
        "grid_import_kw": 1500.0,
        "line": "line-5",
        "pv_nameplate_kw": 300.0,
        "station": "line-5-0854-0904-s009035",
        "storage_capacity_kwh": 1500.0,
        "storage_initial_soc": 0.5,
        "storage_max_charge_kw": 1500.0,
        "storage_max_discharge_kw": 1500.0,
        "storage_module_kwh": 500.0,
        "tier": "standard"
      },
      "type": "Feature"
    },
    {
      "geometry": {
        "coordinates": [
          44.075825760801244,
          36.1651391138466
        ],
        "type": "Point"
      },
      "properties": {
        "charger_bus_voltage_v": 650.0,
        "charger_contact_count": 6,
        "charger_efficiency": 0.98,
        "charger_max_current_a": 2475.0,
        "charger_max_kw": 1500.0,
        "grid_export_kw": 1500.0,
        "grid_import_kw": 1500.0,
        "line": "line-5",
        "pv_nameplate_kw": 300.0,
        "station": "line-5-0860-1014-s011285",
        "storage_capacity_kwh": 1500.0,
        "storage_initial_soc": 0.5,
        "storage_max_charge_kw": 1500.0,
        "storage_max_discharge_kw": 1500.0,
        "storage_module_kwh": 500.0,
        "tier": "standard"
      },
      "type": "Feature"
    },
    {
      "geometry": {
        "coordinates": [
          44.10008895244968,
          36.16387935068207
        ],
        "type": "Point"
      },
      "properties": {
        "charger_bus_voltage_v": 650.0,
        "charger_contact_count": 6,
        "charger_efficiency": 0.98,
        "charger_max_current_a": 2475.0,
        "charger_max_kw": 1500.0,
        "grid_export_kw": 1500.0,
        "grid_import_kw": 1500.0,
        "line": "line-5",
        "pv_nameplate_kw": 300.0,
        "station": "line-5-0867-1123-s013523",
        "storage_capacity_kwh": 1500.0,
        "storage_initial_soc": 0.5,
        "storage_max_charge_kw": 1500.0,
        "storage_max_discharge_kw": 1500.0,
        "storage_module_kwh": 500.0,
        "tier": "standard"
      },
      "type": "Feature"
    },
    {
      "geometry": {
        "coordinates": [
          44.13659503896659,
          36.15344131303315
        ],
        "type": "Point"
      },
      "properties": {
        "charger_bus_voltage_v": 650.0,
        "charger_contact_count": 6,
        "charger_efficiency": 0.98,
        "charger_max_current_a": 2475.0,
        "charger_max_kw": 1500.0,
        "grid_export_kw": 2400.0,
        "grid_import_kw": 2400.0,
        "line": "line-5",
        "pv_nameplate_kw": 300.0,
        "station": "line-5-0925-1287-s018002",
        "storage_capacity_kwh": 1500.0,
        "storage_initial_soc": 0.6,
        "storage_max_charge_kw": 1500.0,
        "storage_max_discharge_kw": 1500.0,
        "storage_module_kwh": 500.0,
        "tier": "terminal"
      },
      "type": "Feature"
    }
  ],
  "type": "FeatureCollection"
}
