{
  "features": [
    {
      "geometry": {
        "coordinates": [
          33.656166327773576,
          -25.0887703595724
        ],
        "type": "Point"
      },
      "properties": {
        "anchor_kind": "amenity:hospital",
        "anchor_name": "HEAL CENTRE HOSPITAL",
        "archetype": "terminal",
        "chainage_m": 0.0,
        "corridor_offset_m": 0.0,
        "id": "line-1-0580-0436-s000000",
        "junction_group": null,
        "line": "line-1",
        "platform_length_m": 49.0
      },
      "type": "Feature"
    },
    {
      "geometry": {
        "coordinates": [
          33.669850352095175,
          -25.06807425044092
        ],
        "type": "Point"
      },
      "properties": {
        "anchor_kind": null,
        "anchor_name": null,
        "archetype": "standard",
        "chainage_m": 3000.5,
        "corridor_offset_m": 4.643,
        "id": "line-1-0465-0505-s003000",
        "junction_group": null,
        "line": "line-1",
        "platform_length_m": 49.0
      },
      "type": "Feature"
    },
    {
      "geometry": {
        "coordinates": [
          33.683336057223705,
          -25.047558107475794
        ],
        "type": "Point"
      },
      "properties": {
        "anchor_kind": "amenity:hospital",
        "anchor_name": "KHOZA HOSPITAL",
        "archetype": "terminal",
        "chainage_m": 5972.7,
        "corridor_offset_m": 0.0,
        "id": "line-1-0351-0573-s005973",
        "junction_group": null,
        "line": "line-1",
        "platform_length_m": 49.0
      },
      "type": "Feature"
    },
    {
      "geometry": {
        "coordinates": [
          33.697020081545304,
          -25.06627458877731
        ],
        "type": "Point"
      },
      "properties": {
        "anchor_kind": "place:town",
        "anchor_name": "Xai-Xai",
        "archetype": "terminal",
        "chainage_m": 0.0,
        "corridor_offset_m": 0.0,
        "id": "line-2-0455-0642-s000000",
        "junction_group": null,
        "line": "line-2",
        "platform_length_m": 49.0
      },
      "type": "Feature"
    },
    {
      "geometry": {
        "coordinates": [
          33.670841948060506,
          -25.05637644962747
        ],
        "type": "Point"
      },
      "properties": {
        "anchor_kind": null,
        "anchor_name": null,
        "archetype": "standard",
        "chainage_m": 3265.3,
        "corridor_offset_m": 5.919,
        "id": "line-2-0400-0510-s003265",
        "junction_group": null,
        "line": "line-2",
        "platform_length_m": 49.0
      },
      "type": "Feature"
    },
    {
      "geometry": {
        "coordinates": [
          33.643473899417316,
          -25.042878987150416
        ],
        "type": "Point"
      },
      "properties": {
        "anchor_kind": "railway:station",
        "anchor_name": null,
        "archetype": "depot-terminal",
        "chainage_m": 6717.0,
        "corridor_offset_m": 0.0,
        "id": "line-2-0325-0372-s006717",
        "junction_group": null,
        "line": "line-2",
        "platform_length_m": 49.0
      },
      "type": "Feature"
    },
    {
      "geometry": {
        "coordinates": [
          33.670643628867445,
          -25.07581279559443
        ],
        "type": "Point"
      },
      "properties": {
        "anchor_kind": "amenity:marketplace",
        "anchor_name": "Mercado de Patrice Lumumba",
        "archetype": "terminal",
        "chainage_m": 0.0,
        "corridor_offset_m": 0.0,
        "id": "line-3-0508-0509-s000000",
        "junction_group": null,
        "line": "line-3",
        "platform_length_m": 49.0
      },
      "type": "Feature"
    },
    {
      "geometry": {
        "coordinates": [
          33.69186378252557,
          -25.047018208976713
        ],
        "type": "Point"
      },
      "properties": {
        "anchor_kind": "amenity:hospital",
        "anchor_name": null,
        "archetype": "terminal",
        "chainage_m": 4332.4,
        "corridor_offset_m": 0.0,
        "id": "line-3-0348-0616-s004332",
        "junction_group": null,
        "line": "line-3",
        "platform_length_m": 49.0
      },
      "type": "Feature"
    }
  ],
  "type": "FeatureCollection"
}
