{
  "features": [
    {
      "geometry": {
        "coordinates": [
          44.34837416813815,
          35.39717813051146
        ],
        "type": "Point"
      },
      "properties": {
        "id": "interchange-000",
        "junction_group": 0,
        "line_count": 2,
        "lines": "line-1,line-5",
        "platform_count": 4,
        "platforms": "line-1-1125-0580-s000420,line-1-1128-0583-s000000,line-5-1125-0580-s036204,line-5-1128-0583-s036094"
      },
      "type": "Feature"
    },
    {
      "geometry": {
        "coordinates": [
          44.34804330688006,
          35.4070762696613
        ],
        "type": "Point"
      },
      "properties": {
        "id": "interchange-001",
        "junction_group": 1,
        "line_count": 3,
        "lines": "line-1,line-10,line-5",
        "platform_count": 4,
        "platforms": "line-1-1069-0594-s001651,line-10-1069-0594-s007408,line-10-1074-0566-s008010,line-5-1074-0566-s037338"
      },
      "type": "Feature"
    },
    {
      "geometry": {
        "coordinates": [
          44.35951316382711,
          35.43452111003131
        ],
        "type": "Point"
      },
      "properties": {
        "id": "interchange-002",
        "junction_group": 2,
        "line_count": 2,
        "lines": "line-1,line-3",
        "platform_count": 2,
        "platforms": "line-1-0919-0632-s004989,line-3-0919-0632-s004257"
      },
      "type": "Feature"
    },
    {
      "geometry": {
        "coordinates": [
          44.37076244660211,
          35.47207405007859
        ],
        "type": "Point"
      },
      "properties": {
        "id": "interchange-003",
        "junction_group": 3,
        "line_count": 3,
        "lines": "line-1,line-4,line-7",
        "platform_count": 6,
        "platforms": "line-1-0706-0686-s009708,line-1-0715-0684-s009511,line-4-0706-0686-s008105,line-4-0710-0679-s008284,line-7-0710-0679-s006622,line-7-0715-0684-s006467"
      },
      "type": "Feature"
    },
    {
      "geometry": {
        "coordinates": [
          44.37407105918298,
          35.48167224561782
        ],
        "type": "Point"
      },
      "properties": {
        "id": "interchange-004",
        "junction_group": 4,
        "line_count": 2,
        "lines": "line-1,line-16",
        "platform_count": 2,
        "platforms": "line-1-0657-0698-s010787,line-16-0657-0698-s000000"
      },
      "type": "Feature"
    },
    {
      "geometry": {
        "coordinates": [
          44.38245287772121,
          35.508127272072855
        ],
        "type": "Point"
      },
      "properties": {
        "id": "interchange-005",
        "junction_group": 5,
        "line_count": 2,
        "lines": "line-1,line-6",
        "platform_count": 2,
        "platforms": "line-1-0510-0736-s014065,line-6-0510-0736-s000000"
      },
      "type": "Feature"
    },
    {
      "geometry": {
        "coordinates": [
          44.38708493533444,
          35.523424396213514
        ],
        "type": "Point"
      },
      "properties": {
        "id": "interchange-006",
        "junction_group": 6,
        "line_count": 2,
        "lines": "line-1,line-5",
        "platform_count": 2,
        "platforms": "line-1-0425-0757-s015951,line-5-0425-0757-s008536"
      },
      "type": "Feature"
    },
    {
      "geometry": {
        "coordinates": [
          44.412892113465304,
          35.419943850556095
        ],
        "type": "Point"
      },
      "properties": {
        "id": "interchange-007",
        "junction_group": 7,
        "line_count": 2,
        "lines": "line-10,line-5",
        "platform_count": 2,
        "platforms": "line-10-1000-0874-s000000,line-5-1000-0874-s026661"
      },
      "type": "Feature"
    },
    {
      "geometry": {
        "coordinates": [
          44.391275844603555,
          35.42354317388331
        ],
        "type": "Point"
      },
      "properties": {
        "id": "interchange-008",
        "junction_group": 8,
        "line_count": 2,
        "lines": "line-10,line-2",
        "platform_count": 2,
        "platforms": "line-10-0980-0776-s002126,line-2-0980-0776-s005943"
      },
      "type": "Feature"
    },
    {
      "geometry": {
        "coordinates": [
          44.36899785322563,
          35.440100061188495
        ],
        "type": "Point"
      },
      "properties": {
        "id": "interchange-009",
        "junction_group": 9,
        "line_count": 2,
        "lines": "line-11,line-3",
        "platform_count": 2,
        "platforms": "line-11-0888-0675-s000000,line-3-0888-0675-s005444"
      },
      "type": "Feature"
    },
    {
      "geometry": {
        "coordinates": [
          44.39486017489951,
          35.434431126948134
        ],
        "type": "Point"
      },
      "properties": {
        "id": "interchange-010",
        "junction_group": 10,
        "line_count": 3,
        "lines": "line-11,line-18,line-2",
        "platform_count": 4,
        "platforms": "line-11-0926-0790-s002931,line-18-0914-0794-s005395,line-2-0914-0794-s007424,line-2-0924-0791-s007199"
      },
      "type": "Feature"
    },
    {
      "geometry": {
        "coordinates": [
          44.40561316578737,
          35.43686067019401
        ],
        "type": "Point"
      },
      "properties": {
        "id": "interchange-011",
        "junction_group": 11,
        "line_count": 3,
        "lines": "line-11,line-18,line-7",
        "platform_count": 4,
        "platforms": "line-11-0898-0849-s004343,line-11-0914-0833-s003890,line-18-0914-0833-s004615,line-7-0898-0849-s001428"
      },
      "type": "Feature"
    },
    {
      "geometry": {
        "coordinates": [
          44.4203916353153,
          35.470154410970736
        ],
        "type": "Point"
      },
      "properties": {
        "id": "interchange-012",
        "junction_group": 12,
        "line_count": 2,
        "lines": "line-11,line-3",
        "platform_count": 2,
        "platforms": "line-11-0721-0908-s008473,line-3-0721-0908-s011886"
      },
      "type": "Feature"
    },
    {
      "geometry": {
        "coordinates": [
          44.4203916353153,
          35.48941079077134
        ],
        "type": "Point"
      },
      "properties": {
        "id": "interchange-013",
        "junction_group": 13,
        "line_count": 2,
        "lines": "line-11,line-4",
        "platform_count": 2,
        "platforms": "line-11-0614-0908-s010613,line-4-0614-0908-s002821"
      },
      "type": "Feature"
    },
    {
      "geometry": {
        "coordinates": [
          44.41520814227192,
          35.496699420508946
        ],
        "type": "Point"
      },
      "properties": {
        "id": "interchange-014",
        "junction_group": 14,
        "line_count": 3,
        "lines": "line-11,line-2,line-6",
        "platform_count": 4,
        "platforms": "line-11-0566-0887-s011747,line-2-0566-0887-s015190,line-2-0581-0882-s014848,line-6-0581-0882-s003508"
      },
      "type": "Feature"
    },
    {
      "geometry": {
        "coordinates": [
          44.40781890750796,
          35.520724903718104
        ],
        "type": "Point"
      },
      "properties": {
        "id": "interchange-015",
        "junction_group": 15,
        "line_count": 2,
        "lines": "line-11,line-5",
        "platform_count": 2,
        "platforms": "line-11-0440-0851-s014880,line-5-0440-0851-s010540"
      },
      "type": "Feature"
    },
    {
      "geometry": {
        "coordinates": [
          44.325324167158016,
          35.41472483173163
        ],
        "type": "Point"
      },
      "properties": {
        "id": "interchange-016",
        "junction_group": 16,
        "line_count": 3,
        "lines": "line-12,line-15,line-3",
        "platform_count": 3,
        "platforms": "line-12-1029-0477-s000000,line-15-1029-0477-s000000,line-3-1029-0477-s000000"
      },
      "type": "Feature"
    },
    {
      "geometry": {
        "coordinates": [
          44.30635478836096,
          35.4002375553396
        ],
        "type": "Point"
      },
      "properties": {
        "id": "interchange-017",
        "junction_group": 17,
        "line_count": 2,
        "lines": "line-12,line-15",
        "platform_count": 2,
        "platforms": "line-12-1115-0394-s002408,line-15-1104-0388-s002401"
      },
      "type": "Feature"
    },
    {
      "geometry": {
        "coordinates": [
          44.37230646580651,
          35.52324443004715
        ],
        "type": "Point"
      },
      "properties": {
        "id": "interchange-018",
        "junction_group": 18,
        "line_count": 2,
        "lines": "line-13,line-5",
        "platform_count": 2,
        "platforms": "line-13-0426-0690-s000000,line-5-0426-0690-s007076"
      },
      "type": "Feature"
    },
    {
      "geometry": {
        "coordinates": [
          44.36646125024696,
          35.562836986646516
        ],
        "type": "Point"
      },
      "properties": {
        "id": "interchange-019",
        "junction_group": 19,
        "line_count": 2,
        "lines": "line-13,line-9",
        "platform_count": 4,
        "platforms": "line-13-0196-0667-s004940,line-13-0216-0660-s004482,line-9-0196-0667-s005407,line-9-0216-0660-s004949"
      },
      "type": "Feature"
    },
    {
      "geometry": {
        "coordinates": [
          44.31694234861978,
          35.52504409171076
        ],
        "type": "Point"
      },
      "properties": {
        "id": "interchange-020",
        "junction_group": 20,
        "line_count": 2,
        "lines": "line-14,line-5",
        "platform_count": 2,
        "platforms": "line-14-0416-0439-s000000,line-5-0416-0439-s001071"
      },
      "type": "Feature"
    },
    {
      "geometry": {
        "coordinates": [
          44.354881106213874,
          35.48491163661232
        ],
        "type": "Point"
      },
      "properties": {
        "id": "interchange-021",
        "junction_group": 21,
        "line_count": 2,
        "lines": "line-16,line-7",
        "platform_count": 2,
        "platforms": "line-16-0639-0611-s001889,line-7-0639-0611-s008591"
      },
      "type": "Feature"
    },
    {
      "geometry": {
        "coordinates": [
          44.30260502743597,
          35.511546629233706
        ],
        "type": "Point"
      },
      "properties": {
        "id": "interchange-022",
        "junction_group": 22,
        "line_count": 2,
        "lines": "line-17,line-5",
        "platform_count": 2,
        "platforms": "line-17-0491-0374-s000000,line-5-0491-0374-s051221"
      },
      "type": "Feature"
    },
    {
      "geometry": {
        "coordinates": [
          44.43296436312264,
          35.43614080552856
        ],
        "type": "Point"
      },
      "properties": {
        "id": "interchange-023",
        "junction_group": 23,
        "line_count": 2,
        "lines": "line-18,line-5",
        "platform_count": 2,
        "platforms": "line-18-0910-0965-s000000,line-5-0910-0965-s023639"
      },
      "type": "Feature"
    },
    {
      "geometry": {
        "coordinates": [
          44.41840646776677,
          35.429482057373214
        ],
        "type": "Point"
      },
      "properties": {
        "id": "interchange-024",
        "junction_group": 24,
        "line_count": 3,
        "lines": "line-18,line-5,line-7",
        "platform_count": 4,
        "platforms": "line-18-0954-0895-s003044,line-5-0940-0903-s025197,line-5-0954-0895-s025555,line-7-0940-0903-s000000"
      },
      "type": "Feature"
    },
    {
      "geometry": {
        "coordinates": [
          44.37870311679622,
          35.38593024511392
        ],
        "type": "Point"
      },
      "properties": {
        "id": "interchange-025",
        "junction_group": 25,
        "line_count": 2,
        "lines": "line-2,line-5",
        "platform_count": 2,
        "platforms": "line-2-1189-0720-s001264,line-5-1189-0718-s032794"
      },
      "type": "Feature"
    },
    {
      "geometry": {
        "coordinates": [
          44.398554792281494,
          35.44549904617932
        ],
        "type": "Point"
      },
      "properties": {
        "id": "interchange-026",
        "junction_group": 26,
        "line_count": 2,
        "lines": "line-2,line-7",
        "platform_count": 2,
        "platforms": "line-2-0858-0809-s008674,line-7-0858-0809-s002573"
      },
      "type": "Feature"
    },
    {
      "geometry": {
        "coordinates": [
          44.40318684989472,
          35.46007630565454
        ],
        "type": "Point"
      },
      "properties": {
        "id": "interchange-027",
        "junction_group": 27,
        "line_count": 2,
        "lines": "line-2,line-3",
        "platform_count": 2,
        "platforms": "line-2-0777-0830-s010462,line-3-0777-0830-s009733"
      },
      "type": "Feature"
    },
    {
      "geometry": {
        "coordinates": [
          44.41178924260501,
          35.486531332109564
        ],
        "type": "Point"
      },
      "properties": {
        "id": "interchange-028",
        "junction_group": 28,
        "line_count": 2,
        "lines": "line-2,line-4",
        "platform_count": 2,
        "platforms": "line-2-0630-0869-s013749,line-4-0630-0869-s003734"
      },
      "type": "Feature"
    },
    {
      "geometry": {
        "coordinates": [
          44.42127393200354,
          35.51532591872728
        ],
        "type": "Point"
      },
      "properties": {
        "id": "interchange-029",
        "junction_group": 29,
        "line_count": 2,
        "lines": "line-2,line-5",
        "platform_count": 2,
        "platforms": "line-2-0470-0912-s017329,line-5-0470-0912-s012079"
      },
      "type": "Feature"
    },
    {
      "geometry": {
        "coordinates": [
          44.339661488341825,
          35.42318324155059
        ],
        "type": "Point"
      },
      "properties": {
        "id": "interchange-030",
        "junction_group": 30,
        "line_count": 2,
        "lines": "line-3,line-5",
        "platform_count": 2,
        "platforms": "line-3-0982-0542-s001783,line-5-0982-0542-s039435"
      },
      "type": "Feature"
    },
    {
      "geometry": {
        "coordinates": [
          44.39017297374326,
          35.452337760501024
        ],
        "type": "Point"
      },
      "properties": {
        "id": "interchange-031",
        "junction_group": 31,
        "line_count": 2,
        "lines": "line-3,line-7",
        "platform_count": 2,
        "platforms": "line-3-0820-0771-s008086,line-7-0820-0771-s003648"
      },
      "type": "Feature"
    },
    {
      "geometry": {
        "coordinates": [
          44.45303661277998,
          35.489590756937694
        ],
        "type": "Point"
      },
      "properties": {
        "id": "interchange-032",
        "junction_group": 32,
        "line_count": 2,
        "lines": "line-3,line-5",
        "platform_count": 4,
        "platforms": "line-3-0611-1056-s016244,line-3-0615-1056-s015959,line-5-0611-1056-s016630,line-5-0615-1056-s016710"
      },
      "type": "Feature"
    },
    {
      "geometry": {
        "coordinates": [
          44.44553709092999,
          35.49768923442393
        ],
        "type": "Point"
      },
      "properties": {
        "id": "interchange-033",
        "junction_group": 33,
        "line_count": 2,
        "lines": "line-4,line-5",
        "platform_count": 2,
        "platforms": "line-4-0568-1022-s000000,line-5-0568-1022-s015383"
      },
      "type": "Feature"
    },
    {
      "geometry": {
        "coordinates": [
          44.32135383206096,
          35.45593708382824
        ],
        "type": "Point"
      },
      "properties": {
        "id": "interchange-034",
        "junction_group": 34,
        "line_count": 2,
        "lines": "line-4,line-5",
        "platform_count": 2,
        "platforms": "line-4-0800-0459-s013494,line-5-0800-0459-s043997"
      },
      "type": "Feature"
    },
    {
      "geometry": {
        "coordinates": [
          44.330838521459484,
          35.528283482705255
        ],
        "type": "Point"
      },
      "properties": {
        "id": "interchange-035",
        "junction_group": 35,
        "line_count": 2,
        "lines": "line-5,line-9",
        "platform_count": 2,
        "platforms": "line-5-0398-0502-s002553,line-9-0398-0502-s000000"
      },
      "type": "Feature"
    },
    {
      "geometry": {
        "coordinates": [
          44.406716036647666,
          35.40806608357629
        ],
        "type": "Point"
      },
      "properties": {
        "id": "interchange-036",
        "junction_group": 36,
        "line_count": 2,
        "lines": "line-5,line-8",
        "platform_count": 2,
        "platforms": "line-5-1066-0846-s028237,line-8-1066-0846-s000000"
      },
      "type": "Feature"
    }
  ],
  "type": "FeatureCollection"
}
