{
  "features": [
    {
      "geometry": {
        "coordinates": [
          44.1185993081036,
          13.565271568945038
        ],
        "type": "Point"
      },
      "properties": {
        "anchor_kind": "tourism:attraction",
        "anchor_name": "الأرضية",
        "archetype": "terminal",
        "chainage_m": 0.0,
        "corridor_offset_m": 0.0,
        "id": "line-1-0637-1074-s000000",
        "junction_group": null,
        "line": "line-1",
        "platform_length_m": 59.5
      },
      "type": "Feature"
    },
    {
      "geometry": {
        "coordinates": [
          44.09087488165824,
          13.565271568945038
        ],
        "type": "Point"
      },
      "properties": {
        "anchor_kind": null,
        "anchor_name": null,
        "archetype": "halt",
        "chainage_m": 3000.0,
        "corridor_offset_m": 61.771,
        "id": "line-1-0637-0924-s003000",
        "junction_group": null,
        "line": "line-1",
        "platform_length_m": 55.5
      },
      "type": "Feature"
    },
    {
      "geometry": {
        "coordinates": [
          44.067586363444136,
          13.565271568945038
        ],
        "type": "Point"
      },
      "properties": {
        "anchor_kind": null,
        "anchor_name": null,
        "archetype": "standard",
        "chainage_m": 5520.0,
        "corridor_offset_m": 113.659,
        "id": "line-1-0637-0798-s005520",
        "junction_group": null,
        "line": "line-1",
        "platform_length_m": 59.5
      },
      "type": "Feature"
    },
    {
      "geometry": {
        "coordinates": [
          44.04910341248056,
          13.565271568945038
        ],
        "type": "Point"
      },
      "properties": {
        "anchor_kind": "place:suburb",
        "anchor_name": "الهرار",
        "archetype": "standard",
        "chainage_m": 7520.0,
        "corridor_offset_m": 154.84,
        "id": "line-1-0637-0698-s007520",
        "junction_group": null,
        "line": "line-1",
        "platform_length_m": 59.5
      },
      "type": "Feature"
    },
    {
      "geometry": {
        "coordinates": [
          44.03394739269043,
          13.567071230608645
        ],
        "type": "Point"
      },
      "properties": {
        "anchor_kind": "place:suburb",
        "anchor_name": "مدرسة محمد علي عثمان",
        "archetype": "major",
        "chainage_m": 9242.8,
        "corridor_offset_m": 164.659,
        "id": "line-1-0627-0616-s009243",
        "junction_group": null,
        "line": "line-1",
        "platform_length_m": 59.5
      },
      "type": "Feature"
    },
    {
      "geometry": {
        "coordinates": [
          44.025260405737555,
          13.570850520102221
        ],
        "type": "Point"
      },
      "properties": {
        "anchor_kind": "place:suburb",
        "anchor_name": "الجحملية",
        "archetype": "interchange-elevated",
        "chainage_m": 10460.2,
        "corridor_offset_m": 146.232,
        "id": "line-1-0606-0569-s010460",
        "junction_group": 0,
        "line": "line-1",
        "platform_length_m": 59.5
      },
      "type": "Feature"
    },
    {
      "geometry": {
        "coordinates": [
          44.02008517946775,
          13.579848828420257
        ],
        "type": "Point"
      },
      "properties": {
        "anchor_kind": "place:suburb",
        "anchor_name": "الروضة",
        "archetype": "interchange-elevated",
        "chainage_m": 12025.9,
        "corridor_offset_m": 76.692,
        "id": "line-1-0556-0541-s012026",
        "junction_group": 0,
        "line": "line-1",
        "platform_length_m": 59.5
      },
      "type": "Feature"
    },
    {
      "geometry": {
        "coordinates": [
          44.006038136735434,
          13.577689234423929
        ],
        "type": "Point"
      },
      "properties": {
        "anchor_kind": "amenity:hospital",
        "anchor_name": "Alhekma Hospital",
        "archetype": "major",
        "chainage_m": 14091.0,
        "corridor_offset_m": 59.626,
        "id": "line-1-0568-0465-s014091",
        "junction_group": null,
        "line": "line-1",
        "platform_length_m": 59.5
      },
      "type": "Feature"
    },
    {
      "geometry": {
        "coordinates": [
          43.99051245792604,
          13.58344815174747
        ],
        "type": "Point"
      },
      "properties": {
        "anchor_kind": "amenity:hospital",
        "anchor_name": "Orthopedic Specialist Hospital",
        "archetype": "standard",
        "chainage_m": 16097.5,
        "corridor_offset_m": 61.962,
        "id": "line-1-0536-0381-s016098",
        "junction_group": null,
        "line": "line-1",
        "platform_length_m": 59.5
      },
      "type": "Feature"
    },
    {
      "geometry": {
        "coordinates": [
          43.974801949607,
          13.585247813411078
        ],
        "type": "Point"
      },
      "properties": {
        "anchor_kind": "leisure:stadium",
        "anchor_name": null,
        "archetype": "depot-terminal",
        "chainage_m": 18154.4,
        "corridor_offset_m": 0.0,
        "id": "line-1-0526-0296-s018154",
        "junction_group": null,
        "line": "line-1",
        "platform_length_m": 59.5
      },
      "type": "Feature"
    },
    {
      "geometry": {
        "coordinates": [
          44.00234154654272,
          13.607023719540726
        ],
        "type": "Point"
      },
      "properties": {
        "anchor_kind": "place:suburb",
        "anchor_name": "الوعش",
        "archetype": "terminal",
        "chainage_m": 0.0,
        "corridor_offset_m": 0.0,
        "id": "line-2-0405-0445-s000000",
        "junction_group": null,
        "line": "line-2",
        "platform_length_m": 59.5
      },
      "type": "Feature"
    },
    {
      "geometry": {
        "coordinates": [
          44.011398192514875,
          13.592626426231869
        ],
        "type": "Point"
      },
      "properties": {
        "anchor_kind": "place:suburb",
        "anchor_name": "عصيفرة الغربية",
        "archetype": "standard",
        "chainage_m": 2005.9,
        "corridor_offset_m": 0.939,
        "id": "line-2-0485-0494-s002006",
        "junction_group": null,
        "line": "line-2",
        "platform_length_m": 59.5
      },
      "type": "Feature"
    },
    {
      "geometry": {
        "coordinates": [
          44.02008517946775,
          13.579848828420257
        ],
        "type": "Point"
      },
      "properties": {
        "anchor_kind": "place:suburb",
        "anchor_name": "الروضة",
        "archetype": "interchange-elevated",
        "chainage_m": 4123.6,
        "corridor_offset_m": 3.61,
        "id": "line-2-0556-0541-s004124",
        "junction_group": 0,
        "line": "line-2",
        "platform_length_m": 59.5
      },
      "type": "Feature"
    },
    {
      "geometry": {
        "coordinates": [
          44.03302324514225,
          13.578948997588453
        ],
        "type": "Point"
      },
      "properties": {
        "anchor_kind": "amenity:university",
        "anchor_name": "جامعة تعز - كلية الطب",
        "archetype": "major",
        "chainage_m": 5654.7,
        "corridor_offset_m": 0.166,
        "id": "line-2-0561-0611-s005655",
        "junction_group": null,
        "line": "line-2",
        "platform_length_m": 59.5
      },
      "type": "Feature"
    },
    {
      "geometry": {
        "coordinates": [
          44.04189506160477,
          13.587587373573768
        ],
        "type": "Point"
      },
      "properties": {
        "anchor_kind": "amenity:university",
        "anchor_name": "جامعة العلوم والتكولوجيا",
        "archetype": "standard",
        "chainage_m": 7199.8,
        "corridor_offset_m": 0.138,
        "id": "line-2-0513-0659-s007200",
        "junction_group": null,
        "line": "line-2",
        "platform_length_m": 59.5
      },
      "type": "Feature"
    },
    {
      "geometry": {
        "coordinates": [
          44.05261517316364,
          13.59298635856459
        ],
        "type": "Point"
      },
      "properties": {
        "anchor_kind": "place:suburb",
        "anchor_name": "النجدين",
        "archetype": "terminal",
        "chainage_m": 8748.9,
        "corridor_offset_m": 0.0,
        "id": "line-2-0483-0717-s008749",
        "junction_group": null,
        "line": "line-2",
        "platform_length_m": 59.5
      },
      "type": "Feature"
    },
    {
      "geometry": {
        "coordinates": [
          43.972029506962464,
          13.492745203901666
        ],
        "type": "Point"
      },
      "properties": {
        "anchor_kind": "tourism:attraction",
        "anchor_name": "قرية جمالة",
        "archetype": "terminal",
        "chainage_m": 0.0,
        "corridor_offset_m": 0.0,
        "id": "line-3-1040-0281-s000000",
        "junction_group": null,
        "line": "line-3",
        "platform_length_m": 59.5
      },
      "type": "Feature"
    },
    {
      "geometry": {
        "coordinates": [
          43.99088211694531,
          13.512361516034986
        ],
        "type": "Point"
      },
      "properties": {
        "anchor_kind": null,
        "anchor_name": null,
        "archetype": "halt",
        "chainage_m": 3025.0,
        "corridor_offset_m": 2.05,
        "id": "line-3-0931-0383-s003025",
        "junction_group": null,
        "line": "line-3",
        "platform_length_m": 55.5
      },
      "type": "Feature"
    },
    {
      "geometry": {
        "coordinates": [
          44.000862910465635,
          13.535037252996437
        ],
        "type": "Point"
      },
      "properties": {
        "anchor_kind": null,
        "anchor_name": null,
        "archetype": "standard",
        "chainage_m": 5992.3,
        "corridor_offset_m": 2.932,
        "id": "line-3-0805-0437-s005992",
        "junction_group": null,
        "line": "line-3",
        "platform_length_m": 59.5
      },
      "type": "Feature"
    },
    {
      "geometry": {
        "coordinates": [
          44.012137510553416,
          13.54871468163985
        ],
        "type": "Point"
      },
      "properties": {
        "anchor_kind": null,
        "anchor_name": null,
        "archetype": "standard",
        "chainage_m": 8017.7,
        "corridor_offset_m": 4.191,
        "id": "line-3-0729-0498-s008018",
        "junction_group": null,
        "line": "line-3",
        "platform_length_m": 59.5
      },
      "type": "Feature"
    },
    {
      "geometry": {
        "coordinates": [
          44.01916103191957,
          13.562392110283266
        ],
        "type": "Point"
      },
      "properties": {
        "anchor_kind": "place:suburb",
        "anchor_name": "المجلية",
        "archetype": "standard",
        "chainage_m": 10035.9,
        "corridor_offset_m": 5.105,
        "id": "line-3-0653-0536-s010036",
        "junction_group": null,
        "line": "line-3",
        "platform_length_m": 59.5
      },
      "type": "Feature"
    },
    {
      "geometry": {
        "coordinates": [
          44.020270008977384,
          13.571210452434942
        ],
        "type": "Point"
      },
      "properties": {
        "anchor_kind": "amenity:hospital",
        "anchor_name": "المستشفى الجمهوري تعز",
        "archetype": "interchange-elevated",
        "chainage_m": 11243.0,
        "corridor_offset_m": 5.581,
        "id": "line-3-0604-0542-s011243",
        "junction_group": 0,
        "line": "line-3",
        "platform_length_m": 59.5
      },
      "type": "Feature"
    },
    {
      "geometry": {
        "coordinates": [
          44.02008517946775,
          13.579848828420257
        ],
        "type": "Point"
      },
      "properties": {
        "anchor_kind": "place:suburb",
        "anchor_name": "الروضة",
        "archetype": "interchange-elevated",
        "chainage_m": 12227.9,
        "corridor_offset_m": 7.355,
        "id": "line-3-0556-0541-s012228",
        "junction_group": 0,
        "line": "line-3",
        "platform_length_m": 59.5
      },
      "type": "Feature"
    },
    {
      "geometry": {
        "coordinates": [
          44.02378176966047,
          13.595325918727278
        ],
        "type": "Point"
      },
      "properties": {
        "anchor_kind": "amenity:hospital",
        "anchor_name": "22 May Hospital",
        "archetype": "standard",
        "chainage_m": 14472.4,
        "corridor_offset_m": 1.087,
        "id": "line-3-0470-0561-s014472",
        "junction_group": null,
        "line": "line-3",
        "platform_length_m": 59.5
      },
      "type": "Feature"
    },
    {
      "geometry": {
        "coordinates": [
          44.03320807465189,
          13.603424396213512
        ],
        "type": "Point"
      },
      "properties": {
        "anchor_kind": "place:suburb",
        "anchor_name": "الرومان",
        "archetype": "terminal",
        "chainage_m": 15888.6,
        "corridor_offset_m": 0.0,
        "id": "line-3-0425-0612-s015889",
        "junction_group": null,
        "line": "line-3",
        "platform_length_m": 59.5
      },
      "type": "Feature"
    }
  ],
  "type": "FeatureCollection"
}
