{
  "features": [
    {
      "geometry": {
        "coordinates": [
          34.98300995816798,
          29.54265072526365
        ],
        "type": "Point"
      },
      "properties": {
        "id": "interchange-000",
        "junction_group": 0,
        "line_count": 2,
        "lines": "line-1,line-3",
        "platform_count": 2,
        "platforms": "line-1-0306-0271-s006029,line-3-0327-0255-s004627"
      },
      "type": "Feature"
    },
    {
      "geometry": {
        "coordinates": [
          35.001800494005884,
          29.53536209552604
        ],
        "type": "Point"
      },
      "properties": {
        "id": "interchange-001",
        "junction_group": 1,
        "line_count": 3,
        "lines": "line-1,line-2,line-3",
        "platform_count": 3,
        "platforms": "line-1-0357-0354-s008689,line-2-0357-0354-s002017,line-3-0357-0354-s002188"
      },
      "type": "Feature"
    }
  ],
  "type": "FeatureCollection"
}
