{
  "features": [
    {
      "geometry": {
        "coordinates": [
          34.934071969227524,
          29.556418136990246
        ],
        "type": "Point"
      },
      "properties": {
        "anchor_kind": "place:neighbourhood",
        "anchor_name": "מצפה ים",
        "archetype": "terminal",
        "chainage_m": 0.0,
        "corridor_offset_m": 0.0,
        "id": "line-1-0240-0026-s000000",
        "junction_group": null,
        "line": "line-1",
        "platform_length_m": 49.0
      },
      "type": "Feature"
    },
    {
      "geometry": {
        "coordinates": [
          34.94377697125369,
          29.55551830615844
        ],
        "type": "Point"
      },
      "properties": {
        "anchor_kind": "place:neighbourhood",
        "anchor_name": "אופיר",
        "archetype": "major",
        "chainage_m": 1215.4,
        "corridor_offset_m": 2.201,
        "id": "line-1-0245-0073-s001215",
        "junction_group": null,
        "line": "line-1",
        "platform_length_m": 49.0
      },
      "type": "Feature"
    },
    {
      "geometry": {
        "coordinates": [
          34.954101441494295,
          29.55785786632113
        ],
        "type": "Point"
      },
      "properties": {
        "anchor_kind": "place:neighbourhood",
        "anchor_name": "האשל",
        "archetype": "major",
        "chainage_m": 2422.5,
        "corridor_offset_m": 4.505,
        "id": "line-1-0232-0123-s002422",
        "junction_group": null,
        "line": "line-1",
        "platform_length_m": 49.0
      },
      "type": "Feature"
    },
    {
      "geometry": {
        "coordinates": [
          34.97144655149851,
          29.551559050498504
        ],
        "type": "Point"
      },
      "properties": {
        "anchor_kind": null,
        "anchor_name": null,
        "archetype": "standard",
        "chainage_m": 4425.6,
        "corridor_offset_m": 8.417,
        "id": "line-1-0267-0207-s004426",
        "junction_group": null,
        "line": "line-1",
        "platform_length_m": 49.0
      },
      "type": "Feature"
    },
    {
      "geometry": {
        "coordinates": [
          34.988172193288285,
          29.54328060684591
        ],
        "type": "Point"
      },
      "properties": {
        "anchor_kind": null,
        "anchor_name": null,
        "archetype": "interchange-elevated",
        "chainage_m": 6426.7,
        "corridor_offset_m": 12.15,
        "id": "line-1-0313-0288-s006427",
        "junction_group": 0,
        "line": "line-1",
        "platform_length_m": 49.0
      },
      "type": "Feature"
    },
    {
      "geometry": {
        "coordinates": [
          35.001800494005884,
          29.53536209552604
        ],
        "type": "Point"
      },
      "properties": {
        "anchor_kind": null,
        "anchor_name": null,
        "archetype": "interchange-elevated",
        "chainage_m": 8688.9,
        "corridor_offset_m": 7.501,
        "id": "line-1-0357-0354-s008689",
        "junction_group": 1,
        "line": "line-1",
        "platform_length_m": 49.0
      },
      "type": "Feature"
    },
    {
      "geometry": {
        "coordinates": [
          35.01253794305612,
          29.539861249685057
        ],
        "type": "Point"
      },
      "properties": {
        "anchor_kind": null,
        "anchor_name": null,
        "archetype": "major",
        "chainage_m": 10186.9,
        "corridor_offset_m": 7.48,
        "id": "line-1-0332-0406-s010187",
        "junction_group": null,
        "line": "line-1",
        "platform_length_m": 49.0
      },
      "type": "Feature"
    },
    {
      "geometry": {
        "coordinates": [
          35.021829966272655,
          29.5456201670086
        ],
        "type": "Point"
      },
      "properties": {
        "anchor_kind": "amenity:hospital",
        "anchor_name": "Aqaba Modern Hospital",
        "archetype": "major",
        "chainage_m": 11401.7,
        "corridor_offset_m": 5.495,
        "id": "line-1-0300-0451-s011402",
        "junction_group": null,
        "line": "line-1",
        "platform_length_m": 49.0
      },
      "type": "Feature"
    },
    {
      "geometry": {
        "coordinates": [
          35.03607773520469,
          29.558217798653853
        ],
        "type": "Point"
      },
      "properties": {
        "anchor_kind": "amenity:marketplace",
        "anchor_name": "مركز التنين السريع التجاري",
        "archetype": "standard",
        "chainage_m": 13408.5,
        "corridor_offset_m": 2.408,
        "id": "line-1-0230-0520-s013408",
        "junction_group": null,
        "line": "line-1",
        "platform_length_m": 49.0
      },
      "type": "Feature"
    },
    {
      "geometry": {
        "coordinates": [
          35.047434652469356,
          29.560917291149263
        ],
        "type": "Point"
      },
      "properties": {
        "anchor_kind": "public_transport:station",
        "anchor_name": null,
        "archetype": "depot-terminal",
        "chainage_m": 14954.4,
        "corridor_offset_m": 0.0,
        "id": "line-1-0215-0575-s014954",
        "junction_group": null,
        "line": "line-1",
        "platform_length_m": 49.0
      },
      "type": "Feature"
    },
    {
      "geometry": {
        "coordinates": [
          35.00324591983957,
          29.52312439621351
        ],
        "type": "Point"
      },
      "properties": {
        "anchor_kind": "amenity:marketplace",
        "anchor_name": "كتاكيت",
        "archetype": "terminal",
        "chainage_m": 0.0,
        "corridor_offset_m": 0.0,
        "id": "line-2-0425-0361-s000000",
        "junction_group": null,
        "line": "line-2",
        "platform_length_m": 49.0
      },
      "type": "Feature"
    },
    {
      "geometry": {
        "coordinates": [
          35.001800494005884,
          29.53536209552604
        ],
        "type": "Point"
      },
      "properties": {
        "anchor_kind": null,
        "anchor_name": null,
        "archetype": "interchange-elevated",
        "chainage_m": 2016.8,
        "corridor_offset_m": 1.962,
        "id": "line-2-0357-0354-s002017",
        "junction_group": 1,
        "line": "line-2",
        "platform_length_m": 49.0
      },
      "type": "Feature"
    },
    {
      "geometry": {
        "coordinates": [
          35.00531081388769,
          29.546519997840406
        ],
        "type": "Point"
      },
      "properties": {
        "anchor_kind": null,
        "anchor_name": null,
        "archetype": "major",
        "chainage_m": 3613.4,
        "corridor_offset_m": 6.432,
        "id": "line-2-0295-0371-s003613",
        "junction_group": null,
        "line": "line-2",
        "platform_length_m": 49.0
      },
      "type": "Feature"
    },
    {
      "geometry": {
        "coordinates": [
          35.01109251722243,
          29.554438509160278
        ],
        "type": "Point"
      },
      "properties": {
        "anchor_kind": "amenity:marketplace",
        "anchor_name": null,
        "archetype": "major",
        "chainage_m": 4819.1,
        "corridor_offset_m": 5.212,
        "id": "line-2-0251-0399-s004819",
        "junction_group": null,
        "line": "line-2",
        "platform_length_m": 49.0
      },
      "type": "Feature"
    },
    {
      "geometry": {
        "coordinates": [
          35.02017805103416,
          29.56217705431379
        ],
        "type": "Point"
      },
      "properties": {
        "anchor_kind": null,
        "anchor_name": null,
        "archetype": "standard",
        "chainage_m": 6837.9,
        "corridor_offset_m": 2.403,
        "id": "line-2-0208-0443-s006838",
        "junction_group": null,
        "line": "line-2",
        "platform_length_m": 49.0
      },
      "type": "Feature"
    },
    {
      "geometry": {
        "coordinates": [
          35.01646124174754,
          29.573514922794512
        ],
        "type": "Point"
      },
      "properties": {
        "anchor_kind": null,
        "anchor_name": null,
        "archetype": "standard",
        "chainage_m": 8247.0,
        "corridor_offset_m": 1.5,
        "id": "line-2-0145-0425-s008247",
        "junction_group": null,
        "line": "line-2",
        "platform_length_m": 49.0
      },
      "type": "Feature"
    },
    {
      "geometry": {
        "coordinates": [
          35.02306890270153,
          29.581793366447105
        ],
        "type": "Point"
      },
      "properties": {
        "anchor_kind": "amenity:university",
        "anchor_name": "الجامعة الأردنية - فرع العقبة",
        "archetype": "terminal",
        "chainage_m": 9643.0,
        "corridor_offset_m": 0.0,
        "id": "line-2-0099-0457-s009643",
        "junction_group": null,
        "line": "line-2",
        "platform_length_m": 49.0
      },
      "type": "Feature"
    },
    {
      "geometry": {
        "coordinates": [
          35.01790666758123,
          29.53284256919699
        ],
        "type": "Point"
      },
      "properties": {
        "anchor_kind": "public_transport:station",
        "anchor_name": "العقبة",
        "archetype": "terminal",
        "chainage_m": 0.0,
        "corridor_offset_m": 0.0,
        "id": "line-3-0371-0432-s000000",
        "junction_group": null,
        "line": "line-3",
        "platform_length_m": 49.0
      },
      "type": "Feature"
    },
    {
      "geometry": {
        "coordinates": [
          35.001800494005884,
          29.53536209552604
        ],
        "type": "Point"
      },
      "properties": {
        "anchor_kind": null,
        "anchor_name": null,
        "archetype": "interchange-elevated",
        "chainage_m": 2187.9,
        "corridor_offset_m": 14.057,
        "id": "line-3-0357-0354-s002188",
        "junction_group": 1,
        "line": "line-3",
        "platform_length_m": 49.0
      },
      "type": "Feature"
    },
    {
      "geometry": {
        "coordinates": [
          34.9832164475728,
          29.540041215851417
        ],
        "type": "Point"
      },
      "properties": {
        "anchor_kind": null,
        "anchor_name": null,
        "archetype": "interchange-elevated",
        "chainage_m": 4413.9,
        "corridor_offset_m": 7.662,
        "id": "line-3-0331-0264-s004414",
        "junction_group": 0,
        "line": "line-3",
        "platform_length_m": 49.0
      },
      "type": "Feature"
    },
    {
      "geometry": {
        "coordinates": [
          34.96545835875896,
          29.546340031674045
        ],
        "type": "Point"
      },
      "properties": {
        "anchor_kind": null,
        "anchor_name": null,
        "archetype": "standard",
        "chainage_m": 6423.8,
        "corridor_offset_m": 4.942,
        "id": "line-3-0296-0178-s006424",
        "junction_group": null,
        "line": "line-3",
        "platform_length_m": 49.0
      },
      "type": "Feature"
    },
    {
      "geometry": {
        "coordinates": [
          34.94976516399324,
          29.547239862505847
        ],
        "type": "Point"
      },
      "properties": {
        "anchor_kind": "place:neighbourhood",
        "anchor_name": "אמדר",
        "archetype": "major",
        "chainage_m": 7985.2,
        "corridor_offset_m": 3.428,
        "id": "line-3-0291-0102-s007985",
        "junction_group": null,
        "line": "line-3",
        "platform_length_m": 49.0
      },
      "type": "Feature"
    },
    {
      "geometry": {
        "coordinates": [
          34.93572388446602,
          29.54759979483857
        ],
        "type": "Point"
      },
      "properties": {
        "anchor_kind": "place:suburb",
        "anchor_name": "שחמון",
        "archetype": "terminal",
        "chainage_m": 10022.9,
        "corridor_offset_m": 0.0,
        "id": "line-3-0289-0034-s010023",
        "junction_group": null,
        "line": "line-3",
        "platform_length_m": 49.0
      },
      "type": "Feature"
    }
  ],
  "type": "FeatureCollection"
}
