{
  "features": [
    {
      "geometry": {
        "coordinates": [
          73.0477773523097,
          26.148054169816074
        ],
        "type": "Point"
      },
      "properties": {
        "anchor_kind": "amenity:college",
        "anchor_name": "Jodhpur Institute of Engineering & Technology",
        "archetype": "terminal",
        "chainage_m": 0.0,
        "corridor_offset_m": 0.0,
        "id": "line-1-1305-0919-s000000",
        "junction_group": null,
        "line": "line-1",
        "platform_length_m": 85.0
      },
      "type": "Feature"
    },
    {
      "geometry": {
        "coordinates": [
          73.04757705067586,
          26.16461105712126
        ],
        "type": "Point"
      },
      "properties": {
        "anchor_kind": null,
        "anchor_name": null,
        "archetype": "standard",
        "chainage_m": 2006.3,
        "corridor_offset_m": 48.55,
        "id": "line-1-1213-0918-s002006",
        "junction_group": null,
        "line": "line-1",
        "platform_length_m": 85.0
      },
      "type": "Feature"
    },
    {
      "geometry": {
        "coordinates": [
          73.04657554250669,
          26.177568621099233
        ],
        "type": "Point"
      },
      "properties": {
        "anchor_kind": null,
        "anchor_name": null,
        "archetype": "standard",
        "chainage_m": 3487.7,
        "corridor_offset_m": 89.169,
        "id": "line-1-1141-0913-s003488",
        "junction_group": null,
        "line": "line-1",
        "platform_length_m": 85.0
      },
      "type": "Feature"
    },
    {
      "geometry": {
        "coordinates": [
          73.04597463760518,
          26.18944638807904
        ],
        "type": "Point"
      },
      "properties": {
        "anchor_kind": null,
        "anchor_name": null,
        "archetype": "interchange",
        "chainage_m": 4965.1,
        "corridor_offset_m": 93.175,
        "id": "line-1-1075-0910-s004965",
        "junction_group": 0,
        "line": "line-1",
        "platform_length_m": 85.0
      },
      "type": "Feature"
    },
    {
      "geometry": {
        "coordinates": [
          73.05598971929685,
          26.19952449339524
        ],
        "type": "Point"
      },
      "properties": {
        "anchor_kind": null,
        "anchor_name": null,
        "archetype": "standard",
        "chainage_m": 6499.3,
        "corridor_offset_m": 136.01,
        "id": "line-1-1019-0960-s006499",
        "junction_group": null,
        "line": "line-1",
        "platform_length_m": 85.0
      },
      "type": "Feature"
    },
    {
      "geometry": {
        "coordinates": [
          73.05398670295853,
          26.21194215887413
        ],
        "type": "Point"
      },
      "properties": {
        "anchor_kind": null,
        "anchor_name": null,
        "archetype": "standard",
        "chainage_m": 8045.0,
        "corridor_offset_m": 182.091,
        "id": "line-1-0950-0950-s008045",
        "junction_group": null,
        "line": "line-1",
        "platform_length_m": 85.0
      },
      "type": "Feature"
    },
    {
      "geometry": {
        "coordinates": [
          73.05218398825401,
          26.226159486016627
        ],
        "type": "Point"
      },
      "properties": {
        "anchor_kind": null,
        "anchor_name": null,
        "archetype": "interchange",
        "chainage_m": 9699.6,
        "corridor_offset_m": 234.048,
        "id": "line-1-0871-0941-s009700",
        "junction_group": 1,
        "line": "line-1",
        "platform_length_m": 85.0
      },
      "type": "Feature"
    },
    {
      "geometry": {
        "coordinates": [
          73.05198368662019,
          26.22921891084476
        ],
        "type": "Point"
      },
      "properties": {
        "anchor_kind": null,
        "anchor_name": null,
        "archetype": "interchange",
        "chainage_m": 10047.8,
        "corridor_offset_m": 245.386,
        "id": "line-1-0854-0940-s010048",
        "junction_group": 1,
        "line": "line-1",
        "platform_length_m": 85.0
      },
      "type": "Feature"
    },
    {
      "geometry": {
        "coordinates": [
          73.04517343106986,
          26.244696001151784
        ],
        "type": "Point"
      },
      "properties": {
        "anchor_kind": null,
        "anchor_name": null,
        "archetype": "standard",
        "chainage_m": 12049.5,
        "corridor_offset_m": 315.435,
        "id": "line-1-0768-0906-s012050",
        "junction_group": null,
        "line": "line-1",
        "platform_length_m": 85.0
      },
      "type": "Feature"
    },
    {
      "geometry": {
        "coordinates": [
          73.03736166735035,
          26.259273260627
        ],
        "type": "Point"
      },
      "properties": {
        "anchor_kind": null,
        "anchor_name": null,
        "archetype": "standard",
        "chainage_m": 14054.0,
        "corridor_offset_m": 309.036,
        "id": "line-1-0687-0867-s014054",
        "junction_group": null,
        "line": "line-1",
        "platform_length_m": 85.0
      },
      "type": "Feature"
    },
    {
      "geometry": {
        "coordinates": [
          73.03315533303986,
          26.26863150127776
        ],
        "type": "Point"
      },
      "properties": {
        "anchor_kind": "amenity:college",
        "anchor_name": "Mugneeram Bangur Memorial Engineering College",
        "archetype": "major",
        "chainage_m": 15268.0,
        "corridor_offset_m": 355.491,
        "id": "line-1-0635-0846-s015268",
        "junction_group": null,
        "line": "line-1",
        "platform_length_m": 85.0
      },
      "type": "Feature"
    },
    {
      "geometry": {
        "coordinates": [
          73.0303511101662,
          26.28194899758845
        ],
        "type": "Point"
      },
      "properties": {
        "anchor_kind": "amenity:hospital",
        "anchor_name": "Piyush Ayurvedic, achaleshwar market",
        "archetype": "interchange-elevated",
        "chainage_m": 17291.9,
        "corridor_offset_m": 297.675,
        "id": "line-1-0561-0832-s017292",
        "junction_group": 2,
        "line": "line-1",
        "platform_length_m": 85.0
      },
      "type": "Feature"
    },
    {
      "geometry": {
        "coordinates": [
          73.03916438205486,
          26.29076733974013
        ],
        "type": "Point"
      },
      "properties": {
        "anchor_kind": "public_transport:station",
        "anchor_name": "Raikabagh Palace Junction",
        "archetype": "standard",
        "chainage_m": 19315.6,
        "corridor_offset_m": 299.937,
        "id": "line-1-0512-0876-s019316",
        "junction_group": null,
        "line": "line-1",
        "platform_length_m": 85.0
      },
      "type": "Feature"
    },
    {
      "geometry": {
        "coordinates": [
          73.03916438205486,
          26.303185005219017
        ],
        "type": "Point"
      },
      "properties": {
        "anchor_kind": "amenity:hospital",
        "anchor_name": "Aastha hospital",
        "archetype": "standard",
        "chainage_m": 21322.7,
        "corridor_offset_m": 212.54,
        "id": "line-1-0443-0876-s021323",
        "junction_group": null,
        "line": "line-1",
        "platform_length_m": 85.0
      },
      "type": "Feature"
    },
    {
      "geometry": {
        "coordinates": [
          73.04517343106986,
          26.317402332361514
        ],
        "type": "Point"
      },
      "properties": {
        "anchor_kind": null,
        "anchor_name": null,
        "archetype": "standard",
        "chainage_m": 23335.5,
        "corridor_offset_m": 176.073,
        "id": "line-1-0364-0906-s023335",
        "junction_group": null,
        "line": "line-1",
        "platform_length_m": 85.0
      },
      "type": "Feature"
    },
    {
      "geometry": {
        "coordinates": [
          73.04637524087285,
          26.333959219666703
        ],
        "type": "Point"
      },
      "properties": {
        "anchor_kind": "amenity:hospital",
        "anchor_name": "Composite Hospital",
        "archetype": "standard",
        "chainage_m": 25357.7,
        "corridor_offset_m": 162.859,
        "id": "line-1-0272-0912-s025358",
        "junction_group": null,
        "line": "line-1",
        "platform_length_m": 85.0
      },
      "type": "Feature"
    },
    {
      "geometry": {
        "coordinates": [
          73.03796257225186,
          26.347456682143758
        ],
        "type": "Point"
      },
      "properties": {
        "anchor_kind": null,
        "anchor_name": null,
        "archetype": "depot-terminal",
        "chainage_m": 28912.8,
        "corridor_offset_m": 5.998,
        "id": "line-1-0197-0870-s028913",
        "junction_group": 3,
        "line": "line-1",
        "platform_length_m": 85.0
      },
      "type": "Feature"
    },
    {
      "geometry": {
        "coordinates": [
          72.96184795139521,
          26.225439621351185
        ],
        "type": "Point"
      },
      "properties": {
        "anchor_kind": "amenity:hospital",
        "anchor_name": "Ganga Hospital and Orthopaedic Centre",
        "archetype": "terminal",
        "chainage_m": 0.0,
        "corridor_offset_m": 0.0,
        "id": "line-2-0875-0490-s000000",
        "junction_group": null,
        "line": "line-2",
        "platform_length_m": 85.0
      },
      "type": "Feature"
    },
    {
      "geometry": {
        "coordinates": [
          72.97026062001622,
          26.238397185329156
        ],
        "type": "Point"
      },
      "properties": {
        "anchor_kind": null,
        "anchor_name": null,
        "archetype": "standard",
        "chainage_m": 2002.5,
        "corridor_offset_m": 10.442,
        "id": "line-2-0803-0532-s002002",
        "junction_group": null,
        "line": "line-2",
        "platform_length_m": 85.0
      },
      "type": "Feature"
    },
    {
      "geometry": {
        "coordinates": [
          72.98368082948305,
          26.247575459813554
        ],
        "type": "Point"
      },
      "properties": {
        "anchor_kind": null,
        "anchor_name": null,
        "archetype": "interchange-elevated",
        "chainage_m": 4011.0,
        "corridor_offset_m": 3.333,
        "id": "line-2-0752-0599-s004011",
        "junction_group": 4,
        "line": "line-2",
        "platform_length_m": 85.0
      },
      "type": "Feature"
    },
    {
      "geometry": {
        "coordinates": [
          72.99509802261154,
          26.254954072634344
        ],
        "type": "Point"
      },
      "properties": {
        "anchor_kind": null,
        "anchor_name": null,
        "archetype": "interchange-elevated",
        "chainage_m": 5582.4,
        "corridor_offset_m": 37.257,
        "id": "line-2-0711-0656-s005582",
        "junction_group": 5,
        "line": "line-2",
        "platform_length_m": 85.0
      },
      "type": "Feature"
    },
    {
      "geometry": {
        "coordinates": [
          72.99830284875287,
          26.257833531296114
        ],
        "type": "Point"
      },
      "properties": {
        "anchor_kind": "amenity:college",
        "anchor_name": "ITI",
        "archetype": "interchange-elevated",
        "chainage_m": 6034.9,
        "corridor_offset_m": 54.191,
        "id": "line-2-0695-0672-s006035",
        "junction_group": 5,
        "line": "line-2",
        "platform_length_m": 85.0
      },
      "type": "Feature"
    },
    {
      "geometry": {
        "coordinates": [
          73.00611461247237,
          26.26413234711874
        ],
        "type": "Point"
      },
      "properties": {
        "anchor_kind": "amenity:hospital",
        "anchor_name": "Mathuradas Mathur Hospital",
        "archetype": "major",
        "chainage_m": 7243.5,
        "corridor_offset_m": 80.555,
        "id": "line-2-0660-0711-s007243",
        "junction_group": null,
        "line": "line-2",
        "platform_length_m": 85.0
      },
      "type": "Feature"
    },
    {
      "geometry": {
        "coordinates": [
          73.01753180560087,
          26.274210452434943
        ],
        "type": "Point"
      },
      "properties": {
        "anchor_kind": "amenity:hospital",
        "anchor_name": "Railway Hospital, Jodhpur",
        "archetype": "standard",
        "chainage_m": 9243.7,
        "corridor_offset_m": 95.838,
        "id": "line-2-0604-0768-s009244",
        "junction_group": null,
        "line": "line-2",
        "platform_length_m": 85.0
      },
      "type": "Feature"
    },
    {
      "geometry": {
        "coordinates": [
          73.03455744447669,
          26.27888957276032
        ],
        "type": "Point"
      },
      "properties": {
        "anchor_kind": null,
        "anchor_name": null,
        "archetype": "interchange-elevated",
        "chainage_m": 11253.7,
        "corridor_offset_m": 86.504,
        "id": "line-2-0578-0853-s011254",
        "junction_group": 2,
        "line": "line-2",
        "platform_length_m": 85.0
      },
      "type": "Feature"
    },
    {
      "geometry": {
        "coordinates": [
          73.04417192290069,
          26.287707914911994
        ],
        "type": "Point"
      },
      "properties": {
        "anchor_kind": null,
        "anchor_name": null,
        "archetype": "interchange-elevated",
        "chainage_m": 12877.3,
        "corridor_offset_m": 103.146,
        "id": "line-2-0529-0901-s012877",
        "junction_group": 6,
        "line": "line-2",
        "platform_length_m": 85.0
      },
      "type": "Feature"
    },
    {
      "geometry": {
        "coordinates": [
          73.05218398825401,
          26.29382676456826
        ],
        "type": "Point"
      },
      "properties": {
        "anchor_kind": null,
        "anchor_name": null,
        "archetype": "interchange-elevated",
        "chainage_m": 14127.9,
        "corridor_offset_m": 107.375,
        "id": "line-2-0495-0941-s014128",
        "junction_group": 6,
        "line": "line-2",
        "platform_length_m": 85.0
      },
      "type": "Feature"
    },
    {
      "geometry": {
        "coordinates": [
          73.06400178465019,
          26.300485512723608
        ],
        "type": "Point"
      },
      "properties": {
        "anchor_kind": "amenity:hospital",
        "anchor_name": "Govt. hospital",
        "archetype": "standard",
        "chainage_m": 15706.1,
        "corridor_offset_m": 82.209,
        "id": "line-2-0458-1000-s015706",
        "junction_group": null,
        "line": "line-2",
        "platform_length_m": 85.0
      },
      "type": "Feature"
    },
    {
      "geometry": {
        "coordinates": [
          73.07722169248318,
          26.305164633048985
        ],
        "type": "Point"
      },
      "properties": {
        "anchor_kind": null,
        "anchor_name": null,
        "archetype": "standard",
        "chainage_m": 17298.1,
        "corridor_offset_m": 40.956,
        "id": "line-2-0432-1066-s017298",
        "junction_group": null,
        "line": "line-2",
        "platform_length_m": 85.0
      },
      "type": "Feature"
    },
    {
      "geometry": {
        "coordinates": [
          73.09344612482367,
          26.313803009034302
        ],
        "type": "Point"
      },
      "properties": {
        "anchor_kind": "amenity:hospital",
        "anchor_name": "Sagar Hospital",
        "archetype": "standard",
        "chainage_m": 19315.7,
        "corridor_offset_m": 11.083,
        "id": "line-2-0384-1147-s019316",
        "junction_group": null,
        "line": "line-2",
        "platform_length_m": 85.0
      },
      "type": "Feature"
    },
    {
      "geometry": {
        "coordinates": [
          73.10967055716416,
          26.320281791023287
        ],
        "type": "Point"
      },
      "properties": {
        "anchor_kind": "amenity:hospital",
        "anchor_name": "Sonna Medihub Hospital",
        "archetype": "terminal",
        "chainage_m": 21449.3,
        "corridor_offset_m": 0.0,
        "id": "line-2-0348-1228-s021449",
        "junction_group": null,
        "line": "line-2",
        "platform_length_m": 85.0
      },
      "type": "Feature"
    },
    {
      "geometry": {
        "coordinates": [
          72.99069138666721,
          26.127717993017313
        ],
        "type": "Point"
      },
      "properties": {
        "anchor_kind": "amenity:hospital",
        "anchor_name": "Government Hospital Salawas",
        "archetype": "terminal",
        "chainage_m": 0.0,
        "corridor_offset_m": 0.0,
        "id": "line-3-1418-0634-s000000",
        "junction_group": null,
        "line": "line-3",
        "platform_length_m": 85.0
      },
      "type": "Feature"
    },
    {
      "geometry": {
        "coordinates": [
          73.00250918306337,
          26.14733430515063
        ],
        "type": "Point"
      },
      "properties": {
        "anchor_kind": null,
        "anchor_name": null,
        "archetype": "halt",
        "chainage_m": 3018.2,
        "corridor_offset_m": 46.41,
        "id": "line-3-1309-0693-s003018",
        "junction_group": null,
        "line": "line-3",
        "platform_length_m": 81.0
      },
      "type": "Feature"
    },
    {
      "geometry": {
        "coordinates": [
          72.9991040552882,
          26.16407115862218
        ],
        "type": "Point"
      },
      "properties": {
        "anchor_kind": null,
        "anchor_name": null,
        "archetype": "standard",
        "chainage_m": 5019.1,
        "corridor_offset_m": 22.63,
        "id": "line-3-1216-0676-s005019",
        "junction_group": null,
        "line": "line-3",
        "platform_length_m": 85.0
      },
      "type": "Feature"
    },
    {
      "geometry": {
        "coordinates": [
          72.99890375365437,
          26.18206777525825
        ],
        "type": "Point"
      },
      "properties": {
        "anchor_kind": null,
        "anchor_name": null,
        "archetype": "standard",
        "chainage_m": 7027.4,
        "corridor_offset_m": 8.851,
        "id": "line-3-1116-0675-s007027",
        "junction_group": null,
        "line": "line-3",
        "platform_length_m": 85.0
      },
      "type": "Feature"
    },
    {
      "geometry": {
        "coordinates": [
          72.99890375365437,
          26.200064391894323
        ],
        "type": "Point"
      },
      "properties": {
        "anchor_kind": null,
        "anchor_name": null,
        "archetype": "standard",
        "chainage_m": 9027.4,
        "corridor_offset_m": 43.783,
        "id": "line-3-1016-0675-s009027",
        "junction_group": null,
        "line": "line-3",
        "platform_length_m": 85.0
      },
      "type": "Feature"
    },
    {
      "geometry": {
        "coordinates": [
          72.99710103894988,
          26.217521110031313
        ],
        "type": "Point"
      },
      "properties": {
        "anchor_kind": null,
        "anchor_name": null,
        "archetype": "standard",
        "chainage_m": 11041.9,
        "corridor_offset_m": 75.242,
        "id": "line-3-0919-0666-s011042",
        "junction_group": null,
        "line": "line-3",
        "platform_length_m": 85.0
      },
      "type": "Feature"
    },
    {
      "geometry": {
        "coordinates": [
          72.98728625889204,
          26.23209836950653
        ],
        "type": "Point"
      },
      "properties": {
        "anchor_kind": null,
        "anchor_name": null,
        "archetype": "standard",
        "chainage_m": 13067.8,
        "corridor_offset_m": 102.292,
        "id": "line-3-0838-0617-s013068",
        "junction_group": null,
        "line": "line-3",
        "platform_length_m": 85.0
      },
      "type": "Feature"
    },
    {
      "geometry": {
        "coordinates": [
          72.97967479680638,
          26.246315696649027
        ],
        "type": "Point"
      },
      "properties": {
        "anchor_kind": null,
        "anchor_name": null,
        "archetype": "interchange-elevated",
        "chainage_m": 15078.6,
        "corridor_offset_m": 125.4,
        "id": "line-3-0759-0579-s015079",
        "junction_group": 4,
        "line": "line-3",
        "platform_length_m": 85.0
      },
      "type": "Feature"
    },
    {
      "geometry": {
        "coordinates": [
          72.98368082948305,
          26.25639380196523
        ],
        "type": "Point"
      },
      "properties": {
        "anchor_kind": "amenity:hospital",
        "anchor_name": "Dhanwantari Hospital",
        "archetype": "standard",
        "chainage_m": 16508.6,
        "corridor_offset_m": 106.684,
        "id": "line-3-0703-0599-s016509",
        "junction_group": null,
        "line": "line-3",
        "platform_length_m": 85.0
      },
      "type": "Feature"
    },
    {
      "geometry": {
        "coordinates": [
          72.9924941013717,
          26.265752042615986
        ],
        "type": "Point"
      },
      "properties": {
        "anchor_kind": null,
        "anchor_name": null,
        "archetype": "interchange-elevated",
        "chainage_m": 17924.8,
        "corridor_offset_m": 94.472,
        "id": "line-3-0651-0643-s017925",
        "junction_group": 5,
        "line": "line-3",
        "platform_length_m": 85.0
      },
      "type": "Feature"
    },
    {
      "geometry": {
        "coordinates": [
          72.99129229156871,
          26.273130655436777
        ],
        "type": "Point"
      },
      "properties": {
        "anchor_kind": "place:neighbourhood",
        "anchor_name": "Baldeo Nagar Colony",
        "archetype": "interchange-elevated",
        "chainage_m": 19238.2,
        "corridor_offset_m": 46.133,
        "id": "line-3-0610-0637-s019238",
        "junction_group": 5,
        "line": "line-3",
        "platform_length_m": 85.0
      },
      "type": "Feature"
    },
    {
      "geometry": {
        "coordinates": [
          72.9900904817657,
          26.28842777957744
        ],
        "type": "Point"
      },
      "properties": {
        "anchor_kind": "amenity:hospital",
        "anchor_name": "Eye Hospital",
        "archetype": "interchange-elevated",
        "chainage_m": 21240.4,
        "corridor_offset_m": 12.879,
        "id": "line-3-0525-0631-s021240",
        "junction_group": 7,
        "line": "line-3",
        "platform_length_m": 85.0
      },
      "type": "Feature"
    },
    {
      "geometry": {
        "coordinates": [
          72.99209349810404,
          26.286988050246553
        ],
        "type": "Point"
      },
      "properties": {
        "anchor_kind": "amenity:hospital",
        "anchor_name": "Pooja Hospital, Jodhpur",
        "archetype": "terminal",
        "chainage_m": 22528.1,
        "corridor_offset_m": 5.993,
        "id": "line-3-0533-0641-s022528",
        "junction_group": 7,
        "line": "line-3",
        "platform_length_m": 85.0
      },
      "type": "Feature"
    },
    {
      "geometry": {
        "coordinates": [
          73.14612545452182,
          26.149133966814237
        ],
        "type": "Point"
      },
      "properties": {
        "anchor_kind": "tourism:attraction",
        "anchor_name": null,
        "archetype": "terminal",
        "chainage_m": 0.0,
        "corridor_offset_m": 0.0,
        "id": "line-4-1299-1410-s000000",
        "junction_group": null,
        "line": "line-4",
        "platform_length_m": 85.0
      },
      "type": "Feature"
    },
    {
      "geometry": {
        "coordinates": [
          73.11988594048967,
          26.155972681135946
        ],
        "type": "Point"
      },
      "properties": {
        "anchor_kind": null,
        "anchor_name": null,
        "archetype": "halt",
        "chainage_m": 3001.1,
        "corridor_offset_m": 45.299,
        "id": "line-4-1261-1279-s003001",
        "junction_group": null,
        "line": "line-4",
        "platform_length_m": 81.0
      },
      "type": "Feature"
    },
    {
      "geometry": {
        "coordinates": [
          73.10105758690933,
          26.17414926393838
        ],
        "type": "Point"
      },
      "properties": {
        "anchor_kind": null,
        "anchor_name": null,
        "archetype": "halt",
        "chainage_m": 6022.4,
        "corridor_offset_m": 77.719,
        "id": "line-4-1160-1185-s006022",
        "junction_group": null,
        "line": "line-4",
        "platform_length_m": 81.0
      },
      "type": "Feature"
    },
    {
      "geometry": {
        "coordinates": [
          73.08863888561167,
          26.187466760249073
        ],
        "type": "Point"
      },
      "properties": {
        "anchor_kind": null,
        "anchor_name": null,
        "archetype": "standard",
        "chainage_m": 8027.7,
        "corridor_offset_m": 80.903,
        "id": "line-4-1086-1123-s008028",
        "junction_group": null,
        "line": "line-4",
        "platform_length_m": 85.0
      },
      "type": "Feature"
    },
    {
      "geometry": {
        "coordinates": [
          73.07381656470801,
          26.198264730230715
        ],
        "type": "Point"
      },
      "properties": {
        "anchor_kind": null,
        "anchor_name": null,
        "archetype": "standard",
        "chainage_m": 10039.9,
        "corridor_offset_m": 76.136,
        "id": "line-4-1026-1049-s010040",
        "junction_group": null,
        "line": "line-4",
        "platform_length_m": 85.0
      },
      "type": "Feature"
    },
    {
      "geometry": {
        "coordinates": [
          73.06500329281934,
          26.21122229420869
        ],
        "type": "Point"
      },
      "properties": {
        "anchor_kind": null,
        "anchor_name": null,
        "archetype": "standard",
        "chainage_m": 12057.0,
        "corridor_offset_m": 95.176,
        "id": "line-4-0954-1005-s012057",
        "junction_group": null,
        "line": "line-4",
        "platform_length_m": 85.0
      },
      "type": "Feature"
    },
    {
      "geometry": {
        "coordinates": [
          73.05739183073368,
          26.225619587517546
        ],
        "type": "Point"
      },
      "properties": {
        "anchor_kind": null,
        "anchor_name": null,
        "archetype": "interchange",
        "chainage_m": 14073.2,
        "corridor_offset_m": 103.861,
        "id": "line-4-0874-0967-s014073",
        "junction_group": 1,
        "line": "line-4",
        "platform_length_m": 85.0
      },
      "type": "Feature"
    },
    {
      "geometry": {
        "coordinates": [
          73.05198368662019,
          26.228319080012955
        ],
        "type": "Point"
      },
      "properties": {
        "anchor_kind": null,
        "anchor_name": null,
        "archetype": "interchange",
        "chainage_m": 14737.5,
        "corridor_offset_m": 102.903,
        "id": "line-4-0859-0940-s014737",
        "junction_group": 1,
        "line": "line-4",
        "platform_length_m": 85.0
      },
      "type": "Feature"
    },
    {
      "geometry": {
        "coordinates": [
          73.04096709675936,
          26.232638268005616
        ],
        "type": "Point"
      },
      "properties": {
        "anchor_kind": null,
        "anchor_name": null,
        "archetype": "standard",
        "chainage_m": 16081.2,
        "corridor_offset_m": 92.964,
        "id": "line-4-0835-0885-s016081",
        "junction_group": null,
        "line": "line-4",
        "platform_length_m": 85.0
      },
      "type": "Feature"
    },
    {
      "geometry": {
        "coordinates": [
          73.02394145788352,
          26.24163657632365
        ],
        "type": "Point"
      },
      "properties": {
        "anchor_kind": null,
        "anchor_name": null,
        "archetype": "standard",
        "chainage_m": 18242.2,
        "corridor_offset_m": 95.779,
        "id": "line-4-0785-0800-s018242",
        "junction_group": null,
        "line": "line-4",
        "platform_length_m": 85.0
      },
      "type": "Feature"
    },
    {
      "geometry": {
        "coordinates": [
          73.0123239631212,
          26.25405424180254
        ],
        "type": "Point"
      },
      "properties": {
        "anchor_kind": "public_transport:station",
        "anchor_name": "Bhagat Ki Kothi",
        "archetype": "standard",
        "chainage_m": 20102.7,
        "corridor_offset_m": 127.17,
        "id": "line-4-0716-0742-s020103",
        "junction_group": null,
        "line": "line-4",
        "platform_length_m": 85.0
      },
      "type": "Feature"
    },
    {
      "geometry": {
        "coordinates": [
          72.99690073731604,
          26.263052550120577
        ],
        "type": "Point"
      },
      "properties": {
        "anchor_kind": null,
        "anchor_name": null,
        "archetype": "interchange-elevated",
        "chainage_m": 22092.1,
        "corridor_offset_m": 82.532,
        "id": "line-4-0666-0665-s022092",
        "junction_group": 5,
        "line": "line-4",
        "platform_length_m": 85.0
      },
      "type": "Feature"
    },
    {
      "geometry": {
        "coordinates": [
          72.99449711771004,
          26.26413234711874
        ],
        "type": "Point"
      },
      "properties": {
        "anchor_kind": null,
        "anchor_name": null,
        "archetype": "interchange-elevated",
        "chainage_m": 22381.8,
        "corridor_offset_m": 71.625,
        "id": "line-4-0660-0653-s022382",
        "junction_group": 5,
        "line": "line-4",
        "platform_length_m": 85.0
      },
      "type": "Feature"
    },
    {
      "geometry": {
        "coordinates": [
          72.9876868621597,
          26.268091602778675
        ],
        "type": "Point"
      },
      "properties": {
        "anchor_kind": "amenity:hospital",
        "anchor_name": "Bone & Joint Hospital",
        "archetype": "interchange-elevated",
        "chainage_m": 23295.8,
        "corridor_offset_m": 50.966,
        "id": "line-4-0638-0619-s023296",
        "junction_group": 5,
        "line": "line-4",
        "platform_length_m": 85.0
      },
      "type": "Feature"
    },
    {
      "geometry": {
        "coordinates": [
          72.97827268536955,
          26.265392110283265
        ],
        "type": "Point"
      },
      "properties": {
        "anchor_kind": "amenity:hospital",
        "anchor_name": "Vasundhara Hospital and Fertility Research Centre",
        "archetype": "major",
        "chainage_m": 24508.3,
        "corridor_offset_m": 47.734,
        "id": "line-4-0653-0572-s024508",
        "junction_group": null,
        "line": "line-4",
        "platform_length_m": 85.0
      },
      "type": "Feature"
    },
    {
      "geometry": {
        "coordinates": [
          72.97366574779139,
          26.269891264442283
        ],
        "type": "Point"
      },
      "properties": {
        "anchor_kind": "amenity:hospital",
        "anchor_name": "Kothari Hospital, Jodhpur",
        "archetype": "terminal",
        "chainage_m": 26265.1,
        "corridor_offset_m": 0.0,
        "id": "line-4-0628-0549-s026265",
        "junction_group": null,
        "line": "line-4",
        "platform_length_m": 85.0
      },
      "type": "Feature"
    },
    {
      "geometry": {
        "coordinates": [
          72.98728625889204,
          26.27403048626858
        ],
        "type": "Point"
      },
      "properties": {
        "anchor_kind": "amenity:university",
        "anchor_name": "Maulana Azad University, Jodhpur",
        "archetype": "interchange-elevated",
        "chainage_m": 0.0,
        "corridor_offset_m": 0.0,
        "id": "line-5-0605-0617-s000000",
        "junction_group": 5,
        "line": "line-5",
        "platform_length_m": 85.0
      },
      "type": "Feature"
    },
    {
      "geometry": {
        "coordinates": [
          72.9918931964702,
          26.286808084080192
        ],
        "type": "Point"
      },
      "properties": {
        "anchor_kind": "amenity:hospital",
        "anchor_name": "Pooja Hospital, Jodhpur",
        "archetype": "interchange-elevated",
        "chainage_m": 1707.1,
        "corridor_offset_m": 7.992,
        "id": "line-5-0534-0640-s001707",
        "junction_group": 7,
        "line": "line-5",
        "platform_length_m": 85.0
      },
      "type": "Feature"
    },
    {
      "geometry": {
        "coordinates": [
          72.99449711771004,
          26.28644815174747
        ],
        "type": "Point"
      },
      "properties": {
        "anchor_kind": "amenity:hospital",
        "anchor_name": "Shri Swami Prabhutanand Rajkiya Chikitshalaya Pratapnagar",
        "archetype": "interchange-elevated",
        "chainage_m": 2000.2,
        "corridor_offset_m": 28.305,
        "id": "line-5-0536-0653-s002000",
        "junction_group": 7,
        "line": "line-5",
        "platform_length_m": 85.0
      },
      "type": "Feature"
    },
    {
      "geometry": {
        "coordinates": [
          73.00531340593703,
          26.297426087895474
        ],
        "type": "Point"
      },
      "properties": {
        "anchor_kind": null,
        "anchor_name": null,
        "archetype": "standard",
        "chainage_m": 4017.1,
        "corridor_offset_m": 1.168,
        "id": "line-5-0475-0707-s004017",
        "junction_group": null,
        "line": "line-5",
        "platform_length_m": 85.0
      },
      "type": "Feature"
    },
    {
      "geometry": {
        "coordinates": [
          73.01773210723469,
          26.304084836050823
        ],
        "type": "Point"
      },
      "properties": {
        "anchor_kind": "tourism:attraction",
        "anchor_name": null,
        "archetype": "standard",
        "chainage_m": 6027.0,
        "corridor_offset_m": 96.646,
        "id": "line-5-0438-0769-s006027",
        "junction_group": null,
        "line": "line-5",
        "platform_length_m": 85.0
      },
      "type": "Feature"
    },
    {
      "geometry": {
        "coordinates": [
          73.0231402513482,
          26.316682467696072
        ],
        "type": "Point"
      },
      "properties": {
        "anchor_kind": null,
        "anchor_name": null,
        "archetype": "standard",
        "chainage_m": 8029.3,
        "corridor_offset_m": 109.124,
        "id": "line-5-0368-0796-s008029",
        "junction_group": null,
        "line": "line-5",
        "platform_length_m": 85.0
      },
      "type": "Feature"
    },
    {
      "geometry": {
        "coordinates": [
          73.03155291996919,
          26.33107976100493
        ],
        "type": "Point"
      },
      "properties": {
        "anchor_kind": "amenity:hospital",
        "anchor_name": "Govt. Hospital, Balsamand",
        "archetype": "standard",
        "chainage_m": 10047.5,
        "corridor_offset_m": 146.091,
        "id": "line-5-0288-0838-s010047",
        "junction_group": null,
        "line": "line-5",
        "platform_length_m": 85.0
      },
      "type": "Feature"
    },
    {
      "geometry": {
        "coordinates": [
          73.0381628738857,
          26.347636648310118
        ],
        "type": "Point"
      },
      "properties": {
        "anchor_kind": null,
        "anchor_name": null,
        "archetype": "interchange-elevated",
        "chainage_m": 12470.0,
        "corridor_offset_m": 232.652,
        "id": "line-5-0196-0871-s012470",
        "junction_group": 3,
        "line": "line-5",
        "platform_length_m": 85.0
      },
      "type": "Feature"
    },
    {
      "geometry": {
        "coordinates": [
          73.04216890656235,
          26.350516106971888
        ],
        "type": "Point"
      },
      "properties": {
        "anchor_kind": "public_transport:station",
        "anchor_name": "Mandor",
        "archetype": "interchange-elevated",
        "chainage_m": 13061.1,
        "corridor_offset_m": 261.874,
        "id": "line-5-0180-0891-s013061",
        "junction_group": 3,
        "line": "line-5",
        "platform_length_m": 85.0
      },
      "type": "Feature"
    },
    {
      "geometry": {
        "coordinates": [
          73.05779243400136,
          26.356994888960873
        ],
        "type": "Point"
      },
      "properties": {
        "anchor_kind": null,
        "anchor_name": null,
        "archetype": "halt",
        "chainage_m": 16079.0,
        "corridor_offset_m": 256.062,
        "id": "line-5-0144-0969-s016079",
        "junction_group": null,
        "line": "line-5",
        "platform_length_m": 81.0
      },
      "type": "Feature"
    },
    {
      "geometry": {
        "coordinates": [
          73.05939484707201,
          26.33917823849116
        ],
        "type": "Point"
      },
      "properties": {
        "anchor_kind": "amenity:hospital",
        "anchor_name": "Ayurvedic hospital",
        "archetype": "standard",
        "chainage_m": 18153.6,
        "corridor_offset_m": 204.075,
        "id": "line-5-0243-0977-s018154",
        "junction_group": null,
        "line": "line-5",
        "platform_length_m": 85.0
      },
      "type": "Feature"
    },
    {
      "geometry": {
        "coordinates": [
          73.06460268955168,
          26.316502501529712
        ],
        "type": "Point"
      },
      "properties": {
        "anchor_kind": null,
        "anchor_name": null,
        "archetype": "halt",
        "chainage_m": 21169.8,
        "corridor_offset_m": 218.018,
        "id": "line-5-0369-1003-s021170",
        "junction_group": null,
        "line": "line-5",
        "platform_length_m": 81.0
      },
      "type": "Feature"
    },
    {
      "geometry": {
        "coordinates": [
          73.05859364053669,
          26.30606446388079
        ],
        "type": "Point"
      },
      "properties": {
        "anchor_kind": "amenity:hospital",
        "anchor_name": "Govt. hospital",
        "archetype": "standard",
        "chainage_m": 23173.5,
        "corridor_offset_m": 290.908,
        "id": "line-5-0427-0973-s023173",
        "junction_group": null,
        "line": "line-5",
        "platform_length_m": 85.0
      },
      "type": "Feature"
    },
    {
      "geometry": {
        "coordinates": [
          73.05178338498635,
          26.295626426231866
        ],
        "type": "Point"
      },
      "properties": {
        "anchor_kind": null,
        "anchor_name": null,
        "archetype": "interchange-elevated",
        "chainage_m": 25177.1,
        "corridor_offset_m": 328.746,
        "id": "line-5-0485-0939-s025177",
        "junction_group": 6,
        "line": "line-5",
        "platform_length_m": 85.0
      },
      "type": "Feature"
    },
    {
      "geometry": {
        "coordinates": [
          73.05218398825401,
          26.29382676456826
        ],
        "type": "Point"
      },
      "properties": {
        "anchor_kind": null,
        "anchor_name": null,
        "archetype": "interchange-elevated",
        "chainage_m": 25393.7,
        "corridor_offset_m": 317.96,
        "id": "line-5-0495-0941-s025394",
        "junction_group": 6,
        "line": "line-5",
        "platform_length_m": 85.0
      },
      "type": "Feature"
    },
    {
      "geometry": {
        "coordinates": [
          73.04797765394352,
          26.284468523917504
        ],
        "type": "Point"
      },
      "properties": {
        "anchor_kind": null,
        "anchor_name": null,
        "archetype": "interchange-elevated",
        "chainage_m": 26865.1,
        "corridor_offset_m": 352.341,
        "id": "line-5-0547-0920-s026865",
        "junction_group": 6,
        "line": "line-5",
        "platform_length_m": 85.0
      },
      "type": "Feature"
    },
    {
      "geometry": {
        "coordinates": [
          73.05058157518336,
          26.264312313285103
        ],
        "type": "Point"
      },
      "properties": {
        "anchor_kind": "aeroway:aerodrome",
        "anchor_name": "Amrita Devi Bishnoi Airport Jodhpur",
        "archetype": "standard",
        "chainage_m": 29212.8,
        "corridor_offset_m": 288.477,
        "id": "line-5-0659-0933-s029213",
        "junction_group": null,
        "line": "line-5",
        "platform_length_m": 85.0
      },
      "type": "Feature"
    },
    {
      "geometry": {
        "coordinates": [
          73.05218398825401,
          26.247035561314473
        ],
        "type": "Point"
      },
      "properties": {
        "anchor_kind": null,
        "anchor_name": null,
        "archetype": "standard",
        "chainage_m": 31215.6,
        "corridor_offset_m": 255.757,
        "id": "line-5-0755-0941-s031216",
        "junction_group": null,
        "line": "line-5",
        "platform_length_m": 85.0
      },
      "type": "Feature"
    },
    {
      "geometry": {
        "coordinates": [
          73.05178338498635,
          26.230298707842923
        ],
        "type": "Point"
      },
      "properties": {
        "anchor_kind": null,
        "anchor_name": null,
        "archetype": "interchange",
        "chainage_m": 33224.7,
        "corridor_offset_m": 236.461,
        "id": "line-5-0848-0939-s033225",
        "junction_group": 1,
        "line": "line-5",
        "platform_length_m": 85.0
      },
      "type": "Feature"
    },
    {
      "geometry": {
        "coordinates": [
          73.05198368662019,
          26.228319080012955
        ],
        "type": "Point"
      },
      "properties": {
        "anchor_kind": null,
        "anchor_name": null,
        "archetype": "interchange",
        "chainage_m": 33453.0,
        "corridor_offset_m": 233.113,
        "id": "line-5-0859-0940-s033453",
        "junction_group": 1,
        "line": "line-5",
        "platform_length_m": 85.0
      },
      "type": "Feature"
    },
    {
      "geometry": {
        "coordinates": [
          73.05218398825401,
          26.226159486016627
        ],
        "type": "Point"
      },
      "properties": {
        "anchor_kind": null,
        "anchor_name": null,
        "archetype": "interchange",
        "chainage_m": 33701.3,
        "corridor_offset_m": 226.949,
        "id": "line-5-0871-0941-s033701",
        "junction_group": 1,
        "line": "line-5",
        "platform_length_m": 85.0
      },
      "type": "Feature"
    },
    {
      "geometry": {
        "coordinates": [
          73.04417192290069,
          26.215181549868625
        ],
        "type": "Point"
      },
      "properties": {
        "anchor_kind": null,
        "anchor_name": null,
        "archetype": "standard",
        "chainage_m": 35252.7,
        "corridor_offset_m": 206.103,
        "id": "line-5-0932-0901-s035253",
        "junction_group": null,
        "line": "line-5",
        "platform_length_m": 85.0
      },
      "type": "Feature"
    },
    {
      "geometry": {
        "coordinates": [
          73.04337071636536,
          26.203663715221538
        ],
        "type": "Point"
      },
      "properties": {
        "anchor_kind": null,
        "anchor_name": null,
        "archetype": "standard",
        "chainage_m": 36565.8,
        "corridor_offset_m": 167.415,
        "id": "line-5-0996-0897-s036566",
        "junction_group": null,
        "line": "line-5",
        "platform_length_m": 85.0
      },
      "type": "Feature"
    },
    {
      "geometry": {
        "coordinates": [
          73.04337071636536,
          26.19178594824173
        ],
        "type": "Point"
      },
      "properties": {
        "anchor_kind": "amenity:hospital",
        "anchor_name": "Kudi Hospital",
        "archetype": "interchange",
        "chainage_m": 37885.8,
        "corridor_offset_m": 140.395,
        "id": "line-5-1062-0897-s037886",
        "junction_group": 0,
        "line": "line-5",
        "platform_length_m": 85.0
      },
      "type": "Feature"
    },
    {
      "geometry": {
        "coordinates": [
          73.0333556346737,
          26.200244358060683
        ],
        "type": "Point"
      },
      "properties": {
        "anchor_kind": null,
        "anchor_name": null,
        "archetype": "standard",
        "chainage_m": 39286.9,
        "corridor_offset_m": 97.905,
        "id": "line-5-1015-0847-s039287",
        "junction_group": null,
        "line": "line-5",
        "platform_length_m": 85.0
      },
      "type": "Feature"
    },
    {
      "geometry": {
        "coordinates": [
          73.02253934644669,
          26.213201922038657
        ],
        "type": "Point"
      },
      "properties": {
        "anchor_kind": "amenity:hospital",
        "anchor_name": "Ayush Hospital",
        "archetype": "standard",
        "chainage_m": 41299.1,
        "corridor_offset_m": 90.907,
        "id": "line-5-0943-0793-s041299",
        "junction_group": null,
        "line": "line-5",
        "platform_length_m": 85.0
      },
      "type": "Feature"
    },
    {
      "geometry": {
        "coordinates": [
          73.0171312023332,
          26.222920095022136
        ],
        "type": "Point"
      },
      "properties": {
        "anchor_kind": null,
        "anchor_name": null,
        "archetype": "standard",
        "chainage_m": 43309.0,
        "corridor_offset_m": 157.812,
        "id": "line-5-0889-0766-s043309",
        "junction_group": null,
        "line": "line-5",
        "platform_length_m": 85.0
      },
      "type": "Feature"
    },
    {
      "geometry": {
        "coordinates": [
          73.00070646835887,
          26.23101857250837
        ],
        "type": "Point"
      },
      "properties": {
        "anchor_kind": "amenity:hospital",
        "anchor_name": "Bharat Hospital",
        "archetype": "standard",
        "chainage_m": 45321.8,
        "corridor_offset_m": 114.856,
        "id": "line-5-0844-0684-s045322",
        "junction_group": null,
        "line": "line-5",
        "platform_length_m": 85.0
      },
      "type": "Feature"
    },
    {
      "geometry": {
        "coordinates": [
          72.99690073731604,
          26.24145661015729
        ],
        "type": "Point"
      },
      "properties": {
        "anchor_kind": null,
        "anchor_name": null,
        "archetype": "standard",
        "chainage_m": 46878.4,
        "corridor_offset_m": 83.657,
        "id": "line-5-0786-0665-s046878",
        "junction_group": null,
        "line": "line-5",
        "platform_length_m": 85.0
      },
      "type": "Feature"
    },
    {
      "geometry": {
        "coordinates": [
          72.99509802261154,
          26.254954072634344
        ],
        "type": "Point"
      },
      "properties": {
        "anchor_kind": null,
        "anchor_name": null,
        "archetype": "interchange-elevated",
        "chainage_m": 48453.0,
        "corridor_offset_m": 22.214,
        "id": "line-5-0711-0656-s048453",
        "junction_group": 5,
        "line": "line-5",
        "platform_length_m": 85.0
      },
      "type": "Feature"
    },
    {
      "geometry": {
        "coordinates": [
          72.99509802261154,
          26.262332685455135
        ],
        "type": "Point"
      },
      "properties": {
        "anchor_kind": null,
        "anchor_name": null,
        "archetype": "interchange-elevated",
        "chainage_m": 49273.0,
        "corridor_offset_m": 12.562,
        "id": "line-5-0670-0656-s049273",
        "junction_group": 5,
        "line": "line-5",
        "platform_length_m": 85.0
      },
      "type": "Feature"
    },
    {
      "geometry": {
        "coordinates": [
          72.99449711771004,
          26.26413234711874
        ],
        "type": "Point"
      },
      "properties": {
        "anchor_kind": null,
        "anchor_name": null,
        "archetype": "interchange-elevated",
        "chainage_m": 49514.4,
        "corridor_offset_m": 12.698,
        "id": "line-5-0660-0653-s049514",
        "junction_group": 5,
        "line": "line-5",
        "platform_length_m": 85.0
      },
      "type": "Feature"
    },
    {
      "geometry": {
        "coordinates": [
          72.9924941013717,
          26.265752042615986
        ],
        "type": "Point"
      },
      "properties": {
        "anchor_kind": null,
        "anchor_name": null,
        "archetype": "interchange-elevated",
        "chainage_m": 49812.4,
        "corridor_offset_m": 11.602,
        "id": "line-5-0651-0643-s049812",
        "junction_group": 5,
        "line": "line-5",
        "platform_length_m": 85.0
      },
      "type": "Feature"
    },
    {
      "geometry": {
        "coordinates": [
          72.9876868621597,
          26.2693513659432
        ],
        "type": "Point"
      },
      "properties": {
        "anchor_kind": "amenity:hospital",
        "anchor_name": "Bone & Joint Hospital",
        "archetype": "interchange-elevated",
        "chainage_m": 50481.5,
        "corridor_offset_m": 16.514,
        "id": "line-5-0631-0619-s050481",
        "junction_group": 5,
        "line": "line-5",
        "platform_length_m": 85.0
      },
      "type": "Feature"
    }
  ],
  "type": "FeatureCollection"
}
