{
  "features": [
    {
      "geometry": {
        "coordinates": [
          39.77304500765607,
          21.43322879458662
        ],
        "type": "Point"
      },
      "properties": {
        "anchor_kind": "amenity:university",
        "anchor_name": null,
        "archetype": "terminal",
        "chainage_m": 0.0,
        "corridor_offset_m": 0.0,
        "id": "line-1-0555-0362-s000000",
        "junction_group": null,
        "line": "line-1",
        "platform_length_m": 85.0
      },
      "type": "Feature"
    },
    {
      "geometry": {
        "coordinates": [
          39.779798318740106,
          21.42117106144045
        ],
        "type": "Point"
      },
      "properties": {
        "anchor_kind": null,
        "anchor_name": null,
        "archetype": "interchange-elevated",
        "chainage_m": 1754.8,
        "corridor_offset_m": 12.261,
        "id": "line-1-0622-0397-s001755",
        "junction_group": 0,
        "line": "line-1",
        "platform_length_m": 85.0
      },
      "type": "Feature"
    },
    {
      "geometry": {
        "coordinates": [
          39.78172783619269,
          21.42045119677501
        ],
        "type": "Point"
      },
      "properties": {
        "anchor_kind": null,
        "anchor_name": null,
        "archetype": "interchange-elevated",
        "chainage_m": 2011.4,
        "corridor_offset_m": 10.074,
        "id": "line-1-0626-0407-s002011",
        "junction_group": 0,
        "line": "line-1",
        "platform_length_m": 85.0
      },
      "type": "Feature"
    },
    {
      "geometry": {
        "coordinates": [
          39.800637107227985,
          21.42099109527409
        ],
        "type": "Point"
      },
      "properties": {
        "anchor_kind": "public_transport:station",
        "anchor_name": null,
        "archetype": "standard",
        "chainage_m": 4012.8,
        "corridor_offset_m": 49.809,
        "id": "line-1-0623-0505-s004013",
        "junction_group": null,
        "line": "line-1",
        "platform_length_m": 85.0
      },
      "type": "Feature"
    },
    {
      "geometry": {
        "coordinates": [
          39.81047764623615,
          21.420091264442284
        ],
        "type": "Point"
      },
      "properties": {
        "anchor_kind": "place:neighbourhood",
        "anchor_name": "المنصور",
        "archetype": "major",
        "chainage_m": 5217.6,
        "corridor_offset_m": 70.95,
        "id": "line-1-0628-0556-s005218",
        "junction_group": null,
        "line": "line-1",
        "platform_length_m": 85.0
      },
      "type": "Feature"
    },
    {
      "geometry": {
        "coordinates": [
          39.81954637826328,
          21.41145288845697
        ],
        "type": "Point"
      },
      "properties": {
        "anchor_kind": "place:neighbourhood",
        "anchor_name": "جرهم",
        "archetype": "standard",
        "chainage_m": 7219.1,
        "corridor_offset_m": 110.594,
        "id": "line-1-0676-0603-s007219",
        "junction_group": null,
        "line": "line-1",
        "platform_length_m": 85.0
      },
      "type": "Feature"
    },
    {
      "geometry": {
        "coordinates": [
          39.82996577250722,
          21.412892617787858
        ],
        "type": "Point"
      },
      "properties": {
        "anchor_kind": "amenity:bus_station",
        "anchor_name": "محطة الحافلات",
        "archetype": "interchange-elevated",
        "chainage_m": 8421.9,
        "corridor_offset_m": 114.887,
        "id": "line-1-0668-0657-s008422",
        "junction_group": 1,
        "line": "line-1",
        "platform_length_m": 85.0
      },
      "type": "Feature"
    },
    {
      "geometry": {
        "coordinates": [
          39.84405124991107,
          21.406953734297954
        ],
        "type": "Point"
      },
      "properties": {
        "anchor_kind": "amenity:bus_station",
        "anchor_name": "موقف المسخوطة",
        "archetype": "standard",
        "chainage_m": 10445.8,
        "corridor_offset_m": 118.25,
        "id": "line-1-0701-0730-s010446",
        "junction_group": null,
        "line": "line-1",
        "platform_length_m": 85.0
      },
      "type": "Feature"
    },
    {
      "geometry": {
        "coordinates": [
          39.85736492033388,
          21.39165661015729
        ],
        "type": "Point"
      },
      "properties": {
        "anchor_kind": null,
        "anchor_name": null,
        "archetype": "interchange-elevated",
        "chainage_m": 12926.3,
        "corridor_offset_m": 90.968,
        "id": "line-1-0786-0799-s012926",
        "junction_group": 2,
        "line": "line-1",
        "platform_length_m": 85.0
      },
      "type": "Feature"
    },
    {
      "geometry": {
        "coordinates": [
          39.8673984110873,
          21.383018234171978
        ],
        "type": "Point"
      },
      "properties": {
        "anchor_kind": null,
        "anchor_name": null,
        "archetype": "standard",
        "chainage_m": 14474.3,
        "corridor_offset_m": 114.382,
        "id": "line-1-0834-0851-s014474",
        "junction_group": null,
        "line": "line-1",
        "platform_length_m": 85.0
      },
      "type": "Feature"
    },
    {
      "geometry": {
        "coordinates": [
          39.87820370882176,
          21.384817895835585
        ],
        "type": "Point"
      },
      "properties": {
        "anchor_kind": "amenity:hospital",
        "anchor_name": "مستشفى الملك3",
        "archetype": "major",
        "chainage_m": 15693.7,
        "corridor_offset_m": 118.363,
        "id": "line-1-0824-0907-s015694",
        "junction_group": null,
        "line": "line-1",
        "platform_length_m": 85.0
      },
      "type": "Feature"
    },
    {
      "geometry": {
        "coordinates": [
          39.88765834433941,
          21.3842779973365
        ],
        "type": "Point"
      },
      "properties": {
        "anchor_kind": null,
        "anchor_name": null,
        "archetype": "major",
        "chainage_m": 16909.1,
        "corridor_offset_m": 89.208,
        "id": "line-1-0827-0956-s016909",
        "junction_group": null,
        "line": "line-1",
        "platform_length_m": 85.0
      },
      "type": "Feature"
    },
    {
      "geometry": {
        "coordinates": [
          39.899814304290665,
          21.385177828168306
        ],
        "type": "Point"
      },
      "properties": {
        "anchor_kind": null,
        "anchor_name": null,
        "archetype": "standard",
        "chainage_m": 18916.4,
        "corridor_offset_m": 85.316,
        "id": "line-1-0822-1019-s018916",
        "junction_group": null,
        "line": "line-1",
        "platform_length_m": 85.0
      },
      "type": "Feature"
    },
    {
      "geometry": {
        "coordinates": [
          39.915057492166056,
          21.38139853867473
        ],
        "type": "Point"
      },
      "properties": {
        "anchor_kind": "public_transport:station",
        "anchor_name": "محطة مزدلفة رقم 1",
        "archetype": "standard",
        "chainage_m": 20927.8,
        "corridor_offset_m": 70.575,
        "id": "line-1-0843-1098-s020928",
        "junction_group": null,
        "line": "line-1",
        "platform_length_m": 85.0
      },
      "type": "Feature"
    },
    {
      "geometry": {
        "coordinates": [
          39.92586278990051,
          21.367541143864955
        ],
        "type": "Point"
      },
      "properties": {
        "anchor_kind": null,
        "anchor_name": null,
        "archetype": "standard",
        "chainage_m": 22931.7,
        "corridor_offset_m": 76.175,
        "id": "line-1-0920-1154-s022932",
        "junction_group": null,
        "line": "line-1",
        "platform_length_m": 85.0
      },
      "type": "Feature"
    },
    {
      "geometry": {
        "coordinates": [
          39.93280905272981,
          21.359982564877804
        ],
        "type": "Point"
      },
      "properties": {
        "anchor_kind": null,
        "anchor_name": null,
        "archetype": "interchange-elevated",
        "chainage_m": 24140.2,
        "corridor_offset_m": 60.32,
        "id": "line-1-0962-1190-s024140",
        "junction_group": 3,
        "line": "line-1",
        "platform_length_m": 85.0
      },
      "type": "Feature"
    },
    {
      "geometry": {
        "coordinates": [
          39.94708748187891,
          21.350444358060685
        ],
        "type": "Point"
      },
      "properties": {
        "anchor_kind": null,
        "anchor_name": null,
        "archetype": "halt",
        "chainage_m": 26071.0,
        "corridor_offset_m": 60.801,
        "id": "line-1-1015-1264-s026071",
        "junction_group": null,
        "line": "line-1",
        "platform_length_m": 81.0
      },
      "type": "Feature"
    },
    {
      "geometry": {
        "coordinates": [
          39.95982229706595,
          21.358542835546917
        ],
        "type": "Point"
      },
      "properties": {
        "anchor_kind": null,
        "anchor_name": null,
        "archetype": "halt",
        "chainage_m": 27985.2,
        "corridor_offset_m": 55.092,
        "id": "line-1-0970-1330-s027985",
        "junction_group": null,
        "line": "line-1",
        "platform_length_m": 81.0
      },
      "type": "Feature"
    },
    {
      "geometry": {
        "coordinates": [
          39.97139940178143,
          21.35440361372062
        ],
        "type": "Point"
      },
      "properties": {
        "anchor_kind": "amenity:hospital",
        "anchor_name": "مستشفى نمرة",
        "archetype": "standard",
        "chainage_m": 29564.9,
        "corridor_offset_m": 26.276,
        "id": "line-1-0993-1390-s029565",
        "junction_group": null,
        "line": "line-1",
        "platform_length_m": 85.0
      },
      "type": "Feature"
    },
    {
      "geometry": {
        "coordinates": [
          39.983362409987436,
          21.349724493395243
        ],
        "type": "Point"
      },
      "properties": {
        "anchor_kind": "amenity:hospital",
        "anchor_name": "Arafat General hospital",
        "archetype": "terminal",
        "chainage_m": 31152.8,
        "corridor_offset_m": 0.0,
        "id": "line-1-1019-1452-s031153",
        "junction_group": null,
        "line": "line-1",
        "platform_length_m": 85.0
      },
      "type": "Feature"
    },
    {
      "geometry": {
        "coordinates": [
          39.949209951076746,
          21.325249094770182
        ],
        "type": "Point"
      },
      "properties": {
        "anchor_kind": "amenity:university",
        "anchor_name": "جامعة أم القرى (العابدية)",
        "archetype": "terminal",
        "chainage_m": 0.0,
        "corridor_offset_m": 0.0,
        "id": "line-2-1155-1275-s000000",
        "junction_group": null,
        "line": "line-2",
        "platform_length_m": 85.0
      },
      "type": "Feature"
    },
    {
      "geometry": {
        "coordinates": [
          39.94129892952117,
          21.339826354245403
        ],
        "type": "Point"
      },
      "properties": {
        "anchor_kind": null,
        "anchor_name": null,
        "archetype": "standard",
        "chainage_m": 2263.9,
        "corridor_offset_m": 15.965,
        "id": "line-2-1074-1234-s002264",
        "junction_group": null,
        "line": "line-2",
        "platform_length_m": 85.0
      },
      "type": "Feature"
    },
    {
      "geometry": {
        "coordinates": [
          39.929721824805675,
          21.34432550840442
        ],
        "type": "Point"
      },
      "properties": {
        "anchor_kind": "amenity:university",
        "anchor_name": "Umm Al Qura University for Girls",
        "archetype": "interchange-elevated",
        "chainage_m": 3671.0,
        "corridor_offset_m": 21.706,
        "id": "line-2-1049-1174-s003671",
        "junction_group": 4,
        "line": "line-2",
        "platform_length_m": 85.0
      },
      "type": "Feature"
    },
    {
      "geometry": {
        "coordinates": [
          39.92470507942897,
          21.34630513623439
        ],
        "type": "Point"
      },
      "properties": {
        "anchor_kind": null,
        "anchor_name": null,
        "archetype": "interchange-elevated",
        "chainage_m": 4282.2,
        "corridor_offset_m": 2.109,
        "id": "line-2-1038-1148-s004282",
        "junction_group": 4,
        "line": "line-2",
        "platform_length_m": 85.0
      },
      "type": "Feature"
    },
    {
      "geometry": {
        "coordinates": [
          39.90830418108202,
          21.350984256559766
        ],
        "type": "Point"
      },
      "properties": {
        "anchor_kind": null,
        "anchor_name": null,
        "archetype": "standard",
        "chainage_m": 6297.0,
        "corridor_offset_m": 55.249,
        "id": "line-2-1012-1063-s006297",
        "junction_group": null,
        "line": "line-2",
        "platform_length_m": 85.0
      },
      "type": "Feature"
    },
    {
      "geometry": {
        "coordinates": [
          39.891903282735086,
          21.35458357988698
        ],
        "type": "Point"
      },
      "properties": {
        "anchor_kind": null,
        "anchor_name": null,
        "archetype": "standard",
        "chainage_m": 8311.8,
        "corridor_offset_m": 15.626,
        "id": "line-2-0992-0978-s008312",
        "junction_group": null,
        "line": "line-2",
        "platform_length_m": 85.0
      },
      "type": "Feature"
    },
    {
      "geometry": {
        "coordinates": [
          39.87453762566185,
          21.357643004715115
        ],
        "type": "Point"
      },
      "properties": {
        "anchor_kind": null,
        "anchor_name": null,
        "archetype": "standard",
        "chainage_m": 10330.6,
        "corridor_offset_m": 9.408,
        "id": "line-2-0975-0888-s010331",
        "junction_group": null,
        "line": "line-2",
        "platform_length_m": 85.0
      },
      "type": "Feature"
    },
    {
      "geometry": {
        "coordinates": [
          39.85794377556965,
          21.35656320771695
        ],
        "type": "Point"
      },
      "properties": {
        "anchor_kind": null,
        "anchor_name": null,
        "archetype": "standard",
        "chainage_m": 12336.3,
        "corridor_offset_m": 9.534,
        "id": "line-2-0981-0802-s012336",
        "junction_group": null,
        "line": "line-2",
        "platform_length_m": 85.0
      },
      "type": "Feature"
    },
    {
      "geometry": {
        "coordinates": [
          39.84327944293003,
          21.3641217867041
        ],
        "type": "Point"
      },
      "properties": {
        "anchor_kind": null,
        "anchor_name": null,
        "archetype": "standard",
        "chainage_m": 14364.2,
        "corridor_offset_m": 8.828,
        "id": "line-2-0939-0726-s014364",
        "junction_group": null,
        "line": "line-2",
        "platform_length_m": 85.0
      },
      "type": "Feature"
    },
    {
      "geometry": {
        "coordinates": [
          39.83286004868609,
          21.378339113846597
        ],
        "type": "Point"
      },
      "properties": {
        "anchor_kind": null,
        "anchor_name": null,
        "archetype": "standard",
        "chainage_m": 16391.6,
        "corridor_offset_m": 14.602,
        "id": "line-2-0860-0672-s016392",
        "junction_group": null,
        "line": "line-2",
        "platform_length_m": 85.0
      },
      "type": "Feature"
    },
    {
      "geometry": {
        "coordinates": [
          39.818195716046475,
          21.387157455998274
        ],
        "type": "Point"
      },
      "properties": {
        "anchor_kind": null,
        "anchor_name": null,
        "archetype": "standard",
        "chainage_m": 18399.5,
        "corridor_offset_m": 25.593,
        "id": "line-2-0811-0596-s018399",
        "junction_group": null,
        "line": "line-2",
        "platform_length_m": 85.0
      },
      "type": "Feature"
    },
    {
      "geometry": {
        "coordinates": [
          39.80295252817108,
          21.395615865817227
        ],
        "type": "Point"
      },
      "properties": {
        "anchor_kind": null,
        "anchor_name": null,
        "archetype": "standard",
        "chainage_m": 20404.0,
        "corridor_offset_m": 19.036,
        "id": "line-2-0764-0517-s020404",
        "junction_group": null,
        "line": "line-2",
        "platform_length_m": 85.0
      },
      "type": "Feature"
    },
    {
      "geometry": {
        "coordinates": [
          39.78558687109785,
          21.400294986142605
        ],
        "type": "Point"
      },
      "properties": {
        "anchor_kind": "amenity:hospital",
        "anchor_name": "مستوصف قضيب البان",
        "archetype": "standard",
        "chainage_m": 22431.1,
        "corridor_offset_m": 22.869,
        "id": "line-2-0738-0427-s022431",
        "junction_group": null,
        "line": "line-2",
        "platform_length_m": 85.0
      },
      "type": "Feature"
    },
    {
      "geometry": {
        "coordinates": [
          39.77728994605175,
          21.4035343771371
        ],
        "type": "Point"
      },
      "properties": {
        "anchor_kind": "place:neighbourhood",
        "anchor_name": "الإسكان",
        "archetype": "standard",
        "chainage_m": 23840.2,
        "corridor_offset_m": 30.384,
        "id": "line-2-0720-0384-s023840",
        "junction_group": null,
        "line": "line-2",
        "platform_length_m": 85.0
      },
      "type": "Feature"
    },
    {
      "geometry": {
        "coordinates": [
          39.76474808260997,
          21.405334038800707
        ],
        "type": "Point"
      },
      "properties": {
        "anchor_kind": null,
        "anchor_name": null,
        "archetype": "terminal",
        "chainage_m": 25258.2,
        "corridor_offset_m": 6.003,
        "id": "line-2-0710-0319-s025258",
        "junction_group": 5,
        "line": "line-2",
        "platform_length_m": 85.0
      },
      "type": "Feature"
    },
    {
      "geometry": {
        "coordinates": [
          40.002271681022734,
          21.504495396465465
        ],
        "type": "Point"
      },
      "properties": {
        "anchor_kind": "place:neighbourhood",
        "anchor_name": "الثنية",
        "archetype": "terminal",
        "chainage_m": 0.0,
        "corridor_offset_m": 0.0,
        "id": "line-3-0159-1550-s000000",
        "junction_group": null,
        "line": "line-3",
        "platform_length_m": 85.0
      },
      "type": "Feature"
    },
    {
      "geometry": {
        "coordinates": [
          39.97834566461073,
          21.489918136990248
        ],
        "type": "Point"
      },
      "properties": {
        "anchor_kind": null,
        "anchor_name": null,
        "archetype": "halt",
        "chainage_m": 3291.6,
        "corridor_offset_m": 25.491,
        "id": "line-3-0240-1426-s003292",
        "junction_group": null,
        "line": "line-3",
        "platform_length_m": 81.0
      },
      "type": "Feature"
    },
    {
      "geometry": {
        "coordinates": [
          39.95229717900088,
          21.485239016664867
        ],
        "type": "Point"
      },
      "properties": {
        "anchor_kind": null,
        "anchor_name": null,
        "archetype": "halt",
        "chainage_m": 6298.7,
        "corridor_offset_m": 39.529,
        "id": "line-3-0266-1291-s006299",
        "junction_group": null,
        "line": "line-3",
        "platform_length_m": 81.0
      },
      "type": "Feature"
    },
    {
      "geometry": {
        "coordinates": [
          39.948245192350456,
          21.47336124968506
        ],
        "type": "Point"
      },
      "properties": {
        "anchor_kind": "place:neighbourhood",
        "anchor_name": "الشرائع",
        "archetype": "standard",
        "chainage_m": 8323.2,
        "corridor_offset_m": 7.054,
        "id": "line-3-0332-1270-s008323",
        "junction_group": null,
        "line": "line-3",
        "platform_length_m": 85.0
      },
      "type": "Feature"
    },
    {
      "geometry": {
        "coordinates": [
          39.94226368824746,
          21.462383313537057
        ],
        "type": "Point"
      },
      "properties": {
        "anchor_kind": "place:neighbourhood",
        "anchor_name": "معاد",
        "archetype": "standard",
        "chainage_m": 10339.5,
        "corridor_offset_m": 71.61,
        "id": "line-3-0393-1239-s010339",
        "junction_group": null,
        "line": "line-3",
        "platform_length_m": 85.0
      },
      "type": "Feature"
    },
    {
      "geometry": {
        "coordinates": [
          39.937825798106516,
          21.45356497138538
        ],
        "type": "Point"
      },
      "properties": {
        "anchor_kind": "leisure:stadium",
        "anchor_name": null,
        "archetype": "interchange-elevated",
        "chainage_m": 11901.1,
        "corridor_offset_m": 108.037,
        "id": "line-3-0442-1216-s011901",
        "junction_group": 6,
        "line": "line-3",
        "platform_length_m": 85.0
      },
      "type": "Feature"
    },
    {
      "geometry": {
        "coordinates": [
          39.93415971494662,
          21.452305208220857
        ],
        "type": "Point"
      },
      "properties": {
        "anchor_kind": "leisure:stadium",
        "anchor_name": null,
        "archetype": "interchange-elevated",
        "chainage_m": 12350.8,
        "corridor_offset_m": 105.016,
        "id": "line-3-0449-1197-s012351",
        "junction_group": 6,
        "line": "line-3",
        "platform_length_m": 85.0
      },
      "type": "Feature"
    },
    {
      "geometry": {
        "coordinates": [
          39.91795176834493,
          21.445106561566426
        ],
        "type": "Point"
      },
      "properties": {
        "anchor_kind": null,
        "anchor_name": null,
        "archetype": "standard",
        "chainage_m": 14362.2,
        "corridor_offset_m": 118.563,
        "id": "line-3-0489-1113-s014362",
        "junction_group": null,
        "line": "line-3",
        "platform_length_m": 85.0
      },
      "type": "Feature"
    },
    {
      "geometry": {
        "coordinates": [
          39.90116496650747,
          21.439167678076522
        ],
        "type": "Point"
      },
      "properties": {
        "anchor_kind": null,
        "anchor_name": null,
        "archetype": "standard",
        "chainage_m": 16375.6,
        "corridor_offset_m": 102.737,
        "id": "line-3-0522-1026-s016376",
        "junction_group": null,
        "line": "line-3",
        "platform_length_m": 85.0
      },
      "type": "Feature"
    },
    {
      "geometry": {
        "coordinates": [
          39.89113147575405,
          21.425670215599467
        ],
        "type": "Point"
      },
      "properties": {
        "anchor_kind": "place:neighbourhood",
        "anchor_name": "مخيمات الحجاج الصينيين",
        "archetype": "standard",
        "chainage_m": 18393.2,
        "corridor_offset_m": 130.064,
        "id": "line-3-0597-0974-s018393",
        "junction_group": null,
        "line": "line-3",
        "platform_length_m": 85.0
      },
      "type": "Feature"
    },
    {
      "geometry": {
        "coordinates": [
          39.876081239623915,
          21.416851873447794
        ],
        "type": "Point"
      },
      "properties": {
        "anchor_kind": null,
        "anchor_name": null,
        "archetype": "standard",
        "chainage_m": 20420.6,
        "corridor_offset_m": 119.623,
        "id": "line-3-0646-0896-s020421",
        "junction_group": null,
        "line": "line-3",
        "platform_length_m": 85.0
      },
      "type": "Feature"
    },
    {
      "geometry": {
        "coordinates": [
          39.86122395523904,
          21.423150689270418
        ],
        "type": "Point"
      },
      "properties": {
        "anchor_kind": "amenity:bus_station",
        "anchor_name": "موقف الجمرات",
        "archetype": "standard",
        "chainage_m": 22446.5,
        "corridor_offset_m": 150.296,
        "id": "line-3-0611-0819-s022447",
        "junction_group": null,
        "line": "line-3",
        "platform_length_m": 85.0
      },
      "type": "Feature"
    },
    {
      "geometry": {
        "coordinates": [
          39.842893539439515,
          21.42081112910773
        ],
        "type": "Point"
      },
      "properties": {
        "anchor_kind": null,
        "anchor_name": null,
        "archetype": "standard",
        "chainage_m": 24454.2,
        "corridor_offset_m": 112.899,
        "id": "line-3-0624-0724-s024454",
        "junction_group": null,
        "line": "line-3",
        "platform_length_m": 85.0
      },
      "type": "Feature"
    },
    {
      "geometry": {
        "coordinates": [
          39.83112348297877,
          21.407673598963395
        ],
        "type": "Point"
      },
      "properties": {
        "anchor_kind": "leisure:stadium",
        "anchor_name": "ملعب",
        "archetype": "interchange-elevated",
        "chainage_m": 26454.7,
        "corridor_offset_m": 31.072,
        "id": "line-3-0697-0663-s026455",
        "junction_group": 1,
        "line": "line-3",
        "platform_length_m": 85.0
      },
      "type": "Feature"
    },
    {
      "geometry": {
        "coordinates": [
          39.82166884746112,
          21.400294986142605
        ],
        "type": "Point"
      },
      "properties": {
        "anchor_kind": null,
        "anchor_name": null,
        "archetype": "standard",
        "chainage_m": 28477.8,
        "corridor_offset_m": 55.935,
        "id": "line-3-0738-0614-s028478",
        "junction_group": null,
        "line": "line-3",
        "platform_length_m": 85.0
      },
      "type": "Feature"
    },
    {
      "geometry": {
        "coordinates": [
          39.809705839255116,
          21.3943561026527
        ],
        "type": "Point"
      },
      "properties": {
        "anchor_kind": null,
        "anchor_name": null,
        "archetype": "standard",
        "chainage_m": 30480.9,
        "corridor_offset_m": 71.204,
        "id": "line-3-0771-0552-s030481",
        "junction_group": null,
        "line": "line-3",
        "platform_length_m": 85.0
      },
      "type": "Feature"
    },
    {
      "geometry": {
        "coordinates": [
          39.805846804349954,
          21.377799215347515
        ],
        "type": "Point"
      },
      "properties": {
        "anchor_kind": "amenity:marketplace",
        "anchor_name": "سوق الحطب",
        "archetype": "standard",
        "chainage_m": 32486.5,
        "corridor_offset_m": 54.864,
        "id": "line-3-0863-0532-s032487",
        "junction_group": null,
        "line": "line-3",
        "platform_length_m": 85.0
      },
      "type": "Feature"
    },
    {
      "geometry": {
        "coordinates": [
          39.79098951996508,
          21.37635948601663
        ],
        "type": "Point"
      },
      "properties": {
        "anchor_kind": null,
        "anchor_name": null,
        "archetype": "interchange-elevated",
        "chainage_m": 34498.5,
        "corridor_offset_m": 28.993,
        "id": "line-3-0871-0455-s034499",
        "junction_group": 7,
        "line": "line-3",
        "platform_length_m": 85.0
      },
      "type": "Feature"
    },
    {
      "geometry": {
        "coordinates": [
          39.78809524378621,
          21.375999553683908
        ],
        "type": "Point"
      },
      "properties": {
        "anchor_kind": null,
        "anchor_name": null,
        "archetype": "interchange-elevated",
        "chainage_m": 34815.1,
        "corridor_offset_m": 22.691,
        "id": "line-3-0873-0440-s034815",
        "junction_group": 7,
        "line": "line-3",
        "platform_length_m": 85.0
      },
      "type": "Feature"
    },
    {
      "geometry": {
        "coordinates": [
          39.77304500765607,
          21.36682127919951
        ],
        "type": "Point"
      },
      "properties": {
        "anchor_kind": "amenity:hospital",
        "anchor_name": "مركز صحي الشافعي",
        "archetype": "depot-terminal",
        "chainage_m": 37118.7,
        "corridor_offset_m": 0.0,
        "id": "line-3-0924-0362-s037119",
        "junction_group": null,
        "line": "line-3",
        "platform_length_m": 85.0
      },
      "type": "Feature"
    },
    {
      "geometry": {
        "coordinates": [
          39.880519129764856,
          21.50143597163733
        ],
        "type": "Point"
      },
      "properties": {
        "anchor_kind": "place:neighbourhood",
        "anchor_name": "العسيلة",
        "archetype": "terminal",
        "chainage_m": 0.0,
        "corridor_offset_m": 0.0,
        "id": "line-4-0176-0919-s000000",
        "junction_group": null,
        "line": "line-4",
        "platform_length_m": 85.0
      },
      "type": "Feature"
    },
    {
      "geometry": {
        "coordinates": [
          39.886500633867854,
          21.48091982867221
        ],
        "type": "Point"
      },
      "properties": {
        "anchor_kind": null,
        "anchor_name": null,
        "archetype": "halt",
        "chainage_m": 3011.6,
        "corridor_offset_m": 19.558,
        "id": "line-4-0290-0950-s003012",
        "junction_group": null,
        "line": "line-4",
        "platform_length_m": 81.0
      },
      "type": "Feature"
    },
    {
      "geometry": {
        "coordinates": [
          39.88148388849115,
          21.459863787208004
        ],
        "type": "Point"
      },
      "properties": {
        "anchor_kind": null,
        "anchor_name": null,
        "archetype": "interchange-elevated",
        "chainage_m": 5980.4,
        "corridor_offset_m": 65.847,
        "id": "line-4-0407-0924-s005980",
        "junction_group": 8,
        "line": "line-4",
        "platform_length_m": 85.0
      },
      "type": "Feature"
    },
    {
      "geometry": {
        "coordinates": [
          39.87067859075669,
          21.45356497138538
        ],
        "type": "Point"
      },
      "properties": {
        "anchor_kind": null,
        "anchor_name": null,
        "archetype": "standard",
        "chainage_m": 7500.6,
        "corridor_offset_m": 28.535,
        "id": "line-4-0442-0868-s007501",
        "junction_group": null,
        "line": "line-4",
        "platform_length_m": 85.0
      },
      "type": "Feature"
    },
    {
      "geometry": {
        "coordinates": [
          39.86006624476749,
          21.445286527732787
        ],
        "type": "Point"
      },
      "properties": {
        "anchor_kind": "amenity:marketplace",
        "anchor_name": "سوق العرب",
        "archetype": "standard",
        "chainage_m": 9028.6,
        "corridor_offset_m": 36.556,
        "id": "line-4-0488-0813-s009029",
        "junction_group": null,
        "line": "line-4",
        "platform_length_m": 85.0
      },
      "type": "Feature"
    },
    {
      "geometry": {
        "coordinates": [
          39.859487389531715,
          21.43106920059029
        ],
        "type": "Point"
      },
      "properties": {
        "anchor_kind": "place:suburb",
        "anchor_name": "الششة",
        "archetype": "standard",
        "chainage_m": 11031.1,
        "corridor_offset_m": 26.061,
        "id": "line-4-0567-0810-s011031",
        "junction_group": null,
        "line": "line-4",
        "platform_length_m": 85.0
      },
      "type": "Feature"
    },
    {
      "geometry": {
        "coordinates": [
          39.85601425811707,
          21.415952042615988
        ],
        "type": "Point"
      },
      "properties": {
        "anchor_kind": "place:neighbourhood",
        "anchor_name": "العزيزية",
        "archetype": "standard",
        "chainage_m": 13039.6,
        "corridor_offset_m": 54.395,
        "id": "line-4-0651-0792-s013040",
        "junction_group": null,
        "line": "line-4",
        "platform_length_m": 85.0
      },
      "type": "Feature"
    },
    {
      "geometry": {
        "coordinates": [
          39.861416906984296,
          21.407133700464314
        ],
        "type": "Point"
      },
      "properties": {
        "anchor_kind": "amenity:university",
        "anchor_name": "جامعة أم القرى العزيزية",
        "archetype": "major",
        "chainage_m": 14251.6,
        "corridor_offset_m": 18.203,
        "id": "line-4-0700-0820-s014252",
        "junction_group": null,
        "line": "line-4",
        "platform_length_m": 85.0
      },
      "type": "Feature"
    },
    {
      "geometry": {
        "coordinates": [
          39.865661845379975,
          21.397955425979916
        ],
        "type": "Point"
      },
      "properties": {
        "anchor_kind": "amenity:hospital",
        "anchor_name": "Hospital Alawi Tunsie",
        "archetype": "major",
        "chainage_m": 15453.8,
        "corridor_offset_m": 14.109,
        "id": "line-4-0751-0842-s015454",
        "junction_group": null,
        "line": "line-4",
        "platform_length_m": 85.0
      },
      "type": "Feature"
    },
    {
      "geometry": {
        "coordinates": [
          39.85736492033388,
          21.39165661015729
        ],
        "type": "Point"
      },
      "properties": {
        "anchor_kind": null,
        "anchor_name": null,
        "archetype": "interchange-elevated",
        "chainage_m": 17147.2,
        "corridor_offset_m": 23.463,
        "id": "line-4-0786-0799-s017147",
        "junction_group": 2,
        "line": "line-4",
        "platform_length_m": 85.0
      },
      "type": "Feature"
    },
    {
      "geometry": {
        "coordinates": [
          39.8508045609951,
          21.37348002735486
        ],
        "type": "Point"
      },
      "properties": {
        "anchor_kind": "place:neighbourhood",
        "anchor_name": "الهجرة",
        "archetype": "standard",
        "chainage_m": 19465.4,
        "corridor_offset_m": 2.477,
        "id": "line-4-0887-0765-s019465",
        "junction_group": null,
        "line": "line-4",
        "platform_length_m": 85.0
      },
      "type": "Feature"
    },
    {
      "geometry": {
        "coordinates": [
          39.836719083591255,
          21.36142229420869
        ],
        "type": "Point"
      },
      "properties": {
        "anchor_kind": null,
        "anchor_name": null,
        "archetype": "standard",
        "chainage_m": 21480.5,
        "corridor_offset_m": 58.809,
        "id": "line-4-0954-0692-s021480",
        "junction_group": null,
        "line": "line-4",
        "platform_length_m": 85.0
      },
      "type": "Feature"
    },
    {
      "geometry": {
        "coordinates": [
          39.83691203533652,
          21.347204967066194
        ],
        "type": "Point"
      },
      "properties": {
        "anchor_kind": null,
        "anchor_name": null,
        "archetype": "standard",
        "chainage_m": 23491.8,
        "corridor_offset_m": 30.451,
        "id": "line-4-1033-0693-s023492",
        "junction_group": null,
        "line": "line-4",
        "platform_length_m": 85.0
      },
      "type": "Feature"
    },
    {
      "geometry": {
        "coordinates": [
          39.82803625505464,
          21.33694689558363
        ],
        "type": "Point"
      },
      "properties": {
        "anchor_kind": null,
        "anchor_name": null,
        "archetype": "interchange-elevated",
        "chainage_m": 25583.8,
        "corridor_offset_m": 27.269,
        "id": "line-4-1090-0647-s025584",
        "junction_group": 9,
        "line": "line-4",
        "platform_length_m": 85.0
      },
      "type": "Feature"
    },
    {
      "geometry": {
        "coordinates": [
          39.82089704048009,
          21.322369636108412
        ],
        "type": "Point"
      },
      "properties": {
        "anchor_kind": null,
        "anchor_name": null,
        "archetype": "standard",
        "chainage_m": 27510.3,
        "corridor_offset_m": 30.159,
        "id": "line-4-1171-0610-s027510",
        "junction_group": null,
        "line": "line-4",
        "platform_length_m": 85.0
      },
      "type": "Feature"
    },
    {
      "geometry": {
        "coordinates": [
          39.8176168608107,
          21.2995139329806
        ],
        "type": "Point"
      },
      "properties": {
        "anchor_kind": null,
        "anchor_name": null,
        "archetype": "halt",
        "chainage_m": 30517.7,
        "corridor_offset_m": 33.476,
        "id": "line-4-1298-0593-s030518",
        "junction_group": null,
        "line": "line-4",
        "platform_length_m": 81.0
      },
      "type": "Feature"
    },
    {
      "geometry": {
        "coordinates": [
          39.82263360618741,
          21.283496944174495
        ],
        "type": "Point"
      },
      "properties": {
        "anchor_kind": "amenity:hospital",
        "anchor_name": "المستشفى السعودي الالماني",
        "archetype": "standard",
        "chainage_m": 32536.5,
        "corridor_offset_m": 4.149,
        "id": "line-4-1387-0619-s032536",
        "junction_group": null,
        "line": "line-4",
        "platform_length_m": 85.0
      },
      "type": "Feature"
    },
    {
      "geometry": {
        "coordinates": [
          39.814915536377086,
          21.28223718100997
        ],
        "type": "Point"
      },
      "properties": {
        "anchor_kind": "amenity:university",
        "anchor_name": null,
        "archetype": "terminal",
        "chainage_m": 33905.6,
        "corridor_offset_m": 0.0,
        "id": "line-4-1394-0579-s033906",
        "junction_group": null,
        "line": "line-4",
        "platform_length_m": 85.0
      },
      "type": "Feature"
    },
    {
      "geometry": {
        "coordinates": [
          39.94168483301168,
          21.38625762516647
        ],
        "type": "Point"
      },
      "properties": {
        "anchor_kind": null,
        "anchor_name": null,
        "archetype": "terminal",
        "chainage_m": 0.0,
        "corridor_offset_m": 5.998,
        "id": "line-5-0816-1236-s000000",
        "junction_group": 10,
        "line": "line-5",
        "platform_length_m": 85.0
      },
      "type": "Feature"
    },
    {
      "geometry": {
        "coordinates": [
          39.926441645136286,
          21.39075677932549
        ],
        "type": "Point"
      },
      "properties": {
        "anchor_kind": "amenity:hospital",
        "anchor_name": "الهلال الاحمر",
        "archetype": "standard",
        "chainage_m": 2000.8,
        "corridor_offset_m": 0.571,
        "id": "line-5-0791-1157-s002001",
        "junction_group": null,
        "line": "line-5",
        "platform_length_m": 85.0
      },
      "type": "Feature"
    },
    {
      "geometry": {
        "coordinates": [
          39.91293502296822,
          21.400294986142605
        ],
        "type": "Point"
      },
      "properties": {
        "anchor_kind": null,
        "anchor_name": null,
        "archetype": "standard",
        "chainage_m": 4003.9,
        "corridor_offset_m": 21.723,
        "id": "line-5-0738-1087-s004004",
        "junction_group": null,
        "line": "line-5",
        "platform_length_m": 85.0
      },
      "type": "Feature"
    },
    {
      "geometry": {
        "coordinates": [
          39.90020020778118,
          21.412712651621497
        ],
        "type": "Point"
      },
      "properties": {
        "anchor_kind": null,
        "anchor_name": null,
        "archetype": "standard",
        "chainage_m": 6012.7,
        "corridor_offset_m": 15.723,
        "id": "line-5-0669-1021-s006013",
        "junction_group": null,
        "line": "line-5",
        "platform_length_m": 85.0
      },
      "type": "Feature"
    },
    {
      "geometry": {
        "coordinates": [
          39.8899737652825,
          21.415412144116907
        ],
        "type": "Point"
      },
      "properties": {
        "anchor_kind": "place:suburb",
        "anchor_name": "منى",
        "archetype": "major",
        "chainage_m": 7213.5,
        "corridor_offset_m": 25.38,
        "id": "line-5-0654-0968-s007214",
        "junction_group": null,
        "line": "line-5",
        "platform_length_m": 85.0
      },
      "type": "Feature"
    },
    {
      "geometry": {
        "coordinates": [
          39.87723895009547,
          21.427469877263075
        ],
        "type": "Point"
      },
      "properties": {
        "anchor_kind": null,
        "anchor_name": null,
        "archetype": "standard",
        "chainage_m": 9229.2,
        "corridor_offset_m": 7.949,
        "id": "line-5-0587-0902-s009229",
        "junction_group": null,
        "line": "line-5",
        "platform_length_m": 85.0
      },
      "type": "Feature"
    },
    {
      "geometry": {
        "coordinates": [
          39.86353937618214,
          21.44024747507469
        ],
        "type": "Point"
      },
      "properties": {
        "anchor_kind": "amenity:college",
        "anchor_name": "Madrasa Iman Malik مدرسة الامام مالك",
        "archetype": "standard",
        "chainage_m": 11237.3,
        "corridor_offset_m": 41.488,
        "id": "line-5-0516-0831-s011237",
        "junction_group": null,
        "line": "line-5",
        "platform_length_m": 85.0
      },
      "type": "Feature"
    },
    {
      "geometry": {
        "coordinates": [
          39.852348174957164,
          21.444386696900985
        ],
        "type": "Point"
      },
      "properties": {
        "anchor_kind": "amenity:marketplace",
        "anchor_name": "سوق العرب",
        "archetype": "standard",
        "chainage_m": 12616.2,
        "corridor_offset_m": 48.152,
        "id": "line-5-0493-0773-s012616",
        "junction_group": null,
        "line": "line-5",
        "platform_length_m": 85.0
      },
      "type": "Feature"
    },
    {
      "geometry": {
        "coordinates": [
          39.84636667085417,
          21.454104869884464
        ],
        "type": "Point"
      },
      "properties": {
        "anchor_kind": null,
        "anchor_name": null,
        "archetype": "interchange-elevated",
        "chainage_m": 13999.8,
        "corridor_offset_m": 22.551,
        "id": "line-5-0439-0742-s014000",
        "junction_group": 11,
        "line": "line-5",
        "platform_length_m": 85.0
      },
      "type": "Feature"
    },
    {
      "geometry": {
        "coordinates": [
          39.838648601043836,
          21.46076361803981
        ],
        "type": "Point"
      },
      "properties": {
        "anchor_kind": "place:neighbourhood",
        "anchor_name": "ريع ذاخر",
        "archetype": "standard",
        "chainage_m": 15263.5,
        "corridor_offset_m": 6.66,
        "id": "line-5-0402-0702-s015264",
        "junction_group": null,
        "line": "line-5",
        "platform_length_m": 85.0
      },
      "type": "Feature"
    },
    {
      "geometry": {
        "coordinates": [
          39.82552788236629,
          21.46166344887161
        ],
        "type": "Point"
      },
      "properties": {
        "anchor_kind": null,
        "anchor_name": null,
        "archetype": "standard",
        "chainage_m": 17278.3,
        "corridor_offset_m": 35.143,
        "id": "line-5-0397-0634-s017278",
        "junction_group": null,
        "line": "line-5",
        "platform_length_m": 85.0
      },
      "type": "Feature"
    },
    {
      "geometry": {
        "coordinates": [
          39.82552788236629,
          21.472281452686897
        ],
        "type": "Point"
      },
      "properties": {
        "anchor_kind": null,
        "anchor_name": null,
        "archetype": "standard",
        "chainage_m": 18786.8,
        "corridor_offset_m": 55.492,
        "id": "line-5-0338-0634-s018787",
        "junction_group": null,
        "line": "line-5",
        "platform_length_m": 85.0
      },
      "type": "Feature"
    },
    {
      "geometry": {
        "coordinates": [
          39.817230957320184,
          21.480019997840408
        ],
        "type": "Point"
      },
      "properties": {
        "anchor_kind": null,
        "anchor_name": null,
        "archetype": "halt",
        "chainage_m": 20289.1,
        "corridor_offset_m": 54.245,
        "id": "line-5-0295-0591-s020289",
        "junction_group": null,
        "line": "line-5",
        "platform_length_m": 81.0
      },
      "type": "Feature"
    },
    {
      "geometry": {
        "coordinates": [
          39.79793578279437,
          21.480019997840408
        ],
        "type": "Point"
      },
      "properties": {
        "anchor_kind": "leisure:stadium",
        "anchor_name": "نادي الوحدة",
        "archetype": "standard",
        "chainage_m": 22289.1,
        "corridor_offset_m": 6.852,
        "id": "line-5-0295-0491-s022289",
        "junction_group": null,
        "line": "line-5",
        "platform_length_m": 85.0
      },
      "type": "Feature"
    },
    {
      "geometry": {
        "coordinates": [
          39.79388379614395,
          21.495137155814707
        ],
        "type": "Point"
      },
      "properties": {
        "anchor_kind": "amenity:hospital",
        "anchor_name": "مركز مكة الطبي",
        "archetype": "terminal",
        "chainage_m": 24305.1,
        "corridor_offset_m": 0.0,
        "id": "line-5-0211-0470-s024305",
        "junction_group": null,
        "line": "line-5",
        "platform_length_m": 85.0
      },
      "type": "Feature"
    },
    {
      "geometry": {
        "coordinates": [
          39.77536042859917,
          21.418291602778677
        ],
        "type": "Point"
      },
      "properties": {
        "anchor_kind": "amenity:hospital",
        "anchor_name": "مركز الملك عبد الله لغسيل الكلي الصناعي",
        "archetype": "interchange-elevated",
        "chainage_m": 0.0,
        "corridor_offset_m": 0.0,
        "id": "line-6-0638-0374-s000000",
        "junction_group": 0,
        "line": "line-6",
        "platform_length_m": 85.0
      },
      "type": "Feature"
    },
    {
      "geometry": {
        "coordinates": [
          39.779798318740106,
          21.42117106144045
        ],
        "type": "Point"
      },
      "properties": {
        "anchor_kind": null,
        "anchor_name": null,
        "archetype": "interchange-elevated",
        "chainage_m": 592.5,
        "corridor_offset_m": 0.727,
        "id": "line-6-0622-0397-s000593",
        "junction_group": 0,
        "line": "line-6",
        "platform_length_m": 85.0
      },
      "type": "Feature"
    },
    {
      "geometry": {
        "coordinates": [
          39.789252954257755,
          21.426750012597633
        ],
        "type": "Point"
      },
      "properties": {
        "anchor_kind": "amenity:college",
        "anchor_name": "دار مودة لتحفيظ القرآن الكريم - القسم النسوي",
        "archetype": "standard",
        "chainage_m": 2014.8,
        "corridor_offset_m": 16.326,
        "id": "line-6-0591-0446-s002015",
        "junction_group": null,
        "line": "line-6",
        "platform_length_m": 85.0
      },
      "type": "Feature"
    },
    {
      "geometry": {
        "coordinates": [
          39.79523445836076,
          21.439887542741964
        ],
        "type": "Point"
      },
      "properties": {
        "anchor_kind": null,
        "anchor_name": null,
        "archetype": "standard",
        "chainage_m": 4029.4,
        "corridor_offset_m": 9.944,
        "id": "line-6-0518-0477-s004029",
        "junction_group": null,
        "line": "line-6",
        "platform_length_m": 85.0
      },
      "type": "Feature"
    },
    {
      "geometry": {
        "coordinates": [
          39.80642565958573,
          21.44114730590649
        ],
        "type": "Point"
      },
      "properties": {
        "anchor_kind": "amenity:hospital",
        "anchor_name": "مستشفى الملك عبد العزيز",
        "archetype": "major",
        "chainage_m": 5247.4,
        "corridor_offset_m": 27.487,
        "id": "line-6-0511-0535-s005247",
        "junction_group": null,
        "line": "line-6",
        "platform_length_m": 85.0
      },
      "type": "Feature"
    },
    {
      "geometry": {
        "coordinates": [
          39.80854812878357,
          21.449065817226362
        ],
        "type": "Point"
      },
      "properties": {
        "anchor_kind": "amenity:hospital",
        "anchor_name": "مجمع الرواد الطبي العام",
        "archetype": "major",
        "chainage_m": 6453.6,
        "corridor_offset_m": 0.729,
        "id": "line-6-0467-0546-s006454",
        "junction_group": null,
        "line": "line-6",
        "platform_length_m": 85.0
      },
      "type": "Feature"
    },
    {
      "geometry": {
        "coordinates": [
          39.82263360618741,
          21.444566663067345
        ],
        "type": "Point"
      },
      "properties": {
        "anchor_kind": "place:neighbourhood",
        "anchor_name": "الأندلس",
        "archetype": "standard",
        "chainage_m": 8469.8,
        "corridor_offset_m": 25.803,
        "id": "line-6-0492-0619-s008470",
        "junction_group": null,
        "line": "line-6",
        "platform_length_m": 85.0
      },
      "type": "Feature"
    },
    {
      "geometry": {
        "coordinates": [
          39.83556137311971,
          21.446726257063673
        ],
        "type": "Point"
      },
      "properties": {
        "anchor_kind": "amenity:hospital",
        "anchor_name": "مجمع الفهد الطبي",
        "archetype": "standard",
        "chainage_m": 10481.8,
        "corridor_offset_m": 88.372,
        "id": "line-6-0480-0686-s010482",
        "junction_group": null,
        "line": "line-6",
        "platform_length_m": 85.0
      },
      "type": "Feature"
    },
    {
      "geometry": {
        "coordinates": [
          39.84636667085417,
          21.454104869884464
        ],
        "type": "Point"
      },
      "properties": {
        "anchor_kind": null,
        "anchor_name": null,
        "archetype": "interchange-elevated",
        "chainage_m": 12248.9,
        "corridor_offset_m": 171.111,
        "id": "line-6-0439-0742-s012249",
        "junction_group": 11,
        "line": "line-6",
        "platform_length_m": 85.0
      },
      "type": "Feature"
    },
    {
      "geometry": {
        "coordinates": [
          39.848103236561485,
          21.455724565381708
        ],
        "type": "Point"
      },
      "properties": {
        "anchor_kind": null,
        "anchor_name": null,
        "archetype": "interchange-elevated",
        "chainage_m": 12503.5,
        "corridor_offset_m": 159.718,
        "id": "line-6-0430-0751-s012503",
        "junction_group": 11,
        "line": "line-6",
        "platform_length_m": 85.0
      },
      "type": "Feature"
    },
    {
      "geometry": {
        "coordinates": [
          39.86296052094636,
          21.46058365187345
        ],
        "type": "Point"
      },
      "properties": {
        "anchor_kind": null,
        "anchor_name": null,
        "archetype": "standard",
        "chainage_m": 14522.5,
        "corridor_offset_m": 173.378,
        "id": "line-6-0403-0828-s014523",
        "junction_group": null,
        "line": "line-6",
        "platform_length_m": 85.0
      },
      "type": "Feature"
    },
    {
      "geometry": {
        "coordinates": [
          39.88148388849115,
          21.459863787208004
        ],
        "type": "Point"
      },
      "properties": {
        "anchor_kind": null,
        "anchor_name": null,
        "archetype": "interchange-elevated",
        "chainage_m": 16475.7,
        "corridor_offset_m": 109.094,
        "id": "line-6-0407-0924-s016476",
        "junction_group": 8,
        "line": "line-6",
        "platform_length_m": 85.0
      },
      "type": "Feature"
    },
    {
      "geometry": {
        "coordinates": [
          39.89711297985705,
          21.456264463880792
        ],
        "type": "Point"
      },
      "properties": {
        "anchor_kind": null,
        "anchor_name": null,
        "archetype": "standard",
        "chainage_m": 18541.4,
        "corridor_offset_m": 141.742,
        "id": "line-6-0427-1005-s018541",
        "junction_group": null,
        "line": "line-6",
        "platform_length_m": 85.0
      },
      "type": "Feature"
    },
    {
      "geometry": {
        "coordinates": [
          39.9125491194777,
          21.455904531548068
        ],
        "type": "Point"
      },
      "properties": {
        "anchor_kind": "place:suburb",
        "anchor_name": "المعيصم",
        "archetype": "standard",
        "chainage_m": 20558.8,
        "corridor_offset_m": 190.347,
        "id": "line-6-0429-1085-s020559",
        "junction_group": null,
        "line": "line-6",
        "platform_length_m": 85.0
      },
      "type": "Feature"
    },
    {
      "geometry": {
        "coordinates": [
          39.937825798106516,
          21.45356497138538
        ],
        "type": "Point"
      },
      "properties": {
        "anchor_kind": "leisure:stadium",
        "anchor_name": null,
        "archetype": "interchange-elevated",
        "chainage_m": 23605.3,
        "corridor_offset_m": 201.967,
        "id": "line-6-0442-1216-s023605",
        "junction_group": 6,
        "line": "line-6",
        "platform_length_m": 85.0
      },
      "type": "Feature"
    },
    {
      "geometry": {
        "coordinates": [
          39.94129892952117,
          21.437008084080194
        ],
        "type": "Point"
      },
      "properties": {
        "anchor_kind": null,
        "anchor_name": null,
        "archetype": "halt",
        "chainage_m": 25594.4,
        "corridor_offset_m": 123.827,
        "id": "line-6-0534-1234-s025594",
        "junction_group": null,
        "line": "line-6",
        "platform_length_m": 81.0
      },
      "type": "Feature"
    },
    {
      "geometry": {
        "coordinates": [
          39.94129892952117,
          21.417031839614154
        ],
        "type": "Point"
      },
      "properties": {
        "anchor_kind": null,
        "anchor_name": null,
        "archetype": "standard",
        "chainage_m": 27814.4,
        "corridor_offset_m": 22.172,
        "id": "line-6-0645-1234-s027814",
        "junction_group": null,
        "line": "line-6",
        "platform_length_m": 85.0
      },
      "type": "Feature"
    },
    {
      "geometry": {
        "coordinates": [
          39.94129892952117,
          21.399035222978082
        ],
        "type": "Point"
      },
      "properties": {
        "anchor_kind": null,
        "anchor_name": null,
        "archetype": "standard",
        "chainage_m": 29814.4,
        "corridor_offset_m": 69.409,
        "id": "line-6-0745-1234-s029814",
        "junction_group": null,
        "line": "line-6",
        "platform_length_m": 85.0
      },
      "type": "Feature"
    },
    {
      "geometry": {
        "coordinates": [
          39.94168483301168,
          21.38625762516647
        ],
        "type": "Point"
      },
      "properties": {
        "anchor_kind": null,
        "anchor_name": null,
        "archetype": "interchange-elevated",
        "chainage_m": 31449.8,
        "corridor_offset_m": 55.899,
        "id": "line-6-0816-1236-s031450",
        "junction_group": 10,
        "line": "line-6",
        "platform_length_m": 85.0
      },
      "type": "Feature"
    },
    {
      "geometry": {
        "coordinates": [
          39.94033417079488,
          21.38355813267106
        ],
        "type": "Point"
      },
      "properties": {
        "anchor_kind": null,
        "anchor_name": null,
        "archetype": "interchange-elevated",
        "chainage_m": 31840.9,
        "corridor_offset_m": 68.947,
        "id": "line-6-0831-1229-s031841",
        "junction_group": 10,
        "line": "line-6",
        "platform_length_m": 85.0
      },
      "type": "Feature"
    },
    {
      "geometry": {
        "coordinates": [
          39.938211701597034,
          21.369880704027644
        ],
        "type": "Point"
      },
      "properties": {
        "anchor_kind": "amenity:hospital",
        "anchor_name": "Medical Center",
        "archetype": "standard",
        "chainage_m": 33846.0,
        "corridor_offset_m": 43.264,
        "id": "line-6-0907-1218-s033846",
        "junction_group": null,
        "line": "line-6",
        "platform_length_m": 85.0
      },
      "type": "Feature"
    },
    {
      "geometry": {
        "coordinates": [
          39.93280905272981,
          21.359982564877804
        ],
        "type": "Point"
      },
      "properties": {
        "anchor_kind": null,
        "anchor_name": null,
        "archetype": "interchange-elevated",
        "chainage_m": 35189.7,
        "corridor_offset_m": 87.065,
        "id": "line-6-0962-1190-s035190",
        "junction_group": 3,
        "line": "line-6",
        "platform_length_m": 85.0
      },
      "type": "Feature"
    },
    {
      "geometry": {
        "coordinates": [
          39.929721824805675,
          21.34432550840442
        ],
        "type": "Point"
      },
      "properties": {
        "anchor_kind": "amenity:university",
        "anchor_name": "Umm Al Qura University for Girls",
        "archetype": "interchange-elevated",
        "chainage_m": 37542.7,
        "corridor_offset_m": 58.168,
        "id": "line-6-1049-1174-s037543",
        "junction_group": 4,
        "line": "line-6",
        "platform_length_m": 85.0
      },
      "type": "Feature"
    },
    {
      "geometry": {
        "coordinates": [
          39.92952887306042,
          21.34144604974265
        ],
        "type": "Point"
      },
      "properties": {
        "anchor_kind": "amenity:university",
        "anchor_name": "Umm Al Qura University for Girls",
        "archetype": "interchange-elevated",
        "chainage_m": 37871.0,
        "corridor_offset_m": 68.087,
        "id": "line-6-1065-1173-s037871",
        "junction_group": 4,
        "line": "line-6",
        "platform_length_m": 85.0
      },
      "type": "Feature"
    },
    {
      "geometry": {
        "coordinates": [
          39.93338790796558,
          21.325069128603822
        ],
        "type": "Point"
      },
      "properties": {
        "anchor_kind": null,
        "anchor_name": null,
        "archetype": "standard",
        "chainage_m": 39873.3,
        "corridor_offset_m": 100.813,
        "id": "line-6-1156-1193-s039873",
        "junction_group": null,
        "line": "line-6",
        "platform_length_m": 85.0
      },
      "type": "Feature"
    },
    {
      "geometry": {
        "coordinates": [
          39.91660110612813,
          21.316250786452148
        ],
        "type": "Point"
      },
      "properties": {
        "anchor_kind": null,
        "anchor_name": null,
        "archetype": "halt",
        "chainage_m": 42887.5,
        "corridor_offset_m": 123.26,
        "id": "line-6-1205-1106-s042887",
        "junction_group": null,
        "line": "line-6",
        "platform_length_m": 81.0
      },
      "type": "Feature"
    },
    {
      "geometry": {
        "coordinates": [
          39.89151737924457,
          21.308332275132276
        ],
        "type": "Point"
      },
      "properties": {
        "anchor_kind": null,
        "anchor_name": null,
        "archetype": "halt",
        "chainage_m": 45901.7,
        "corridor_offset_m": 119.218,
        "id": "line-6-1249-0976-s045902",
        "junction_group": null,
        "line": "line-6",
        "platform_length_m": 81.0
      },
      "type": "Feature"
    },
    {
      "geometry": {
        "coordinates": [
          39.86778431457782,
          21.297714271316995
        ],
        "type": "Point"
      },
      "properties": {
        "anchor_kind": null,
        "anchor_name": null,
        "archetype": "halt",
        "chainage_m": 48913.9,
        "corridor_offset_m": 72.545,
        "id": "line-6-1308-0853-s048914",
        "junction_group": null,
        "line": "line-6",
        "platform_length_m": 81.0
      },
      "type": "Feature"
    },
    {
      "geometry": {
        "coordinates": [
          39.85176931972139,
          21.303293222474174
        ],
        "type": "Point"
      },
      "properties": {
        "anchor_kind": "place:neighbourhood",
        "anchor_name": "الهجلة الجديد",
        "archetype": "standard",
        "chainage_m": 50924.4,
        "corridor_offset_m": 57.775,
        "id": "line-6-1277-0770-s050924",
        "junction_group": null,
        "line": "line-6",
        "platform_length_m": 85.0
      },
      "type": "Feature"
    },
    {
      "geometry": {
        "coordinates": [
          39.84501600863736,
          21.318410380448476
        ],
        "type": "Point"
      },
      "properties": {
        "anchor_kind": null,
        "anchor_name": null,
        "archetype": "standard",
        "chainage_m": 52941.2,
        "corridor_offset_m": 126.686,
        "id": "line-6-1193-0735-s052941",
        "junction_group": null,
        "line": "line-6",
        "platform_length_m": 85.0
      },
      "type": "Feature"
    },
    {
      "geometry": {
        "coordinates": [
          39.83749089057229,
          21.328128553431956
        ],
        "type": "Point"
      },
      "properties": {
        "anchor_kind": null,
        "anchor_name": null,
        "archetype": "standard",
        "chainage_m": 54344.3,
        "corridor_offset_m": 177.439,
        "id": "line-6-1139-0696-s054344",
        "junction_group": null,
        "line": "line-6",
        "platform_length_m": 85.0
      },
      "type": "Feature"
    },
    {
      "geometry": {
        "coordinates": [
          39.82803625505464,
          21.33694689558363
        ],
        "type": "Point"
      },
      "properties": {
        "anchor_kind": null,
        "anchor_name": null,
        "archetype": "interchange-elevated",
        "chainage_m": 55730.3,
        "corridor_offset_m": 239.614,
        "id": "line-6-1090-0647-s055730",
        "junction_group": 9,
        "line": "line-6",
        "platform_length_m": 85.0
      },
      "type": "Feature"
    },
    {
      "geometry": {
        "coordinates": [
          39.8176168608107,
          21.340546218910845
        ],
        "type": "Point"
      },
      "properties": {
        "anchor_kind": null,
        "anchor_name": null,
        "archetype": "standard",
        "chainage_m": 56975.9,
        "corridor_offset_m": 271.905,
        "id": "line-6-1070-0593-s056976",
        "junction_group": null,
        "line": "line-6",
        "platform_length_m": 85.0
      },
      "type": "Feature"
    },
    {
      "geometry": {
        "coordinates": [
          39.805846804349954,
          21.349904459561603
        ],
        "type": "Point"
      },
      "properties": {
        "anchor_kind": null,
        "anchor_name": null,
        "archetype": "standard",
        "chainage_m": 58983.9,
        "corridor_offset_m": 204.209,
        "id": "line-6-1018-0532-s058984",
        "junction_group": null,
        "line": "line-6",
        "platform_length_m": 85.0
      },
      "type": "Feature"
    },
    {
      "geometry": {
        "coordinates": [
          39.797356927558596,
          21.36178222654141
        ],
        "type": "Point"
      },
      "properties": {
        "anchor_kind": null,
        "anchor_name": null,
        "archetype": "standard",
        "chainage_m": 60994.4,
        "corridor_offset_m": 148.719,
        "id": "line-6-0952-0488-s060994",
        "junction_group": null,
        "line": "line-6",
        "platform_length_m": 85.0
      },
      "type": "Feature"
    },
    {
      "geometry": {
        "coordinates": [
          39.788288195531464,
          21.372940128855777
        ],
        "type": "Point"
      },
      "properties": {
        "anchor_kind": null,
        "anchor_name": null,
        "archetype": "interchange-elevated",
        "chainage_m": 62997.5,
        "corridor_offset_m": 46.587,
        "id": "line-6-0890-0441-s062998",
        "junction_group": 7,
        "line": "line-6",
        "platform_length_m": 85.0
      },
      "type": "Feature"
    },
    {
      "geometry": {
        "coordinates": [
          39.78809524378621,
          21.375999553683908
        ],
        "type": "Point"
      },
      "properties": {
        "anchor_kind": null,
        "anchor_name": null,
        "archetype": "interchange-elevated",
        "chainage_m": 63345.8,
        "corridor_offset_m": 54.776,
        "id": "line-6-0873-0440-s063346",
        "junction_group": 7,
        "line": "line-6",
        "platform_length_m": 85.0
      },
      "type": "Feature"
    },
    {
      "geometry": {
        "coordinates": [
          39.775939283834944,
          21.38157850484109
        ],
        "type": "Point"
      },
      "properties": {
        "anchor_kind": null,
        "anchor_name": null,
        "archetype": "standard",
        "chainage_m": 65008.0,
        "corridor_offset_m": 44.728,
        "id": "line-6-0842-0377-s065008",
        "junction_group": null,
        "line": "line-6",
        "platform_length_m": 85.0
      },
      "type": "Feature"
    },
    {
      "geometry": {
        "coordinates": [
          39.763204468647906,
          21.388237252996436
        ],
        "type": "Point"
      },
      "properties": {
        "anchor_kind": "amenity:hospital",
        "anchor_name": null,
        "archetype": "standard",
        "chainage_m": 67024.0,
        "corridor_offset_m": 48.568,
        "id": "line-6-0805-0311-s067024",
        "junction_group": null,
        "line": "line-6",
        "platform_length_m": 85.0
      },
      "type": "Feature"
    },
    {
      "geometry": {
        "coordinates": [
          39.76301151690265,
          21.40371434330346
        ],
        "type": "Point"
      },
      "properties": {
        "anchor_kind": null,
        "anchor_name": null,
        "archetype": "interchange-elevated",
        "chainage_m": 69024.3,
        "corridor_offset_m": 9.458,
        "id": "line-6-0719-0310-s069024",
        "junction_group": 5,
        "line": "line-6",
        "platform_length_m": 85.0
      },
      "type": "Feature"
    },
    {
      "geometry": {
        "coordinates": [
          39.76474808260997,
          21.405334038800707
        ],
        "type": "Point"
      },
      "properties": {
        "anchor_kind": null,
        "anchor_name": null,
        "archetype": "interchange-elevated",
        "chainage_m": 69278.8,
        "corridor_offset_m": 22.836,
        "id": "line-6-0710-0319-s069279",
        "junction_group": 5,
        "line": "line-6",
        "platform_length_m": 85.0
      },
      "type": "Feature"
    }
  ],
  "type": "FeatureCollection"
}
