{
  "features": [
    {
      "geometry": {
        "coordinates": [
          62.24253619353743,
          34.37578432854623
        ],
        "type": "Point"
      },
      "properties": {
        "anchor_kind": "place:neighbourhood",
        "anchor_name": "خواجه عبدالله انصاری",
        "archetype": "terminal",
        "chainage_m": 0.0,
        "corridor_offset_m": 0.0,
        "id": "line-1-0423-0728-s000000",
        "junction_group": 0,
        "line": "line-1",
        "platform_length_m": 59.5
      },
      "type": "Feature"
    },
    {
      "geometry": {
        "coordinates": [
          62.227738031340394,
          34.364626426231865
        ],
        "type": "Point"
      },
      "properties": {
        "anchor_kind": "place:suburb",
        "anchor_name": "ناحیه هشتم",
        "archetype": "standard",
        "chainage_m": 2012.2,
        "corridor_offset_m": 3.053,
        "id": "line-1-0485-0660-s002012",
        "junction_group": null,
        "line": "line-1",
        "platform_length_m": 59.5
      },
      "type": "Feature"
    },
    {
      "geometry": {
        "coordinates": [
          62.215768929563374,
          34.3626467984019
        ],
        "type": "Point"
      },
      "properties": {
        "anchor_kind": null,
        "anchor_name": null,
        "archetype": "standard",
        "chainage_m": 4023.6,
        "corridor_offset_m": 5.852,
        "id": "line-1-0496-0605-s004024",
        "junction_group": null,
        "line": "line-1",
        "platform_length_m": 59.5
      },
      "type": "Feature"
    },
    {
      "geometry": {
        "coordinates": [
          62.21707464975723,
          34.352028794586616
        ],
        "type": "Point"
      },
      "properties": {
        "anchor_kind": "amenity:university",
        "anchor_name": "Herat Technical Institute",
        "archetype": "interchange-elevated",
        "chainage_m": 5512.7,
        "corridor_offset_m": 7.356,
        "id": "line-1-0555-0611-s005513",
        "junction_group": 1,
        "line": "line-1",
        "platform_length_m": 59.5
      },
      "type": "Feature"
    },
    {
      "geometry": {
        "coordinates": [
          62.203799827786355,
          34.35292862541842
        ],
        "type": "Point"
      },
      "properties": {
        "anchor_kind": null,
        "anchor_name": null,
        "archetype": "interchange-elevated",
        "chainage_m": 6875.5,
        "corridor_offset_m": 16.736,
        "id": "line-1-0550-0550-s006876",
        "junction_group": 1,
        "line": "line-1",
        "platform_length_m": 59.5
      },
      "type": "Feature"
    },
    {
      "geometry": {
        "coordinates": [
          62.19966504717247,
          34.34321045243494
        ],
        "type": "Point"
      },
      "properties": {
        "anchor_kind": "amenity:hospital",
        "anchor_name": "شفاخانه صبا",
        "archetype": "major",
        "chainage_m": 9141.2,
        "corridor_offset_m": 7.94,
        "id": "line-1-0604-0531-s009141",
        "junction_group": null,
        "line": "line-1",
        "platform_length_m": 59.5
      },
      "type": "Feature"
    },
    {
      "geometry": {
        "coordinates": [
          62.19966504717247,
          34.339251196775
        ],
        "type": "Point"
      },
      "properties": {
        "anchor_kind": "amenity:hospital",
        "anchor_name": "شفاخانه افغان آریا",
        "archetype": "major",
        "chainage_m": 10360.6,
        "corridor_offset_m": 5.734,
        "id": "line-1-0626-0531-s010361",
        "junction_group": null,
        "line": "line-1",
        "platform_length_m": 59.5
      },
      "type": "Feature"
    },
    {
      "geometry": {
        "coordinates": [
          62.1909602458801,
          34.328813159126085
        ],
        "type": "Point"
      },
      "properties": {
        "anchor_kind": null,
        "anchor_name": null,
        "archetype": "standard",
        "chainage_m": 12368.3,
        "corridor_offset_m": 2.929,
        "id": "line-1-0684-0491-s012368",
        "junction_group": null,
        "line": "line-1",
        "platform_length_m": 59.5
      },
      "type": "Feature"
    },
    {
      "geometry": {
        "coordinates": [
          62.17790304394153,
          34.324673937299785
        ],
        "type": "Point"
      },
      "properties": {
        "anchor_kind": "place:suburb",
        "anchor_name": "ناحیه دهم",
        "archetype": "terminal",
        "chainage_m": 13954.0,
        "corridor_offset_m": 0.0,
        "id": "line-1-0707-0431-s013954",
        "junction_group": null,
        "line": "line-1",
        "platform_length_m": 59.5
      },
      "type": "Feature"
    },
    {
      "geometry": {
        "coordinates": [
          62.217945129886466,
          34.32611366663067
        ],
        "type": "Point"
      },
      "properties": {
        "anchor_kind": "amenity:hospital",
        "anchor_name": null,
        "archetype": "terminal",
        "chainage_m": 0.0,
        "corridor_offset_m": 0.0,
        "id": "line-2-0699-0615-s000000",
        "junction_group": null,
        "line": "line-2",
        "platform_length_m": 59.5
      },
      "type": "Feature"
    },
    {
      "geometry": {
        "coordinates": [
          62.21663940969261,
          34.341050858438614
        ],
        "type": "Point"
      },
      "properties": {
        "anchor_kind": "place:suburb",
        "anchor_name": "ناحیه چهارم",
        "archetype": "standard",
        "chainage_m": 2004.3,
        "corridor_offset_m": 0.755,
        "id": "line-2-0616-0609-s002004",
        "junction_group": null,
        "line": "line-2",
        "platform_length_m": 59.5
      },
      "type": "Feature"
    },
    {
      "geometry": {
        "coordinates": [
          62.21163414894949,
          34.34914933592484
        ],
        "type": "Point"
      },
      "properties": {
        "anchor_kind": "amenity:university",
        "anchor_name": "Herat Technical Institute",
        "archetype": "interchange-elevated",
        "chainage_m": 3223.7,
        "corridor_offset_m": 1.451,
        "id": "line-2-0571-0586-s003224",
        "junction_group": 1,
        "line": "line-2",
        "platform_length_m": 59.5
      },
      "type": "Feature"
    },
    {
      "geometry": {
        "coordinates": [
          62.203799827786355,
          34.35292862541842
        ],
        "type": "Point"
      },
      "properties": {
        "anchor_kind": null,
        "anchor_name": null,
        "archetype": "interchange-elevated",
        "chainage_m": 4289.4,
        "corridor_offset_m": 1.545,
        "id": "line-2-0550-0550-s004289",
        "junction_group": 1,
        "line": "line-2",
        "platform_length_m": 59.5
      },
      "type": "Feature"
    },
    {
      "geometry": {
        "coordinates": [
          62.202276487560184,
          34.34878940359212
        ],
        "type": "Point"
      },
      "properties": {
        "anchor_kind": "amenity:hospital",
        "anchor_name": "شفاخانه مرکزی هرات",
        "archetype": "interchange-elevated",
        "chainage_m": 5575.0,
        "corridor_offset_m": 9.148,
        "id": "line-2-0573-0543-s005575",
        "junction_group": 1,
        "line": "line-2",
        "platform_length_m": 59.5
      },
      "type": "Feature"
    },
    {
      "geometry": {
        "coordinates": [
          62.18921928562162,
          34.348969369758485
        ],
        "type": "Point"
      },
      "properties": {
        "anchor_kind": "amenity:marketplace",
        "anchor_name": null,
        "archetype": "major",
        "chainage_m": 6851.6,
        "corridor_offset_m": 6.98,
        "id": "line-2-0572-0483-s006852",
        "junction_group": null,
        "line": "line-2",
        "platform_length_m": 59.5
      },
      "type": "Feature"
    },
    {
      "geometry": {
        "coordinates": [
          62.1863902252016,
          34.357787711910156
        ],
        "type": "Point"
      },
      "properties": {
        "anchor_kind": "tourism:attraction",
        "anchor_name": null,
        "archetype": "major",
        "chainage_m": 8054.5,
        "corridor_offset_m": 6.409,
        "id": "line-2-0523-0470-s008054",
        "junction_group": null,
        "line": "line-2",
        "platform_length_m": 59.5
      },
      "type": "Feature"
    },
    {
      "geometry": {
        "coordinates": [
          62.17790304394153,
          34.36894561422452
        ],
        "type": "Point"
      },
      "properties": {
        "anchor_kind": null,
        "anchor_name": null,
        "archetype": "standard",
        "chainage_m": 10055.9,
        "corridor_offset_m": 5.07,
        "id": "line-2-0461-0431-s010056",
        "junction_group": null,
        "line": "line-2",
        "platform_length_m": 59.5
      },
      "type": "Feature"
    },
    {
      "geometry": {
        "coordinates": [
          62.15853486106599,
          34.37380470071626
        ],
        "type": "Point"
      },
      "properties": {
        "anchor_kind": null,
        "anchor_name": null,
        "archetype": "standard",
        "chainage_m": 12059.6,
        "corridor_offset_m": 2.127,
        "id": "line-2-0434-0342-s012060",
        "junction_group": null,
        "line": "line-2",
        "platform_length_m": 59.5
      },
      "type": "Feature"
    },
    {
      "geometry": {
        "coordinates": [
          62.14112525848123,
          34.37884375337436
        ],
        "type": "Point"
      },
      "properties": {
        "anchor_kind": "place:neighbourhood",
        "anchor_name": "جبرئیل",
        "archetype": "terminal",
        "chainage_m": 14286.3,
        "corridor_offset_m": 0.0,
        "id": "line-2-0406-0262-s014286",
        "junction_group": null,
        "line": "line-2",
        "platform_length_m": 59.5
      },
      "type": "Feature"
    },
    {
      "geometry": {
        "coordinates": [
          62.125456616154956,
          34.39989979483857
        ],
        "type": "Point"
      },
      "properties": {
        "anchor_kind": "place:neighbourhood",
        "anchor_name": "ساق سلمان",
        "archetype": "terminal",
        "chainage_m": 0.0,
        "corridor_offset_m": 0.0,
        "id": "line-3-0289-0190-s000000",
        "junction_group": null,
        "line": "line-3",
        "platform_length_m": 59.5
      },
      "type": "Feature"
    },
    {
      "geometry": {
        "coordinates": [
          62.14417193893357,
          34.386222366195156
        ],
        "type": "Point"
      },
      "properties": {
        "anchor_kind": null,
        "anchor_name": null,
        "archetype": "standard",
        "chainage_m": 2905.9,
        "corridor_offset_m": 16.197,
        "id": "line-3-0365-0276-s002906",
        "junction_group": null,
        "line": "line-3",
        "platform_length_m": 59.5
      },
      "type": "Feature"
    },
    {
      "geometry": {
        "coordinates": [
          62.16310488174449,
          34.3887418925242
        ],
        "type": "Point"
      },
      "properties": {
        "anchor_kind": null,
        "anchor_name": null,
        "archetype": "standard",
        "chainage_m": 4927.6,
        "corridor_offset_m": 41.873,
        "id": "line-3-0351-0363-s004928",
        "junction_group": null,
        "line": "line-3",
        "platform_length_m": 59.5
      },
      "type": "Feature"
    },
    {
      "geometry": {
        "coordinates": [
          62.179861624232316,
          34.37974358420617
        ],
        "type": "Point"
      },
      "properties": {
        "anchor_kind": null,
        "anchor_name": null,
        "archetype": "standard",
        "chainage_m": 6938.4,
        "corridor_offset_m": 46.528,
        "id": "line-3-0401-0440-s006938",
        "junction_group": null,
        "line": "line-3",
        "platform_length_m": 59.5
      },
      "type": "Feature"
    },
    {
      "geometry": {
        "coordinates": [
          62.199229807107855,
          34.37524443004715
        ],
        "type": "Point"
      },
      "properties": {
        "anchor_kind": null,
        "anchor_name": null,
        "archetype": "standard",
        "chainage_m": 8942.1,
        "corridor_offset_m": 83.558,
        "id": "line-3-0426-0529-s008942",
        "junction_group": null,
        "line": "line-3",
        "platform_length_m": 59.5
      },
      "type": "Feature"
    },
    {
      "geometry": {
        "coordinates": [
          62.2209918103388,
          34.37560436237987
        ],
        "type": "Point"
      },
      "properties": {
        "anchor_kind": null,
        "anchor_name": null,
        "archetype": "standard",
        "chainage_m": 10958.6,
        "corridor_offset_m": 46.744,
        "id": "line-3-0424-0629-s010959",
        "junction_group": null,
        "line": "line-3",
        "platform_length_m": 59.5
      },
      "type": "Feature"
    },
    {
      "geometry": {
        "coordinates": [
          62.24057761324665,
          34.38010351653889
        ],
        "type": "Point"
      },
      "properties": {
        "anchor_kind": null,
        "anchor_name": null,
        "archetype": "interchange",
        "chainage_m": 12965.7,
        "corridor_offset_m": 27.044,
        "id": "line-3-0399-0719-s012966",
        "junction_group": 0,
        "line": "line-3",
        "platform_length_m": 59.5
      },
      "type": "Feature"
    },
    {
      "geometry": {
        "coordinates": [
          62.25755197576679,
          34.37092524205449
        ],
        "type": "Point"
      },
      "properties": {
        "anchor_kind": null,
        "anchor_name": null,
        "archetype": "standard",
        "chainage_m": 14981.4,
        "corridor_offset_m": 23.067,
        "id": "line-3-0450-0797-s014981",
        "junction_group": null,
        "line": "line-3",
        "platform_length_m": 59.5
      },
      "type": "Feature"
    },
    {
      "geometry": {
        "coordinates": [
          62.27517919838385,
          34.36246683223554
        ],
        "type": "Point"
      },
      "properties": {
        "anchor_kind": null,
        "anchor_name": null,
        "archetype": "standard",
        "chainage_m": 16990.7,
        "corridor_offset_m": 15.131,
        "id": "line-3-0497-0878-s016991",
        "junction_group": null,
        "line": "line-3",
        "platform_length_m": 59.5
      },
      "type": "Feature"
    },
    {
      "geometry": {
        "coordinates": [
          62.296723581582484,
          34.3626467984019
        ],
        "type": "Point"
      },
      "properties": {
        "anchor_kind": null,
        "anchor_name": null,
        "archetype": "halt",
        "chainage_m": 19144.7,
        "corridor_offset_m": 20.077,
        "id": "line-3-0496-0977-s019145",
        "junction_group": null,
        "line": "line-3",
        "platform_length_m": 55.5
      },
      "type": "Feature"
    },
    {
      "geometry": {
        "coordinates": [
          62.31870320484574,
          34.36444646006551
        ],
        "type": "Point"
      },
      "properties": {
        "anchor_kind": "amenity:bus_station",
        "anchor_name": null,
        "archetype": "depot-terminal",
        "chainage_m": 21292.4,
        "corridor_offset_m": 0.0,
        "id": "line-3-0486-1078-s021292",
        "junction_group": null,
        "line": "line-3",
        "platform_length_m": 59.5
      },
      "type": "Feature"
    }
  ],
  "type": "FeatureCollection"
}
