{
  "features": [
    {
      "geometry": {
        "coordinates": [
          13.666577045147704,
          4.571569708094878
        ],
        "type": "Point"
      },
      "properties": {
        "charger_bus_voltage_v": 650.0,
        "charger_contact_count": 2,
        "charger_efficiency": 0.98,
        "charger_max_current_a": 825.0,
        "charger_max_kw": 500.0,
        "grid_export_kw": 800.0,
        "grid_import_kw": 800.0,
        "line": "line-1",
        "pv_nameplate_kw": 300.0,
        "station": "line-1-0582-0451-s000000",
        "storage_capacity_kwh": 500.0,
        "storage_initial_soc": 0.6,
        "storage_max_charge_kw": 500.0,
        "storage_max_discharge_kw": 500.0,
        "storage_module_kwh": 500.0,
        "tier": "terminal"
      },
      "type": "Feature"
    },
    {
      "geometry": {
        "coordinates": [
          13.672705106133357,
          4.5748090990893715
        ],
        "type": "Point"
      },
      "properties": {
        "charger_bus_voltage_v": 650.0,
        "charger_contact_count": 2,
        "charger_efficiency": 0.98,
        "charger_max_current_a": 825.0,
        "charger_max_kw": 500.0,
        "grid_export_kw": 600.0,
        "grid_import_kw": 600.0,
        "line": "line-1",
        "pv_nameplate_kw": 300.0,
        "station": "line-1-0564-0485-s001201",
        "storage_capacity_kwh": 500.0,
        "storage_initial_soc": 0.5,
        "storage_max_charge_kw": 500.0,
        "storage_max_discharge_kw": 500.0,
        "storage_module_kwh": 500.0,
        "tier": "major"
      },
      "type": "Feature"
    },
    {
      "geometry": {
        "coordinates": [
          13.684780991016847,
          4.577148659252061
        ],
        "type": "Point"
      },
      "properties": {
        "charger_bus_voltage_v": 650.0,
        "charger_contact_count": 2,
        "charger_efficiency": 0.98,
        "charger_max_current_a": 825.0,
        "charger_max_kw": 500.0,
        "grid_export_kw": 600.0,
        "grid_import_kw": 600.0,
        "line": "line-1",
        "pv_nameplate_kw": 300.0,
        "station": "line-1-0551-0552-s002731",
        "storage_capacity_kwh": 500.0,
        "storage_initial_soc": 0.5,
        "storage_max_charge_kw": 500.0,
        "storage_max_discharge_kw": 500.0,
        "storage_module_kwh": 500.0,
        "tier": "interchange"
      },
      "type": "Feature"
    },
    {
      "geometry": {
        "coordinates": [
          13.696316164636897,
          4.577328625418422
        ],
        "type": "Point"
      },
      "properties": {
        "charger_bus_voltage_v": 650.0,
        "charger_contact_count": 2,
        "charger_efficiency": 0.98,
        "charger_max_current_a": 825.0,
        "charger_max_kw": 500.0,
        "grid_export_kw": 500.0,
        "grid_import_kw": 500.0,
        "line": "line-1",
        "pv_nameplate_kw": 300.0,
        "station": "line-1-0550-0616-s004178",
        "storage_capacity_kwh": 500.0,
        "storage_initial_soc": 0.5,
        "storage_max_charge_kw": 500.0,
        "storage_max_discharge_kw": 500.0,
        "storage_module_kwh": 500.0,
        "tier": "standard"
      },
      "type": "Feature"
    },
    {
      "geometry": {
        "coordinates": [
          13.702083751446924,
          4.5683303171003855
        ],
        "type": "Point"
      },
      "properties": {
        "charger_bus_voltage_v": 650.0,
        "charger_contact_count": 2,
        "charger_efficiency": 0.98,
        "charger_max_current_a": 825.0,
        "charger_max_kw": 500.0,
        "grid_export_kw": 500.0,
        "grid_import_kw": 500.0,
        "line": "line-1",
        "pv_nameplate_kw": 300.0,
        "station": "line-1-0600-0648-s005635",
        "storage_capacity_kwh": 500.0,
        "storage_initial_soc": 0.5,
        "storage_max_charge_kw": 500.0,
        "storage_max_discharge_kw": 500.0,
        "storage_module_kwh": 500.0,
        "tier": "standard"
      },
      "type": "Feature"
    },
    {
      "geometry": {
        "coordinates": [
          13.717764378086681,
          4.568150350934024
        ],
        "type": "Point"
      },
      "properties": {
        "charger_bus_voltage_v": 650.0,
        "charger_contact_count": 2,
        "charger_efficiency": 0.98,
        "charger_max_current_a": 825.0,
        "charger_max_kw": 500.0,
        "grid_export_kw": 500.0,
        "grid_import_kw": 500.0,
        "line": "line-1",
        "pv_nameplate_kw": 300.0,
        "station": "line-1-0601-0735-s007650",
        "storage_capacity_kwh": 500.0,
        "storage_initial_soc": 0.5,
        "storage_max_charge_kw": 500.0,
        "storage_max_discharge_kw": 500.0,
        "storage_module_kwh": 500.0,
        "tier": "standard"
      },
      "type": "Feature"
    },
    {
      "geometry": {
        "coordinates": [
          13.722811016545453,
          4.556632516286938
        ],
        "type": "Point"
      },
      "properties": {
        "charger_bus_voltage_v": 650.0,
        "charger_contact_count": 2,
        "charger_efficiency": 0.98,
        "charger_max_current_a": 825.0,
        "charger_max_kw": 500.0,
        "grid_export_kw": 800.0,
        "grid_import_kw": 800.0,
        "line": "line-1",
        "pv_nameplate_kw": 300.0,
        "station": "line-1-0665-0763-s009379",
        "storage_capacity_kwh": 500.0,
        "storage_initial_soc": 0.6,
        "storage_max_charge_kw": 500.0,
        "storage_max_discharge_kw": 500.0,
        "storage_module_kwh": 500.0,
        "tier": "terminal"
      },
      "type": "Feature"
    },
    {
      "geometry": {
        "coordinates": [
          13.671443446518664,
          4.584167339740129
        ],
        "type": "Point"
      },
      "properties": {
        "charger_bus_voltage_v": 650.0,
        "charger_contact_count": 2,
        "charger_efficiency": 0.98,
        "charger_max_current_a": 825.0,
        "charger_max_kw": 500.0,
        "grid_export_kw": 800.0,
        "grid_import_kw": 800.0,
        "line": "line-2",
        "pv_nameplate_kw": 300.0,
        "station": "line-2-0512-0478-s000000",
        "storage_capacity_kwh": 500.0,
        "storage_initial_soc": 0.6,
        "storage_max_charge_kw": 500.0,
        "storage_max_discharge_kw": 500.0,
        "storage_module_kwh": 500.0,
        "tier": "terminal"
      },
      "type": "Feature"
    },
    {
      "geometry": {
        "coordinates": [
          13.684780991016847,
          4.577148659252061
        ],
        "type": "Point"
      },
      "properties": {
        "charger_bus_voltage_v": 650.0,
        "charger_contact_count": 2,
        "charger_efficiency": 0.98,
        "charger_max_current_a": 825.0,
        "charger_max_kw": 500.0,
        "grid_export_kw": 600.0,
        "grid_import_kw": 600.0,
        "line": "line-2",
        "pv_nameplate_kw": 300.0,
        "station": "line-2-0551-0552-s002248",
        "storage_capacity_kwh": 500.0,
        "storage_initial_soc": 0.5,
        "storage_max_charge_kw": 500.0,
        "storage_max_discharge_kw": 500.0,
        "storage_module_kwh": 500.0,
        "tier": "interchange"
      },
      "type": "Feature"
    },
    {
      "geometry": {
        "coordinates": [
          13.689467155299994,
          4.583627441241047
        ],
        "type": "Point"
      },
      "properties": {
        "charger_bus_voltage_v": 650.0,
        "charger_contact_count": 2,
        "charger_efficiency": 0.98,
        "charger_max_current_a": 825.0,
        "charger_max_kw": 500.0,
        "grid_export_kw": 600.0,
        "grid_import_kw": 600.0,
        "line": "line-2",
        "pv_nameplate_kw": 300.0,
        "station": "line-2-0515-0578-s003614",
        "storage_capacity_kwh": 500.0,
        "storage_initial_soc": 0.5,
        "storage_max_charge_kw": 500.0,
        "storage_max_discharge_kw": 500.0,
        "storage_module_kwh": 500.0,
        "tier": "major"
      },
      "type": "Feature"
    },
    {
      "geometry": {
        "coordinates": [
          13.70460707067631,
          4.579128287082029
        ],
        "type": "Point"
      },
      "properties": {
        "charger_bus_voltage_v": 650.0,
        "charger_contact_count": 2,
        "charger_efficiency": 0.98,
        "charger_max_current_a": 825.0,
        "charger_max_kw": 500.0,
        "grid_export_kw": 500.0,
        "grid_import_kw": 500.0,
        "line": "line-2",
        "pv_nameplate_kw": 300.0,
        "station": "line-2-0540-0662-s005626",
        "storage_capacity_kwh": 500.0,
        "storage_initial_soc": 0.5,
        "storage_max_charge_kw": 500.0,
        "storage_max_discharge_kw": 500.0,
        "storage_module_kwh": 500.0,
        "tier": "standard"
      },
      "type": "Feature"
    },
    {
      "geometry": {
        "coordinates": [
          13.720828408579507,
          4.583627441241047
        ],
        "type": "Point"
      },
      "properties": {
        "charger_bus_voltage_v": 650.0,
        "charger_contact_count": 2,
        "charger_efficiency": 0.98,
        "charger_max_current_a": 825.0,
        "charger_max_kw": 500.0,
        "grid_export_kw": 500.0,
        "grid_import_kw": 500.0,
        "line": "line-2",
        "pv_nameplate_kw": 300.0,
        "station": "line-2-0515-0752-s007633",
        "storage_capacity_kwh": 500.0,
        "storage_initial_soc": 0.5,
        "storage_max_charge_kw": 500.0,
        "storage_max_discharge_kw": 500.0,
        "storage_module_kwh": 500.0,
        "tier": "standard"
      },
      "type": "Feature"
    },
    {
      "geometry": {
        "coordinates": [
          13.731642633848304,
          4.586686866069179
        ],
        "type": "Point"
      },
      "properties": {
        "charger_bus_voltage_v": 650.0,
        "charger_contact_count": 2,
        "charger_efficiency": 0.98,
        "charger_max_current_a": 825.0,
        "charger_max_kw": 500.0,
        "grid_export_kw": 500.0,
        "grid_import_kw": 500.0,
        "line": "line-2",
        "pv_nameplate_kw": 300.0,
        "station": "line-2-0498-0812-s008990",
        "storage_capacity_kwh": 500.0,
        "storage_initial_soc": 0.5,
        "storage_max_charge_kw": 500.0,
        "storage_max_discharge_kw": 500.0,
        "storage_module_kwh": 500.0,
        "tier": "standard"
      },
      "type": "Feature"
    },
    {
      "geometry": {
        "coordinates": [
          13.73957306571209,
          4.593885512723608
        ],
        "type": "Point"
      },
      "properties": {
        "charger_bus_voltage_v": 650.0,
        "charger_contact_count": 2,
        "charger_efficiency": 0.98,
        "charger_max_current_a": 825.0,
        "charger_max_kw": 500.0,
        "grid_export_kw": 3000.0,
        "grid_import_kw": 3000.0,
        "line": "line-2",
        "pv_nameplate_kw": 5000.0,
        "station": "line-2-0458-0856-s010330",
        "storage_capacity_kwh": 40000.0,
        "storage_initial_soc": 0.6,
        "storage_max_charge_kw": 10000.0,
        "storage_max_discharge_kw": 10000.0,
        "storage_module_kwh": 500.0,
        "tier": "depot-main"
      },
      "type": "Feature"
    },
    {
      "geometry": {
        "coordinates": [
          13.70514778193975,
          4.521539113846597
        ],
        "type": "Point"
      },
      "properties": {
        "charger_bus_voltage_v": 650.0,
        "charger_contact_count": 2,
        "charger_efficiency": 0.98,
        "charger_max_current_a": 825.0,
        "charger_max_kw": 500.0,
        "grid_export_kw": 800.0,
        "grid_import_kw": 800.0,
        "line": "line-3",
        "pv_nameplate_kw": 300.0,
        "station": "line-3-0860-0665-s000000",
        "storage_capacity_kwh": 500.0,
        "storage_initial_soc": 0.6,
        "storage_max_charge_kw": 500.0,
        "storage_max_discharge_kw": 500.0,
        "storage_module_kwh": 500.0,
        "tier": "terminal"
      },
      "type": "Feature"
    },
    {
      "geometry": {
        "coordinates": [
          13.700461617656604,
          4.537736068819062
        ],
        "type": "Point"
      },
      "properties": {
        "charger_bus_voltage_v": 650.0,
        "charger_contact_count": 2,
        "charger_efficiency": 0.98,
        "charger_max_current_a": 825.0,
        "charger_max_kw": 500.0,
        "grid_export_kw": 500.0,
        "grid_import_kw": 500.0,
        "line": "line-3",
        "pv_nameplate_kw": 300.0,
        "station": "line-3-0770-0639-s002015",
        "storage_capacity_kwh": 500.0,
        "storage_initial_soc": 0.5,
        "storage_max_charge_kw": 500.0,
        "storage_max_discharge_kw": 500.0,
        "storage_module_kwh": 500.0,
        "tier": "standard"
      },
      "type": "Feature"
    },
    {
      "geometry": {
        "coordinates": [
          13.69199047452938,
          4.54979380196523
        ],
        "type": "Point"
      },
      "properties": {
        "charger_bus_voltage_v": 650.0,
        "charger_contact_count": 2,
        "charger_efficiency": 0.98,
        "charger_max_current_a": 825.0,
        "charger_max_kw": 500.0,
        "grid_export_kw": 500.0,
        "grid_import_kw": 500.0,
        "line": "line-3",
        "pv_nameplate_kw": 300.0,
        "station": "line-3-0703-0592-s004042",
        "storage_capacity_kwh": 500.0,
        "storage_initial_soc": 0.5,
        "storage_max_charge_kw": 500.0,
        "storage_max_discharge_kw": 500.0,
        "storage_module_kwh": 500.0,
        "tier": "standard"
      },
      "type": "Feature"
    },
    {
      "geometry": {
        "coordinates": [
          13.68496122810466,
          4.562751365943202
        ],
        "type": "Point"
      },
      "properties": {
        "charger_bus_voltage_v": 650.0,
        "charger_contact_count": 2,
        "charger_efficiency": 0.98,
        "charger_max_current_a": 825.0,
        "charger_max_kw": 500.0,
        "grid_export_kw": 500.0,
        "grid_import_kw": 500.0,
        "line": "line-3",
        "pv_nameplate_kw": 300.0,
        "station": "line-3-0631-0553-s006060",
        "storage_capacity_kwh": 500.0,
        "storage_initial_soc": 0.5,
        "storage_max_charge_kw": 500.0,
        "storage_max_discharge_kw": 500.0,
        "storage_module_kwh": 500.0,
        "tier": "standard"
      },
      "type": "Feature"
    },
    {
      "geometry": {
        "coordinates": [
          13.684780991016847,
          4.577148659252061
        ],
        "type": "Point"
      },
      "properties": {
        "charger_bus_voltage_v": 650.0,
        "charger_contact_count": 2,
        "charger_efficiency": 0.98,
        "charger_max_current_a": 825.0,
        "charger_max_kw": 500.0,
        "grid_export_kw": 600.0,
        "grid_import_kw": 600.0,
        "line": "line-3",
        "pv_nameplate_kw": 300.0,
        "station": "line-3-0551-0552-s008150",
        "storage_capacity_kwh": 500.0,
        "storage_initial_soc": 0.5,
        "storage_max_charge_kw": 500.0,
        "storage_max_discharge_kw": 500.0,
        "storage_module_kwh": 500.0,
        "tier": "interchange"
      },
      "type": "Feature"
    },
    {
      "geometry": {
        "coordinates": [
          13.683158857226527,
          4.587586696900983
        ],
        "type": "Point"
      },
      "properties": {
        "charger_bus_voltage_v": 650.0,
        "charger_contact_count": 2,
        "charger_efficiency": 0.98,
        "charger_max_current_a": 825.0,
        "charger_max_kw": 500.0,
        "grid_export_kw": 800.0,
        "grid_import_kw": 800.0,
        "line": "line-3",
        "pv_nameplate_kw": 300.0,
        "station": "line-3-0493-0543-s009644",
        "storage_capacity_kwh": 500.0,
        "storage_initial_soc": 0.6,
        "storage_max_charge_kw": 500.0,
        "storage_max_discharge_kw": 500.0,
        "storage_module_kwh": 500.0,
        "tier": "terminal"
      },
      "type": "Feature"
    }
  ],
  "type": "FeatureCollection"
}
