{
  "features": [
    {
      "geometry": {
        "coordinates": [
          35.910758281102936,
          34.83233336212792
        ],
        "type": "Point"
      },
      "properties": {
        "anchor_kind": "tourism:attraction",
        "anchor_name": null,
        "archetype": "terminal",
        "chainage_m": 0.0,
        "corridor_offset_m": 0.0,
        "id": "line-1-0690-0486-s000000",
        "junction_group": null,
        "line": "line-1",
        "platform_length_m": 49.0
      },
      "type": "Feature"
    },
    {
      "geometry": {
        "coordinates": [
          35.89936870121115,
          34.86436733974013
        ],
        "type": "Point"
      },
      "properties": {
        "anchor_kind": null,
        "anchor_name": null,
        "archetype": "standard",
        "chainage_m": 4451.9,
        "corridor_offset_m": 1.026,
        "id": "line-1-0512-0434-s004452",
        "junction_group": null,
        "line": "line-1",
        "platform_length_m": 49.0
      },
      "type": "Feature"
    },
    {
      "geometry": {
        "coordinates": [
          35.8868839694067,
          34.88830283986611
        ],
        "type": "Point"
      },
      "properties": {
        "anchor_kind": null,
        "anchor_name": null,
        "archetype": "interchange",
        "chainage_m": 7619.2,
        "corridor_offset_m": 0.967,
        "id": "line-1-0379-0377-s007619",
        "junction_group": 0,
        "line": "line-1",
        "platform_length_m": 49.0
      },
      "type": "Feature"
    },
    {
      "geometry": {
        "coordinates": [
          35.87527535913238,
          34.91025871216212
        ],
        "type": "Point"
      },
      "properties": {
        "anchor_kind": "amenity:marketplace",
        "anchor_name": "سوق طرطوس الحرة",
        "archetype": "depot-terminal",
        "chainage_m": 10568.6,
        "corridor_offset_m": 0.0,
        "id": "line-1-0257-0324-s010569",
        "junction_group": null,
        "line": "line-1",
        "platform_length_m": 49.0
      },
      "type": "Feature"
    },
    {
      "geometry": {
        "coordinates": [
          35.93704192700705,
          34.8654471367383
        ],
        "type": "Point"
      },
      "properties": {
        "anchor_kind": "amenity:college",
        "anchor_name": "كلية الهندسة",
        "archetype": "terminal",
        "chainage_m": 0.0,
        "corridor_offset_m": 0.0,
        "id": "line-2-0506-0606-s000000",
        "junction_group": null,
        "line": "line-2",
        "platform_length_m": 49.0
      },
      "type": "Feature"
    },
    {
      "geometry": {
        "coordinates": [
          35.89498809356047,
          34.90306006550769
        ],
        "type": "Point"
      },
      "properties": {
        "anchor_kind": "amenity:hospital",
        "anchor_name": "الهلال الاحمر",
        "archetype": "terminal",
        "chainage_m": 6732.9,
        "corridor_offset_m": 0.0,
        "id": "line-2-0297-0414-s006733",
        "junction_group": null,
        "line": "line-2",
        "platform_length_m": 49.0
      },
      "type": "Feature"
    },
    {
      "geometry": {
        "coordinates": [
          35.90353027847931,
          34.907739185833066
        ],
        "type": "Point"
      },
      "properties": {
        "anchor_kind": "amenity:marketplace",
        "anchor_name": "سوق الهال طرطوس",
        "archetype": "terminal",
        "chainage_m": 0.0,
        "corridor_offset_m": 0.0,
        "id": "line-3-0271-0453-s000000",
        "junction_group": null,
        "line": "line-3",
        "platform_length_m": 49.0
      },
      "type": "Feature"
    },
    {
      "geometry": {
        "coordinates": [
          35.88776009093684,
          34.88848280603247
        ],
        "type": "Point"
      },
      "properties": {
        "anchor_kind": null,
        "anchor_name": null,
        "archetype": "interchange",
        "chainage_m": 2888.8,
        "corridor_offset_m": 1.873,
        "id": "line-3-0378-0381-s002889",
        "junction_group": 0,
        "line": "line-3",
        "platform_length_m": 49.0
      },
      "type": "Feature"
    },
    {
      "geometry": {
        "coordinates": [
          35.8805320883132,
          34.87948449771443
        ],
        "type": "Point"
      },
      "properties": {
        "anchor_kind": "amenity:hospital",
        "anchor_name": "مركز الكورنيش الاسعافي",
        "archetype": "terminal",
        "chainage_m": 4244.2,
        "corridor_offset_m": 0.0,
        "id": "line-3-0428-0348-s004244",
        "junction_group": null,
        "line": "line-3",
        "platform_length_m": 49.0
      },
      "type": "Feature"
    }
  ],
  "type": "FeatureCollection"
}
