{
  "features": [
    {
      "geometry": {
        "coordinates": [
          -5.365943724886307,
          35.57942845625022
        ],
        "type": "Point"
      },
      "properties": {
        "id": "interchange-000",
        "junction_group": 0,
        "line_count": 3,
        "lines": "line-1,line-2,line-3",
        "platform_count": 3,
        "platforms": "line-1-0545-0562-s006168,line-2-0545-0562-s011717,line-3-0545-0562-s009021"
      },
      "type": "Feature"
    }
  ],
  "type": "FeatureCollection"
}
