{
  "features": [
    {
      "geometry": {
        "coordinates": [
          77.52507905278718,
          23.24985897851204
        ],
        "type": "Point"
      },
      "properties": {
        "archetype": "main-heavy",
        "fleet_stalls": 6,
        "line": "line-1",
        "station": "line-1-0856-1377-s000000"
      },
      "type": "Feature"
    },
    {
      "geometry": {
        "coordinates": [
          77.42808303813568,
          23.171033797646043
        ],
        "type": "Point"
      },
      "properties": {
        "archetype": "main-heavy",
        "fleet_stalls": 5,
        "line": "line-2",
        "station": "line-2-1294-0881-s000000"
      },
      "type": "Feature"
    },
    {
      "geometry": {
        "coordinates": [
          77.47051879454571,
          23.161315624662564
        ],
        "type": "Point"
      },
      "properties": {
        "archetype": "main-heavy",
        "fleet_stalls": 5,
        "line": "line-3",
        "station": "line-3-1348-1098-s000000"
      },
      "type": "Feature"
    },
    {
      "geometry": {
        "coordinates": [
          77.53544354628823,
          23.374755497966383
        ],
        "type": "Point"
      },
      "properties": {
        "archetype": "main-heavy",
        "fleet_stalls": 7,
        "line": "line-4",
        "station": "line-4-0162-1430-s030604"
      },
      "type": "Feature"
    },
    {
      "geometry": {
        "coordinates": [
          77.38682062061255,
          23.30222913292301
        ],
        "type": "Point"
      },
      "properties": {
        "archetype": "main-heavy",
        "fleet_stalls": 6,
        "line": "line-5",
        "station": "line-5-0565-0670-s000000"
      },
      "type": "Feature"
    },
    {
      "geometry": {
        "coordinates": [
          77.35416268826015,
          23.301149335924848
        ],
        "type": "Point"
      },
      "properties": {
        "archetype": "main-heavy",
        "fleet_stalls": 4,
        "line": "line-6",
        "station": "line-6-0571-0503-s000000"
      },
      "type": "Feature"
    }
  ],
  "type": "FeatureCollection"
}
