{
  "features": [
    {
      "geometry": {
        "coordinates": [
          9.823880012052136,
          3.9492098009574197
        ],
        "type": "Point"
      },
      "properties": {
        "archetype": "main-heavy",
        "fleet_stalls": 9,
        "line": "line-1",
        "station": "line-1-1767-1514-s000000"
      },
      "type": "Feature"
    },
    {
      "geometry": {
        "coordinates": [
          9.613328784525594,
          4.231756682143756
        ],
        "type": "Point"
      },
      "properties": {
        "archetype": "main-heavy",
        "fleet_stalls": 11,
        "line": "line-2",
        "station": "line-2-0197-0345-s000000"
      },
      "type": "Feature"
    },
    {
      "geometry": {
        "coordinates": [
          9.815234623753357,
          4.1115392830147925
        ],
        "type": "Point"
      },
      "properties": {
        "archetype": "main-heavy",
        "fleet_stalls": 7,
        "line": "line-3",
        "station": "line-3-0865-1466-s000000"
      },
      "type": "Feature"
    },
    {
      "geometry": {
        "coordinates": [
          9.59783913049028,
          4.168588557751143
        ],
        "type": "Point"
      },
      "properties": {
        "archetype": "main-heavy",
        "fleet_stalls": 13,
        "line": "line-4",
        "station": "line-4-0548-0259-s048532"
      },
      "type": "Feature"
    },
    {
      "geometry": {
        "coordinates": [
          9.763182181704451,
          4.069247233920023
        ],
        "type": "Point"
      },
      "properties": {
        "archetype": "main-heavy",
        "fleet_stalls": 3,
        "line": "line-5",
        "station": "line-5-1100-1177-s003613"
      },
      "type": "Feature"
    }
  ],
  "type": "FeatureCollection"
}
