{
  "features": [
    {
      "geometry": {
        "coordinates": [
          13.582753737119937,
          7.356501148184141
        ],
        "type": "Point"
      },
      "properties": {
        "anchor_kind": "amenity:college",
        "anchor_name": "GADAMABANGA (Centre professionnel de haute couture)",
        "archetype": "terminal",
        "chainage_m": 0.0,
        "corridor_offset_m": 0.0,
        "id": "line-1-0329-0548-s000000",
        "junction_group": null,
        "line": "line-1",
        "platform_length_m": 59.5
      },
      "type": "Feature"
    },
    {
      "geometry": {
        "coordinates": [
          13.576957347716403,
          7.350922197026959
        ],
        "type": "Point"
      },
      "properties": {
        "anchor_kind": null,
        "anchor_name": null,
        "archetype": "standard",
        "chainage_m": 2009.9,
        "corridor_offset_m": 0.145,
        "id": "line-1-0360-0516-s002010",
        "junction_group": null,
        "line": "line-1",
        "platform_length_m": 59.5
      },
      "type": "Feature"
    },
    {
      "geometry": {
        "coordinates": [
          13.577863033560705,
          7.337604700716265
        ],
        "type": "Point"
      },
      "properties": {
        "anchor_kind": null,
        "anchor_name": null,
        "archetype": "standard",
        "chainage_m": 4034.5,
        "corridor_offset_m": 0.214,
        "id": "line-1-0434-0521-s004034",
        "junction_group": null,
        "line": "line-1",
        "platform_length_m": 59.5
      },
      "type": "Feature"
    },
    {
      "geometry": {
        "coordinates": [
          13.577863033560705,
          7.329146290897311
        ],
        "type": "Point"
      },
      "properties": {
        "anchor_kind": "amenity:college",
        "anchor_name": "INESBIN",
        "archetype": "major",
        "chainage_m": 5236.7,
        "corridor_offset_m": 0.509,
        "id": "line-1-0481-0521-s005237",
        "junction_group": null,
        "line": "line-1",
        "platform_length_m": 59.5
      },
      "type": "Feature"
    },
    {
      "geometry": {
        "coordinates": [
          13.583116011457658,
          7.317448490083864
        ],
        "type": "Point"
      },
      "properties": {
        "anchor_kind": null,
        "anchor_name": null,
        "archetype": "interchange-elevated",
        "chainage_m": 7434.4,
        "corridor_offset_m": 23.784,
        "id": "line-1-0546-0550-s007434",
        "junction_group": 0,
        "line": "line-1",
        "platform_length_m": 59.5
      },
      "type": "Feature"
    },
    {
      "geometry": {
        "coordinates": [
          13.582210325613355,
          7.302691264442285
        ],
        "type": "Point"
      },
      "properties": {
        "anchor_kind": "amenity:college",
        "anchor_name": "CEDEV",
        "archetype": "standard",
        "chainage_m": 9658.9,
        "corridor_offset_m": 0.137,
        "id": "line-1-0628-0545-s009659",
        "junction_group": null,
        "line": "line-1",
        "platform_length_m": 59.5
      },
      "type": "Feature"
    },
    {
      "geometry": {
        "coordinates": [
          13.582391462782216,
          7.28901383579887
        ],
        "type": "Point"
      },
      "properties": {
        "anchor_kind": null,
        "anchor_name": null,
        "archetype": "standard",
        "chainage_m": 11664.8,
        "corridor_offset_m": 0.363,
        "id": "line-1-0704-0546-s011665",
        "junction_group": null,
        "line": "line-1",
        "platform_length_m": 59.5
      },
      "type": "Feature"
    },
    {
      "geometry": {
        "coordinates": [
          13.574602564521218,
          7.28667427563618
        ],
        "type": "Point"
      },
      "properties": {
        "anchor_kind": "amenity:college",
        "anchor_name": "CEFAPI",
        "archetype": "depot-terminal",
        "chainage_m": 12880.2,
        "corridor_offset_m": 0.0,
        "id": "line-1-0717-0503-s012880",
        "junction_group": null,
        "line": "line-1",
        "platform_length_m": 59.5
      },
      "type": "Feature"
    },
    {
      "geometry": {
        "coordinates": [
          13.55359065293341,
          7.334545275888133
        ],
        "type": "Point"
      },
      "properties": {
        "anchor_kind": "amenity:college",
        "anchor_name": "SAR/SM de Ngaoundéré",
        "archetype": "terminal",
        "chainage_m": 0.0,
        "corridor_offset_m": 0.0,
        "id": "line-2-0451-0387-s000000",
        "junction_group": null,
        "line": "line-2",
        "platform_length_m": 59.5
      },
      "type": "Feature"
    },
    {
      "geometry": {
        "coordinates": [
          13.565002294571617,
          7.332205715725443
        ],
        "type": "Point"
      },
      "properties": {
        "anchor_kind": null,
        "anchor_name": null,
        "archetype": "standard",
        "chainage_m": 2017.1,
        "corridor_offset_m": 0.604,
        "id": "line-2-0464-0450-s002017",
        "junction_group": null,
        "line": "line-2",
        "platform_length_m": 59.5
      },
      "type": "Feature"
    },
    {
      "geometry": {
        "coordinates": [
          13.570255272468568,
          7.31888821941475
        ],
        "type": "Point"
      },
      "properties": {
        "anchor_kind": null,
        "anchor_name": null,
        "archetype": "standard",
        "chainage_m": 4021.3,
        "corridor_offset_m": 0.536,
        "id": "line-2-0538-0479-s004021",
        "junction_group": null,
        "line": "line-2",
        "platform_length_m": 59.5
      },
      "type": "Feature"
    },
    {
      "geometry": {
        "coordinates": [
          13.577319622054125,
          7.314748997588453
        ],
        "type": "Point"
      },
      "properties": {
        "anchor_kind": "amenity:college",
        "anchor_name": "SATEP",
        "archetype": "interchange-elevated",
        "chainage_m": 5222.2,
        "corridor_offset_m": 1.241,
        "id": "line-2-0561-0518-s005222",
        "junction_group": 0,
        "line": "line-2",
        "platform_length_m": 59.5
      },
      "type": "Feature"
    },
    {
      "geometry": {
        "coordinates": [
          13.583116011457658,
          7.317448490083864
        ],
        "type": "Point"
      },
      "properties": {
        "anchor_kind": null,
        "anchor_name": null,
        "archetype": "interchange-elevated",
        "chainage_m": 5998.1,
        "corridor_offset_m": 0.206,
        "id": "line-2-0546-0550-s005998",
        "junction_group": 0,
        "line": "line-2",
        "platform_length_m": 59.5
      },
      "type": "Feature"
    },
    {
      "geometry": {
        "coordinates": [
          13.591629458394097,
          7.311869538926682
        ],
        "type": "Point"
      },
      "properties": {
        "anchor_kind": null,
        "anchor_name": null,
        "archetype": "standard",
        "chainage_m": 7317.0,
        "corridor_offset_m": 0.711,
        "id": "line-2-0577-0597-s007317",
        "junction_group": null,
        "line": "line-2",
        "platform_length_m": 59.5
      },
      "type": "Feature"
    },
    {
      "geometry": {
        "coordinates": [
          13.600686316837118,
          7.307010452434942
        ],
        "type": "Point"
      },
      "properties": {
        "anchor_kind": "place:neighbourhood",
        "anchor_name": "DAOUDA",
        "archetype": "terminal",
        "chainage_m": 8648.9,
        "corridor_offset_m": 0.0,
        "id": "line-2-0604-0647-s008649",
        "junction_group": null,
        "line": "line-2",
        "platform_length_m": 59.5
      },
      "type": "Feature"
    },
    {
      "geometry": {
        "coordinates": [
          13.549605635218482,
          7.309350012597632
        ],
        "type": "Point"
      },
      "properties": {
        "anchor_kind": "amenity:college",
        "anchor_name": "CEFAPH",
        "archetype": "terminal",
        "chainage_m": 0.0,
        "corridor_offset_m": 0.0,
        "id": "line-3-0591-0365-s000000",
        "junction_group": null,
        "line": "line-3",
        "platform_length_m": 59.5
      },
      "type": "Feature"
    },
    {
      "geometry": {
        "coordinates": [
          13.566089117584779,
          7.307730317100385
        ],
        "type": "Point"
      },
      "properties": {
        "anchor_kind": null,
        "anchor_name": null,
        "archetype": "standard",
        "chainage_m": 2007.7,
        "corridor_offset_m": 2.028,
        "id": "line-3-0600-0456-s002008",
        "junction_group": null,
        "line": "line-3",
        "platform_length_m": 59.5
      },
      "type": "Feature"
    },
    {
      "geometry": {
        "coordinates": [
          13.577863033560705,
          7.312589403592125
        ],
        "type": "Point"
      },
      "properties": {
        "anchor_kind": null,
        "anchor_name": null,
        "archetype": "interchange-elevated",
        "chainage_m": 3667.9,
        "corridor_offset_m": 3.072,
        "id": "line-3-0573-0521-s003668",
        "junction_group": 0,
        "line": "line-3",
        "platform_length_m": 59.5
      },
      "type": "Feature"
    },
    {
      "geometry": {
        "coordinates": [
          13.583116011457658,
          7.317448490083864
        ],
        "type": "Point"
      },
      "properties": {
        "anchor_kind": null,
        "anchor_name": null,
        "archetype": "interchange-elevated",
        "chainage_m": 4530.2,
        "corridor_offset_m": 12.142,
        "id": "line-3-0546-0550-s004530",
        "junction_group": 0,
        "line": "line-3",
        "platform_length_m": 59.5
      },
      "type": "Feature"
    },
    {
      "geometry": {
        "coordinates": [
          13.585108520315123,
          7.326806730734622
        ],
        "type": "Point"
      },
      "properties": {
        "anchor_kind": "amenity:college",
        "anchor_name": "Centre Socio-menager",
        "archetype": "major",
        "chainage_m": 6083.6,
        "corridor_offset_m": 0.126,
        "id": "line-3-0494-0561-s006084",
        "junction_group": null,
        "line": "line-3",
        "platform_length_m": 59.5
      },
      "type": "Feature"
    },
    {
      "geometry": {
        "coordinates": [
          13.589636949536633,
          7.338684497714429
        ],
        "type": "Point"
      },
      "properties": {
        "anchor_kind": "railway:station",
        "anchor_name": "Ngaoundéré",
        "archetype": "terminal",
        "chainage_m": 7848.7,
        "corridor_offset_m": 0.0,
        "id": "line-3-0428-0586-s007849",
        "junction_group": null,
        "line": "line-3",
        "platform_length_m": 59.5
      },
      "type": "Feature"
    }
  ],
  "type": "FeatureCollection"
}
