{
  "features": [
    {
      "geometry": {
        "coordinates": [
          87.27867576316692,
          26.47525843021512
        ],
        "type": "Point"
      },
      "properties": {
        "id": "interchange-000",
        "junction_group": 0,
        "line_count": 2,
        "lines": "line-1,line-3",
        "platform_count": 3,
        "platforms": "line-1-0252-0403-s007918,line-3-0242-0424-s009045,line-3-0252-0403-s008519"
      },
      "type": "Feature"
    },
    {
      "geometry": {
        "coordinates": [
          87.27867576316692,
          26.492295227297266
        ],
        "type": "Point"
      },
      "properties": {
        "id": "interchange-001",
        "junction_group": 1,
        "line_count": 2,
        "lines": "line-1,line-4",
        "platform_count": 2,
        "platforms": "line-1-0154-0410-s009936,line-4-0154-0410-s000000"
      },
      "type": "Feature"
    },
    {
      "geometry": {
        "coordinates": [
          87.22268833826175,
          26.454322366195154
        ],
        "type": "Point"
      },
      "properties": {
        "id": "interchange-002",
        "junction_group": 2,
        "line_count": 2,
        "lines": "line-3,line-5",
        "platform_count": 2,
        "platforms": "line-3-0365-0131-s001902,line-5-0365-0131-s000000"
      },
      "type": "Feature"
    },
    {
      "geometry": {
        "coordinates": [
          87.26021395997238,
          26.467279930173127
        ],
        "type": "Point"
      },
      "properties": {
        "id": "interchange-003",
        "junction_group": 3,
        "line_count": 2,
        "lines": "line-3,line-6",
        "platform_count": 2,
        "platforms": "line-3-0293-0318-s006432,line-6-0293-0318-s000000"
      },
      "type": "Feature"
    }
  ],
  "type": "FeatureCollection"
}
