{
  "features": [
    {
      "geometry": {
        "coordinates": [
          -4.948360002010473,
          34.06294865925206
        ],
        "type": "Point"
      },
      "properties": {
        "anchor_kind": "place:neighbourhood",
        "anchor_name": "Hay Lalla el Yakoute",
        "archetype": "terminal",
        "chainage_m": 0.0,
        "corridor_offset_m": 0.0,
        "id": "line-1-0551-1076-s000000",
        "junction_group": null,
        "line": "line-1",
        "platform_length_m": 85.0
      },
      "type": "Feature"
    },
    {
      "geometry": {
        "coordinates": [
          -4.960715208592361,
          34.05521011409855
        ],
        "type": "Point"
      },
      "properties": {
        "anchor_kind": null,
        "anchor_name": null,
        "archetype": "interchange",
        "chainage_m": 1554.8,
        "corridor_offset_m": 0.011,
        "id": "line-1-0594-1019-s001555",
        "junction_group": 0,
        "line": "line-1",
        "platform_length_m": 85.0
      },
      "type": "Feature"
    },
    {
      "geometry": {
        "coordinates": [
          -4.97458772124571,
          34.04639177194687
        ],
        "type": "Point"
      },
      "properties": {
        "anchor_kind": null,
        "anchor_name": null,
        "archetype": "interchange",
        "chainage_m": 3404.8,
        "corridor_offset_m": 0.047,
        "id": "line-1-0643-0955-s003405",
        "junction_group": 1,
        "line": "line-1",
        "platform_length_m": 85.0
      },
      "type": "Feature"
    },
    {
      "geometry": {
        "coordinates": [
          -4.976538543337587,
          34.04531197494871
        ],
        "type": "Point"
      },
      "properties": {
        "anchor_kind": null,
        "anchor_name": null,
        "archetype": "interchange",
        "chainage_m": 3657.9,
        "corridor_offset_m": 0.025,
        "id": "line-1-0649-0946-s003658",
        "junction_group": 1,
        "line": "line-1",
        "platform_length_m": 85.0
      },
      "type": "Feature"
    },
    {
      "geometry": {
        "coordinates": [
          -4.9917116040521865,
          34.03559380196523
        ],
        "type": "Point"
      },
      "properties": {
        "anchor_kind": "planning:residential",
        "anchor_name": "Residential planning stop; site release open",
        "archetype": "standard",
        "chainage_m": 5599.0,
        "corridor_offset_m": 0.038,
        "id": "line-1-0703-0876-s005599",
        "junction_group": null,
        "line": "line-1",
        "platform_length_m": 85.0
      },
      "type": "Feature"
    },
    {
      "geometry": {
        "coordinates": [
          -5.003850052623867,
          34.028035222978076
        ],
        "type": "Point"
      },
      "properties": {
        "anchor_kind": "planning:residential",
        "anchor_name": "Residential planning stop; site release open",
        "archetype": "standard",
        "chainage_m": 7195.8,
        "corridor_offset_m": 0.032,
        "id": "line-1-0745-0820-s007196",
        "junction_group": null,
        "line": "line-1",
        "platform_length_m": 85.0
      },
      "type": "Feature"
    },
    {
      "geometry": {
        "coordinates": [
          -5.017722565277215,
          34.019216880826406
        ],
        "type": "Point"
      },
      "properties": {
        "anchor_kind": "amenity:college",
        "anchor_name": "Institut Spécialisé de Technologie Appliquée Al-Adarissa المعهد المختص للتكنولوجيا التطبيقية",
        "archetype": "interchange",
        "chainage_m": 8975.4,
        "corridor_offset_m": 0.026,
        "id": "line-1-0794-0756-s008975",
        "junction_group": 2,
        "line": "line-1",
        "platform_length_m": 85.0
      },
      "type": "Feature"
    },
    {
      "geometry": {
        "coordinates": [
          -5.027476675736601,
          34.01291806500378
        ],
        "type": "Point"
      },
      "properties": {
        "anchor_kind": null,
        "anchor_name": null,
        "archetype": "interchange",
        "chainage_m": 10276.7,
        "corridor_offset_m": 14.137,
        "id": "line-1-0829-0711-s010277",
        "junction_group": 3,
        "line": "line-1",
        "platform_length_m": 85.0
      },
      "type": "Feature"
    },
    {
      "geometry": {
        "coordinates": [
          -5.039398366298073,
          34.00571941834935
        ],
        "type": "Point"
      },
      "properties": {
        "anchor_kind": null,
        "anchor_name": null,
        "archetype": "interchange",
        "chainage_m": 11784.2,
        "corridor_offset_m": 0.02,
        "id": "line-1-0869-0656-s011784",
        "junction_group": 4,
        "line": "line-1",
        "platform_length_m": 85.0
      },
      "type": "Feature"
    },
    {
      "geometry": {
        "coordinates": [
          -5.053054120941213,
          33.99708104236404
        ],
        "type": "Point"
      },
      "properties": {
        "anchor_kind": "planning:residential",
        "anchor_name": "Residential planning stop; site release open",
        "archetype": "standard",
        "chainage_m": 13594.2,
        "corridor_offset_m": 0.063,
        "id": "line-1-0917-0593-s013594",
        "junction_group": null,
        "line": "line-1",
        "platform_length_m": 85.0
      },
      "type": "Feature"
    },
    {
      "geometry": {
        "coordinates": [
          -5.06562608553331,
          33.9889825648778
        ],
        "type": "Point"
      },
      "properties": {
        "anchor_kind": "planning:residential",
        "anchor_name": "Residential planning stop; site release open",
        "archetype": "standard",
        "chainage_m": 15197.2,
        "corridor_offset_m": 0.036,
        "id": "line-1-0962-0535-s015197",
        "junction_group": null,
        "line": "line-1",
        "platform_length_m": 85.0
      },
      "type": "Feature"
    },
    {
      "geometry": {
        "coordinates": [
          -5.07776453410499,
          33.98142398589065
        ],
        "type": "Point"
      },
      "properties": {
        "anchor_kind": "planning:residential",
        "anchor_name": "Residential planning stop; site release open",
        "archetype": "standard",
        "chainage_m": 16794.1,
        "corridor_offset_m": 0.058,
        "id": "line-1-1004-0479-s016794",
        "junction_group": null,
        "line": "line-1",
        "platform_length_m": 85.0
      },
      "type": "Feature"
    },
    {
      "geometry": {
        "coordinates": [
          -5.094021384870633,
          33.97116591440809
        ],
        "type": "Point"
      },
      "properties": {
        "anchor_kind": "place:suburb",
        "anchor_name": "Ras El Ma راس الماء",
        "archetype": "depot-terminal",
        "chainage_m": 18883.4,
        "corridor_offset_m": 0.0,
        "id": "line-1-1061-0404-s018883",
        "junction_group": null,
        "line": "line-1",
        "platform_length_m": 85.0
      },
      "type": "Feature"
    },
    {
      "geometry": {
        "coordinates": [
          -5.102474947268767,
          34.03325424180254
        ],
        "type": "Point"
      },
      "properties": {
        "anchor_kind": "place:town",
        "anchor_name": "Douyet ⴹⵡⵢⴰⵜ الظويات",
        "archetype": "terminal",
        "chainage_m": 0.0,
        "corridor_offset_m": 0.0,
        "id": "line-2-0716-0365-s000000",
        "junction_group": null,
        "line": "line-2",
        "platform_length_m": 85.0
      },
      "type": "Feature"
    },
    {
      "geometry": {
        "coordinates": [
          -5.0851343064520815,
          34.030374783140765
        ],
        "type": "Point"
      },
      "properties": {
        "anchor_kind": null,
        "anchor_name": null,
        "archetype": "standard",
        "chainage_m": 1732.5,
        "corridor_offset_m": 0.038,
        "id": "line-2-0732-0445-s001733",
        "junction_group": null,
        "line": "line-2",
        "platform_length_m": 85.0
      },
      "type": "Feature"
    },
    {
      "geometry": {
        "coordinates": [
          -5.067793665635396,
          34.027495324479
        ],
        "type": "Point"
      },
      "properties": {
        "anchor_kind": null,
        "anchor_name": null,
        "archetype": "interchange",
        "chainage_m": 3465.1,
        "corridor_offset_m": 0.023,
        "id": "line-2-0748-0525-s003465",
        "junction_group": 5,
        "line": "line-2",
        "platform_length_m": 85.0
      },
      "type": "Feature"
    },
    {
      "geometry": {
        "coordinates": [
          -5.04438380053287,
          34.02353606881906
        ],
        "type": "Point"
      },
      "properties": {
        "anchor_kind": null,
        "anchor_name": null,
        "archetype": "interchange",
        "chainage_m": 5819.1,
        "corridor_offset_m": 0.05,
        "id": "line-2-0770-0633-s005819",
        "junction_group": 6,
        "line": "line-2",
        "platform_length_m": 85.0
      },
      "type": "Feature"
    },
    {
      "geometry": {
        "coordinates": [
          -5.030511287879521,
          34.02137647482273
        ],
        "type": "Point"
      },
      "properties": {
        "anchor_kind": "planning:residential",
        "anchor_name": "Residential planning stop; site release open",
        "archetype": "standard",
        "chainage_m": 7198.5,
        "corridor_offset_m": 0.066,
        "id": "line-2-0782-0697-s007198",
        "junction_group": null,
        "line": "line-2",
        "platform_length_m": 85.0
      },
      "type": "Feature"
    },
    {
      "geometry": {
        "coordinates": [
          -5.017722565277215,
          34.019216880826406
        ],
        "type": "Point"
      },
      "properties": {
        "anchor_kind": "amenity:college",
        "anchor_name": "Institut Spécialisé de Technologie Appliquée Al-Adarissa المعهد المختص للتكنولوجيا التطبيقية",
        "archetype": "interchange",
        "chainage_m": 8477.9,
        "corridor_offset_m": 0.057,
        "id": "line-2-0794-0756-s008478",
        "junction_group": 2,
        "line": "line-2",
        "platform_length_m": 85.0
      },
      "type": "Feature"
    },
    {
      "geometry": {
        "coordinates": [
          -4.9986478603788616,
          34.01597748983191
        ],
        "type": "Point"
      },
      "properties": {
        "anchor_kind": "planning:residential",
        "anchor_name": "Residential planning stop; site release open",
        "archetype": "standard",
        "chainage_m": 10398.7,
        "corridor_offset_m": 0.019,
        "id": "line-2-0812-0844-s010399",
        "junction_group": null,
        "line": "line-2",
        "platform_length_m": 85.0
      },
      "type": "Feature"
    },
    {
      "geometry": {
        "coordinates": [
          -4.982607767623427,
          34.0132779973365
        ],
        "type": "Point"
      },
      "properties": {
        "anchor_kind": "planning:residential",
        "anchor_name": "Residential planning stop; site release open",
        "archetype": "interchange",
        "chainage_m": 12003.0,
        "corridor_offset_m": 0.059,
        "id": "line-2-0827-0918-s012003",
        "junction_group": 7,
        "line": "line-2",
        "platform_length_m": 85.0
      },
      "type": "Feature"
    },
    {
      "geometry": {
        "coordinates": [
          -4.9817407355825924,
          34.01309803117014
        ],
        "type": "Point"
      },
      "properties": {
        "anchor_kind": null,
        "anchor_name": null,
        "archetype": "interchange",
        "chainage_m": 12091.3,
        "corridor_offset_m": 0.071,
        "id": "line-2-0828-0922-s012091",
        "junction_group": 7,
        "line": "line-2",
        "platform_length_m": 85.0
      },
      "type": "Feature"
    },
    {
      "geometry": {
        "coordinates": [
          -4.966567674867992,
          34.010578504841085
        ],
        "type": "Point"
      },
      "properties": {
        "anchor_kind": "amenity:university",
        "anchor_name": "Faculté de Medecine et de Pharmacie de Fès",
        "archetype": "terminal",
        "chainage_m": 13607.2,
        "corridor_offset_m": 0.0,
        "id": "line-2-0842-0992-s013607",
        "junction_group": 8,
        "line": "line-2",
        "platform_length_m": 85.0
      },
      "type": "Feature"
    },
    {
      "geometry": {
        "coordinates": [
          -4.87271145644768,
          34.03811332829428
        ],
        "type": "Point"
      },
      "properties": {
        "anchor_kind": "public_transport:station",
        "anchor_name": "Gare de Sidi Hrazem محطة سيدي حرازم",
        "archetype": "terminal",
        "chainage_m": 0.0,
        "corridor_offset_m": 0.0,
        "id": "line-3-0689-1425-s000000",
        "junction_group": null,
        "line": "line-3",
        "platform_length_m": 85.0
      },
      "type": "Feature"
    },
    {
      "geometry": {
        "coordinates": [
          -4.8939537414481205,
          34.04225255012057
        ],
        "type": "Point"
      },
      "properties": {
        "anchor_kind": "planning:residential",
        "anchor_name": "Residential planning stop; site release open",
        "archetype": "halt",
        "chainage_m": 2396.6,
        "corridor_offset_m": 0.433,
        "id": "line-3-0666-1327-s002397",
        "junction_group": null,
        "line": "line-3",
        "platform_length_m": 81.0
      },
      "type": "Feature"
    },
    {
      "geometry": {
        "coordinates": [
          -4.90782625410147,
          34.04639177194687
        ],
        "type": "Point"
      },
      "properties": {
        "anchor_kind": "planning:residential",
        "anchor_name": "Residential planning stop; site release open",
        "archetype": "halt",
        "chainage_m": 3996.0,
        "corridor_offset_m": 0.916,
        "id": "line-3-0643-1263-s003996",
        "junction_group": null,
        "line": "line-3",
        "platform_length_m": 81.0
      },
      "type": "Feature"
    },
    {
      "geometry": {
        "coordinates": [
          -4.9251668949181555,
          34.04639177194687
        ],
        "type": "Point"
      },
      "properties": {
        "anchor_kind": "planning:residential",
        "anchor_name": "Residential planning stop; site release open",
        "archetype": "standard",
        "chainage_m": 5596.0,
        "corridor_offset_m": 0.688,
        "id": "line-3-0643-1183-s005596",
        "junction_group": null,
        "line": "line-3",
        "platform_length_m": 85.0
      },
      "type": "Feature"
    },
    {
      "geometry": {
        "coordinates": [
          -4.942507535734841,
          34.04639177194687
        ],
        "type": "Point"
      },
      "properties": {
        "anchor_kind": "planning:residential",
        "anchor_name": "Residential planning stop; site release open",
        "archetype": "standard",
        "chainage_m": 7196.0,
        "corridor_offset_m": 0.46,
        "id": "line-3-0643-1103-s007196",
        "junction_group": null,
        "line": "line-3",
        "platform_length_m": 85.0
      },
      "type": "Feature"
    },
    {
      "geometry": {
        "coordinates": [
          -4.959848176551526,
          34.04639177194687
        ],
        "type": "Point"
      },
      "properties": {
        "anchor_kind": "planning:residential",
        "anchor_name": "Residential planning stop; site release open",
        "archetype": "standard",
        "chainage_m": 8796.0,
        "corridor_offset_m": 0.231,
        "id": "line-3-0643-1023-s008796",
        "junction_group": null,
        "line": "line-3",
        "platform_length_m": 85.0
      },
      "type": "Feature"
    },
    {
      "geometry": {
        "coordinates": [
          -4.97458772124571,
          34.04639177194687
        ],
        "type": "Point"
      },
      "properties": {
        "anchor_kind": null,
        "anchor_name": null,
        "archetype": "interchange",
        "chainage_m": 10156.0,
        "corridor_offset_m": 0.037,
        "id": "line-3-0643-0955-s010156",
        "junction_group": 1,
        "line": "line-3",
        "platform_length_m": 85.0
      },
      "type": "Feature"
    },
    {
      "geometry": {
        "coordinates": [
          -4.976105027317169,
          34.04639177194687
        ],
        "type": "Point"
      },
      "properties": {
        "anchor_kind": null,
        "anchor_name": null,
        "archetype": "interchange",
        "chainage_m": 10296.0,
        "corridor_offset_m": 0.017,
        "id": "line-3-0643-0948-s010296",
        "junction_group": 1,
        "line": "line-3",
        "platform_length_m": 85.0
      },
      "type": "Feature"
    },
    {
      "geometry": {
        "coordinates": [
          -4.994529458184898,
          34.04639177194687
        ],
        "type": "Point"
      },
      "properties": {
        "anchor_kind": "planning:residential",
        "anchor_name": "Residential planning stop; site release open",
        "archetype": "standard",
        "chainage_m": 11996.0,
        "corridor_offset_m": 0.225,
        "id": "line-3-0643-0863-s011996",
        "junction_group": null,
        "line": "line-3",
        "platform_length_m": 85.0
      },
      "type": "Feature"
    },
    {
      "geometry": {
        "coordinates": [
          -5.011870099001584,
          34.04639177194687
        ],
        "type": "Point"
      },
      "properties": {
        "anchor_kind": "planning:residential",
        "anchor_name": "Residential planning stop; site release open",
        "archetype": "interchange",
        "chainage_m": 13596.0,
        "corridor_offset_m": 0.454,
        "id": "line-3-0643-0783-s013596",
        "junction_group": 9,
        "line": "line-3",
        "platform_length_m": 85.0
      },
      "type": "Feature"
    },
    {
      "geometry": {
        "coordinates": [
          -5.038097818236821,
          34.04639177194687
        ],
        "type": "Point"
      },
      "properties": {
        "anchor_kind": null,
        "anchor_name": null,
        "archetype": "interchange",
        "chainage_m": 16016.0,
        "corridor_offset_m": 0.799,
        "id": "line-3-0643-0662-s016016",
        "junction_group": 10,
        "line": "line-3",
        "platform_length_m": 85.0
      },
      "type": "Feature"
    },
    {
      "geometry": {
        "coordinates": [
          -5.051320056859544,
          34.04081282078969
        ],
        "type": "Point"
      },
      "properties": {
        "anchor_kind": null,
        "anchor_name": null,
        "archetype": "terminal",
        "chainage_m": 17825.7,
        "corridor_offset_m": 0.0,
        "id": "line-3-0674-0601-s017826",
        "junction_group": 11,
        "line": "line-3",
        "platform_length_m": 85.0
      },
      "type": "Feature"
    },
    {
      "geometry": {
        "coordinates": [
          -5.051320056859544,
          34.04081282078969
        ],
        "type": "Point"
      },
      "properties": {
        "anchor_kind": null,
        "anchor_name": null,
        "archetype": "interchange",
        "chainage_m": 176.6,
        "corridor_offset_m": 0.127,
        "id": "line-4-0674-0601-s000177",
        "junction_group": 11,
        "line": "line-4",
        "platform_length_m": 85.0
      },
      "type": "Feature"
    },
    {
      "geometry": {
        "coordinates": [
          -5.037230786195987,
          34.03703353129612
        ],
        "type": "Point"
      },
      "properties": {
        "anchor_kind": null,
        "anchor_name": null,
        "archetype": "interchange",
        "chainage_m": 1662.3,
        "corridor_offset_m": 0.826,
        "id": "line-4-0695-0666-s001662",
        "junction_group": 12,
        "line": "line-4",
        "platform_length_m": 85.0
      },
      "type": "Feature"
    },
    {
      "geometry": {
        "coordinates": [
          -5.021190693440553,
          34.03595373429795
        ],
        "type": "Point"
      },
      "properties": {
        "anchor_kind": "amenity:hospital",
        "anchor_name": "Dar Al Chifae Fès",
        "archetype": "standard",
        "chainage_m": 3319.7,
        "corridor_offset_m": 1.678,
        "id": "line-4-0701-0740-s003320",
        "junction_group": null,
        "line": "line-4",
        "platform_length_m": 85.0
      },
      "type": "Feature"
    },
    {
      "geometry": {
        "coordinates": [
          -5.012086857011792,
          34.04639177194687
        ],
        "type": "Point"
      },
      "properties": {
        "anchor_kind": null,
        "anchor_name": null,
        "archetype": "interchange",
        "chainage_m": 4956.5,
        "corridor_offset_m": 1.261,
        "id": "line-4-0643-0782-s004956",
        "junction_group": 9,
        "line": "line-4",
        "platform_length_m": 85.0
      },
      "type": "Feature"
    },
    {
      "geometry": {
        "coordinates": [
          -4.9986478603788616,
          34.06024916675665
        ],
        "type": "Point"
      },
      "properties": {
        "anchor_kind": "planning:residential",
        "anchor_name": "Residential planning stop; site release open",
        "archetype": "standard",
        "chainage_m": 7209.3,
        "corridor_offset_m": 0.838,
        "id": "line-4-0566-0844-s007209",
        "junction_group": null,
        "line": "line-4",
        "platform_length_m": 85.0
      },
      "type": "Feature"
    },
    {
      "geometry": {
        "coordinates": [
          -4.984558589715304,
          34.06582811791383
        ],
        "type": "Point"
      },
      "properties": {
        "anchor_kind": "planning:residential",
        "anchor_name": "Residential planning stop; site release open",
        "archetype": "major",
        "chainage_m": 8812.9,
        "corridor_offset_m": 1.259,
        "id": "line-4-0535-0909-s008813",
        "junction_group": null,
        "line": "line-4",
        "platform_length_m": 85.0
      },
      "type": "Feature"
    },
    {
      "geometry": {
        "coordinates": [
          -4.969819045021121,
          34.061508929921175
        ],
        "type": "Point"
      },
      "properties": {
        "anchor_kind": "place:neighbourhood",
        "anchor_name": "Oued Zitoun",
        "archetype": "interchange",
        "chainage_m": 10821.5,
        "corridor_offset_m": 1.511,
        "id": "line-4-0559-0977-s010821",
        "junction_group": 13,
        "line": "line-4",
        "platform_length_m": 85.0
      },
      "type": "Feature"
    },
    {
      "geometry": {
        "coordinates": [
          -4.971986625123207,
          34.05628991109671
        ],
        "type": "Point"
      },
      "properties": {
        "anchor_kind": null,
        "anchor_name": null,
        "archetype": "interchange",
        "chainage_m": 11496.0,
        "corridor_offset_m": 1.063,
        "id": "line-4-0588-0967-s011496",
        "junction_group": 14,
        "line": "line-4",
        "platform_length_m": 85.0
      },
      "type": "Feature"
    },
    {
      "geometry": {
        "coordinates": [
          -4.976105027317169,
          34.04639177194687
        ],
        "type": "Point"
      },
      "properties": {
        "anchor_kind": null,
        "anchor_name": null,
        "archetype": "interchange",
        "chainage_m": 12765.1,
        "corridor_offset_m": 0.309,
        "id": "line-4-0643-0948-s012765",
        "junction_group": 1,
        "line": "line-4",
        "platform_length_m": 85.0
      },
      "type": "Feature"
    },
    {
      "geometry": {
        "coordinates": [
          -4.976538543337587,
          34.04531197494871
        ],
        "type": "Point"
      },
      "properties": {
        "anchor_kind": null,
        "anchor_name": null,
        "archetype": "interchange",
        "chainage_m": 12901.7,
        "corridor_offset_m": 0.259,
        "id": "line-4-0649-0946-s012902",
        "junction_group": 1,
        "line": "line-4",
        "platform_length_m": 85.0
      },
      "type": "Feature"
    },
    {
      "geometry": {
        "coordinates": [
          -4.9817407355825924,
          34.031454580138934
        ],
        "type": "Point"
      },
      "properties": {
        "anchor_kind": "amenity:university",
        "anchor_name": "Université Sidi Mohammed Ben Abdellah جامعة سيدي محمد بن عبد الله",
        "archetype": "standard",
        "chainage_m": 14664.0,
        "corridor_offset_m": 0.774,
        "id": "line-4-0726-0922-s014664",
        "junction_group": null,
        "line": "line-4",
        "platform_length_m": 85.0
      },
      "type": "Feature"
    },
    {
      "geometry": {
        "coordinates": [
          -4.973937447215084,
          34.019216880826406
        ],
        "type": "Point"
      },
      "properties": {
        "anchor_kind": null,
        "anchor_name": null,
        "archetype": "interchange",
        "chainage_m": 16439.4,
        "corridor_offset_m": 1.467,
        "id": "line-4-0794-0958-s016439",
        "junction_group": 15,
        "line": "line-4",
        "platform_length_m": 85.0
      },
      "type": "Feature"
    },
    {
      "geometry": {
        "coordinates": [
          -4.966784432878201,
          34.01075847100745
        ],
        "type": "Point"
      },
      "properties": {
        "anchor_kind": null,
        "anchor_name": null,
        "archetype": "interchange",
        "chainage_m": 17769.9,
        "corridor_offset_m": 1.852,
        "id": "line-4-0841-0991-s017770",
        "junction_group": 8,
        "line": "line-4",
        "platform_length_m": 85.0
      },
      "type": "Feature"
    },
    {
      "geometry": {
        "coordinates": [
          -4.978706123439673,
          33.99438154986862
        ],
        "type": "Point"
      },
      "properties": {
        "anchor_kind": null,
        "anchor_name": null,
        "archetype": "interchange",
        "chainage_m": 20482.7,
        "corridor_offset_m": 2.397,
        "id": "line-4-0932-0936-s020483",
        "junction_group": 16,
        "line": "line-4",
        "platform_length_m": 85.0
      },
      "type": "Feature"
    },
    {
      "geometry": {
        "coordinates": [
          -4.996263522266567,
          33.99384165136954
        ],
        "type": "Point"
      },
      "properties": {
        "anchor_kind": null,
        "anchor_name": null,
        "archetype": "interchange",
        "chainage_m": 22446.4,
        "corridor_offset_m": 1.65,
        "id": "line-4-0935-0855-s022446",
        "junction_group": 17,
        "line": "line-4",
        "platform_length_m": 85.0
      },
      "type": "Feature"
    },
    {
      "geometry": {
        "coordinates": [
          -5.014254437113879,
          34.005179519850266
        ],
        "type": "Point"
      },
      "properties": {
        "anchor_kind": "planning:residential",
        "anchor_name": "Residential planning stop; site release open",
        "archetype": "standard",
        "chainage_m": 24804.0,
        "corridor_offset_m": 1.503,
        "id": "line-4-0872-0772-s024804",
        "junction_group": null,
        "line": "line-4",
        "platform_length_m": 85.0
      },
      "type": "Feature"
    },
    {
      "geometry": {
        "coordinates": [
          -5.027476675736601,
          34.01291806500378
        ],
        "type": "Point"
      },
      "properties": {
        "anchor_kind": null,
        "anchor_name": null,
        "archetype": "interchange",
        "chainage_m": 26476.4,
        "corridor_offset_m": 12.862,
        "id": "line-4-0829-0711-s026476",
        "junction_group": 3,
        "line": "line-4",
        "platform_length_m": 85.0
      },
      "type": "Feature"
    },
    {
      "geometry": {
        "coordinates": [
          -5.042432978440993,
          34.01039853867473
        ],
        "type": "Point"
      },
      "properties": {
        "anchor_kind": null,
        "anchor_name": null,
        "archetype": "interchange",
        "chainage_m": 28031.4,
        "corridor_offset_m": 0.48,
        "id": "line-4-0843-0642-s028031",
        "junction_group": 4,
        "line": "line-4",
        "platform_length_m": 85.0
      },
      "type": "Feature"
    },
    {
      "geometry": {
        "coordinates": [
          -5.057172523135176,
          34.00571941834935
        ],
        "type": "Point"
      },
      "properties": {
        "anchor_kind": "planning:residential",
        "anchor_name": "Residential planning stop; site release open",
        "archetype": "interchange",
        "chainage_m": 29606.7,
        "corridor_offset_m": 0.071,
        "id": "line-4-0869-0574-s029607",
        "junction_group": 18,
        "line": "line-4",
        "platform_length_m": 85.0
      },
      "type": "Feature"
    },
    {
      "geometry": {
        "coordinates": [
          -5.071912067829358,
          34.00104029802397
        ],
        "type": "Point"
      },
      "properties": {
        "anchor_kind": "planning:residential",
        "anchor_name": "Residential planning stop; site release open",
        "archetype": "standard",
        "chainage_m": 31193.9,
        "corridor_offset_m": 0.806,
        "id": "line-4-0895-0506-s031194",
        "junction_group": null,
        "line": "line-4",
        "platform_length_m": 85.0
      },
      "type": "Feature"
    },
    {
      "geometry": {
        "coordinates": [
          -5.086651612523541,
          33.99618121153223
        ],
        "type": "Point"
      },
      "properties": {
        "anchor_kind": "planning:residential",
        "anchor_name": "Residential planning stop; site release open",
        "archetype": "standard",
        "chainage_m": 32812.7,
        "corridor_offset_m": 1.405,
        "id": "line-4-0922-0438-s032813",
        "junction_group": null,
        "line": "line-4",
        "platform_length_m": 85.0
      },
      "type": "Feature"
    },
    {
      "geometry": {
        "coordinates": [
          -5.089686224666462,
          34.00301992585394
        ],
        "type": "Point"
      },
      "properties": {
        "anchor_kind": "planning:residential",
        "anchor_name": "Residential planning stop; site release open",
        "archetype": "standard",
        "chainage_m": 34399.8,
        "corridor_offset_m": 1.321,
        "id": "line-4-0884-0424-s034400",
        "junction_group": null,
        "line": "line-4",
        "platform_length_m": 85.0
      },
      "type": "Feature"
    },
    {
      "geometry": {
        "coordinates": [
          -5.078198050125407,
          34.011658301839255
        ],
        "type": "Point"
      },
      "properties": {
        "anchor_kind": "planning:residential",
        "anchor_name": "Residential planning stop; site release open",
        "archetype": "standard",
        "chainage_m": 36009.7,
        "corridor_offset_m": 1.247,
        "id": "line-4-0836-0477-s036010",
        "junction_group": null,
        "line": "line-4",
        "platform_length_m": 85.0
      },
      "type": "Feature"
    },
    {
      "geometry": {
        "coordinates": [
          -5.067793665635396,
          34.027495324479
        ],
        "type": "Point"
      },
      "properties": {
        "anchor_kind": null,
        "anchor_name": null,
        "archetype": "interchange",
        "chainage_m": 38308.0,
        "corridor_offset_m": 0.43,
        "id": "line-4-0748-0525-s038308",
        "junction_group": 5,
        "line": "line-4",
        "platform_length_m": 85.0
      },
      "type": "Feature"
    },
    {
      "geometry": {
        "coordinates": [
          -4.969819045021121,
          34.061508929921175
        ],
        "type": "Point"
      },
      "properties": {
        "anchor_kind": "place:neighbourhood",
        "anchor_name": "Oued Zitoun",
        "archetype": "terminal",
        "chainage_m": 0.0,
        "corridor_offset_m": 0.0,
        "id": "line-5-0559-0977-s000000",
        "junction_group": 13,
        "line": "line-5",
        "platform_length_m": 85.0
      },
      "type": "Feature"
    },
    {
      "geometry": {
        "coordinates": [
          -4.960715208592361,
          34.05521011409855
        ],
        "type": "Point"
      },
      "properties": {
        "anchor_kind": "planning:residential",
        "anchor_name": "Residential planning stop; site release open",
        "archetype": "interchange",
        "chainage_m": 1174.8,
        "corridor_offset_m": 0.594,
        "id": "line-5-0594-1019-s001175",
        "junction_group": 0,
        "line": "line-5",
        "platform_length_m": 85.0
      },
      "type": "Feature"
    },
    {
      "geometry": {
        "coordinates": [
          -4.971986625123207,
          34.05628991109671
        ],
        "type": "Point"
      },
      "properties": {
        "anchor_kind": null,
        "anchor_name": null,
        "archetype": "interchange",
        "chainage_m": 2264.5,
        "corridor_offset_m": 0.371,
        "id": "line-5-0588-0967-s002265",
        "junction_group": 14,
        "line": "line-5",
        "platform_length_m": 85.0
      },
      "type": "Feature"
    },
    {
      "geometry": {
        "coordinates": [
          -4.983908315684678,
          34.05592997876399
        ],
        "type": "Point"
      },
      "properties": {
        "anchor_kind": "amenity:hospital",
        "anchor_name": "Hôpital Omar Drissi",
        "archetype": "terminal",
        "chainage_m": 3381.1,
        "corridor_offset_m": 0.0,
        "id": "line-5-0590-0912-s003381",
        "junction_group": null,
        "line": "line-5",
        "platform_length_m": 85.0
      },
      "type": "Feature"
    },
    {
      "geometry": {
        "coordinates": [
          -4.996263522266567,
          33.99384165136954
        ],
        "type": "Point"
      },
      "properties": {
        "anchor_kind": null,
        "anchor_name": null,
        "archetype": "terminal",
        "chainage_m": 0.0,
        "corridor_offset_m": 0.0,
        "id": "line-6-0935-0855-s000000",
        "junction_group": 17,
        "line": "line-6",
        "platform_length_m": 85.0
      },
      "type": "Feature"
    },
    {
      "geometry": {
        "coordinates": [
          -5.016422017215964,
          33.98880259871144
        ],
        "type": "Point"
      },
      "properties": {
        "anchor_kind": "planning:residential-priority",
        "anchor_name": "Residential planning stop; site release open",
        "archetype": "standard",
        "chainage_m": 2162.3,
        "corridor_offset_m": 0.159,
        "id": "line-6-0963-0762-s002162",
        "junction_group": null,
        "line": "line-6",
        "platform_length_m": 85.0
      },
      "type": "Feature"
    },
    {
      "geometry": {
        "coordinates": [
          -5.033329142012232,
          33.98970242954324
        ],
        "type": "Point"
      },
      "properties": {
        "anchor_kind": null,
        "anchor_name": null,
        "archetype": "terminal",
        "chainage_m": 3780.2,
        "corridor_offset_m": 0.0,
        "id": "line-6-0958-0684-s003780",
        "junction_group": null,
        "line": "line-6",
        "platform_length_m": 85.0
      },
      "type": "Feature"
    },
    {
      "geometry": {
        "coordinates": [
          -5.056955765124967,
          34.00589938451571
        ],
        "type": "Point"
      },
      "properties": {
        "anchor_kind": null,
        "anchor_name": null,
        "archetype": "terminal",
        "chainage_m": 0.0,
        "corridor_offset_m": 0.0,
        "id": "line-7-0868-0575-s000000",
        "junction_group": 18,
        "line": "line-7",
        "platform_length_m": 85.0
      },
      "type": "Feature"
    },
    {
      "geometry": {
        "coordinates": [
          -5.04438380053287,
          34.02353606881906
        ],
        "type": "Point"
      },
      "properties": {
        "anchor_kind": null,
        "anchor_name": null,
        "archetype": "interchange",
        "chainage_m": 2686.2,
        "corridor_offset_m": 0.347,
        "id": "line-7-0770-0633-s002686",
        "junction_group": 6,
        "line": "line-7",
        "platform_length_m": 85.0
      },
      "type": "Feature"
    },
    {
      "geometry": {
        "coordinates": [
          -5.037230786195987,
          34.03703353129612
        ],
        "type": "Point"
      },
      "properties": {
        "anchor_kind": null,
        "anchor_name": null,
        "archetype": "terminal",
        "chainage_m": 4471.3,
        "corridor_offset_m": 0.0,
        "id": "line-7-0695-0666-s004471",
        "junction_group": 12,
        "line": "line-7",
        "platform_length_m": 85.0
      },
      "type": "Feature"
    },
    {
      "geometry": {
        "coordinates": [
          -4.978706123439673,
          33.99438154986862
        ],
        "type": "Point"
      },
      "properties": {
        "anchor_kind": null,
        "anchor_name": null,
        "archetype": "terminal",
        "chainage_m": 0.0,
        "corridor_offset_m": 0.0,
        "id": "line-8-0932-0936-s000000",
        "junction_group": 16,
        "line": "line-8",
        "platform_length_m": 85.0
      },
      "type": "Feature"
    },
    {
      "geometry": {
        "coordinates": [
          -4.9817407355825924,
          34.01309803117014
        ],
        "type": "Point"
      },
      "properties": {
        "anchor_kind": "planning:residential",
        "anchor_name": "Residential planning stop; site release open",
        "archetype": "interchange",
        "chainage_m": 2361.7,
        "corridor_offset_m": 0.372,
        "id": "line-8-0828-0922-s002362",
        "junction_group": 7,
        "line": "line-8",
        "platform_length_m": 85.0
      },
      "type": "Feature"
    },
    {
      "geometry": {
        "coordinates": [
          -4.973937447215084,
          34.019216880826406
        ],
        "type": "Point"
      },
      "properties": {
        "anchor_kind": "place:neighbourhood",
        "anchor_name": "Aouinat el Hajjaj",
        "archetype": "terminal",
        "chainage_m": 3431.6,
        "corridor_offset_m": 0.0,
        "id": "line-8-0794-0958-s003432",
        "junction_group": 15,
        "line": "line-8",
        "platform_length_m": 85.0
      },
      "type": "Feature"
    },
    {
      "geometry": {
        "coordinates": [
          -5.038097818236821,
          34.04639177194687
        ],
        "type": "Point"
      },
      "properties": {
        "anchor_kind": null,
        "anchor_name": null,
        "archetype": "terminal",
        "chainage_m": 0.0,
        "corridor_offset_m": 0.0,
        "id": "line-9-0643-0662-s000000",
        "junction_group": 10,
        "line": "line-9",
        "platform_length_m": 85.0
      },
      "type": "Feature"
    },
    {
      "geometry": {
        "coordinates": [
          -5.0216242094609695,
          34.06078906525573
        ],
        "type": "Point"
      },
      "properties": {
        "anchor_kind": null,
        "anchor_name": null,
        "archetype": "terminal",
        "chainage_m": 2850.5,
        "corridor_offset_m": 0.0,
        "id": "line-9-0563-0738-s002851",
        "junction_group": null,
        "line": "line-9",
        "platform_length_m": 85.0
      },
      "type": "Feature"
    }
  ],
  "type": "FeatureCollection"
}
