{
  "features": [
    {
      "geometry": {
        "coordinates": [
          42.60230866382832,
          16.83397901234568
        ],
        "type": "Point"
      },
      "properties": {
        "anchor_kind": "amenity:college",
        "anchor_name": "كلية الطب",
        "archetype": "terminal",
        "chainage_m": 0.0,
        "corridor_offset_m": 0.0,
        "id": "line-1-0857-0824-s000000",
        "junction_group": null,
        "line": "line-1",
        "platform_length_m": 59.5
      },
      "type": "Feature"
    },
    {
      "geometry": {
        "coordinates": [
          42.59123078491277,
          16.845316880826402
        ],
        "type": "Point"
      },
      "properties": {
        "anchor_kind": null,
        "anchor_name": null,
        "archetype": "standard",
        "chainage_m": 2021.1,
        "corridor_offset_m": 23.03,
        "id": "line-1-0794-0765-s002021",
        "junction_group": null,
        "line": "line-1",
        "platform_length_m": 59.5
      },
      "type": "Feature"
    },
    {
      "geometry": {
        "coordinates": [
          42.57808753874178,
          16.857914512471655
        ],
        "type": "Point"
      },
      "properties": {
        "anchor_kind": null,
        "anchor_name": null,
        "archetype": "standard",
        "chainage_m": 4024.4,
        "corridor_offset_m": 24.773,
        "id": "line-1-0724-0695-s004024",
        "junction_group": null,
        "line": "line-1",
        "platform_length_m": 59.5
      },
      "type": "Feature"
    },
    {
      "geometry": {
        "coordinates": [
          42.567009659826226,
          16.871411974948707
        ],
        "type": "Point"
      },
      "properties": {
        "anchor_kind": null,
        "anchor_name": null,
        "archetype": "standard",
        "chainage_m": 6024.9,
        "corridor_offset_m": 22.946,
        "id": "line-1-0649-0636-s006025",
        "junction_group": null,
        "line": "line-1",
        "platform_length_m": 59.5
      },
      "type": "Feature"
    },
    {
      "geometry": {
        "coordinates": [
          42.561001318719484,
          16.88167004643127
        ],
        "type": "Point"
      },
      "properties": {
        "anchor_kind": null,
        "anchor_name": null,
        "archetype": "standard",
        "chainage_m": 7430.0,
        "corridor_offset_m": 4.251,
        "id": "line-1-0592-0604-s007430",
        "junction_group": null,
        "line": "line-1",
        "platform_length_m": 59.5
      },
      "type": "Feature"
    },
    {
      "geometry": {
        "coordinates": [
          42.555180738272334,
          16.891208253248386
        ],
        "type": "Point"
      },
      "properties": {
        "anchor_kind": null,
        "anchor_name": null,
        "archetype": "interchange-elevated",
        "chainage_m": 8852.2,
        "corridor_offset_m": 49.253,
        "id": "line-1-0539-0573-s008852",
        "junction_group": 0,
        "line": "line-1",
        "platform_length_m": 59.5
      },
      "type": "Feature"
    },
    {
      "geometry": {
        "coordinates": [
          42.54917239716559,
          16.902366155562753
        ],
        "type": "Point"
      },
      "properties": {
        "anchor_kind": "amenity:marketplace",
        "anchor_name": "سوق التمور والحبوب",
        "archetype": "major",
        "chainage_m": 10480.2,
        "corridor_offset_m": 53.664,
        "id": "line-1-0477-0541-s010480",
        "junction_group": null,
        "line": "line-1",
        "platform_length_m": 59.5
      },
      "type": "Feature"
    },
    {
      "geometry": {
        "coordinates": [
          42.55086224310187,
          16.918743076701578
        ],
        "type": "Point"
      },
      "properties": {
        "anchor_kind": "place:neighbourhood",
        "anchor_name": "الشاطئ",
        "archetype": "interchange",
        "chainage_m": 12492.7,
        "corridor_offset_m": 19.899,
        "id": "line-1-0386-0550-s012493",
        "junction_group": 1,
        "line": "line-1",
        "platform_length_m": 59.5
      },
      "type": "Feature"
    },
    {
      "geometry": {
        "coordinates": [
          42.54842135452725,
          16.932600471511353
        ],
        "type": "Point"
      },
      "properties": {
        "anchor_kind": null,
        "anchor_name": null,
        "archetype": "standard",
        "chainage_m": 14513.8,
        "corridor_offset_m": 34.667,
        "id": "line-1-0309-0537-s014514",
        "junction_group": null,
        "line": "line-1",
        "platform_length_m": 59.5
      },
      "type": "Feature"
    },
    {
      "geometry": {
        "coordinates": [
          42.542413013420514,
          16.947897595652016
        ],
        "type": "Point"
      },
      "properties": {
        "anchor_kind": null,
        "anchor_name": null,
        "archetype": "standard",
        "chainage_m": 16514.1,
        "corridor_offset_m": 20.993,
        "id": "line-1-0224-0505-s016514",
        "junction_group": null,
        "line": "line-1",
        "platform_length_m": 59.5
      },
      "type": "Feature"
    },
    {
      "geometry": {
        "coordinates": [
          42.542413013420514,
          16.959595396465463
        ],
        "type": "Point"
      },
      "properties": {
        "anchor_kind": null,
        "anchor_name": null,
        "archetype": "standard",
        "chainage_m": 17814.1,
        "corridor_offset_m": 20.363,
        "id": "line-1-0159-0505-s017814",
        "junction_group": null,
        "line": "line-1",
        "platform_length_m": 59.5
      },
      "type": "Feature"
    },
    {
      "geometry": {
        "coordinates": [
          42.5504867217827,
          16.965534279955367
        ],
        "type": "Point"
      },
      "properties": {
        "anchor_kind": null,
        "anchor_name": null,
        "archetype": "standard",
        "chainage_m": 19099.7,
        "corridor_offset_m": 10.188,
        "id": "line-1-0126-0548-s019100",
        "junction_group": null,
        "line": "line-1",
        "platform_length_m": 59.5
      },
      "type": "Feature"
    },
    {
      "geometry": {
        "coordinates": [
          42.55273984969772,
          16.977951945434256
        ],
        "type": "Point"
      },
      "properties": {
        "anchor_kind": "amenity:college",
        "anchor_name": "كلية الصحة العامة وطب المناطق الحارة",
        "archetype": "depot-terminal",
        "chainage_m": 20895.1,
        "corridor_offset_m": 0.0,
        "id": "line-1-0057-0560-s020895",
        "junction_group": null,
        "line": "line-1",
        "platform_length_m": 59.5
      },
      "type": "Feature"
    },
    {
      "geometry": {
        "coordinates": [
          42.534151544398746,
          16.893187881078354
        ],
        "type": "Point"
      },
      "properties": {
        "anchor_kind": "public_transport:station",
        "anchor_name": "جيزان",
        "archetype": "terminal",
        "chainage_m": 0.0,
        "corridor_offset_m": 0.0,
        "id": "line-2-0528-0461-s000000",
        "junction_group": null,
        "line": "line-2",
        "platform_length_m": 59.5
      },
      "type": "Feature"
    },
    {
      "geometry": {
        "coordinates": [
          42.54353957737803,
          16.89174815174747
        ],
        "type": "Point"
      },
      "properties": {
        "anchor_kind": "amenity:marketplace",
        "anchor_name": null,
        "archetype": "major",
        "chainage_m": 1226.3,
        "corridor_offset_m": 0.09,
        "id": "line-2-0536-0511-s001226",
        "junction_group": null,
        "line": "line-2",
        "platform_length_m": 59.5
      },
      "type": "Feature"
    },
    {
      "geometry": {
        "coordinates": [
          42.555180738272334,
          16.891208253248386
        ],
        "type": "Point"
      },
      "properties": {
        "anchor_kind": null,
        "anchor_name": null,
        "archetype": "interchange-elevated",
        "chainage_m": 2557.4,
        "corridor_offset_m": 0.373,
        "id": "line-2-0539-0573-s002557",
        "junction_group": 0,
        "line": "line-2",
        "platform_length_m": 59.5
      },
      "type": "Feature"
    },
    {
      "geometry": {
        "coordinates": [
          42.56963830906042,
          16.898406899902817
        ],
        "type": "Point"
      },
      "properties": {
        "anchor_kind": null,
        "anchor_name": null,
        "archetype": "standard",
        "chainage_m": 4445.3,
        "corridor_offset_m": 0.135,
        "id": "line-2-0499-0650-s004445",
        "junction_group": null,
        "line": "line-2",
        "platform_length_m": 59.5
      },
      "type": "Feature"
    },
    {
      "geometry": {
        "coordinates": [
          42.586724529082716,
          16.902546121729113
        ],
        "type": "Point"
      },
      "properties": {
        "anchor_kind": null,
        "anchor_name": null,
        "archetype": "standard",
        "chainage_m": 6455.9,
        "corridor_offset_m": 0.511,
        "id": "line-2-0476-0741-s006456",
        "junction_group": null,
        "line": "line-2",
        "platform_length_m": 59.5
      },
      "type": "Feature"
    },
    {
      "geometry": {
        "coordinates": [
          42.59573704074282,
          16.909924734549904
        ],
        "type": "Point"
      },
      "properties": {
        "anchor_kind": "place:neighbourhood",
        "anchor_name": "النسيم",
        "archetype": "terminal",
        "chainage_m": 7884.4,
        "corridor_offset_m": 0.0,
        "id": "line-2-0435-0789-s007884",
        "junction_group": null,
        "line": "line-2",
        "platform_length_m": 59.5
      },
      "type": "Feature"
    },
    {
      "geometry": {
        "coordinates": [
          42.646807940150104,
          16.81670226037505
        ],
        "type": "Point"
      },
      "properties": {
        "anchor_kind": "amenity:marketplace",
        "anchor_name": "سوق المواشي",
        "archetype": "terminal",
        "chainage_m": 0.0,
        "corridor_offset_m": 0.0,
        "id": "line-3-0953-1061-s000000",
        "junction_group": null,
        "line": "line-3",
        "platform_length_m": 59.5
      },
      "type": "Feature"
    },
    {
      "geometry": {
        "coordinates": [
          42.62089696912729,
          16.828759993521217
        ],
        "type": "Point"
      },
      "properties": {
        "anchor_kind": null,
        "anchor_name": null,
        "archetype": "halt",
        "chainage_m": 3507.4,
        "corridor_offset_m": 3.464,
        "id": "line-3-0886-0923-s003507",
        "junction_group": null,
        "line": "line-3",
        "platform_length_m": 55.5
      },
      "type": "Feature"
    },
    {
      "geometry": {
        "coordinates": [
          42.61150893614801,
          16.840997692833746
        ],
        "type": "Point"
      },
      "properties": {
        "anchor_kind": null,
        "anchor_name": null,
        "archetype": "standard",
        "chainage_m": 5978.1,
        "corridor_offset_m": 5.265,
        "id": "line-3-0818-0873-s005978",
        "junction_group": null,
        "line": "line-3",
        "platform_length_m": 59.5
      },
      "type": "Feature"
    },
    {
      "geometry": {
        "coordinates": [
          42.59930449327495,
          16.85431518914444
        ],
        "type": "Point"
      },
      "properties": {
        "anchor_kind": null,
        "anchor_name": null,
        "archetype": "standard",
        "chainage_m": 7996.6,
        "corridor_offset_m": 6.42,
        "id": "line-3-0744-0808-s007997",
        "junction_group": null,
        "line": "line-3",
        "platform_length_m": 59.5
      },
      "type": "Feature"
    },
    {
      "geometry": {
        "coordinates": [
          42.58728781106147,
          16.867632685455135
        ],
        "type": "Point"
      },
      "properties": {
        "anchor_kind": null,
        "anchor_name": null,
        "archetype": "standard",
        "chainage_m": 10006.8,
        "corridor_offset_m": 7.538,
        "id": "line-3-0670-0744-s010007",
        "junction_group": null,
        "line": "line-3",
        "platform_length_m": 59.5
      },
      "type": "Feature"
    },
    {
      "geometry": {
        "coordinates": [
          42.57865082072053,
          16.882209944930352
        ],
        "type": "Point"
      },
      "properties": {
        "anchor_kind": "amenity:bus_station",
        "anchor_name": "النقل الجماعي سابتكو",
        "archetype": "standard",
        "chainage_m": 12007.9,
        "corridor_offset_m": 8.24,
        "id": "line-3-0589-0698-s012008",
        "junction_group": null,
        "line": "line-3",
        "platform_length_m": 59.5
      },
      "type": "Feature"
    },
    {
      "geometry": {
        "coordinates": [
          42.568323984443325,
          16.888148828420256
        ],
        "type": "Point"
      },
      "properties": {
        "anchor_kind": "amenity:hospital",
        "anchor_name": "مستشفى العميس",
        "archetype": "standard",
        "chainage_m": 13568.7,
        "corridor_offset_m": 9.578,
        "id": "line-3-0556-0643-s013569",
        "junction_group": null,
        "line": "line-3",
        "platform_length_m": 59.5
      },
      "type": "Feature"
    },
    {
      "geometry": {
        "coordinates": [
          42.555180738272334,
          16.891208253248386
        ],
        "type": "Point"
      },
      "properties": {
        "anchor_kind": null,
        "anchor_name": null,
        "archetype": "interchange-elevated",
        "chainage_m": 15109.5,
        "corridor_offset_m": 8.749,
        "id": "line-3-0539-0573-s015110",
        "junction_group": 0,
        "line": "line-3",
        "platform_length_m": 59.5
      },
      "type": "Feature"
    },
    {
      "geometry": {
        "coordinates": [
          42.5568705842086,
          16.901106392398226
        ],
        "type": "Point"
      },
      "properties": {
        "anchor_kind": "amenity:marketplace",
        "anchor_name": null,
        "archetype": "major",
        "chainage_m": 16449.8,
        "corridor_offset_m": 0.802,
        "id": "line-3-0484-0582-s016450",
        "junction_group": null,
        "line": "line-3",
        "platform_length_m": 59.5
      },
      "type": "Feature"
    },
    {
      "geometry": {
        "coordinates": [
          42.5568705842086,
          16.911004531548066
        ],
        "type": "Point"
      },
      "properties": {
        "anchor_kind": "amenity:college",
        "anchor_name": null,
        "archetype": "standard",
        "chainage_m": 17760.3,
        "corridor_offset_m": 0.534,
        "id": "line-3-0429-0582-s017760",
        "junction_group": null,
        "line": "line-3",
        "platform_length_m": 59.5
      },
      "type": "Feature"
    },
    {
      "geometry": {
        "coordinates": [
          42.55367865299565,
          16.919462941367023
        ],
        "type": "Point"
      },
      "properties": {
        "anchor_kind": "place:neighbourhood",
        "anchor_name": "الشاطئ",
        "archetype": "terminal",
        "chainage_m": 19081.2,
        "corridor_offset_m": 0.0,
        "id": "line-3-0382-0565-s019081",
        "junction_group": 1,
        "line": "line-3",
        "platform_length_m": 59.5
      },
      "type": "Feature"
    }
  ],
  "type": "FeatureCollection"
}
