{
  "features": [
    {
      "geometry": {
        "coordinates": [
          10.309828562362297,
          36.74765180146132
        ],
        "type": "Point"
      },
      "properties": {
        "anchor_kind": "amenity:marketplace",
        "anchor_name": "Marché d'Ezzahra",
        "archetype": "terminal",
        "chainage_m": 0.0,
        "corridor_offset_m": 0.0,
        "id": "line-1-1235-1603-s000000",
        "junction_group": null,
        "line": "line-1",
        "platform_length_m": 85.0
      },
      "type": "Feature"
    },
    {
      "geometry": {
        "coordinates": [
          10.266967785679292,
          36.760069466940216
        ],
        "type": "Point"
      },
      "properties": {
        "anchor_kind": "amenity:university",
        "anchor_name": "ISET Radès",
        "archetype": "standard",
        "chainage_m": 4450.2,
        "corridor_offset_m": 67.921,
        "id": "line-1-1166-1412-s004450",
        "junction_group": null,
        "line": "line-1",
        "platform_length_m": 85.0
      },
      "type": "Feature"
    },
    {
      "geometry": {
        "coordinates": [
          10.253503667349552,
          36.76384875643379
        ],
        "type": "Point"
      },
      "properties": {
        "anchor_kind": null,
        "anchor_name": null,
        "archetype": "interchange",
        "chainage_m": 5847.6,
        "corridor_offset_m": 91.106,
        "id": "line-1-1145-1352-s005848",
        "junction_group": 0,
        "line": "line-1",
        "platform_length_m": 85.0
      },
      "type": "Feature"
    },
    {
      "geometry": {
        "coordinates": [
          10.23779552929819,
          36.76834791059281
        ],
        "type": "Point"
      },
      "properties": {
        "anchor_kind": "amenity:hospital",
        "anchor_name": null,
        "archetype": "standard",
        "chainage_m": 7466.4,
        "corridor_offset_m": 104.939,
        "id": "line-1-1120-1282-s007466",
        "junction_group": null,
        "line": "line-1",
        "platform_length_m": 85.0
      },
      "type": "Feature"
    },
    {
      "geometry": {
        "coordinates": [
          10.219170165608716,
          36.77374689558363
        ],
        "type": "Point"
      },
      "properties": {
        "anchor_kind": null,
        "anchor_name": null,
        "archetype": "standard",
        "chainage_m": 9398.4,
        "corridor_offset_m": 132.198,
        "id": "line-1-1090-1199-s009398",
        "junction_group": null,
        "line": "line-1",
        "platform_length_m": 85.0
      },
      "type": "Feature"
    },
    {
      "geometry": {
        "coordinates": [
          10.200544801919243,
          36.779145880574454
        ],
        "type": "Point"
      },
      "properties": {
        "anchor_kind": null,
        "anchor_name": null,
        "archetype": "standard",
        "chainage_m": 11318.6,
        "corridor_offset_m": 147.168,
        "id": "line-1-1060-1116-s011319",
        "junction_group": null,
        "line": "line-1",
        "platform_length_m": 85.0
      },
      "type": "Feature"
    },
    {
      "geometry": {
        "coordinates": [
          10.171372545538139,
          36.7876042903934
        ],
        "type": "Point"
      },
      "properties": {
        "anchor_kind": "amenity:university",
        "anchor_name": "IPEIT",
        "archetype": "major",
        "chainage_m": 14331.4,
        "corridor_offset_m": 175.007,
        "id": "line-1-1013-0986-s014331",
        "junction_group": null,
        "line": "line-1",
        "platform_length_m": 85.0
      },
      "type": "Feature"
    },
    {
      "geometry": {
        "coordinates": [
          10.142200289157035,
          36.795882734045996
        ],
        "type": "Point"
      },
      "properties": {
        "anchor_kind": "place:suburb",
        "anchor_name": "الزهور",
        "archetype": "standard",
        "chainage_m": 17335.9,
        "corridor_offset_m": 202.921,
        "id": "line-1-0967-0856-s017336",
        "junction_group": null,
        "line": "line-1",
        "platform_length_m": 85.0
      },
      "type": "Feature"
    },
    {
      "geometry": {
        "coordinates": [
          10.113028032775933,
          36.80434114386495
        ],
        "type": "Point"
      },
      "properties": {
        "anchor_kind": "public_transport:station",
        "anchor_name": "صناعات تقليدية",
        "archetype": "standard",
        "chainage_m": 20348.7,
        "corridor_offset_m": 232.46,
        "id": "line-1-0920-0726-s020349",
        "junction_group": null,
        "line": "line-1",
        "platform_length_m": 85.0
      },
      "type": "Feature"
    },
    {
      "geometry": {
        "coordinates": [
          10.089241423726726,
          36.81117985818666
        ],
        "type": "Point"
      },
      "properties": {
        "anchor_kind": "amenity:marketplace",
        "anchor_name": "سوق المدينة",
        "archetype": "standard",
        "chainage_m": 22818.7,
        "corridor_offset_m": 267.726,
        "id": "line-1-0882-0620-s022819",
        "junction_group": null,
        "line": "line-1",
        "platform_length_m": 85.0
      },
      "type": "Feature"
    },
    {
      "geometry": {
        "coordinates": [
          10.065230412705356,
          36.81819853867473
        ],
        "type": "Point"
      },
      "properties": {
        "anchor_kind": null,
        "anchor_name": null,
        "archetype": "interchange",
        "chainage_m": 25305.2,
        "corridor_offset_m": 294.043,
        "id": "line-1-0843-0513-s025305",
        "junction_group": 1,
        "line": "line-1",
        "platform_length_m": 85.0
      },
      "type": "Feature"
    },
    {
      "geometry": {
        "coordinates": [
          10.024389253771812,
          36.830076305654536
        ],
        "type": "Point"
      },
      "properties": {
        "anchor_kind": null,
        "anchor_name": null,
        "archetype": "halt",
        "chainage_m": 29396.3,
        "corridor_offset_m": 211.553,
        "id": "line-1-0777-0331-s029396",
        "junction_group": null,
        "line": "line-1",
        "platform_length_m": 81.0
      },
      "type": "Feature"
    },
    {
      "geometry": {
        "coordinates": [
          9.983323692866106,
          36.835115358312635
        ],
        "type": "Point"
      },
      "properties": {
        "anchor_kind": "place:suburb",
        "anchor_name": "حي الرياض",
        "archetype": "terminal",
        "chainage_m": 33481.3,
        "corridor_offset_m": 0.0,
        "id": "line-1-0749-0148-s033481",
        "junction_group": null,
        "line": "line-1",
        "platform_length_m": 85.0
      },
      "type": "Feature"
    },
    {
      "geometry": {
        "coordinates": [
          10.169801731733003,
          36.69744124104668
        ],
        "type": "Point"
      },
      "properties": {
        "anchor_kind": "amenity:hospital",
        "anchor_name": "المستشفى الجهوي فوشانة",
        "archetype": "terminal",
        "chainage_m": 0.0,
        "corridor_offset_m": 0.0,
        "id": "line-2-1514-0979-s000000",
        "junction_group": null,
        "line": "line-2",
        "platform_length_m": 85.0
      },
      "type": "Feature"
    },
    {
      "geometry": {
        "coordinates": [
          10.182817046118418,
          36.71777741784545
        ],
        "type": "Point"
      },
      "properties": {
        "anchor_kind": null,
        "anchor_name": null,
        "archetype": "interchange",
        "chainage_m": 2967.7,
        "corridor_offset_m": 32.316,
        "id": "line-2-1401-1037-s002968",
        "junction_group": 2,
        "line": "line-2",
        "platform_length_m": 85.0
      },
      "type": "Feature"
    },
    {
      "geometry": {
        "coordinates": [
          10.183939055979229,
          36.74369254580139
        ],
        "type": "Point"
      },
      "properties": {
        "anchor_kind": null,
        "anchor_name": null,
        "archetype": "standard",
        "chainage_m": 5889.1,
        "corridor_offset_m": 27.717,
        "id": "line-2-1257-1042-s005889",
        "junction_group": null,
        "line": "line-2",
        "platform_length_m": 85.0
      },
      "type": "Feature"
    },
    {
      "geometry": {
        "coordinates": [
          10.185061065840042,
          36.77032753842278
        ],
        "type": "Point"
      },
      "properties": {
        "anchor_kind": "public_transport:station",
        "anchor_name": "محمد علي",
        "archetype": "standard",
        "chainage_m": 8890.5,
        "corridor_offset_m": 22.504,
        "id": "line-2-1109-1047-s008891",
        "junction_group": null,
        "line": "line-2",
        "platform_length_m": 85.0
      },
      "type": "Feature"
    },
    {
      "geometry": {
        "coordinates": [
          10.186183075700853,
          36.79660259871144
        ],
        "type": "Point"
      },
      "properties": {
        "anchor_kind": "public_transport:station",
        "anchor_name": "فرحات حشاد",
        "archetype": "major",
        "chainage_m": 11852.0,
        "corridor_offset_m": 15.912,
        "id": "line-2-0963-1052-s011852",
        "junction_group": null,
        "line": "line-2",
        "platform_length_m": 85.0
      },
      "type": "Feature"
    },
    {
      "geometry": {
        "coordinates": [
          10.187305085561665,
          36.82323759133283
        ],
        "type": "Point"
      },
      "properties": {
        "anchor_kind": "railway:station",
        "anchor_name": "الحدائق",
        "archetype": "interchange",
        "chainage_m": 14853.4,
        "corridor_offset_m": 10.698,
        "id": "line-2-0815-1057-s014853",
        "junction_group": 3,
        "line": "line-2",
        "platform_length_m": 85.0
      },
      "type": "Feature"
    },
    {
      "geometry": {
        "coordinates": [
          10.188427095422476,
          36.849872583954216
        ],
        "type": "Point"
      },
      "properties": {
        "anchor_kind": "amenity:college",
        "anchor_name": "معهد حنبعل",
        "archetype": "standard",
        "chainage_m": 17854.8,
        "corridor_offset_m": 4.592,
        "id": "line-2-0667-1062-s017855",
        "junction_group": null,
        "line": "line-2",
        "platform_length_m": 85.0
      },
      "type": "Feature"
    },
    {
      "geometry": {
        "coordinates": [
          10.196954370364645,
          36.90098297520066
        ],
        "type": "Point"
      },
      "properties": {
        "anchor_kind": null,
        "anchor_name": null,
        "archetype": "terminal",
        "chainage_m": 24826.2,
        "corridor_offset_m": 5.994,
        "id": "line-2-0383-1100-s024826",
        "junction_group": 4,
        "line": "line-2",
        "platform_length_m": 85.0
      },
      "type": "Feature"
    },
    {
      "geometry": {
        "coordinates": [
          9.967615554814742,
          36.75341071878487
        ],
        "type": "Point"
      },
      "properties": {
        "anchor_kind": "place:suburb",
        "anchor_name": "سيدي علي الحطاب",
        "archetype": "terminal",
        "chainage_m": 0.0,
        "corridor_offset_m": 0.0,
        "id": "line-3-1203-0078-s000000",
        "junction_group": null,
        "line": "line-3",
        "platform_length_m": 85.0
      },
      "type": "Feature"
    },
    {
      "geometry": {
        "coordinates": [
          10.001500252611255,
          36.76186912860382
        ],
        "type": "Point"
      },
      "properties": {
        "anchor_kind": null,
        "anchor_name": null,
        "archetype": "halt",
        "chainage_m": 3493.4,
        "corridor_offset_m": 165.313,
        "id": "line-3-1156-0229-s003493",
        "junction_group": null,
        "line": "line-3",
        "platform_length_m": 81.0
      },
      "type": "Feature"
    },
    {
      "geometry": {
        "coordinates": [
          10.040097391823176,
          36.769247741424614
        ],
        "type": "Point"
      },
      "properties": {
        "anchor_kind": null,
        "anchor_name": null,
        "archetype": "halt",
        "chainage_m": 7056.9,
        "corridor_offset_m": 388.417,
        "id": "line-3-1115-0401-s007057",
        "junction_group": null,
        "line": "line-3",
        "platform_length_m": 81.0
      },
      "type": "Feature"
    },
    {
      "geometry": {
        "coordinates": [
          10.089914629643213,
          36.7876042903934
        ],
        "type": "Point"
      },
      "properties": {
        "anchor_kind": null,
        "anchor_name": null,
        "archetype": "interchange",
        "chainage_m": 12433.1,
        "corridor_offset_m": 309.969,
        "id": "line-3-1013-0623-s012433",
        "junction_group": 5,
        "line": "line-3",
        "platform_length_m": 85.0
      },
      "type": "Feature"
    },
    {
      "geometry": {
        "coordinates": [
          10.105173963750252,
          36.79318324155059
        ],
        "type": "Point"
      },
      "properties": {
        "anchor_kind": "amenity:marketplace",
        "anchor_name": "Marché De Zahrouni",
        "archetype": "standard",
        "chainage_m": 14073.4,
        "corridor_offset_m": 290.959,
        "id": "line-3-0982-0691-s014073",
        "junction_group": null,
        "line": "line-3",
        "platform_length_m": 85.0
      },
      "type": "Feature"
    },
    {
      "geometry": {
        "coordinates": [
          10.132999808298381,
          36.80344131303315
        ],
        "type": "Point"
      },
      "properties": {
        "anchor_kind": "place:suburb",
        "anchor_name": "الزهور 3",
        "archetype": "standard",
        "chainage_m": 17084.2,
        "corridor_offset_m": 241.967,
        "id": "line-3-0925-0815-s017084",
        "junction_group": null,
        "line": "line-3",
        "platform_length_m": 85.0
      },
      "type": "Feature"
    },
    {
      "geometry": {
        "coordinates": [
          10.16082565284651,
          36.81387935068207
        ],
        "type": "Point"
      },
      "properties": {
        "anchor_kind": "leisure:stadium",
        "anchor_name": "ملعب العمران",
        "archetype": "major",
        "chainage_m": 20103.2,
        "corridor_offset_m": 193.846,
        "id": "line-3-0867-0939-s020103",
        "junction_group": null,
        "line": "line-3",
        "platform_length_m": 85.0
      },
      "type": "Feature"
    },
    {
      "geometry": {
        "coordinates": [
          10.188651497394638,
          36.82431738833099
        ],
        "type": "Point"
      },
      "properties": {
        "anchor_kind": "railway:station",
        "anchor_name": "الحدائق",
        "archetype": "interchange",
        "chainage_m": 23122.3,
        "corridor_offset_m": 146.448,
        "id": "line-3-0809-1063-s023122",
        "junction_group": 3,
        "line": "line-3",
        "platform_length_m": 85.0
      },
      "type": "Feature"
    },
    {
      "geometry": {
        "coordinates": [
          10.216477341942767,
          36.83457545981356
        ],
        "type": "Point"
      },
      "properties": {
        "anchor_kind": "railway:station",
        "anchor_name": "محطة البضائع",
        "archetype": "standard",
        "chainage_m": 26133.1,
        "corridor_offset_m": 94.638,
        "id": "line-3-0752-1187-s026133",
        "junction_group": null,
        "line": "line-3",
        "platform_length_m": 85.0
      },
      "type": "Feature"
    },
    {
      "geometry": {
        "coordinates": [
          10.259562520597935,
          36.85077241478602
        ],
        "type": "Point"
      },
      "properties": {
        "anchor_kind": null,
        "anchor_name": null,
        "archetype": "standard",
        "chainage_m": 30812.4,
        "corridor_offset_m": 15.422,
        "id": "line-3-0662-1379-s030812",
        "junction_group": null,
        "line": "line-3",
        "platform_length_m": 85.0
      },
      "type": "Feature"
    },
    {
      "geometry": {
        "coordinates": [
          10.284022335563629,
          36.859770723104056
        ],
        "type": "Point"
      },
      "properties": {
        "anchor_kind": null,
        "anchor_name": null,
        "archetype": "interchange",
        "chainage_m": 33453.5,
        "corridor_offset_m": 29.727,
        "id": "line-3-0612-1488-s033453",
        "junction_group": 6,
        "line": "line-3",
        "platform_length_m": 85.0
      },
      "type": "Feature"
    },
    {
      "geometry": {
        "coordinates": [
          10.325087896469336,
          36.87902710290465
        ],
        "type": "Point"
      },
      "properties": {
        "anchor_kind": "amenity:hospital",
        "anchor_name": "Hospital des Forces de Securité Interieures (F.S.I)",
        "archetype": "depot-terminal",
        "chainage_m": 38158.8,
        "corridor_offset_m": 0.0,
        "id": "line-3-0505-1671-s038159",
        "junction_group": null,
        "line": "line-3",
        "platform_length_m": 85.0
      },
      "type": "Feature"
    },
    {
      "geometry": {
        "coordinates": [
          10.234205097743592,
          36.741173019472335
        ],
        "type": "Point"
      },
      "properties": {
        "anchor_kind": null,
        "anchor_name": null,
        "archetype": "terminal",
        "chainage_m": 0.0,
        "corridor_offset_m": 5.999,
        "id": "line-4-1271-1266-s000000",
        "junction_group": 7,
        "line": "line-4",
        "platform_length_m": 85.0
      },
      "type": "Feature"
    },
    {
      "geometry": {
        "coordinates": [
          10.218945763636553,
          36.74747183529497
        ],
        "type": "Point"
      },
      "properties": {
        "anchor_kind": null,
        "anchor_name": null,
        "archetype": "standard",
        "chainage_m": 3018.5,
        "corridor_offset_m": 10.92,
        "id": "line-4-1236-1198-s003018",
        "junction_group": null,
        "line": "line-4",
        "platform_length_m": 85.0
      },
      "type": "Feature"
    },
    {
      "geometry": {
        "coordinates": [
          10.199198390086268,
          36.7656484180974
        ],
        "type": "Point"
      },
      "properties": {
        "anchor_kind": null,
        "anchor_name": null,
        "archetype": "standard",
        "chainage_m": 6037.0,
        "corridor_offset_m": 2.549,
        "id": "line-4-1135-1110-s006037",
        "junction_group": null,
        "line": "line-4",
        "platform_length_m": 85.0
      },
      "type": "Feature"
    },
    {
      "geometry": {
        "coordinates": [
          10.179451016535983,
          36.78418493323255
        ],
        "type": "Point"
      },
      "properties": {
        "anchor_kind": "amenity:college",
        "anchor_name": "المدرسة الوطنية العليا للمهندسين بتونس",
        "archetype": "major",
        "chainage_m": 9048.6,
        "corridor_offset_m": 33.307,
        "id": "line-4-1032-1022-s009049",
        "junction_group": null,
        "line": "line-4",
        "platform_length_m": 85.0
      },
      "type": "Feature"
    },
    {
      "geometry": {
        "coordinates": [
          10.159703642985697,
          36.80254148220134
        ],
        "type": "Point"
      },
      "properties": {
        "anchor_kind": "amenity:hospital",
        "anchor_name": "مستشفى شارل نيكول",
        "archetype": "major",
        "chainage_m": 12075.3,
        "corridor_offset_m": 20.993,
        "id": "line-4-0930-0934-s012075",
        "junction_group": null,
        "line": "line-4",
        "platform_length_m": 85.0
      },
      "type": "Feature"
    },
    {
      "geometry": {
        "coordinates": [
          10.140405073379737,
          36.82071806500378
        ],
        "type": "Point"
      },
      "properties": {
        "anchor_kind": "amenity:university",
        "anchor_name": null,
        "archetype": "major",
        "chainage_m": 15077.2,
        "corridor_offset_m": 4.992,
        "id": "line-4-0829-0848-s015077",
        "junction_group": null,
        "line": "line-4",
        "platform_length_m": 85.0
      },
      "type": "Feature"
    },
    {
      "geometry": {
        "coordinates": [
          10.120882101801614,
          36.838894647806214
        ],
        "type": "Point"
      },
      "properties": {
        "anchor_kind": "public_transport:station",
        "anchor_name": "الانطلاقة",
        "archetype": "standard",
        "chainage_m": 18087.4,
        "corridor_offset_m": 17.582,
        "id": "line-4-0728-0761-s018087",
        "junction_group": null,
        "line": "line-4",
        "platform_length_m": 85.0
      },
      "type": "Feature"
    },
    {
      "geometry": {
        "coordinates": [
          10.10876439530485,
          36.85005255012057
        ],
        "type": "Point"
      },
      "properties": {
        "anchor_kind": null,
        "anchor_name": null,
        "archetype": "interchange",
        "chainage_m": 19938.8,
        "corridor_offset_m": 31.423,
        "id": "line-4-0666-0707-s019939",
        "junction_group": 8,
        "line": "line-4",
        "platform_length_m": 85.0
      },
      "type": "Feature"
    },
    {
      "geometry": {
        "coordinates": [
          10.078245727090772,
          36.87866717057193
        ],
        "type": "Point"
      },
      "properties": {
        "anchor_kind": null,
        "anchor_name": null,
        "archetype": "halt",
        "chainage_m": 24608.7,
        "corridor_offset_m": 12.856,
        "id": "line-4-0507-0571-s024609",
        "junction_group": null,
        "line": "line-4",
        "platform_length_m": 81.0
      },
      "type": "Feature"
    },
    {
      "geometry": {
        "coordinates": [
          10.047951460848857,
          36.90710182485692
        ],
        "type": "Point"
      },
      "properties": {
        "anchor_kind": "amenity:university",
        "anchor_name": "Ecole Nationale de Médecine Vétérinaire",
        "archetype": "terminal",
        "chainage_m": 29261.9,
        "corridor_offset_m": 0.0,
        "id": "line-4-0349-0436-s029262",
        "junction_group": null,
        "line": "line-4",
        "platform_length_m": 85.0
      },
      "type": "Feature"
    },
    {
      "geometry": {
        "coordinates": [
          10.062761991011572,
          36.81477918151388
        ],
        "type": "Point"
      },
      "properties": {
        "anchor_kind": "amenity:university",
        "anchor_name": "جامعة ؛منوبة",
        "archetype": "interchange",
        "chainage_m": 0.0,
        "corridor_offset_m": 0.0,
        "id": "line-5-0862-0502-s000000",
        "junction_group": 1,
        "line": "line-5",
        "platform_length_m": 85.0
      },
      "type": "Feature"
    },
    {
      "geometry": {
        "coordinates": [
          10.078021325118609,
          36.83565525681172
        ],
        "type": "Point"
      },
      "properties": {
        "anchor_kind": "leisure:stadium",
        "anchor_name": "footbal stadium",
        "archetype": "standard",
        "chainage_m": 3000.5,
        "corridor_offset_m": 17.949,
        "id": "line-5-0746-0570-s003000",
        "junction_group": null,
        "line": "line-5",
        "platform_length_m": 85.0
      },
      "type": "Feature"
    },
    {
      "geometry": {
        "coordinates": [
          10.10876439530485,
          36.85005255012057
        ],
        "type": "Point"
      },
      "properties": {
        "anchor_kind": null,
        "anchor_name": null,
        "archetype": "interchange",
        "chainage_m": 6614.1,
        "corridor_offset_m": 14.354,
        "id": "line-5-0666-0707-s006614",
        "junction_group": 8,
        "line": "line-5",
        "platform_length_m": 85.0
      },
      "type": "Feature"
    },
    {
      "geometry": {
        "coordinates": [
          10.137936651685951,
          36.86426987726308
        ],
        "type": "Point"
      },
      "properties": {
        "anchor_kind": null,
        "anchor_name": null,
        "archetype": "standard",
        "chainage_m": 10020.9,
        "corridor_offset_m": 4.294,
        "id": "line-5-0587-0837-s010021",
        "junction_group": null,
        "line": "line-5",
        "platform_length_m": 85.0
      },
      "type": "Feature"
    },
    {
      "geometry": {
        "coordinates": [
          10.16374287848462,
          36.88352625706367
        ],
        "type": "Point"
      },
      "properties": {
        "anchor_kind": "tourism:attraction",
        "anchor_name": "منتزه النحلي",
        "archetype": "standard",
        "chainage_m": 13523.6,
        "corridor_offset_m": 25.832,
        "id": "line-5-0480-0952-s013524",
        "junction_group": null,
        "line": "line-5",
        "platform_length_m": 85.0
      },
      "type": "Feature"
    },
    {
      "geometry": {
        "coordinates": [
          10.196954370364645,
          36.90098297520066
        ],
        "type": "Point"
      },
      "properties": {
        "anchor_kind": null,
        "anchor_name": null,
        "archetype": "interchange",
        "chainage_m": 17622.9,
        "corridor_offset_m": 17.027,
        "id": "line-5-0383-1100-s017623",
        "junction_group": 4,
        "line": "line-5",
        "platform_length_m": 85.0
      },
      "type": "Feature"
    },
    {
      "geometry": {
        "coordinates": [
          10.242059166769273,
          36.876147644242884
        ],
        "type": "Point"
      },
      "properties": {
        "anchor_kind": null,
        "anchor_name": null,
        "archetype": "halt",
        "chainage_m": 23227.3,
        "corridor_offset_m": 24.34,
        "id": "line-5-0521-1301-s023227",
        "junction_group": null,
        "line": "line-5",
        "platform_length_m": 81.0
      },
      "type": "Feature"
    },
    {
      "geometry": {
        "coordinates": [
          10.284022335563629,
          36.859770723104056
        ],
        "type": "Point"
      },
      "properties": {
        "anchor_kind": null,
        "anchor_name": null,
        "archetype": "interchange",
        "chainage_m": 28734.9,
        "corridor_offset_m": 29.001,
        "id": "line-5-0612-1488-s028735",
        "junction_group": 6,
        "line": "line-5",
        "platform_length_m": 85.0
      },
      "type": "Feature"
    },
    {
      "geometry": {
        "coordinates": [
          10.28783716909039,
          36.84753302379153
        ],
        "type": "Point"
      },
      "properties": {
        "anchor_kind": null,
        "anchor_name": null,
        "archetype": "standard",
        "chainage_m": 30235.8,
        "corridor_offset_m": 79.652,
        "id": "line-5-0680-1505-s030236",
        "junction_group": null,
        "line": "line-5",
        "platform_length_m": 85.0
      },
      "type": "Feature"
    },
    {
      "geometry": {
        "coordinates": [
          10.29658884600472,
          36.81927833567289
        ],
        "type": "Point"
      },
      "properties": {
        "anchor_kind": null,
        "anchor_name": null,
        "archetype": "standard",
        "chainage_m": 33734.0,
        "corridor_offset_m": 160.185,
        "id": "line-5-0837-1544-s033734",
        "junction_group": null,
        "line": "line-5",
        "platform_length_m": 85.0
      },
      "type": "Feature"
    },
    {
      "geometry": {
        "coordinates": [
          10.279758698092545,
          36.795162869380555
        ],
        "type": "Point"
      },
      "properties": {
        "anchor_kind": null,
        "anchor_name": null,
        "archetype": "standard",
        "chainage_m": 37187.6,
        "corridor_offset_m": 161.455,
        "id": "line-5-0971-1469-s037188",
        "junction_group": null,
        "line": "line-5",
        "platform_length_m": 85.0
      },
      "type": "Feature"
    },
    {
      "geometry": {
        "coordinates": [
          10.25709409890415,
          36.768167944426445
        ],
        "type": "Point"
      },
      "properties": {
        "anchor_kind": "public_transport:station",
        "anchor_name": "معهد رادس",
        "archetype": "interchange",
        "chainage_m": 41200.1,
        "corridor_offset_m": 159.245,
        "id": "line-5-1121-1368-s041200",
        "junction_group": 0,
        "line": "line-5",
        "platform_length_m": 85.0
      },
      "type": "Feature"
    },
    {
      "geometry": {
        "coordinates": [
          10.234205097743592,
          36.741173019472335
        ],
        "type": "Point"
      },
      "properties": {
        "anchor_kind": null,
        "anchor_name": null,
        "archetype": "interchange",
        "chainage_m": 45244.2,
        "corridor_offset_m": 138.281,
        "id": "line-5-1271-1266-s045244",
        "junction_group": 7,
        "line": "line-5",
        "platform_length_m": 85.0
      },
      "type": "Feature"
    },
    {
      "geometry": {
        "coordinates": [
          10.226126626745748,
          36.72083684267358
        ],
        "type": "Point"
      },
      "properties": {
        "anchor_kind": null,
        "anchor_name": null,
        "archetype": "standard",
        "chainage_m": 48209.3,
        "corridor_offset_m": 240.507,
        "id": "line-5-1384-1230-s048209",
        "junction_group": null,
        "line": "line-5",
        "platform_length_m": 85.0
      },
      "type": "Feature"
    },
    {
      "geometry": {
        "coordinates": [
          10.182817046118418,
          36.71777741784545
        ],
        "type": "Point"
      },
      "properties": {
        "anchor_kind": null,
        "anchor_name": null,
        "archetype": "interchange",
        "chainage_m": 52510.4,
        "corridor_offset_m": 341.288,
        "id": "line-5-1401-1037-s052510",
        "junction_group": 2,
        "line": "line-5",
        "platform_length_m": 85.0
      },
      "type": "Feature"
    },
    {
      "geometry": {
        "coordinates": [
          10.163069672568133,
          36.71651765468092
        ],
        "type": "Point"
      },
      "properties": {
        "anchor_kind": "leisure:stadium",
        "anchor_name": "الملعب البلدي فوشانة",
        "archetype": "standard",
        "chainage_m": 55223.4,
        "corridor_offset_m": 60.554,
        "id": "line-5-1408-0949-s055223",
        "junction_group": null,
        "line": "line-5",
        "platform_length_m": 85.0
      },
      "type": "Feature"
    },
    {
      "geometry": {
        "coordinates": [
          10.14534191676731,
          36.739553323975095
        ],
        "type": "Point"
      },
      "properties": {
        "anchor_kind": null,
        "anchor_name": null,
        "archetype": "standard",
        "chainage_m": 58730.8,
        "corridor_offset_m": 2.536,
        "id": "line-5-1280-0870-s058731",
        "junction_group": null,
        "line": "line-5",
        "platform_length_m": 85.0
      },
      "type": "Feature"
    },
    {
      "geometry": {
        "coordinates": [
          10.122228513634589,
          36.75952956844113
        ],
        "type": "Point"
      },
      "properties": {
        "anchor_kind": null,
        "anchor_name": null,
        "archetype": "standard",
        "chainage_m": 62225.8,
        "corridor_offset_m": 41.644,
        "id": "line-5-1169-0767-s062226",
        "junction_group": null,
        "line": "line-5",
        "platform_length_m": 85.0
      },
      "type": "Feature"
    },
    {
      "geometry": {
        "coordinates": [
          10.089914629643213,
          36.7876042903934
        ],
        "type": "Point"
      },
      "properties": {
        "anchor_kind": null,
        "anchor_name": null,
        "archetype": "interchange",
        "chainage_m": 67445.7,
        "corridor_offset_m": 45.554,
        "id": "line-5-1013-0623-s067446",
        "junction_group": 5,
        "line": "line-5",
        "platform_length_m": 85.0
      },
      "type": "Feature"
    },
    {
      "geometry": {
        "coordinates": [
          10.078694531035095,
          36.79876219270777
        ],
        "type": "Point"
      },
      "properties": {
        "anchor_kind": null,
        "anchor_name": null,
        "archetype": "standard",
        "chainage_m": 69228.8,
        "corridor_offset_m": 29.536,
        "id": "line-5-0951-0573-s069229",
        "junction_group": null,
        "line": "line-5",
        "platform_length_m": 85.0
      },
      "type": "Feature"
    }
  ],
  "type": "FeatureCollection"
}
