{
  "features": [
    {
      "geometry": {
        "coordinates": [
          91.92666695394871,
          24.907706223230033
        ],
        "type": "Point"
      },
      "properties": {
        "archetype": "main-heavy",
        "fleet_stalls": 5,
        "line": "line-1",
        "station": "line-1-0479-0844-s000000"
      },
      "type": "Feature"
    },
    {
      "geometry": {
        "coordinates": [
          91.8718026007885,
          24.944599287333983
        ],
        "type": "Point"
      },
      "properties": {
        "archetype": "main-heavy",
        "fleet_stalls": 9,
        "line": "line-2",
        "station": "line-2-0274-0567-s020310"
      },
      "type": "Feature"
    },
    {
      "geometry": {
        "coordinates": [
          91.90369126814876,
          24.87225288845697
        ],
        "type": "Point"
      },
      "properties": {
        "archetype": "main-heavy",
        "fleet_stalls": 5,
        "line": "line-3",
        "station": "line-3-0676-0728-s000000"
      },
      "type": "Feature"
    }
  ],
  "type": "FeatureCollection"
}
