{
  "features": [
    {
      "geometry": {
        "coordinates": [
          35.54807551903652,
          33.84927833567289
        ],
        "type": "Point"
      },
      "properties": {
        "id": "interchange-000",
        "junction_group": 0,
        "line_count": 3,
        "lines": "line-1,line-5,line-6",
        "platform_count": 3,
        "platforms": "line-1-0839-0694-s010387,line-5-0839-0691-s009663,line-6-0833-0666-s013012"
      },
      "type": "Feature"
    },
    {
      "geometry": {
        "coordinates": [
          35.557778884352196,
          33.85971637332182
        ],
        "type": "Point"
      },
      "properties": {
        "id": "interchange-001",
        "junction_group": 1,
        "line_count": 2,
        "lines": "line-1,line-4",
        "platform_count": 2,
        "platforms": "line-1-0780-0728-s012401,line-4-0778-0729-s008958"
      },
      "type": "Feature"
    },
    {
      "geometry": {
        "coordinates": [
          35.54760658316625,
          33.87213403880071
        ],
        "type": "Point"
      },
      "properties": {
        "id": "interchange-002",
        "junction_group": 2,
        "line_count": 3,
        "lines": "line-1,line-5,line-6",
        "platform_count": 4,
        "platforms": "line-1-0696-0701-s014399,line-5-0700-0652-s006027,line-6-0718-0716-s028932,line-6-0726-0657-s027553"
      },
      "type": "Feature"
    },
    {
      "geometry": {
        "coordinates": [
          35.56805940150821,
          33.88329194111507
        ],
        "type": "Point"
      },
      "properties": {
        "id": "interchange-003",
        "junction_group": 3,
        "line_count": 2,
        "lines": "line-1,line-6",
        "platform_count": 2,
        "platforms": "line-1-0639-0767-s016928,line-6-0657-0785-s031543"
      },
      "type": "Feature"
    },
    {
      "geometry": {
        "coordinates": [
          35.501831227829506,
          33.87825288845697
        ],
        "type": "Point"
      },
      "properties": {
        "id": "interchange-004",
        "junction_group": 4,
        "line_count": 2,
        "lines": "line-2,line-3",
        "platform_count": 2,
        "platforms": "line-2-0676-0470-s004888,line-3-0676-0470-s002407"
      },
      "type": "Feature"
    },
    {
      "geometry": {
        "coordinates": [
          35.50341839539043,
          33.849698256727734
        ],
        "type": "Point"
      },
      "properties": {
        "id": "interchange-005",
        "junction_group": 5,
        "line_count": 2,
        "lines": "line-2,line-6",
        "platform_count": 3,
        "platforms": "line-2-0832-0467-s008797,line-6-0835-0478-s019025,line-6-0837-0487-s022038"
      },
      "type": "Feature"
    },
    {
      "geometry": {
        "coordinates": [
          35.52672090094405,
          33.83803045027535
        ],
        "type": "Point"
      },
      "properties": {
        "id": "interchange-006",
        "junction_group": 6,
        "line_count": 2,
        "lines": "line-2,line-6",
        "platform_count": 2,
        "platforms": "line-2-0907-0588-s013298,line-6-0892-0582-s016021"
      },
      "type": "Feature"
    },
    {
      "geometry": {
        "coordinates": [
          35.526937332884174,
          33.888330993773174
        ],
        "type": "Point"
      },
      "properties": {
        "id": "interchange-007",
        "junction_group": 7,
        "line_count": 2,
        "lines": "line-3,line-5",
        "platform_count": 2,
        "platforms": "line-3-0620-0586-s006181,line-5-0620-0586-s002480"
      },
      "type": "Feature"
    },
    {
      "geometry": {
        "coordinates": [
          35.59576268984439,
          33.90596767807652
        ],
        "type": "Point"
      },
      "properties": {
        "id": "interchange-008",
        "junction_group": 8,
        "line_count": 2,
        "lines": "line-3,line-6",
        "platform_count": 2,
        "platforms": "line-3-0514-0896-s014527,line-6-0530-0912-s000000"
      },
      "type": "Feature"
    },
    {
      "geometry": {
        "coordinates": [
          35.58905329970047,
          33.86466544289674
        ],
        "type": "Point"
      },
      "properties": {
        "id": "interchange-009",
        "junction_group": 9,
        "line_count": 2,
        "lines": "line-4,line-6",
        "platform_count": 2,
        "platforms": "line-4-0750-0859-s005940,line-6-0753-0887-s006338"
      },
      "type": "Feature"
    },
    {
      "geometry": {
        "coordinates": [
          35.52672090094405,
          33.86043623798726
        ],
        "type": "Point"
      },
      "properties": {
        "id": "interchange-010",
        "junction_group": 10,
        "line_count": 2,
        "lines": "line-4,line-6",
        "platform_count": 2,
        "platforms": "line-4-0782-0586-s012234,line-6-0768-0584-s025044"
      },
      "type": "Feature"
    }
  ],
  "type": "FeatureCollection"
}
