{
  "features": [
    {
      "geometry": {
        "coordinates": [
          37.09723826500083,
          36.171197974780746
        ],
        "type": "Point"
      },
      "properties": {
        "id": "interchange-000",
        "junction_group": 0,
        "line_count": 2,
        "lines": "line-1,line-6",
        "platform_count": 3,
        "platforms": "line-1-0842-0445-s010470,line-6-0816-0435-s049366,line-6-0821-0429-s049527"
      },
      "type": "Feature"
    },
    {
      "geometry": {
        "coordinates": [
          37.11374762323256,
          36.17179786200194
        ],
        "type": "Point"
      },
      "properties": {
        "id": "interchange-001",
        "junction_group": 1,
        "line_count": 2,
        "lines": "line-1,line-6",
        "platform_count": 2,
        "platforms": "line-1-0837-0511-s011831,line-6-0809-0510-s047355"
      },
      "type": "Feature"
    },
    {
      "geometry": {
        "coordinates": [
          37.13005293321649,
          36.167523665550874
        ],
        "type": "Point"
      },
      "properties": {
        "id": "interchange-002",
        "junction_group": 2,
        "line_count": 2,
        "lines": "line-1,line-6",
        "platform_count": 4,
        "platforms": "line-1-0845-0602-s014027,line-1-0846-0575-s013186,line-6-0846-0575-s045541,line-6-0850-0583-s045348"
      },
      "type": "Feature"
    },
    {
      "geometry": {
        "coordinates": [
          37.150142410705215,
          36.178066683463506
        ],
        "type": "Point"
      },
      "properties": {
        "id": "interchange-003",
        "junction_group": 3,
        "line_count": 5,
        "lines": "line-1,line-2,line-4,line-5,line-6",
        "platform_count": 12,
        "platforms": "line-1-0735-0671-s017522,line-1-0791-0651-s016039,line-2-0735-0671-s012293,line-2-0798-0681-s010776,line-2-0822-0714-s009753,line-4-0735-0671-s015613,line-5-0735-0671-s014036,line-5-0814-0664-s015825,line-5-0842-0663-s016394,line-6-0814-0664-s043088,line-6-0815-0653-s043333,line-6-0822-0714-s042022"
      },
      "type": "Feature"
    },
    {
      "geometry": {
        "coordinates": [
          37.169397145362,
          36.187904833891224
        ],
        "type": "Point"
      },
      "properties": {
        "id": "interchange-004",
        "junction_group": 4,
        "line_count": 2,
        "lines": "line-1,line-4",
        "platform_count": 2,
        "platforms": "line-1-0732-0755-s020066,line-4-0735-0766-s018061"
      },
      "type": "Feature"
    },
    {
      "geometry": {
        "coordinates": [
          37.211802081224626,
          36.22536779085532
        ],
        "type": "Point"
      },
      "properties": {
        "id": "interchange-005",
        "junction_group": 5,
        "line_count": 2,
        "lines": "line-1,line-6",
        "platform_count": 3,
        "platforms": "line-1-0529-0948-s029122,line-6-0518-0957-s024530,line-6-0529-0948-s024825"
      },
      "type": "Feature"
    },
    {
      "geometry": {
        "coordinates": [
          37.203232054816695,
          36.169908217255156
        ],
        "type": "Point"
      },
      "properties": {
        "id": "interchange-006",
        "junction_group": 6,
        "line_count": 2,
        "lines": "line-2,line-6",
        "platform_count": 2,
        "platforms": "line-2-0846-0912-s005445,line-6-0821-0913-s037319"
      },
      "type": "Feature"
    },
    {
      "geometry": {
        "coordinates": [
          37.12732610663215,
          36.21031062160314
        ],
        "type": "Point"
      },
      "properties": {
        "id": "interchange-007",
        "junction_group": 7,
        "line_count": 2,
        "lines": "line-2,line-3",
        "platform_count": 2,
        "platforms": "line-2-0600-0579-s017634,line-3-0618-0564-s007166"
      },
      "type": "Feature"
    },
    {
      "geometry": {
        "coordinates": [
          37.08269518988434,
          36.24000503905266
        ],
        "type": "Point"
      },
      "properties": {
        "id": "interchange-008",
        "junction_group": 8,
        "line_count": 2,
        "lines": "line-2,line-6",
        "platform_count": 2,
        "platforms": "line-2-0444-0371-s024304,line-6-0444-0371-s004038"
      },
      "type": "Feature"
    },
    {
      "geometry": {
        "coordinates": [
          37.164054791237575,
          36.23172659540006
        ],
        "type": "Point"
      },
      "properties": {
        "id": "interchange-009",
        "junction_group": 9,
        "line_count": 2,
        "lines": "line-3,line-5",
        "platform_count": 2,
        "platforms": "line-3-0502-0734-s002002,line-5-0478-0739-s007052"
      },
      "type": "Feature"
    },
    {
      "geometry": {
        "coordinates": [
          37.15615255909519,
          36.22083864233524
        ],
        "type": "Point"
      },
      "properties": {
        "id": "interchange-010",
        "junction_group": 10,
        "line_count": 2,
        "lines": "line-3,line-5",
        "platform_count": 2,
        "platforms": "line-3-0554-0692-s003524,line-5-0547-0710-s008734"
      },
      "type": "Feature"
    },
    {
      "geometry": {
        "coordinates": [
          37.080135311866385,
          36.17080804808696
        ],
        "type": "Point"
      },
      "properties": {
        "id": "interchange-011",
        "junction_group": 11,
        "line_count": 2,
        "lines": "line-3,line-6",
        "platform_count": 4,
        "platforms": "line-3-0829-0362-s015078,line-3-0831-0368-s015215,line-6-0825-0346-s051386,line-6-0829-0362-s051033"
      },
      "type": "Feature"
    },
    {
      "geometry": {
        "coordinates": [
          37.06433084758162,
          36.19955764316309
        ],
        "type": "Point"
      },
      "properties": {
        "id": "interchange-012",
        "junction_group": 12,
        "line_count": 2,
        "lines": "line-4,line-6",
        "platform_count": 4,
        "platforms": "line-4-0675-0283-s005262,line-4-0675-0299-s005582,line-6-0650-0289-s058905,line-6-0675-0283-s058355"
      },
      "type": "Feature"
    },
    {
      "geometry": {
        "coordinates": [
          37.22449017227013,
          36.19447359896339
        ],
        "type": "Point"
      },
      "properties": {
        "id": "interchange-013",
        "junction_group": 13,
        "line_count": 2,
        "lines": "line-4,line-6",
        "platform_count": 3,
        "platforms": "line-4-0701-1017-s024988,line-6-0689-0991-s028549,line-6-0701-1016-s029160"
      },
      "type": "Feature"
    },
    {
      "geometry": {
        "coordinates": [
          37.16522343120229,
          36.25273764532268
        ],
        "type": "Point"
      },
      "properties": {
        "id": "interchange-014",
        "junction_group": 14,
        "line_count": 2,
        "lines": "line-5,line-6",
        "platform_count": 4,
        "platforms": "line-5-0367-0747-s004293,line-5-0394-0752-s005036,line-6-0365-0721-s014203,line-6-0367-0747-s014784"
      },
      "type": "Feature"
    }
  ],
  "type": "FeatureCollection"
}
