{
  "features": [
    {
      "geometry": {
        "coordinates": [
          77.52507905278718,
          23.24985897851204
        ],
        "type": "Point"
      },
      "properties": {
        "anchor_kind": "amenity:college",
        "anchor_name": null,
        "archetype": "terminal",
        "chainage_m": 0.0,
        "corridor_offset_m": 0.0,
        "id": "line-1-0856-1377-s000000",
        "junction_group": null,
        "line": "line-1",
        "platform_length_m": 85.0
      },
      "type": "Feature"
    },
    {
      "geometry": {
        "coordinates": [
          77.50767452596463,
          23.25273843717381
        ],
        "type": "Point"
      },
      "properties": {
        "anchor_kind": "amenity:hospital",
        "anchor_name": "Arnav Hospital, Bhopal",
        "archetype": "interchange-elevated",
        "chainage_m": 2012.0,
        "corridor_offset_m": 9.04,
        "id": "line-1-0840-1288-s002012",
        "junction_group": 0,
        "line": "line-1",
        "platform_length_m": 85.0
      },
      "type": "Feature"
    },
    {
      "geometry": {
        "coordinates": [
          77.50356783986042,
          23.25237850484109
        ],
        "type": "Point"
      },
      "properties": {
        "anchor_kind": "amenity:hospital",
        "anchor_name": "Arnav Hospital, Bhopal",
        "archetype": "interchange-elevated",
        "chainage_m": 2448.5,
        "corridor_offset_m": 6.101,
        "id": "line-1-0842-1267-s002449",
        "junction_group": 0,
        "line": "line-1",
        "platform_length_m": 85.0
      },
      "type": "Feature"
    },
    {
      "geometry": {
        "coordinates": [
          77.49281223339706,
          23.249139113846596
        ],
        "type": "Point"
      },
      "properties": {
        "anchor_kind": "amenity:hospital",
        "anchor_name": "Gayatri Hospital And Trauma Centre",
        "archetype": "standard",
        "chainage_m": 3732.8,
        "corridor_offset_m": 17.163,
        "id": "line-1-0860-1212-s003733",
        "junction_group": null,
        "line": "line-1",
        "platform_length_m": 85.0
      },
      "type": "Feature"
    },
    {
      "geometry": {
        "coordinates": [
          77.48225218341484,
          23.25165864017565
        ],
        "type": "Point"
      },
      "properties": {
        "anchor_kind": null,
        "anchor_name": null,
        "archetype": "interchange-elevated",
        "chainage_m": 5018.5,
        "corridor_offset_m": 27.623,
        "id": "line-1-0846-1158-s005018",
        "junction_group": 1,
        "line": "line-1",
        "platform_length_m": 85.0
      },
      "type": "Feature"
    },
    {
      "geometry": {
        "coordinates": [
          77.46895434269649,
          23.249499046179317
        ],
        "type": "Point"
      },
      "properties": {
        "anchor_kind": "amenity:hospital",
        "anchor_name": "Employees State Insurance Hospital",
        "archetype": "standard",
        "chainage_m": 6527.6,
        "corridor_offset_m": 16.125,
        "id": "line-1-0858-1090-s006528",
        "junction_group": null,
        "line": "line-1",
        "platform_length_m": 85.0
      },
      "type": "Feature"
    },
    {
      "geometry": {
        "coordinates": [
          77.45506983253468,
          23.25165864017565
        ],
        "type": "Point"
      },
      "properties": {
        "anchor_kind": "amenity:hospital",
        "anchor_name": "Devi Rajeshwari Hospital",
        "archetype": "interchange-elevated",
        "chainage_m": 8047.0,
        "corridor_offset_m": 19.852,
        "id": "line-1-0846-1019-s008047",
        "junction_group": 2,
        "line": "line-1",
        "platform_length_m": 85.0
      },
      "type": "Feature"
    },
    {
      "geometry": {
        "coordinates": [
          77.43610085386291,
          23.25309836950653
        ],
        "type": "Point"
      },
      "properties": {
        "anchor_kind": "amenity:hospital",
        "anchor_name": "Srijan Hospital",
        "archetype": "standard",
        "chainage_m": 10053.3,
        "corridor_offset_m": 51.499,
        "id": "line-1-0838-0922-s010053",
        "junction_group": null,
        "line": "line-1",
        "platform_length_m": 85.0
      },
      "type": "Feature"
    },
    {
      "geometry": {
        "coordinates": [
          77.4263230298053,
          23.250398877011122
        ],
        "type": "Point"
      },
      "properties": {
        "anchor_kind": "amenity:hospital",
        "anchor_name": "All Care Hospital",
        "archetype": "major",
        "chainage_m": 12023.2,
        "corridor_offset_m": 44.224,
        "id": "line-1-0853-0872-s012023",
        "junction_group": null,
        "line": "line-1",
        "platform_length_m": 85.0
      },
      "type": "Feature"
    },
    {
      "geometry": {
        "coordinates": [
          77.41400297149272,
          23.257777489831913
        ],
        "type": "Point"
      },
      "properties": {
        "anchor_kind": null,
        "anchor_name": null,
        "archetype": "interchange-elevated",
        "chainage_m": 13712.6,
        "corridor_offset_m": 49.059,
        "id": "line-1-0812-0809-s013713",
        "junction_group": 3,
        "line": "line-1",
        "platform_length_m": 85.0
      },
      "type": "Feature"
    },
    {
      "geometry": {
        "coordinates": [
          77.40363847799165,
          23.2651561026527
        ],
        "type": "Point"
      },
      "properties": {
        "anchor_kind": "amenity:hospital",
        "anchor_name": "Sunetra Eye Hospital",
        "archetype": "major",
        "chainage_m": 15652.8,
        "corridor_offset_m": 7.03,
        "id": "line-1-0771-0756-s015653",
        "junction_group": null,
        "line": "line-1",
        "platform_length_m": 85.0
      },
      "type": "Feature"
    },
    {
      "geometry": {
        "coordinates": [
          77.39327398449058,
          23.267135730482668
        ],
        "type": "Point"
      },
      "properties": {
        "anchor_kind": "amenity:hospital",
        "anchor_name": "Manya Hospital",
        "archetype": "major",
        "chainage_m": 16870.2,
        "corridor_offset_m": 47.403,
        "id": "line-1-0760-0703-s016870",
        "junction_group": null,
        "line": "line-1",
        "platform_length_m": 85.0
      },
      "type": "Feature"
    },
    {
      "geometry": {
        "coordinates": [
          77.38858062894293,
          23.26245661015729
        ],
        "type": "Point"
      },
      "properties": {
        "anchor_kind": "amenity:hospital",
        "anchor_name": "Mayo Hospital, Bhopal",
        "archetype": "major",
        "chainage_m": 18087.6,
        "corridor_offset_m": 74.394,
        "id": "line-1-0786-0679-s018088",
        "junction_group": null,
        "line": "line-1",
        "platform_length_m": 85.0
      },
      "type": "Feature"
    },
    {
      "geometry": {
        "coordinates": [
          77.37489167526228,
          23.27235474930713
        ],
        "type": "Point"
      },
      "properties": {
        "anchor_kind": "amenity:hospital",
        "anchor_name": "T B Hospital",
        "archetype": "standard",
        "chainage_m": 20098.4,
        "corridor_offset_m": 68.712,
        "id": "line-1-0731-0609-s020098",
        "junction_group": null,
        "line": "line-1",
        "platform_length_m": 85.0
      },
      "type": "Feature"
    },
    {
      "geometry": {
        "coordinates": [
          77.36139827806278,
          23.273614512471656
        ],
        "type": "Point"
      },
      "properties": {
        "anchor_kind": null,
        "anchor_name": null,
        "archetype": "interchange-elevated",
        "chainage_m": 21536.4,
        "corridor_offset_m": 51.364,
        "id": "line-1-0724-0540-s021536",
        "junction_group": 4,
        "line": "line-1",
        "platform_length_m": 85.0
      },
      "type": "Feature"
    },
    {
      "geometry": {
        "coordinates": [
          77.35787826140204,
          23.275954072634345
        ],
        "type": "Point"
      },
      "properties": {
        "anchor_kind": null,
        "anchor_name": null,
        "archetype": "interchange-elevated",
        "chainage_m": 22109.5,
        "corridor_offset_m": 40.919,
        "id": "line-1-0711-0522-s022110",
        "junction_group": 4,
        "line": "line-1",
        "platform_length_m": 85.0
      },
      "type": "Feature"
    },
    {
      "geometry": {
        "coordinates": [
          77.33890928273027,
          23.274334377137098
        ],
        "type": "Point"
      },
      "properties": {
        "anchor_kind": "amenity:hospital",
        "anchor_name": "Civil Hospital",
        "archetype": "standard",
        "chainage_m": 24124.1,
        "corridor_offset_m": 12.585,
        "id": "line-1-0720-0425-s024124",
        "junction_group": null,
        "line": "line-1",
        "platform_length_m": 85.0
      },
      "type": "Feature"
    },
    {
      "geometry": {
        "coordinates": [
          77.33226036237109,
          23.268935392146275
        ],
        "type": "Point"
      },
      "properties": {
        "anchor_kind": "amenity:marketplace",
        "anchor_name": "New Vegitable Market",
        "archetype": "terminal",
        "chainage_m": 25943.5,
        "corridor_offset_m": 0.0,
        "id": "line-1-0750-0391-s025944",
        "junction_group": null,
        "line": "line-1",
        "platform_length_m": 85.0
      },
      "type": "Feature"
    },
    {
      "geometry": {
        "coordinates": [
          77.42808303813568,
          23.171033797646043
        ],
        "type": "Point"
      },
      "properties": {
        "anchor_kind": "amenity:hospital",
        "anchor_name": "Orthocare Hospital",
        "archetype": "terminal",
        "chainage_m": 0.0,
        "corridor_offset_m": 0.0,
        "id": "line-2-1294-0881-s000000",
        "junction_group": null,
        "line": "line-2",
        "platform_length_m": 85.0
      },
      "type": "Feature"
    },
    {
      "geometry": {
        "coordinates": [
          77.43003860294719,
          23.181111902962243
        ],
        "type": "Point"
      },
      "properties": {
        "anchor_kind": "amenity:hospital",
        "anchor_name": "J.K Hospital",
        "archetype": "standard",
        "chainage_m": 2013.4,
        "corridor_offset_m": 16.192,
        "id": "line-2-1238-0891-s002013",
        "junction_group": null,
        "line": "line-2",
        "platform_length_m": 85.0
      },
      "type": "Feature"
    },
    {
      "geometry": {
        "coordinates": [
          77.4218252307388,
          23.19280970377569
        ],
        "type": "Point"
      },
      "properties": {
        "anchor_kind": null,
        "anchor_name": null,
        "archetype": "interchange-elevated",
        "chainage_m": 4002.7,
        "corridor_offset_m": 20.695,
        "id": "line-2-1173-0849-s004003",
        "junction_group": 5,
        "line": "line-2",
        "platform_length_m": 85.0
      },
      "type": "Feature"
    },
    {
      "geometry": {
        "coordinates": [
          77.42456302147494,
          23.2055873015873
        ],
        "type": "Point"
      },
      "properties": {
        "anchor_kind": "amenity:hospital",
        "anchor_name": "Shekhar Hospital, Bhopal",
        "archetype": "standard",
        "chainage_m": 6050.7,
        "corridor_offset_m": 43.296,
        "id": "line-2-1102-0863-s006051",
        "junction_group": null,
        "line": "line-2",
        "platform_length_m": 85.0
      },
      "type": "Feature"
    },
    {
      "geometry": {
        "coordinates": [
          77.42671414276761,
          23.21530547457078
        ],
        "type": "Point"
      },
      "properties": {
        "anchor_kind": "amenity:hospital",
        "anchor_name": "Ajwani Eye Tech Centre",
        "archetype": "major",
        "chainage_m": 7254.9,
        "corridor_offset_m": 46.031,
        "id": "line-2-1048-0874-s007255",
        "junction_group": null,
        "line": "line-2",
        "platform_length_m": 85.0
      },
      "type": "Feature"
    },
    {
      "geometry": {
        "coordinates": [
          77.42964748998489,
          23.223403952057012
        ],
        "type": "Point"
      },
      "properties": {
        "anchor_kind": "amenity:college",
        "anchor_name": null,
        "archetype": "major",
        "chainage_m": 8458.6,
        "corridor_offset_m": 66.259,
        "id": "line-2-1003-0889-s008459",
        "junction_group": null,
        "line": "line-2",
        "platform_length_m": 85.0
      },
      "type": "Feature"
    },
    {
      "geometry": {
        "coordinates": [
          77.4255408038807,
          23.237801245365873
        ],
        "type": "Point"
      },
      "properties": {
        "anchor_kind": null,
        "anchor_name": null,
        "archetype": "standard",
        "chainage_m": 10485.1,
        "corridor_offset_m": 88.024,
        "id": "line-2-0923-0868-s010485",
        "junction_group": null,
        "line": "line-2",
        "platform_length_m": 85.0
      },
      "type": "Feature"
    },
    {
      "geometry": {
        "coordinates": [
          77.41146073723773,
          23.24553979051938
        ],
        "type": "Point"
      },
      "properties": {
        "anchor_kind": "amenity:hospital",
        "anchor_name": "Police Hospital",
        "archetype": "standard",
        "chainage_m": 12495.1,
        "corridor_offset_m": 79.755,
        "id": "line-2-0880-0796-s012495",
        "junction_group": null,
        "line": "line-2",
        "platform_length_m": 85.0
      },
      "type": "Feature"
    },
    {
      "geometry": {
        "coordinates": [
          77.41400297149272,
          23.257777489831913
        ],
        "type": "Point"
      },
      "properties": {
        "anchor_kind": null,
        "anchor_name": null,
        "archetype": "interchange-elevated",
        "chainage_m": 14387.9,
        "corridor_offset_m": 78.275,
        "id": "line-2-0812-0809-s014388",
        "junction_group": 3,
        "line": "line-2",
        "platform_length_m": 85.0
      },
      "type": "Feature"
    },
    {
      "geometry": {
        "coordinates": [
          77.41302518908695,
          23.267675628981753
        ],
        "type": "Point"
      },
      "properties": {
        "anchor_kind": "public_transport:station",
        "anchor_name": "Bhopal Junction",
        "archetype": "standard",
        "chainage_m": 15668.7,
        "corridor_offset_m": 68.806,
        "id": "line-2-0757-0804-s015669",
        "junction_group": null,
        "line": "line-2",
        "platform_length_m": 85.0
      },
      "type": "Feature"
    },
    {
      "geometry": {
        "coordinates": [
          77.41791410111576,
          23.277213835798868
        ],
        "type": "Point"
      },
      "properties": {
        "anchor_kind": "place:neighbourhood",
        "anchor_name": "Kainchi Chola",
        "archetype": "standard",
        "chainage_m": 16935.8,
        "corridor_offset_m": 76.632,
        "id": "line-2-0704-0829-s016936",
        "junction_group": null,
        "line": "line-2",
        "platform_length_m": 85.0
      },
      "type": "Feature"
    },
    {
      "geometry": {
        "coordinates": [
          77.41126518075659,
          23.287291941115072
        ],
        "type": "Point"
      },
      "properties": {
        "anchor_kind": null,
        "anchor_name": null,
        "archetype": "interchange-elevated",
        "chainage_m": 18950.0,
        "corridor_offset_m": 48.974,
        "id": "line-2-0648-0795-s018950",
        "junction_group": 6,
        "line": "line-2",
        "platform_length_m": 85.0
      },
      "type": "Feature"
    },
    {
      "geometry": {
        "coordinates": [
          77.41361185853042,
          23.28999143361048
        ],
        "type": "Point"
      },
      "properties": {
        "anchor_kind": null,
        "anchor_name": null,
        "archetype": "interchange-elevated",
        "chainage_m": 19349.4,
        "corridor_offset_m": 46.657,
        "id": "line-2-0633-0807-s019349",
        "junction_group": 6,
        "line": "line-2",
        "platform_length_m": 85.0
      },
      "type": "Feature"
    },
    {
      "geometry": {
        "coordinates": [
          77.41908744000267,
          23.300969369758484
        ],
        "type": "Point"
      },
      "properties": {
        "anchor_kind": "amenity:hospital",
        "anchor_name": "Peoples College Of Paramedical Science & Research Center",
        "archetype": "standard",
        "chainage_m": 20963.4,
        "corridor_offset_m": 27.935,
        "id": "line-2-0572-0835-s020963",
        "junction_group": null,
        "line": "line-2",
        "platform_length_m": 85.0
      },
      "type": "Feature"
    },
    {
      "geometry": {
        "coordinates": [
          77.40442070391626,
          23.30276903142209
        ],
        "type": "Point"
      },
      "properties": {
        "anchor_kind": "place:neighbourhood",
        "anchor_name": "Goya Colony",
        "archetype": "interchange-elevated",
        "chainage_m": 22741.4,
        "corridor_offset_m": 9.366,
        "id": "line-2-0562-0760-s022741",
        "junction_group": 6,
        "line": "line-2",
        "platform_length_m": 85.0
      },
      "type": "Feature"
    },
    {
      "geometry": {
        "coordinates": [
          77.40481181687856,
          23.313567001403737
        ],
        "type": "Point"
      },
      "properties": {
        "anchor_kind": null,
        "anchor_name": null,
        "archetype": "standard",
        "chainage_m": 24040.8,
        "corridor_offset_m": 5.174,
        "id": "line-2-0502-0762-s024041",
        "junction_group": null,
        "line": "line-2",
        "platform_length_m": 85.0
      },
      "type": "Feature"
    },
    {
      "geometry": {
        "coordinates": [
          77.40500737335971,
          23.323465140553576
        ],
        "type": "Point"
      },
      "properties": {
        "anchor_kind": "amenity:hospital",
        "anchor_name": "Global Hospital",
        "archetype": "terminal",
        "chainage_m": 25335.4,
        "corridor_offset_m": 0.0,
        "id": "line-2-0447-0763-s025335",
        "junction_group": null,
        "line": "line-2",
        "platform_length_m": 85.0
      },
      "type": "Feature"
    },
    {
      "geometry": {
        "coordinates": [
          77.47051879454571,
          23.161315624662564
        ],
        "type": "Point"
      },
      "properties": {
        "anchor_kind": "amenity:hospital",
        "anchor_name": "Noble Multispeciality Hospital",
        "archetype": "terminal",
        "chainage_m": 0.0,
        "corridor_offset_m": 0.0,
        "id": "line-3-1348-1098-s000000",
        "junction_group": null,
        "line": "line-3",
        "platform_length_m": 85.0
      },
      "type": "Feature"
    },
    {
      "geometry": {
        "coordinates": [
          77.45995874456348,
          23.17481308713962
        ],
        "type": "Point"
      },
      "properties": {
        "anchor_kind": "amenity:hospital",
        "anchor_name": "B.S.Sacklecha Hospital And Trauma Centre",
        "archetype": "standard",
        "chainage_m": 2027.4,
        "corridor_offset_m": 23.159,
        "id": "line-3-1273-1044-s002027",
        "junction_group": null,
        "line": "line-3",
        "platform_length_m": 85.0
      },
      "type": "Feature"
    },
    {
      "geometry": {
        "coordinates": [
          77.45350538068547,
          23.18507115862218
        ],
        "type": "Point"
      },
      "properties": {
        "anchor_kind": "amenity:hospital",
        "anchor_name": "rkdf hospital",
        "archetype": "standard",
        "chainage_m": 3440.7,
        "corridor_offset_m": 56.018,
        "id": "line-3-1216-1011-s003441",
        "junction_group": null,
        "line": "line-3",
        "platform_length_m": 85.0
      },
      "type": "Feature"
    },
    {
      "geometry": {
        "coordinates": [
          77.4570253973462,
          23.194249433106577
        ],
        "type": "Point"
      },
      "properties": {
        "anchor_kind": null,
        "anchor_name": null,
        "archetype": "interchange-elevated",
        "chainage_m": 4857.5,
        "corridor_offset_m": 56.007,
        "id": "line-3-1165-1029-s004858",
        "junction_group": 7,
        "line": "line-3",
        "platform_length_m": 85.0
      },
      "type": "Feature"
    },
    {
      "geometry": {
        "coordinates": [
          77.4570253973462,
          23.20756692941727
        ],
        "type": "Point"
      },
      "properties": {
        "anchor_kind": "amenity:hospital",
        "anchor_name": "All India Institute of Medical Sciences (AIIMS), Bhopal",
        "archetype": "standard",
        "chainage_m": 6470.1,
        "corridor_offset_m": 45.125,
        "id": "line-3-1091-1029-s006470",
        "junction_group": null,
        "line": "line-3",
        "platform_length_m": 85.0
      },
      "type": "Feature"
    },
    {
      "geometry": {
        "coordinates": [
          77.45018092050587,
          23.216385271568946
        ],
        "type": "Point"
      },
      "properties": {
        "anchor_kind": "public_transport:station",
        "anchor_name": "Alkapuri",
        "archetype": "standard",
        "chainage_m": 8070.9,
        "corridor_offset_m": 38.644,
        "id": "line-3-1042-0994-s008071",
        "junction_group": null,
        "line": "line-3",
        "platform_length_m": 85.0
      },
      "type": "Feature"
    },
    {
      "geometry": {
        "coordinates": [
          77.44587867792053,
          23.228982903214195
        ],
        "type": "Point"
      },
      "properties": {
        "anchor_kind": "amenity:hospital",
        "anchor_name": "Paliwal Hospital Pvt. Ltd.",
        "archetype": "standard",
        "chainage_m": 10085.5,
        "corridor_offset_m": 26.322,
        "id": "line-3-0972-0972-s010085",
        "junction_group": null,
        "line": "line-3",
        "platform_length_m": 85.0
      },
      "type": "Feature"
    },
    {
      "geometry": {
        "coordinates": [
          77.45604761494045,
          23.237261346866788
        ],
        "type": "Point"
      },
      "properties": {
        "anchor_kind": null,
        "anchor_name": null,
        "archetype": "standard",
        "chainage_m": 12102.9,
        "corridor_offset_m": 11.637,
        "id": "line-3-0926-1024-s012103",
        "junction_group": null,
        "line": "line-3",
        "platform_length_m": 85.0
      },
      "type": "Feature"
    },
    {
      "geometry": {
        "coordinates": [
          77.45643872790275,
          23.254178166504698
        ],
        "type": "Point"
      },
      "properties": {
        "anchor_kind": "amenity:hospital",
        "anchor_name": "Devi Rajeshwari Hospital",
        "archetype": "interchange-elevated",
        "chainage_m": 14110.6,
        "corridor_offset_m": 25.047,
        "id": "line-3-0832-1026-s014111",
        "junction_group": 2,
        "line": "line-3",
        "platform_length_m": 85.0
      },
      "type": "Feature"
    },
    {
      "geometry": {
        "coordinates": [
          77.45233204179856,
          23.266775798149947
        ],
        "type": "Point"
      },
      "properties": {
        "anchor_kind": null,
        "anchor_name": null,
        "archetype": "standard",
        "chainage_m": 16126.6,
        "corridor_offset_m": 43.581,
        "id": "line-3-0762-1005-s016127",
        "junction_group": null,
        "line": "line-3",
        "platform_length_m": 85.0
      },
      "type": "Feature"
    },
    {
      "geometry": {
        "coordinates": [
          77.44529200847707,
          23.276673937299787
        ],
        "type": "Point"
      },
      "properties": {
        "anchor_kind": "amenity:hospital",
        "anchor_name": "Marvel Hospital",
        "archetype": "interchange-elevated",
        "chainage_m": 18130.8,
        "corridor_offset_m": 36.367,
        "id": "line-3-0707-0969-s018131",
        "junction_group": 8,
        "line": "line-3",
        "platform_length_m": 85.0
      },
      "type": "Feature"
    },
    {
      "geometry": {
        "coordinates": [
          77.44431422607131,
          23.281353057625168
        ],
        "type": "Point"
      },
      "properties": {
        "anchor_kind": null,
        "anchor_name": null,
        "archetype": "interchange-elevated",
        "chainage_m": 18753.7,
        "corridor_offset_m": 33.942,
        "id": "line-3-0681-0964-s018754",
        "junction_group": 8,
        "line": "line-3",
        "platform_length_m": 85.0
      },
      "type": "Feature"
    },
    {
      "geometry": {
        "coordinates": [
          77.43649196682522,
          23.290891264442283
        ],
        "type": "Point"
      },
      "properties": {
        "anchor_kind": null,
        "anchor_name": null,
        "archetype": "interchange-elevated",
        "chainage_m": 20145.0,
        "corridor_offset_m": 39.794,
        "id": "line-3-0628-0924-s020145",
        "junction_group": 9,
        "line": "line-3",
        "platform_length_m": 85.0
      },
      "type": "Feature"
    },
    {
      "geometry": {
        "coordinates": [
          77.43629641034407,
          23.304208760752978
        ],
        "type": "Point"
      },
      "properties": {
        "anchor_kind": "amenity:hospital",
        "anchor_name": "Vidhata Multi Speciality Hospital",
        "archetype": "terminal",
        "chainage_m": 22018.4,
        "corridor_offset_m": 0.0,
        "id": "line-3-0554-0923-s022018",
        "junction_group": null,
        "line": "line-3",
        "platform_length_m": 85.0
      },
      "type": "Feature"
    },
    {
      "geometry": {
        "coordinates": [
          77.3641360687989,
          23.186690854119426
        ],
        "type": "Point"
      },
      "properties": {
        "anchor_kind": "amenity:hospital",
        "anchor_name": "Health Centre",
        "archetype": "terminal",
        "chainage_m": 0.0,
        "corridor_offset_m": 0.0,
        "id": "line-4-1207-0554-s000000",
        "junction_group": null,
        "line": "line-4",
        "platform_length_m": 85.0
      },
      "type": "Feature"
    },
    {
      "geometry": {
        "coordinates": [
          77.37117610212039,
          23.19514926393838
        ],
        "type": "Point"
      },
      "properties": {
        "anchor_kind": null,
        "anchor_name": null,
        "archetype": "interchange-elevated",
        "chainage_m": 1273.4,
        "corridor_offset_m": 29.104,
        "id": "line-4-1160-0590-s001273",
        "junction_group": 10,
        "line": "line-4",
        "platform_length_m": 85.0
      },
      "type": "Feature"
    },
    {
      "geometry": {
        "coordinates": [
          77.36276717343084,
          23.203967606090053
        ],
        "type": "Point"
      },
      "properties": {
        "anchor_kind": null,
        "anchor_name": null,
        "archetype": "standard",
        "chainage_m": 2679.9,
        "corridor_offset_m": 2.782,
        "id": "line-4-1111-0547-s002680",
        "junction_group": null,
        "line": "line-4",
        "platform_length_m": 85.0
      },
      "type": "Feature"
    },
    {
      "geometry": {
        "coordinates": [
          77.37332722341306,
          23.208826692581795
        ],
        "type": "Point"
      },
      "properties": {
        "anchor_kind": null,
        "anchor_name": null,
        "archetype": "interchange-elevated",
        "chainage_m": 4070.4,
        "corridor_offset_m": 16.948,
        "id": "line-4-1084-0601-s004070",
        "junction_group": 11,
        "line": "line-4",
        "platform_length_m": 85.0
      },
      "type": "Feature"
    },
    {
      "geometry": {
        "coordinates": [
          77.37938947432878,
          23.21458560990534
        ],
        "type": "Point"
      },
      "properties": {
        "anchor_kind": null,
        "anchor_name": null,
        "archetype": "standard",
        "chainage_m": 5336.1,
        "corridor_offset_m": 62.049,
        "id": "line-4-1052-0632-s005336",
        "junction_group": null,
        "line": "line-4",
        "platform_length_m": 85.0
      },
      "type": "Feature"
    },
    {
      "geometry": {
        "coordinates": [
          77.38369171691413,
          23.22304401972429
        ],
        "type": "Point"
      },
      "properties": {
        "anchor_kind": null,
        "anchor_name": null,
        "archetype": "interchange-elevated",
        "chainage_m": 6624.1,
        "corridor_offset_m": 33.663,
        "id": "line-4-1005-0654-s006624",
        "junction_group": 12,
        "line": "line-4",
        "platform_length_m": 85.0
      },
      "type": "Feature"
    },
    {
      "geometry": {
        "coordinates": [
          77.39366509745288,
          23.231322463376884
        ],
        "type": "Point"
      },
      "properties": {
        "anchor_kind": "amenity:hospital",
        "anchor_name": "Jindal Maternity Hospital",
        "archetype": "standard",
        "chainage_m": 8036.9,
        "corridor_offset_m": 13.705,
        "id": "line-4-0959-0705-s008037",
        "junction_group": null,
        "line": "line-4",
        "platform_length_m": 85.0
      },
      "type": "Feature"
    },
    {
      "geometry": {
        "coordinates": [
          77.39718511411363,
          23.2449998920203
        ],
        "type": "Point"
      },
      "properties": {
        "anchor_kind": "amenity:college",
        "anchor_name": null,
        "archetype": "standard",
        "chainage_m": 10060.8,
        "corridor_offset_m": 9.994,
        "id": "line-4-0883-0723-s010061",
        "junction_group": null,
        "line": "line-4",
        "platform_length_m": 85.0
      },
      "type": "Feature"
    },
    {
      "geometry": {
        "coordinates": [
          77.3985540094817,
          23.253998200338337
        ],
        "type": "Point"
      },
      "properties": {
        "anchor_kind": "amenity:hospital",
        "anchor_name": "Jayshree Hospital",
        "archetype": "major",
        "chainage_m": 11263.0,
        "corridor_offset_m": 30.489,
        "id": "line-4-0833-0730-s011263",
        "junction_group": null,
        "line": "line-4",
        "platform_length_m": 85.0
      },
      "type": "Feature"
    },
    {
      "geometry": {
        "coordinates": [
          77.41400297149272,
          23.257777489831913
        ],
        "type": "Point"
      },
      "properties": {
        "anchor_kind": null,
        "anchor_name": null,
        "archetype": "interchange-elevated",
        "chainage_m": 13257.0,
        "corridor_offset_m": 45.263,
        "id": "line-4-0812-0809-s013257",
        "junction_group": 3,
        "line": "line-4",
        "platform_length_m": 85.0
      },
      "type": "Feature"
    },
    {
      "geometry": {
        "coordinates": [
          77.42260745666341,
          23.26947529064536
        ],
        "type": "Point"
      },
      "properties": {
        "anchor_kind": "amenity:hospital",
        "anchor_name": "Bhopal Memorial & Gas Rahat Hospital",
        "archetype": "interchange-elevated",
        "chainage_m": 15669.8,
        "corridor_offset_m": 122.403,
        "id": "line-4-0747-0853-s015670",
        "junction_group": 13,
        "line": "line-4",
        "platform_length_m": 85.0
      },
      "type": "Feature"
    },
    {
      "geometry": {
        "coordinates": [
          77.42710525572991,
          23.284052550120578
        ],
        "type": "Point"
      },
      "properties": {
        "anchor_kind": null,
        "anchor_name": null,
        "archetype": "interchange-elevated",
        "chainage_m": 17636.3,
        "corridor_offset_m": 198.988,
        "id": "line-4-0666-0876-s017636",
        "junction_group": 14,
        "line": "line-4",
        "platform_length_m": 85.0
      },
      "type": "Feature"
    },
    {
      "geometry": {
        "coordinates": [
          77.44079420941057,
          23.29161112910773
        ],
        "type": "Point"
      },
      "properties": {
        "anchor_kind": null,
        "anchor_name": null,
        "archetype": "interchange-elevated",
        "chainage_m": 19702.2,
        "corridor_offset_m": 177.01,
        "id": "line-4-0624-0946-s019702",
        "junction_group": 9,
        "line": "line-4",
        "platform_length_m": 85.0
      },
      "type": "Feature"
    },
    {
      "geometry": {
        "coordinates": [
          77.45898096215772,
          23.29233099377317
        ],
        "type": "Point"
      },
      "properties": {
        "anchor_kind": null,
        "anchor_name": null,
        "archetype": "standard",
        "chainage_m": 21723.1,
        "corridor_offset_m": 200.062,
        "id": "line-4-0620-1039-s021723",
        "junction_group": null,
        "line": "line-4",
        "platform_length_m": 85.0
      },
      "type": "Feature"
    },
    {
      "geometry": {
        "coordinates": [
          77.46797656029072,
          23.303128963754816
        ],
        "type": "Point"
      },
      "properties": {
        "anchor_kind": null,
        "anchor_name": null,
        "archetype": "standard",
        "chainage_m": 23725.9,
        "corridor_offset_m": 188.875,
        "id": "line-4-0560-1085-s023726",
        "junction_group": null,
        "line": "line-4",
        "platform_length_m": 85.0
      },
      "type": "Feature"
    },
    {
      "geometry": {
        "coordinates": [
          77.47149657695147,
          23.328684159378035
        ],
        "type": "Point"
      },
      "properties": {
        "anchor_kind": null,
        "anchor_name": null,
        "archetype": "halt",
        "chainage_m": 26738.5,
        "corridor_offset_m": 103.803,
        "id": "line-4-0418-1103-s026738",
        "junction_group": null,
        "line": "line-4",
        "platform_length_m": 81.0
      },
      "type": "Feature"
    },
    {
      "geometry": {
        "coordinates": [
          77.49339890284051,
          23.345241046683224
        ],
        "type": "Point"
      },
      "properties": {
        "anchor_kind": null,
        "anchor_name": null,
        "archetype": "halt",
        "chainage_m": 29740.6,
        "corridor_offset_m": 82.863,
        "id": "line-4-0326-1215-s029741",
        "junction_group": null,
        "line": "line-4",
        "platform_length_m": 81.0
      },
      "type": "Feature"
    },
    {
      "geometry": {
        "coordinates": [
          77.51002120373845,
          23.365757189648345
        ],
        "type": "Point"
      },
      "properties": {
        "anchor_kind": null,
        "anchor_name": null,
        "archetype": "halt",
        "chainage_m": 32783.4,
        "corridor_offset_m": 66.077,
        "id": "line-4-0212-1300-s032783",
        "junction_group": null,
        "line": "line-4",
        "platform_length_m": 81.0
      },
      "type": "Feature"
    },
    {
      "geometry": {
        "coordinates": [
          77.53544354628823,
          23.374755497966383
        ],
        "type": "Point"
      },
      "properties": {
        "anchor_kind": "railway:station",
        "anchor_name": "Bhad Bhada Ghat",
        "archetype": "depot-terminal",
        "chainage_m": 35847.3,
        "corridor_offset_m": 0.0,
        "id": "line-4-0162-1430-s035847",
        "junction_group": null,
        "line": "line-4",
        "platform_length_m": 85.0
      },
      "type": "Feature"
    },
    {
      "geometry": {
        "coordinates": [
          77.38682062061255,
          23.30222913292301
        ],
        "type": "Point"
      },
      "properties": {
        "anchor_kind": null,
        "anchor_name": null,
        "archetype": "terminal",
        "chainage_m": 0.0,
        "corridor_offset_m": 5.994,
        "id": "line-5-0565-0670-s000000",
        "junction_group": 15,
        "line": "line-5",
        "platform_length_m": 85.0
      },
      "type": "Feature"
    },
    {
      "geometry": {
        "coordinates": [
          77.38682062061255,
          23.297550012597632
        ],
        "type": "Point"
      },
      "properties": {
        "anchor_kind": null,
        "anchor_name": null,
        "archetype": "interchange-elevated",
        "chainage_m": 2009.7,
        "corridor_offset_m": 20.612,
        "id": "line-5-0591-0670-s002010",
        "junction_group": 15,
        "line": "line-5",
        "platform_length_m": 85.0
      },
      "type": "Feature"
    },
    {
      "geometry": {
        "coordinates": [
          77.40402959095395,
          23.288011805780513
        ],
        "type": "Point"
      },
      "properties": {
        "anchor_kind": null,
        "anchor_name": null,
        "archetype": "interchange-elevated",
        "chainage_m": 4466.5,
        "corridor_offset_m": 18.995,
        "id": "line-5-0644-0758-s004467",
        "junction_group": 6,
        "line": "line-5",
        "platform_length_m": 85.0
      },
      "type": "Feature"
    },
    {
      "geometry": {
        "coordinates": [
          77.40735405113354,
          23.278293632797034
        ],
        "type": "Point"
      },
      "properties": {
        "anchor_kind": "place:neighbourhood",
        "anchor_name": "Jaiprakash Nagar",
        "archetype": "standard",
        "chainage_m": 6035.6,
        "corridor_offset_m": 11.3,
        "id": "line-5-0698-0775-s006036",
        "junction_group": null,
        "line": "line-5",
        "platform_length_m": 85.0
      },
      "type": "Feature"
    },
    {
      "geometry": {
        "coordinates": [
          77.42260745666341,
          23.270735053809883
        ],
        "type": "Point"
      },
      "properties": {
        "anchor_kind": null,
        "anchor_name": null,
        "archetype": "interchange-elevated",
        "chainage_m": 8053.9,
        "corridor_offset_m": 13.517,
        "id": "line-5-0740-0853-s008054",
        "junction_group": 13,
        "line": "line-5",
        "platform_length_m": 85.0
      },
      "type": "Feature"
    },
    {
      "geometry": {
        "coordinates": [
          77.43883864459904,
          23.266775798149947
        ],
        "type": "Point"
      },
      "properties": {
        "anchor_kind": null,
        "anchor_name": null,
        "archetype": "standard",
        "chainage_m": 10054.1,
        "corridor_offset_m": 32.088,
        "id": "line-5-0762-0936-s010054",
        "junction_group": null,
        "line": "line-5",
        "platform_length_m": 85.0
      },
      "type": "Feature"
    },
    {
      "geometry": {
        "coordinates": [
          77.45057203346818,
          23.25741755749919
        ],
        "type": "Point"
      },
      "properties": {
        "anchor_kind": null,
        "anchor_name": null,
        "archetype": "standard",
        "chainage_m": 12076.4,
        "corridor_offset_m": 30.825,
        "id": "line-5-0814-0996-s012076",
        "junction_group": null,
        "line": "line-5",
        "platform_length_m": 85.0
      },
      "type": "Feature"
    },
    {
      "geometry": {
        "coordinates": [
          77.46367431770538,
          23.245719756685745
        ],
        "type": "Point"
      },
      "properties": {
        "anchor_kind": null,
        "anchor_name": null,
        "archetype": "standard",
        "chainage_m": 14095.4,
        "corridor_offset_m": 10.641,
        "id": "line-5-0879-1063-s014095",
        "junction_group": null,
        "line": "line-5",
        "platform_length_m": 85.0
      },
      "type": "Feature"
    },
    {
      "geometry": {
        "coordinates": [
          77.46856322973419,
          23.23204232804233
        ],
        "type": "Point"
      },
      "properties": {
        "anchor_kind": "place:suburb",
        "anchor_name": "BHEL Township",
        "archetype": "standard",
        "chainage_m": 16106.6,
        "corridor_offset_m": 9.825,
        "id": "line-5-0955-1088-s016107",
        "junction_group": null,
        "line": "line-5",
        "platform_length_m": 85.0
      },
      "type": "Feature"
    },
    {
      "geometry": {
        "coordinates": [
          77.4791232797164,
          23.22538357988698
        ],
        "type": "Point"
      },
      "properties": {
        "anchor_kind": "place:neighbourhood",
        "anchor_name": "Rishipuram",
        "archetype": "standard",
        "chainage_m": 17680.5,
        "corridor_offset_m": 18.199,
        "id": "line-5-0992-1142-s017681",
        "junction_group": null,
        "line": "line-5",
        "platform_length_m": 85.0
      },
      "type": "Feature"
    },
    {
      "geometry": {
        "coordinates": [
          77.4926166769159,
          23.22322398589065
        ],
        "type": "Point"
      },
      "properties": {
        "anchor_kind": null,
        "anchor_name": null,
        "archetype": "interchange-elevated",
        "chainage_m": 19259.4,
        "corridor_offset_m": 29.388,
        "id": "line-5-1004-1211-s019259",
        "junction_group": 16,
        "line": "line-5",
        "platform_length_m": 85.0
      },
      "type": "Feature"
    },
    {
      "geometry": {
        "coordinates": [
          77.50650118707772,
          23.213685779073533
        ],
        "type": "Point"
      },
      "properties": {
        "anchor_kind": null,
        "anchor_name": null,
        "archetype": "halt",
        "chainage_m": 21146.7,
        "corridor_offset_m": 57.581,
        "id": "line-5-1057-1282-s021147",
        "junction_group": null,
        "line": "line-5",
        "platform_length_m": 81.0
      },
      "type": "Feature"
    },
    {
      "geometry": {
        "coordinates": [
          77.51119454262536,
          23.190470143613002
        ],
        "type": "Point"
      },
      "properties": {
        "anchor_kind": null,
        "anchor_name": null,
        "archetype": "halt",
        "chainage_m": 24157.5,
        "corridor_offset_m": 36.727,
        "id": "line-5-1186-1306-s024157",
        "junction_group": null,
        "line": "line-5",
        "platform_length_m": 81.0
      },
      "type": "Feature"
    },
    {
      "geometry": {
        "coordinates": [
          77.5237101574191,
          23.183811395457653
        ],
        "type": "Point"
      },
      "properties": {
        "anchor_kind": "amenity:university",
        "anchor_name": "Sage bhopal",
        "archetype": "terminal",
        "chainage_m": 26130.6,
        "corridor_offset_m": 0.0,
        "id": "line-5-1223-1370-s026131",
        "junction_group": null,
        "line": "line-5",
        "platform_length_m": 85.0
      },
      "type": "Feature"
    },
    {
      "geometry": {
        "coordinates": [
          77.3457537595706,
          23.295570384767665
        ],
        "type": "Point"
      },
      "properties": {
        "anchor_kind": "amenity:hospital",
        "anchor_name": "Shradha Hospital",
        "archetype": "standard",
        "chainage_m": 0.0,
        "corridor_offset_m": 0.0,
        "id": "line-6-0602-0460-s000000",
        "junction_group": null,
        "line": "line-6",
        "platform_length_m": 85.0
      },
      "type": "Feature"
    },
    {
      "geometry": {
        "coordinates": [
          77.35944271325125,
          23.30492862541842
        ],
        "type": "Point"
      },
      "properties": {
        "anchor_kind": null,
        "anchor_name": null,
        "archetype": "standard",
        "chainage_m": 2016.2,
        "corridor_offset_m": 30.456,
        "id": "line-6-0550-0530-s002016",
        "junction_group": null,
        "line": "line-6",
        "platform_length_m": 85.0
      },
      "type": "Feature"
    },
    {
      "geometry": {
        "coordinates": [
          77.37332722341306,
          23.30924781341108
        ],
        "type": "Point"
      },
      "properties": {
        "anchor_kind": null,
        "anchor_name": null,
        "archetype": "standard",
        "chainage_m": 4018.5,
        "corridor_offset_m": 30.773,
        "id": "line-6-0526-0601-s004018",
        "junction_group": null,
        "line": "line-6",
        "platform_length_m": 85.0
      },
      "type": "Feature"
    },
    {
      "geometry": {
        "coordinates": [
          77.38232282154605,
          23.30186920059029
        ],
        "type": "Point"
      },
      "properties": {
        "anchor_kind": null,
        "anchor_name": null,
        "archetype": "interchange-elevated",
        "chainage_m": 6034.5,
        "corridor_offset_m": 50.364,
        "id": "line-6-0567-0647-s006034",
        "junction_group": 15,
        "line": "line-6",
        "platform_length_m": 85.0
      },
      "type": "Feature"
    },
    {
      "geometry": {
        "coordinates": [
          77.38682062061255,
          23.30222913292301
        ],
        "type": "Point"
      },
      "properties": {
        "anchor_kind": null,
        "anchor_name": null,
        "archetype": "interchange-elevated",
        "chainage_m": 6511.0,
        "corridor_offset_m": 60.955,
        "id": "line-6-0565-0670-s006511",
        "junction_group": 15,
        "line": "line-6",
        "platform_length_m": 85.0
      },
      "type": "Feature"
    },
    {
      "geometry": {
        "coordinates": [
          77.39953179188745,
          23.301149335924848
        ],
        "type": "Point"
      },
      "properties": {
        "anchor_kind": "amenity:hospital",
        "anchor_name": "Bhopal High Tech Hospital",
        "archetype": "interchange-elevated",
        "chainage_m": 8053.9,
        "corridor_offset_m": 46.854,
        "id": "line-6-0571-0735-s008054",
        "junction_group": 6,
        "line": "line-6",
        "platform_length_m": 85.0
      },
      "type": "Feature"
    },
    {
      "geometry": {
        "coordinates": [
          77.40109624373667,
          23.29988957276032
        ],
        "type": "Point"
      },
      "properties": {
        "anchor_kind": null,
        "anchor_name": null,
        "archetype": "interchange-elevated",
        "chainage_m": 8295.3,
        "corridor_offset_m": 62.445,
        "id": "line-6-0578-0743-s008295",
        "junction_group": 6,
        "line": "line-6",
        "platform_length_m": 85.0
      },
      "type": "Feature"
    },
    {
      "geometry": {
        "coordinates": [
          77.40735405113354,
          23.29233099377317
        ],
        "type": "Point"
      },
      "properties": {
        "anchor_kind": null,
        "anchor_name": null,
        "archetype": "interchange-elevated",
        "chainage_m": 9619.0,
        "corridor_offset_m": 136.128,
        "id": "line-6-0620-0775-s009619",
        "junction_group": 6,
        "line": "line-6",
        "platform_length_m": 85.0
      },
      "type": "Feature"
    },
    {
      "geometry": {
        "coordinates": [
          77.41126518075659,
          23.291251196775008
        ],
        "type": "Point"
      },
      "properties": {
        "anchor_kind": "amenity:hospital",
        "anchor_name": "Max Hospital",
        "archetype": "interchange-elevated",
        "chainage_m": 10068.7,
        "corridor_offset_m": 145.764,
        "id": "line-6-0626-0795-s010069",
        "junction_group": 6,
        "line": "line-6",
        "platform_length_m": 85.0
      },
      "type": "Feature"
    },
    {
      "geometry": {
        "coordinates": [
          77.41361185853042,
          23.28999143361048
        ],
        "type": "Point"
      },
      "properties": {
        "anchor_kind": null,
        "anchor_name": null,
        "archetype": "interchange-elevated",
        "chainage_m": 10366.7,
        "corridor_offset_m": 151.887,
        "id": "line-6-0633-0807-s010367",
        "junction_group": 6,
        "line": "line-6",
        "platform_length_m": 85.0
      },
      "type": "Feature"
    },
    {
      "geometry": {
        "coordinates": [
          77.42710525572991,
          23.284052550120578
        ],
        "type": "Point"
      },
      "properties": {
        "anchor_kind": null,
        "anchor_name": null,
        "archetype": "interchange-elevated",
        "chainage_m": 12154.6,
        "corridor_offset_m": 211.667,
        "id": "line-6-0666-0876-s012155",
        "junction_group": 14,
        "line": "line-6",
        "platform_length_m": 85.0
      },
      "type": "Feature"
    },
    {
      "geometry": {
        "coordinates": [
          77.44431422607131,
          23.281353057625168
        ],
        "type": "Point"
      },
      "properties": {
        "anchor_kind": null,
        "anchor_name": null,
        "archetype": "interchange-elevated",
        "chainage_m": 14121.7,
        "corridor_offset_m": 163.586,
        "id": "line-6-0681-0964-s014122",
        "junction_group": 8,
        "line": "line-6",
        "platform_length_m": 85.0
      },
      "type": "Feature"
    },
    {
      "geometry": {
        "coordinates": [
          77.46171875289386,
          23.277033869632508
        ],
        "type": "Point"
      },
      "properties": {
        "anchor_kind": "shop:mall",
        "anchor_name": "Satellite Plaza",
        "archetype": "standard",
        "chainage_m": 16100.5,
        "corridor_offset_m": 187.499,
        "id": "line-6-0705-1053-s016101",
        "junction_group": null,
        "line": "line-6",
        "platform_length_m": 85.0
      },
      "type": "Feature"
    },
    {
      "geometry": {
        "coordinates": [
          77.47286547231953,
          23.263356440989092
        ],
        "type": "Point"
      },
      "properties": {
        "anchor_kind": "amenity:hospital",
        "anchor_name": "Shubh Hospital",
        "archetype": "standard",
        "chainage_m": 18116.2,
        "corridor_offset_m": 191.644,
        "id": "line-6-0781-1110-s018116",
        "junction_group": null,
        "line": "line-6",
        "platform_length_m": 85.0
      },
      "type": "Feature"
    },
    {
      "geometry": {
        "coordinates": [
          77.48205662693368,
          23.256337760501026
        ],
        "type": "Point"
      },
      "properties": {
        "anchor_kind": null,
        "anchor_name": null,
        "archetype": "interchange-elevated",
        "chainage_m": 19508.1,
        "corridor_offset_m": 175.192,
        "id": "line-6-0820-1157-s019508",
        "junction_group": 1,
        "line": "line-6",
        "platform_length_m": 85.0
      },
      "type": "Feature"
    },
    {
      "geometry": {
        "coordinates": [
          77.49457224172743,
          23.258857286830075
        ],
        "type": "Point"
      },
      "properties": {
        "anchor_kind": "amenity:college",
        "anchor_name": "Technocrat Institute of Technology",
        "archetype": "standard",
        "chainage_m": 21244.3,
        "corridor_offset_m": 205.377,
        "id": "line-6-0806-1221-s021244",
        "junction_group": null,
        "line": "line-6",
        "platform_length_m": 85.0
      },
      "type": "Feature"
    },
    {
      "geometry": {
        "coordinates": [
          77.50356783986042,
          23.25237850484109
        ],
        "type": "Point"
      },
      "properties": {
        "anchor_kind": "amenity:hospital",
        "anchor_name": "Arnav Hospital, Bhopal",
        "archetype": "interchange-elevated",
        "chainage_m": 22959.2,
        "corridor_offset_m": 188.353,
        "id": "line-6-0842-1267-s022959",
        "junction_group": 0,
        "line": "line-6",
        "platform_length_m": 85.0
      },
      "type": "Feature"
    },
    {
      "geometry": {
        "coordinates": [
          77.500438936162,
          23.24014080552856
        ],
        "type": "Point"
      },
      "properties": {
        "anchor_kind": "amenity:hospital",
        "anchor_name": "Vaishno Hospital bhopal",
        "archetype": "standard",
        "chainage_m": 24662.2,
        "corridor_offset_m": 227.015,
        "id": "line-6-0910-1251-s024662",
        "junction_group": null,
        "line": "line-6",
        "platform_length_m": 85.0
      },
      "type": "Feature"
    },
    {
      "geometry": {
        "coordinates": [
          77.4955500241332,
          23.227003275384227
        ],
        "type": "Point"
      },
      "properties": {
        "anchor_kind": null,
        "anchor_name": null,
        "archetype": "interchange-elevated",
        "chainage_m": 26376.2,
        "corridor_offset_m": 208.477,
        "id": "line-6-0983-1226-s026376",
        "junction_group": 16,
        "line": "line-6",
        "platform_length_m": 85.0
      },
      "type": "Feature"
    },
    {
      "geometry": {
        "coordinates": [
          77.4926166769159,
          23.22322398589065
        ],
        "type": "Point"
      },
      "properties": {
        "anchor_kind": null,
        "anchor_name": null,
        "archetype": "interchange-elevated",
        "chainage_m": 26990.8,
        "corridor_offset_m": 192.744,
        "id": "line-6-1004-1211-s026991",
        "junction_group": 16,
        "line": "line-6",
        "platform_length_m": 85.0
      },
      "type": "Feature"
    },
    {
      "geometry": {
        "coordinates": [
          77.48635886951904,
          23.213325846740812
        ],
        "type": "Point"
      },
      "properties": {
        "anchor_kind": null,
        "anchor_name": null,
        "archetype": "standard",
        "chainage_m": 28379.3,
        "corridor_offset_m": 186.669,
        "id": "line-6-1059-1179-s028379",
        "junction_group": null,
        "line": "line-6",
        "platform_length_m": 85.0
      },
      "type": "Feature"
    },
    {
      "geometry": {
        "coordinates": [
          77.47540770657452,
          23.200008350430117
        ],
        "type": "Point"
      },
      "properties": {
        "anchor_kind": null,
        "anchor_name": null,
        "archetype": "standard",
        "chainage_m": 30393.5,
        "corridor_offset_m": 115.591,
        "id": "line-6-1133-1123-s030394",
        "junction_group": null,
        "line": "line-6",
        "platform_length_m": 85.0
      },
      "type": "Feature"
    },
    {
      "geometry": {
        "coordinates": [
          77.4615231964127,
          23.194429399272938
        ],
        "type": "Point"
      },
      "properties": {
        "anchor_kind": "amenity:hospital",
        "anchor_name": "Ojas Hospital",
        "archetype": "interchange-elevated",
        "chainage_m": 32417.8,
        "corridor_offset_m": 137.746,
        "id": "line-6-1164-1052-s032418",
        "junction_group": 7,
        "line": "line-6",
        "platform_length_m": 85.0
      },
      "type": "Feature"
    },
    {
      "geometry": {
        "coordinates": [
          77.4570253973462,
          23.194249433106577
        ],
        "type": "Point"
      },
      "properties": {
        "anchor_kind": null,
        "anchor_name": null,
        "archetype": "interchange-elevated",
        "chainage_m": 32886.1,
        "corridor_offset_m": 118.67,
        "id": "line-6-1165-1029-s032886",
        "junction_group": 7,
        "line": "line-6",
        "platform_length_m": 85.0
      },
      "type": "Feature"
    },
    {
      "geometry": {
        "coordinates": [
          77.44470533903362,
          23.193709534607493
        ],
        "type": "Point"
      },
      "properties": {
        "anchor_kind": "amenity:hospital",
        "anchor_name": "Sahara Fracture and General Hospital",
        "archetype": "standard",
        "chainage_m": 34431.2,
        "corridor_offset_m": 144.36,
        "id": "line-6-1168-0966-s034431",
        "junction_group": null,
        "line": "line-6",
        "platform_length_m": 85.0
      },
      "type": "Feature"
    },
    {
      "geometry": {
        "coordinates": [
          77.43551418441946,
          23.193709534607493
        ],
        "type": "Point"
      },
      "properties": {
        "anchor_kind": "amenity:hospital",
        "anchor_name": "Naman Hospital",
        "archetype": "standard",
        "chainage_m": 35843.1,
        "corridor_offset_m": 172.844,
        "id": "line-6-1168-0919-s035843",
        "junction_group": null,
        "line": "line-6",
        "platform_length_m": 85.0
      },
      "type": "Feature"
    },
    {
      "geometry": {
        "coordinates": [
          77.42456302147494,
          23.19532923010474
        ],
        "type": "Point"
      },
      "properties": {
        "anchor_kind": null,
        "anchor_name": null,
        "archetype": "interchange-elevated",
        "chainage_m": 37282.5,
        "corridor_offset_m": 212.033,
        "id": "line-6-1159-0863-s037283",
        "junction_group": 5,
        "line": "line-6",
        "platform_length_m": 85.0
      },
      "type": "Feature"
    },
    {
      "geometry": {
        "coordinates": [
          77.4218252307388,
          23.19280970377569
        ],
        "type": "Point"
      },
      "properties": {
        "anchor_kind": null,
        "anchor_name": null,
        "archetype": "interchange-elevated",
        "chainage_m": 37678.5,
        "corridor_offset_m": 190.4,
        "id": "line-6-1173-0849-s037679",
        "junction_group": 5,
        "line": "line-6",
        "platform_length_m": 85.0
      },
      "type": "Feature"
    },
    {
      "geometry": {
        "coordinates": [
          77.40833183353931,
          23.18579102328762
        ],
        "type": "Point"
      },
      "properties": {
        "anchor_kind": null,
        "anchor_name": null,
        "archetype": "standard",
        "chainage_m": 39393.3,
        "corridor_offset_m": 161.206,
        "id": "line-6-1212-0780-s039393",
        "junction_group": null,
        "line": "line-6",
        "platform_length_m": 85.0
      },
      "type": "Feature"
    },
    {
      "geometry": {
        "coordinates": [
          77.39386065393404,
          23.182011733794045
        ],
        "type": "Point"
      },
      "properties": {
        "anchor_kind": null,
        "anchor_name": null,
        "archetype": "standard",
        "chainage_m": 41094.1,
        "corridor_offset_m": 171.546,
        "id": "line-6-1233-0706-s041094",
        "junction_group": null,
        "line": "line-6",
        "platform_length_m": 85.0
      },
      "type": "Feature"
    },
    {
      "geometry": {
        "coordinates": [
          77.3862339511691,
          23.183811395457653
        ],
        "type": "Point"
      },
      "properties": {
        "anchor_kind": null,
        "anchor_name": null,
        "archetype": "standard",
        "chainage_m": 43104.1,
        "corridor_offset_m": 152.529,
        "id": "line-6-1223-0667-s043104",
        "junction_group": null,
        "line": "line-6",
        "platform_length_m": 85.0
      },
      "type": "Feature"
    },
    {
      "geometry": {
        "coordinates": [
          77.37606501414919,
          23.19496929777202
        ],
        "type": "Point"
      },
      "properties": {
        "anchor_kind": null,
        "anchor_name": null,
        "archetype": "interchange-elevated",
        "chainage_m": 45114.6,
        "corridor_offset_m": 141.998,
        "id": "line-6-1161-0615-s045115",
        "junction_group": 10,
        "line": "line-6",
        "platform_length_m": 85.0
      },
      "type": "Feature"
    },
    {
      "geometry": {
        "coordinates": [
          77.37332722341306,
          23.208826692581795
        ],
        "type": "Point"
      },
      "properties": {
        "anchor_kind": null,
        "anchor_name": null,
        "archetype": "interchange-elevated",
        "chainage_m": 46787.2,
        "corridor_offset_m": 80.663,
        "id": "line-6-1084-0601-s046787",
        "junction_group": 11,
        "line": "line-6",
        "platform_length_m": 85.0
      },
      "type": "Feature"
    },
    {
      "geometry": {
        "coordinates": [
          77.37293611045075,
          23.211706151243565
        ],
        "type": "Point"
      },
      "properties": {
        "anchor_kind": "amenity:college",
        "anchor_name": "National Judicial Academy",
        "archetype": "interchange-elevated",
        "chainage_m": 47123.7,
        "corridor_offset_m": 74.754,
        "id": "line-6-1068-0599-s047124",
        "junction_group": 11,
        "line": "line-6",
        "platform_length_m": 85.0
      },
      "type": "Feature"
    },
    {
      "geometry": {
        "coordinates": [
          77.37938947432878,
          23.22520361372062
        ],
        "type": "Point"
      },
      "properties": {
        "anchor_kind": null,
        "anchor_name": null,
        "archetype": "interchange-elevated",
        "chainage_m": 48897.1,
        "corridor_offset_m": 56.834,
        "id": "line-6-0993-0632-s048897",
        "junction_group": 12,
        "line": "line-6",
        "platform_length_m": 85.0
      },
      "type": "Feature"
    },
    {
      "geometry": {
        "coordinates": [
          77.38036725673454,
          23.227003275384227
        ],
        "type": "Point"
      },
      "properties": {
        "anchor_kind": null,
        "anchor_name": null,
        "archetype": "interchange-elevated",
        "chainage_m": 49138.5,
        "corridor_offset_m": 53.142,
        "id": "line-6-0983-0637-s049139",
        "junction_group": 12,
        "line": "line-6",
        "platform_length_m": 85.0
      },
      "type": "Feature"
    },
    {
      "geometry": {
        "coordinates": [
          77.37430500581883,
          23.241580534859445
        ],
        "type": "Point"
      },
      "properties": {
        "anchor_kind": null,
        "anchor_name": null,
        "archetype": "standard",
        "chainage_m": 51149.1,
        "corridor_offset_m": 69.945,
        "id": "line-6-0902-0606-s051149",
        "junction_group": null,
        "line": "line-6",
        "platform_length_m": 85.0
      },
      "type": "Feature"
    },
    {
      "geometry": {
        "coordinates": [
          77.37098054563923,
          23.256877659000107
        ],
        "type": "Point"
      },
      "properties": {
        "anchor_kind": null,
        "anchor_name": null,
        "archetype": "standard",
        "chainage_m": 53153.9,
        "corridor_offset_m": 17.151,
        "id": "line-6-0817-0589-s053154",
        "junction_group": null,
        "line": "line-6",
        "platform_length_m": 85.0
      },
      "type": "Feature"
    },
    {
      "geometry": {
        "coordinates": [
          77.36178939102508,
          23.268935392146275
        ],
        "type": "Point"
      },
      "properties": {
        "anchor_kind": null,
        "anchor_name": null,
        "archetype": "interchange-elevated",
        "chainage_m": 55155.6,
        "corridor_offset_m": 32.136,
        "id": "line-6-0750-0542-s055156",
        "junction_group": 4,
        "line": "line-6",
        "platform_length_m": 85.0
      },
      "type": "Feature"
    },
    {
      "geometry": {
        "coordinates": [
          77.36139827806278,
          23.273614512471656
        ],
        "type": "Point"
      },
      "properties": {
        "anchor_kind": null,
        "anchor_name": null,
        "archetype": "interchange-elevated",
        "chainage_m": 55692.2,
        "corridor_offset_m": 6.331,
        "id": "line-6-0724-0540-s055692",
        "junction_group": 4,
        "line": "line-6",
        "platform_length_m": 85.0
      },
      "type": "Feature"
    },
    {
      "geometry": {
        "coordinates": [
          77.3592471567701,
          23.28225288845697
        ],
        "type": "Point"
      },
      "properties": {
        "anchor_kind": "amenity:hospital",
        "anchor_name": "Central Hospital",
        "archetype": "standard",
        "chainage_m": 57182.1,
        "corridor_offset_m": 43.673,
        "id": "line-6-0676-0529-s057182",
        "junction_group": null,
        "line": "line-6",
        "platform_length_m": 85.0
      },
      "type": "Feature"
    }
  ],
  "type": "FeatureCollection"
}
