{
  "features": [
    {
      "geometry": {
        "coordinates": [
          39.67519099688669,
          -4.035130482669258
        ],
        "type": "Point"
      },
      "properties": {
        "id": "interchange-000",
        "junction_group": 0,
        "line_count": 3,
        "lines": "line-1,line-3,line-6",
        "platform_count": 10,
        "platforms": "line-1-0735-0859-s005513,line-1-0737-0920-s003927,line-1-0743-0839-s006062,line-1-0746-0801-s006847,line-3-0797-0791-s010311,line-6-0716-0899-s026659,line-6-0735-0859-s027668,line-6-0758-0836-s028319,line-6-0773-0811-s028955,line-6-0797-0791-s029704"
      },
      "type": "Feature"
    },
    {
      "geometry": {
        "coordinates": [
          39.63915087267195,
          -4.018267652881258
        ],
        "type": "Point"
      },
      "properties": {
        "id": "interchange-001",
        "junction_group": 1,
        "line_count": 2,
        "lines": "line-1,line-5",
        "platform_count": 2,
        "platforms": "line-1-0671-0633-s012106,line-5-0649-0648-s012062"
      },
      "type": "Feature"
    },
    {
      "geometry": {
        "coordinates": [
          39.60547019686905,
          -4.009674268437534
        ],
        "type": "Point"
      },
      "properties": {
        "id": "interchange-002",
        "junction_group": 2,
        "line_count": 2,
        "lines": "line-1,line-6",
        "platform_count": 4,
        "platforms": "line-1-0611-0455-s016266,line-1-0612-0462-s016118,line-6-0611-0455-s000293,line-6-0615-0442-s000000"
      },
      "type": "Feature"
    },
    {
      "geometry": {
        "coordinates": [
          39.698317193534244,
          -4.045442544001728
        ],
        "type": "Point"
      },
      "properties": {
        "id": "interchange-003",
        "junction_group": 3,
        "line_count": 2,
        "lines": "line-2,line-3",
        "platform_count": 2,
        "platforms": "line-2-0807-0975-s016119,line-3-0815-0963-s014478"
      },
      "type": "Feature"
    },
    {
      "geometry": {
        "coordinates": [
          39.71614813954754,
          -4.005849987402368
        ],
        "type": "Point"
      },
      "properties": {
        "id": "interchange-004",
        "junction_group": 4,
        "line_count": 2,
        "lines": "line-2,line-6",
        "platform_count": 2,
        "platforms": "line-2-0600-1077-s021727,line-6-0582-1059-s021792"
      },
      "type": "Feature"
    },
    {
      "geometry": {
        "coordinates": [
          39.73259823788977,
          -3.9922325474810734
        ],
        "type": "Point"
      },
      "properties": {
        "id": "interchange-005",
        "junction_group": 5,
        "line_count": 2,
        "lines": "line-2,line-6",
        "platform_count": 3,
        "platforms": "line-2-0507-1164-s024775,line-2-0532-1150-s024159,line-6-0507-1164-s019059"
      },
      "type": "Feature"
    },
    {
      "geometry": {
        "coordinates": [
          39.7267746629292,
          -3.981194622610949
        ],
        "type": "Point"
      },
      "properties": {
        "id": "interchange-006",
        "junction_group": 6,
        "line_count": 2,
        "lines": "line-2,line-6",
        "platform_count": 2,
        "platforms": "line-2-0454-1127-s027173,line-6-0454-1127-s017348"
      },
      "type": "Feature"
    },
    {
      "geometry": {
        "coordinates": [
          39.60784165265196,
          -4.04364288233812
        ],
        "type": "Point"
      },
      "properties": {
        "id": "interchange-007",
        "junction_group": 7,
        "line_count": 2,
        "lines": "line-3,line-6",
        "platform_count": 3,
        "platforms": "line-3-0801-0458-s001477,line-3-0801-0484-s002013,line-6-0801-0458-s052965"
      },
      "type": "Feature"
    },
    {
      "geometry": {
        "coordinates": [
          39.64176247587591,
          -4.078016420113019
        ],
        "type": "Point"
      },
      "properties": {
        "id": "interchange-008",
        "junction_group": 8,
        "line_count": 2,
        "lines": "line-4,line-6",
        "platform_count": 2,
        "platforms": "line-4-0992-0655-s000000,line-6-0992-0655-s037325"
      },
      "type": "Feature"
    },
    {
      "geometry": {
        "coordinates": [
          39.65292933095495,
          -4.0449026455026456
        ],
        "type": "Point"
      },
      "properties": {
        "id": "interchange-009",
        "junction_group": 9,
        "line_count": 2,
        "lines": "line-4,line-5",
        "platform_count": 2,
        "platforms": "line-4-0805-0715-s006023,line-5-0811-0719-s016091"
      },
      "type": "Feature"
    },
    {
      "geometry": {
        "coordinates": [
          39.65094811473125,
          -4.029065622862902
        ],
        "type": "Point"
      },
      "properties": {
        "id": "interchange-010",
        "junction_group": 10,
        "line_count": 2,
        "lines": "line-4,line-5",
        "platform_count": 2,
        "platforms": "line-4-0711-0714-s008027,line-5-0729-0698-s014076"
      },
      "type": "Feature"
    },
    {
      "geometry": {
        "coordinates": [
          39.65518071302733,
          -3.971251491919519
        ],
        "type": "Point"
      },
      "properties": {
        "id": "interchange-011",
        "junction_group": 11,
        "line_count": 2,
        "lines": "line-4,line-6",
        "platform_count": 4,
        "platforms": "line-4-0393-0727-s014495,line-4-0416-0727-s014035,line-6-0393-0727-s007832,line-6-0393-0737-s008032"
      },
      "type": "Feature"
    },
    {
      "geometry": {
        "coordinates": [
          39.62321108759945,
          -3.9990112730806606
        ],
        "type": "Point"
      },
      "properties": {
        "id": "interchange-012",
        "junction_group": 12,
        "line_count": 2,
        "lines": "line-5,line-6",
        "platform_count": 2,
        "platforms": "line-5-0553-0552-s008936,line-6-0553-0552-s002737"
      },
      "type": "Feature"
    },
    {
      "geometry": {
        "coordinates": [
          39.664816628297146,
          -4.065238822301407
        ],
        "type": "Point"
      },
      "properties": {
        "id": "interchange-013",
        "junction_group": 13,
        "line_count": 2,
        "lines": "line-5,line-6",
        "platform_count": 5,
        "platforms": "line-5-0898-0770-s018556,line-5-0926-0786-s019934,line-6-0922-0763-s034474,line-6-0926-0786-s033840,line-6-0933-0810-s033179"
      },
      "type": "Feature"
    }
  ],
  "type": "FeatureCollection"
}
