{
  "features": [
    {
      "geometry": {
        "coordinates": [
          39.71650836067912,
          -4.028345758197458
        ],
        "type": "Point"
      },
      "properties": {
        "anchor_kind": "amenity:hospital",
        "anchor_name": "Nyali Healthcare Ltd",
        "archetype": "terminal",
        "chainage_m": 0.0,
        "corridor_offset_m": 0.0,
        "id": "line-1-0716-1070-s000000",
        "junction_group": null,
        "line": "line-1",
        "platform_length_m": 85.0
      },
      "type": "Feature"
    },
    {
      "geometry": {
        "coordinates": [
          39.703360289376384,
          -4.0243865025375225
        ],
        "type": "Point"
      },
      "properties": {
        "anchor_kind": "tourism:attraction",
        "anchor_name": "Bombolulu Workshops & Cultural Center",
        "archetype": "standard",
        "chainage_m": 2018.8,
        "corridor_offset_m": 10.757,
        "id": "line-1-0694-0997-s002019",
        "junction_group": null,
        "line": "line-1",
        "platform_length_m": 85.0
      },
      "type": "Feature"
    },
    {
      "geometry": {
        "coordinates": [
          39.68949177581049,
          -4.032125047691034
        ],
        "type": "Point"
      },
      "properties": {
        "anchor_kind": null,
        "anchor_name": null,
        "archetype": "interchange-elevated",
        "chainage_m": 3926.8,
        "corridor_offset_m": 28.6,
        "id": "line-1-0737-0920-s003927",
        "junction_group": 0,
        "line": "line-1",
        "platform_length_m": 85.0
      },
      "type": "Feature"
    },
    {
      "geometry": {
        "coordinates": [
          39.67850503129725,
          -4.031765115358312
        ],
        "type": "Point"
      },
      "properties": {
        "anchor_kind": null,
        "anchor_name": null,
        "archetype": "interchange-elevated",
        "chainage_m": 5513.3,
        "corridor_offset_m": 48.71,
        "id": "line-1-0735-0859-s005513",
        "junction_group": 0,
        "line": "line-1",
        "platform_length_m": 85.0
      },
      "type": "Feature"
    },
    {
      "geometry": {
        "coordinates": [
          39.67490281998143,
          -4.033204844689198
        ],
        "type": "Point"
      },
      "properties": {
        "anchor_kind": null,
        "anchor_name": null,
        "archetype": "interchange-elevated",
        "chainage_m": 6062.4,
        "corridor_offset_m": 42.825,
        "id": "line-1-0743-0839-s006062",
        "junction_group": 0,
        "line": "line-1",
        "platform_length_m": 85.0
      },
      "type": "Feature"
    },
    {
      "geometry": {
        "coordinates": [
          39.668058618481375,
          -4.03374474318828
        ],
        "type": "Point"
      },
      "properties": {
        "anchor_kind": null,
        "anchor_name": null,
        "archetype": "interchange-elevated",
        "chainage_m": 6847.2,
        "corridor_offset_m": 22.899,
        "id": "line-1-0746-0801-s006847",
        "junction_group": 0,
        "line": "line-1",
        "platform_length_m": 85.0
      },
      "type": "Feature"
    },
    {
      "geometry": {
        "coordinates": [
          39.65887297962605,
          -4.03104525069287
        ],
        "type": "Point"
      },
      "properties": {
        "anchor_kind": null,
        "anchor_name": null,
        "archetype": "standard",
        "chainage_m": 8086.1,
        "corridor_offset_m": 28.376,
        "id": "line-1-0731-0750-s008086",
        "junction_group": null,
        "line": "line-1",
        "platform_length_m": 85.0
      },
      "type": "Feature"
    },
    {
      "geometry": {
        "coordinates": [
          39.64158236531012,
          -4.03104525069287
        ],
        "type": "Point"
      },
      "properties": {
        "anchor_kind": null,
        "anchor_name": null,
        "archetype": "standard",
        "chainage_m": 10088.9,
        "corridor_offset_m": 9.68,
        "id": "line-1-0731-0654-s010089",
        "junction_group": null,
        "line": "line-1",
        "platform_length_m": 85.0
      },
      "type": "Feature"
    },
    {
      "geometry": {
        "coordinates": [
          39.63780004342851,
          -4.020247280711226
        ],
        "type": "Point"
      },
      "properties": {
        "anchor_kind": "place:neighbourhood",
        "anchor_name": "Birikani",
        "archetype": "interchange-elevated",
        "chainage_m": 12105.7,
        "corridor_offset_m": 23.114,
        "id": "line-1-0671-0633-s012106",
        "junction_group": 1,
        "line": "line-1",
        "platform_length_m": 85.0
      },
      "type": "Feature"
    },
    {
      "geometry": {
        "coordinates": [
          39.6241116404284,
          -4.011968837058633
        ],
        "type": "Point"
      },
      "properties": {
        "anchor_kind": null,
        "anchor_name": null,
        "archetype": "standard",
        "chainage_m": 14110.2,
        "corridor_offset_m": 23.16,
        "id": "line-1-0625-0557-s014110",
        "junction_group": null,
        "line": "line-1",
        "platform_length_m": 85.0
      },
      "type": "Feature"
    },
    {
      "geometry": {
        "coordinates": [
          39.60700113667827,
          -4.009629276895944
        ],
        "type": "Point"
      },
      "properties": {
        "anchor_kind": "place:neighbourhood",
        "anchor_name": "Mataa ya Ndege",
        "archetype": "interchange-elevated",
        "chainage_m": 16117.9,
        "corridor_offset_m": 10.204,
        "id": "line-1-0612-0462-s016118",
        "junction_group": 2,
        "line": "line-1",
        "platform_length_m": 85.0
      },
      "type": "Feature"
    },
    {
      "geometry": {
        "coordinates": [
          39.60574036271774,
          -4.0094493107295825
        ],
        "type": "Point"
      },
      "properties": {
        "anchor_kind": null,
        "anchor_name": null,
        "archetype": "interchange-elevated",
        "chainage_m": 16266.2,
        "corridor_offset_m": 10.073,
        "id": "line-1-0611-0455-s016266",
        "junction_group": 2,
        "line": "line-1",
        "platform_length_m": 85.0
      },
      "type": "Feature"
    },
    {
      "geometry": {
        "coordinates": [
          39.590611075191305,
          -4.015208228053126
        ],
        "type": "Point"
      },
      "properties": {
        "anchor_kind": "amenity:hospital",
        "anchor_name": "Miritini Sheikh Said & Juma",
        "archetype": "terminal",
        "chainage_m": 18695.3,
        "corridor_offset_m": 0.0,
        "id": "line-1-0643-0371-s018695",
        "junction_group": null,
        "line": "line-1",
        "platform_length_m": 85.0
      },
      "type": "Feature"
    },
    {
      "geometry": {
        "coordinates": [
          39.632396726454786,
          -4.128226980527661
        ],
        "type": "Point"
      },
      "properties": {
        "anchor_kind": "amenity:hospital",
        "anchor_name": "Ngombeni Dispensary",
        "archetype": "terminal",
        "chainage_m": 0.0,
        "corridor_offset_m": 0.0,
        "id": "line-2-1271-0603-s000000",
        "junction_group": null,
        "line": "line-2",
        "platform_length_m": 85.0
      },
      "type": "Feature"
    },
    {
      "geometry": {
        "coordinates": [
          39.63725971173114,
          -4.114009653385164
        ],
        "type": "Point"
      },
      "properties": {
        "anchor_kind": null,
        "anchor_name": null,
        "archetype": "standard",
        "chainage_m": 2009.4,
        "corridor_offset_m": 25.409,
        "id": "line-2-1192-0630-s002009",
        "junction_group": null,
        "line": "line-2",
        "platform_length_m": 85.0
      },
      "type": "Feature"
    },
    {
      "geometry": {
        "coordinates": [
          39.65094811473124,
          -4.105191311233488
        ],
        "type": "Point"
      },
      "properties": {
        "anchor_kind": null,
        "anchor_name": null,
        "archetype": "standard",
        "chainage_m": 4029.0,
        "corridor_offset_m": 9.693,
        "id": "line-2-1143-0706-s004029",
        "junction_group": null,
        "line": "line-2",
        "platform_length_m": 85.0
      },
      "type": "Feature"
    },
    {
      "geometry": {
        "coordinates": [
          39.65058789359966,
          -4.092053781089155
        ],
        "type": "Point"
      },
      "properties": {
        "anchor_kind": null,
        "anchor_name": null,
        "archetype": "standard",
        "chainage_m": 6043.8,
        "corridor_offset_m": 10.423,
        "id": "line-2-1070-0704-s006044",
        "junction_group": null,
        "line": "line-2",
        "platform_length_m": 85.0
      },
      "type": "Feature"
    },
    {
      "geometry": {
        "coordinates": [
          39.66139452754712,
          -4.0843152359356445
        ],
        "type": "Point"
      },
      "properties": {
        "anchor_kind": "amenity:marketplace",
        "anchor_name": "Fish Market",
        "archetype": "standard",
        "chainage_m": 8044.1,
        "corridor_offset_m": 25.706,
        "id": "line-2-1027-0764-s008044",
        "junction_group": null,
        "line": "line-2",
        "platform_length_m": 85.0
      },
      "type": "Feature"
    },
    {
      "geometry": {
        "coordinates": [
          39.67202105092878,
          -4.078736284778461
        ],
        "type": "Point"
      },
      "properties": {
        "anchor_kind": null,
        "anchor_name": null,
        "archetype": "standard",
        "chainage_m": 10059.5,
        "corridor_offset_m": 27.152,
        "id": "line-2-0996-0823-s010059",
        "junction_group": null,
        "line": "line-2",
        "platform_length_m": 85.0
      },
      "type": "Feature"
    },
    {
      "geometry": {
        "coordinates": [
          39.67976580525778,
          -4.067218450131375
        ],
        "type": "Point"
      },
      "properties": {
        "anchor_kind": "amenity:hospital",
        "anchor_name": "Mombasa Hospital",
        "archetype": "standard",
        "chainage_m": 12086.0,
        "corridor_offset_m": 38.395,
        "id": "line-2-0932-0866-s012086",
        "junction_group": null,
        "line": "line-2",
        "platform_length_m": 85.0
      },
      "type": "Feature"
    },
    {
      "geometry": {
        "coordinates": [
          39.687690670152584,
          -4.054620818486125
        ],
        "type": "Point"
      },
      "properties": {
        "anchor_kind": null,
        "anchor_name": null,
        "archetype": "standard",
        "chainage_m": 14105.0,
        "corridor_offset_m": 22.597,
        "id": "line-2-0862-0910-s014105",
        "junction_group": null,
        "line": "line-2",
        "platform_length_m": 85.0
      },
      "type": "Feature"
    },
    {
      "geometry": {
        "coordinates": [
          39.69939785692899,
          -4.044722679336285
        ],
        "type": "Point"
      },
      "properties": {
        "anchor_kind": "amenity:hospital",
        "anchor_name": "Bomu Hospital Nyali",
        "archetype": "interchange-elevated",
        "chainage_m": 16119.3,
        "corridor_offset_m": 41.511,
        "id": "line-2-0807-0975-s016119",
        "junction_group": 3,
        "line": "line-2",
        "platform_length_m": 85.0
      },
      "type": "Feature"
    },
    {
      "geometry": {
        "coordinates": [
          39.70281995767901,
          -4.032125047691034
        ],
        "type": "Point"
      },
      "properties": {
        "anchor_kind": "tourism:attraction",
        "anchor_name": null,
        "archetype": "standard",
        "chainage_m": 18127.2,
        "corridor_offset_m": 63.501,
        "id": "line-2-0737-0994-s018127",
        "junction_group": null,
        "line": "line-2",
        "platform_length_m": 85.0
      },
      "type": "Feature"
    },
    {
      "geometry": {
        "coordinates": [
          39.70822327465274,
          -4.017727754382176
        ],
        "type": "Point"
      },
      "properties": {
        "anchor_kind": null,
        "anchor_name": null,
        "archetype": "standard",
        "chainage_m": 20135.7,
        "corridor_offset_m": 42.806,
        "id": "line-2-0657-1024-s020136",
        "junction_group": null,
        "line": "line-2",
        "platform_length_m": 85.0
      },
      "type": "Feature"
    },
    {
      "geometry": {
        "coordinates": [
          39.71776913463965,
          -4.007469682899615
        ],
        "type": "Point"
      },
      "properties": {
        "anchor_kind": null,
        "anchor_name": null,
        "archetype": "interchange-elevated",
        "chainage_m": 21726.5,
        "corridor_offset_m": 3.324,
        "id": "line-2-0600-1077-s021727",
        "junction_group": 4,
        "line": "line-2",
        "platform_length_m": 85.0
      },
      "type": "Feature"
    },
    {
      "geometry": {
        "coordinates": [
          39.73091720594239,
          -3.9952319835870855
        ],
        "type": "Point"
      },
      "properties": {
        "anchor_kind": null,
        "anchor_name": null,
        "archetype": "interchange-elevated",
        "chainage_m": 24158.7,
        "corridor_offset_m": 20.597,
        "id": "line-2-0532-1150-s024159",
        "junction_group": 5,
        "line": "line-2",
        "platform_length_m": 85.0
      },
      "type": "Feature"
    },
    {
      "geometry": {
        "coordinates": [
          39.73343875386346,
          -3.9907328294280675
        ],
        "type": "Point"
      },
      "properties": {
        "anchor_kind": null,
        "anchor_name": null,
        "archetype": "interchange-elevated",
        "chainage_m": 24774.7,
        "corridor_offset_m": 28.903,
        "id": "line-2-0507-1164-s024775",
        "junction_group": 5,
        "line": "line-2",
        "platform_length_m": 85.0
      },
      "type": "Feature"
    },
    {
      "geometry": {
        "coordinates": [
          39.7267746629292,
          -3.981194622610949
        ],
        "type": "Point"
      },
      "properties": {
        "anchor_kind": null,
        "anchor_name": null,
        "archetype": "depot-terminal",
        "chainage_m": 27173.2,
        "corridor_offset_m": 6.003,
        "id": "line-2-0454-1127-s027173",
        "junction_group": 6,
        "line": "line-2",
        "platform_length_m": 85.0
      },
      "type": "Feature"
    },
    {
      "geometry": {
        "coordinates": [
          39.593132623112375,
          -4.04364288233812
        ],
        "type": "Point"
      },
      "properties": {
        "anchor_kind": "public_transport:station",
        "anchor_name": null,
        "archetype": "terminal",
        "chainage_m": 0.0,
        "corridor_offset_m": 0.0,
        "id": "line-3-0801-0385-s000000",
        "junction_group": null,
        "line": "line-3",
        "platform_length_m": 85.0
      },
      "type": "Feature"
    },
    {
      "geometry": {
        "coordinates": [
          39.60628069441511,
          -4.04364288233812
        ],
        "type": "Point"
      },
      "properties": {
        "anchor_kind": null,
        "anchor_name": null,
        "archetype": "interchange-elevated",
        "chainage_m": 1476.6,
        "corridor_offset_m": 6.825,
        "id": "line-3-0801-0458-s001477",
        "junction_group": 7,
        "line": "line-3",
        "platform_length_m": 85.0
      },
      "type": "Feature"
    },
    {
      "geometry": {
        "coordinates": [
          39.61096356912567,
          -4.04364288233812
        ],
        "type": "Point"
      },
      "properties": {
        "anchor_kind": null,
        "anchor_name": null,
        "archetype": "interchange-elevated",
        "chainage_m": 2013.1,
        "corridor_offset_m": 4.128,
        "id": "line-3-0801-0484-s002013",
        "junction_group": 7,
        "line": "line-3",
        "platform_length_m": 85.0
      },
      "type": "Feature"
    },
    {
      "geometry": {
        "coordinates": [
          39.62663318834948,
          -4.043282950005399
        ],
        "type": "Point"
      },
      "properties": {
        "anchor_kind": null,
        "anchor_name": null,
        "archetype": "standard",
        "chainage_m": 4013.4,
        "corridor_offset_m": 4.553,
        "id": "line-3-0799-0571-s004013",
        "junction_group": null,
        "line": "line-3",
        "platform_length_m": 85.0
      },
      "type": "Feature"
    },
    {
      "geometry": {
        "coordinates": [
          39.642122697007494,
          -4.041663254508152
        ],
        "type": "Point"
      },
      "properties": {
        "anchor_kind": null,
        "anchor_name": null,
        "archetype": "standard",
        "chainage_m": 6015.6,
        "corridor_offset_m": 4.9,
        "id": "line-3-0790-0657-s006016",
        "junction_group": null,
        "line": "line-3",
        "platform_length_m": 85.0
      },
      "type": "Feature"
    },
    {
      "geometry": {
        "coordinates": [
          39.65346966265232,
          -4.038243897347298
        ],
        "type": "Point"
      },
      "properties": {
        "anchor_kind": "place:neighbourhood",
        "anchor_name": "Makande",
        "archetype": "standard",
        "chainage_m": 8027.0,
        "corridor_offset_m": 5.867,
        "id": "line-3-0771-0720-s008027",
        "junction_group": null,
        "line": "line-3",
        "platform_length_m": 85.0
      },
      "type": "Feature"
    },
    {
      "geometry": {
        "coordinates": [
          39.66625751282347,
          -4.042923017672678
        ],
        "type": "Point"
      },
      "properties": {
        "anchor_kind": null,
        "anchor_name": null,
        "archetype": "interchange-elevated",
        "chainage_m": 10310.9,
        "corridor_offset_m": 6.699,
        "id": "line-3-0797-0791-s010311",
        "junction_group": 0,
        "line": "line-3",
        "platform_length_m": 85.0
      },
      "type": "Feature"
    },
    {
      "geometry": {
        "coordinates": [
          39.68318790600781,
          -4.041843220674513
        ],
        "type": "Point"
      },
      "properties": {
        "anchor_kind": "amenity:marketplace",
        "anchor_name": "Kongowea Market",
        "archetype": "major",
        "chainage_m": 12616.0,
        "corridor_offset_m": 3.423,
        "id": "line-3-0791-0885-s012616",
        "junction_group": null,
        "line": "line-3",
        "platform_length_m": 85.0
      },
      "type": "Feature"
    },
    {
      "geometry": {
        "coordinates": [
          39.6972365301395,
          -4.04616240866717
        ],
        "type": "Point"
      },
      "properties": {
        "anchor_kind": "amenity:hospital",
        "anchor_name": "Bomu Hospital Nyali",
        "archetype": "terminal",
        "chainage_m": 14478.3,
        "corridor_offset_m": 0.0,
        "id": "line-3-0815-0963-s014478",
        "junction_group": 3,
        "line": "line-3",
        "platform_length_m": 85.0
      },
      "type": "Feature"
    },
    {
      "geometry": {
        "coordinates": [
          39.64176247587591,
          -4.078016420113019
        ],
        "type": "Point"
      },
      "properties": {
        "anchor_kind": null,
        "anchor_name": null,
        "archetype": "terminal",
        "chainage_m": 0.0,
        "corridor_offset_m": 6.003,
        "id": "line-4-0992-0655-s000000",
        "junction_group": 8,
        "line": "line-4",
        "platform_length_m": 85.0
      },
      "type": "Feature"
    },
    {
      "geometry": {
        "coordinates": [
          39.64176247587591,
          -4.072257502789475
        ],
        "type": "Point"
      },
      "properties": {
        "anchor_kind": "place:suburb",
        "anchor_name": "Mtongwe",
        "archetype": "standard",
        "chainage_m": 2008.5,
        "corridor_offset_m": 6.488,
        "id": "line-4-0960-0655-s002009",
        "junction_group": null,
        "line": "line-4",
        "platform_length_m": 85.0
      },
      "type": "Feature"
    },
    {
      "geometry": {
        "coordinates": [
          39.64914700907334,
          -4.0573203109815354
        ],
        "type": "Point"
      },
      "properties": {
        "anchor_kind": "amenity:bus_station",
        "anchor_name": "Bus Depot",
        "archetype": "standard",
        "chainage_m": 4019.9,
        "corridor_offset_m": 3.247,
        "id": "line-4-0877-0696-s004020",
        "junction_group": null,
        "line": "line-4",
        "platform_length_m": 85.0
      },
      "type": "Feature"
    },
    {
      "geometry": {
        "coordinates": [
          39.65256910982336,
          -4.0443627470035635
        ],
        "type": "Point"
      },
      "properties": {
        "anchor_kind": null,
        "anchor_name": null,
        "archetype": "interchange-elevated",
        "chainage_m": 6023.0,
        "corridor_offset_m": 50.112,
        "id": "line-4-0805-0715-s006023",
        "junction_group": 9,
        "line": "line-4",
        "platform_length_m": 85.0
      },
      "type": "Feature"
    },
    {
      "geometry": {
        "coordinates": [
          39.652388999257575,
          -4.0274459273656555
        ],
        "type": "Point"
      },
      "properties": {
        "anchor_kind": null,
        "anchor_name": null,
        "archetype": "interchange-elevated",
        "chainage_m": 8027.2,
        "corridor_offset_m": 65.941,
        "id": "line-4-0711-0714-s008027",
        "junction_group": 10,
        "line": "line-4",
        "platform_length_m": 85.0
      },
      "type": "Feature"
    },
    {
      "geometry": {
        "coordinates": [
          39.65473043661285,
          -4.010349141561386
        ],
        "type": "Point"
      },
      "properties": {
        "anchor_kind": null,
        "anchor_name": null,
        "archetype": "standard",
        "chainage_m": 10034.9,
        "corridor_offset_m": 74.085,
        "id": "line-4-0616-0727-s010035",
        "junction_group": null,
        "line": "line-4",
        "platform_length_m": 85.0
      },
      "type": "Feature"
    },
    {
      "geometry": {
        "coordinates": [
          39.65473043661285,
          -3.9923525249253142
        ],
        "type": "Point"
      },
      "properties": {
        "anchor_kind": null,
        "anchor_name": null,
        "archetype": "standard",
        "chainage_m": 12034.9,
        "corridor_offset_m": 49.247,
        "id": "line-4-0516-0727-s012035",
        "junction_group": null,
        "line": "line-4",
        "platform_length_m": 85.0
      },
      "type": "Feature"
    },
    {
      "geometry": {
        "coordinates": [
          39.65473043661285,
          -3.9743559082892417
        ],
        "type": "Point"
      },
      "properties": {
        "anchor_kind": null,
        "anchor_name": null,
        "archetype": "interchange-elevated",
        "chainage_m": 14034.9,
        "corridor_offset_m": 24.409,
        "id": "line-4-0416-0727-s014035",
        "junction_group": 11,
        "line": "line-4",
        "platform_length_m": 85.0
      },
      "type": "Feature"
    },
    {
      "geometry": {
        "coordinates": [
          39.65473043661285,
          -3.970216686462945
        ],
        "type": "Point"
      },
      "properties": {
        "anchor_kind": null,
        "anchor_name": null,
        "archetype": "interchange-elevated",
        "chainage_m": 14494.9,
        "corridor_offset_m": 18.347,
        "id": "line-4-0393-0727-s014495",
        "junction_group": 11,
        "line": "line-4",
        "platform_length_m": 85.0
      },
      "type": "Feature"
    },
    {
      "geometry": {
        "coordinates": [
          39.65437021548127,
          -3.947360983335133
        ],
        "type": "Point"
      },
      "properties": {
        "anchor_kind": null,
        "anchor_name": null,
        "archetype": "halt",
        "chainage_m": 17051.5,
        "corridor_offset_m": 12.586,
        "id": "line-4-0266-0725-s017052",
        "junction_group": null,
        "line": "line-4",
        "platform_length_m": 81.0
      },
      "type": "Feature"
    },
    {
      "geometry": {
        "coordinates": [
          39.650227672468084,
          -3.9358431486880465
        ],
        "type": "Point"
      },
      "properties": {
        "anchor_kind": "amenity:hospital",
        "anchor_name": "Mwakirunge Health Centre",
        "archetype": "terminal",
        "chainage_m": 18571.8,
        "corridor_offset_m": 0.0,
        "id": "line-4-0202-0702-s018572",
        "junction_group": null,
        "line": "line-4",
        "platform_length_m": 85.0
      },
      "type": "Feature"
    },
    {
      "geometry": {
        "coordinates": [
          39.58394698425704,
          -3.9392625058489004
        ],
        "type": "Point"
      },
      "properties": {
        "anchor_kind": "tourism:attraction",
        "anchor_name": "Sacred Kaya Mijikenda Forests - Mudzimuvya",
        "archetype": "terminal",
        "chainage_m": 0.0,
        "corridor_offset_m": 0.0,
        "id": "line-5-0221-0334-s000000",
        "junction_group": null,
        "line": "line-5",
        "platform_length_m": 85.0
      },
      "type": "Feature"
    },
    {
      "geometry": {
        "coordinates": [
          39.60321881479666,
          -3.958518885649498
        ],
        "type": "Point"
      },
      "properties": {
        "anchor_kind": null,
        "anchor_name": null,
        "archetype": "halt",
        "chainage_m": 3026.4,
        "corridor_offset_m": 62.476,
        "id": "line-5-0328-0441-s003026",
        "junction_group": null,
        "line": "line-5",
        "platform_length_m": 81.0
      },
      "type": "Feature"
    },
    {
      "geometry": {
        "coordinates": [
          39.61420555930991,
          -3.9810146564445885
        ],
        "type": "Point"
      },
      "properties": {
        "anchor_kind": null,
        "anchor_name": null,
        "archetype": "halt",
        "chainage_m": 6031.8,
        "corridor_offset_m": 125.513,
        "id": "line-5-0453-0502-s006032",
        "junction_group": null,
        "line": "line-5",
        "platform_length_m": 81.0
      },
      "type": "Feature"
    },
    {
      "geometry": {
        "coordinates": [
          39.61420555930991,
          -3.9941521865889213
        ],
        "type": "Point"
      },
      "properties": {
        "anchor_kind": null,
        "anchor_name": null,
        "archetype": "standard",
        "chainage_m": 7491.8,
        "corridor_offset_m": 156.864,
        "id": "line-5-0526-0502-s007492",
        "junction_group": null,
        "line": "line-5",
        "platform_length_m": 85.0
      },
      "type": "Feature"
    },
    {
      "geometry": {
        "coordinates": [
          39.62321108759945,
          -3.9990112730806606
        ],
        "type": "Point"
      },
      "properties": {
        "anchor_kind": null,
        "anchor_name": null,
        "archetype": "interchange-elevated",
        "chainage_m": 8936.0,
        "corridor_offset_m": 125.81,
        "id": "line-5-0553-0552-s008936",
        "junction_group": 12,
        "line": "line-5",
        "platform_length_m": 85.0
      },
      "type": "Feature"
    },
    {
      "geometry": {
        "coordinates": [
          39.632756947586365,
          -4.005310088903286
        ],
        "type": "Point"
      },
      "properties": {
        "anchor_kind": null,
        "anchor_name": null,
        "archetype": "standard",
        "chainage_m": 10486.0,
        "corridor_offset_m": 92.257,
        "id": "line-5-0588-0605-s010486",
        "junction_group": null,
        "line": "line-5",
        "platform_length_m": 85.0
      },
      "type": "Feature"
    },
    {
      "geometry": {
        "coordinates": [
          39.640501701915376,
          -4.01628802505129
        ],
        "type": "Point"
      },
      "properties": {
        "anchor_kind": null,
        "anchor_name": null,
        "archetype": "interchange-elevated",
        "chainage_m": 12062.2,
        "corridor_offset_m": 117.999,
        "id": "line-5-0649-0648-s012062",
        "junction_group": 1,
        "line": "line-5",
        "platform_length_m": 85.0
      },
      "type": "Feature"
    },
    {
      "geometry": {
        "coordinates": [
          39.64950723020492,
          -4.030685318360148
        ],
        "type": "Point"
      },
      "properties": {
        "anchor_kind": null,
        "anchor_name": null,
        "archetype": "interchange-elevated",
        "chainage_m": 14076.4,
        "corridor_offset_m": 119.13,
        "id": "line-5-0729-0698-s014076",
        "junction_group": 10,
        "line": "line-5",
        "platform_length_m": 85.0
      },
      "type": "Feature"
    },
    {
      "geometry": {
        "coordinates": [
          39.65328955208653,
          -4.045442544001728
        ],
        "type": "Point"
      },
      "properties": {
        "anchor_kind": null,
        "anchor_name": null,
        "archetype": "interchange-elevated",
        "chainage_m": 16091.2,
        "corridor_offset_m": 100.167,
        "id": "line-5-0811-0719-s016091",
        "junction_group": 9,
        "line": "line-5",
        "platform_length_m": 85.0
      },
      "type": "Feature"
    },
    {
      "geometry": {
        "coordinates": [
          39.66247519094186,
          -4.061099600475111
        ],
        "type": "Point"
      },
      "properties": {
        "anchor_kind": "amenity:college",
        "anchor_name": "Kenya Utalii College - Mombasa Campus",
        "archetype": "interchange-elevated",
        "chainage_m": 18556.3,
        "corridor_offset_m": 60.417,
        "id": "line-5-0898-0770-s018556",
        "junction_group": 13,
        "line": "line-5",
        "platform_length_m": 85.0
      },
      "type": "Feature"
    },
    {
      "geometry": {
        "coordinates": [
          39.66535695999451,
          -4.066138653133211
        ],
        "type": "Point"
      },
      "properties": {
        "anchor_kind": null,
        "anchor_name": null,
        "archetype": "terminal",
        "chainage_m": 19933.7,
        "corridor_offset_m": 5.993,
        "id": "line-5-0926-0786-s019934",
        "junction_group": 13,
        "line": "line-5",
        "platform_length_m": 85.0
      },
      "type": "Feature"
    },
    {
      "geometry": {
        "coordinates": [
          39.603398925362455,
          -4.010169175395026
        ],
        "type": "Point"
      },
      "properties": {
        "anchor_kind": "amenity:hospital",
        "anchor_name": "Ansari hospital",
        "archetype": "interchange-elevated",
        "chainage_m": 0.0,
        "corridor_offset_m": 0.0,
        "id": "line-6-0615-0442-s000000",
        "junction_group": 2,
        "line": "line-6",
        "platform_length_m": 85.0
      },
      "type": "Feature"
    },
    {
      "geometry": {
        "coordinates": [
          39.60574036271774,
          -4.0094493107295825
        ],
        "type": "Point"
      },
      "properties": {
        "anchor_kind": null,
        "anchor_name": null,
        "archetype": "interchange-elevated",
        "chainage_m": 293.1,
        "corridor_offset_m": 25.038,
        "id": "line-6-0611-0455-s000293",
        "junction_group": 2,
        "line": "line-6",
        "platform_length_m": 85.0
      },
      "type": "Feature"
    },
    {
      "geometry": {
        "coordinates": [
          39.62321108759945,
          -3.9990112730806606
        ],
        "type": "Point"
      },
      "properties": {
        "anchor_kind": null,
        "anchor_name": null,
        "archetype": "interchange-elevated",
        "chainage_m": 2737.1,
        "corridor_offset_m": 29.976,
        "id": "line-6-0553-0552-s002737",
        "junction_group": 12,
        "line": "line-6",
        "platform_length_m": 85.0
      },
      "type": "Feature"
    },
    {
      "geometry": {
        "coordinates": [
          39.63131606306004,
          -3.9909127955944284
        ],
        "type": "Point"
      },
      "properties": {
        "anchor_kind": null,
        "anchor_name": null,
        "archetype": "standard",
        "chainage_m": 4009.8,
        "corridor_offset_m": 63.898,
        "id": "line-6-0508-0597-s004010",
        "junction_group": null,
        "line": "line-6",
        "platform_length_m": 85.0
      },
      "type": "Feature"
    },
    {
      "geometry": {
        "coordinates": [
          39.64410391323119,
          -3.9781351977828168
        ],
        "type": "Point"
      },
      "properties": {
        "anchor_kind": null,
        "anchor_name": null,
        "archetype": "standard",
        "chainage_m": 6018.0,
        "corridor_offset_m": 117.261,
        "id": "line-6-0437-0668-s006018",
        "junction_group": null,
        "line": "line-6",
        "platform_length_m": 85.0
      },
      "type": "Feature"
    },
    {
      "geometry": {
        "coordinates": [
          39.65473043661285,
          -3.970216686462945
        ],
        "type": "Point"
      },
      "properties": {
        "anchor_kind": null,
        "anchor_name": null,
        "archetype": "interchange-elevated",
        "chainage_m": 7832.0,
        "corridor_offset_m": 114.144,
        "id": "line-6-0393-0727-s007832",
        "junction_group": 11,
        "line": "line-6",
        "platform_length_m": 85.0
      },
      "type": "Feature"
    },
    {
      "geometry": {
        "coordinates": [
          39.65653154227076,
          -3.970216686462945
        ],
        "type": "Point"
      },
      "properties": {
        "anchor_kind": null,
        "anchor_name": null,
        "archetype": "interchange-elevated",
        "chainage_m": 8032.0,
        "corridor_offset_m": 119.624,
        "id": "line-6-0393-0737-s008032",
        "junction_group": 11,
        "line": "line-6",
        "platform_length_m": 85.0
      },
      "type": "Feature"
    },
    {
      "geometry": {
        "coordinates": [
          39.670219945270865,
          -3.9594187164813013
        ],
        "type": "Point"
      },
      "properties": {
        "anchor_kind": "amenity:hospital",
        "anchor_name": "Marimani Dispensary",
        "archetype": "standard",
        "chainage_m": 10049.1,
        "corridor_offset_m": 167.878,
        "id": "line-6-0333-0813-s010049",
        "junction_group": null,
        "line": "line-6",
        "platform_length_m": 85.0
      },
      "type": "Feature"
    },
    {
      "geometry": {
        "coordinates": [
          39.6833680165736,
          -3.970936551128388
        ],
        "type": "Point"
      },
      "properties": {
        "anchor_kind": null,
        "anchor_name": null,
        "archetype": "standard",
        "chainage_m": 12055.8,
        "corridor_offset_m": 205.971,
        "id": "line-6-0397-0886-s012056",
        "junction_group": null,
        "line": "line-6",
        "platform_length_m": 85.0
      },
      "type": "Feature"
    },
    {
      "geometry": {
        "coordinates": [
          39.698317193534244,
          -3.9784951301155385
        ],
        "type": "Point"
      },
      "properties": {
        "anchor_kind": null,
        "anchor_name": null,
        "archetype": "standard",
        "chainage_m": 14063.8,
        "corridor_offset_m": 252.284,
        "id": "line-6-0439-0969-s014064",
        "junction_group": null,
        "line": "line-6",
        "platform_length_m": 85.0
      },
      "type": "Feature"
    },
    {
      "geometry": {
        "coordinates": [
          39.71308625992909,
          -3.9784951301155385
        ],
        "type": "Point"
      },
      "properties": {
        "anchor_kind": null,
        "anchor_name": null,
        "archetype": "standard",
        "chainage_m": 15703.8,
        "corridor_offset_m": 294.505,
        "id": "line-6-0439-1051-s015704",
        "junction_group": null,
        "line": "line-6",
        "platform_length_m": 85.0
      },
      "type": "Feature"
    },
    {
      "geometry": {
        "coordinates": [
          39.7267746629292,
          -3.981194622610949
        ],
        "type": "Point"
      },
      "properties": {
        "anchor_kind": null,
        "anchor_name": null,
        "archetype": "interchange-elevated",
        "chainage_m": 17348.0,
        "corridor_offset_m": 310.294,
        "id": "line-6-0454-1127-s017348",
        "junction_group": 6,
        "line": "line-6",
        "platform_length_m": 85.0
      },
      "type": "Feature"
    },
    {
      "geometry": {
        "coordinates": [
          39.73343875386346,
          -3.9907328294280675
        ],
        "type": "Point"
      },
      "properties": {
        "anchor_kind": null,
        "anchor_name": null,
        "archetype": "interchange-elevated",
        "chainage_m": 19058.8,
        "corridor_offset_m": 276.951,
        "id": "line-6-0507-1164-s019059",
        "junction_group": 5,
        "line": "line-6",
        "platform_length_m": 85.0
      },
      "type": "Feature"
    },
    {
      "geometry": {
        "coordinates": [
          39.72335256217917,
          -3.9957718820861676
        ],
        "type": "Point"
      },
      "properties": {
        "anchor_kind": null,
        "anchor_name": null,
        "archetype": "standard",
        "chainage_m": 20422.5,
        "corridor_offset_m": 362.781,
        "id": "line-6-0535-1108-s020422",
        "junction_group": null,
        "line": "line-6",
        "platform_length_m": 85.0
      },
      "type": "Feature"
    },
    {
      "geometry": {
        "coordinates": [
          39.714527144455424,
          -4.004230291905122
        ],
        "type": "Point"
      },
      "properties": {
        "anchor_kind": null,
        "anchor_name": null,
        "archetype": "interchange-elevated",
        "chainage_m": 21791.8,
        "corridor_offset_m": 389.046,
        "id": "line-6-0582-1059-s021792",
        "junction_group": 4,
        "line": "line-6",
        "platform_length_m": 85.0
      },
      "type": "Feature"
    },
    {
      "geometry": {
        "coordinates": [
          39.697056419573705,
          -4.012148803224994
        ],
        "type": "Point"
      },
      "properties": {
        "anchor_kind": null,
        "anchor_name": null,
        "archetype": "standard",
        "chainage_m": 24278.6,
        "corridor_offset_m": 420.994,
        "id": "line-6-0626-0962-s024279",
        "junction_group": null,
        "line": "line-6",
        "platform_length_m": 85.0
      },
      "type": "Feature"
    },
    {
      "geometry": {
        "coordinates": [
          39.68570945392888,
          -4.028345758197458
        ],
        "type": "Point"
      },
      "properties": {
        "anchor_kind": "amenity:hospital",
        "anchor_name": "SayidaFatma",
        "archetype": "interchange-elevated",
        "chainage_m": 26659.1,
        "corridor_offset_m": 352.399,
        "id": "line-6-0716-0899-s026659",
        "junction_group": 0,
        "line": "line-6",
        "platform_length_m": 85.0
      },
      "type": "Feature"
    },
    {
      "geometry": {
        "coordinates": [
          39.67850503129725,
          -4.031765115358312
        ],
        "type": "Point"
      },
      "properties": {
        "anchor_kind": null,
        "anchor_name": null,
        "archetype": "interchange-elevated",
        "chainage_m": 27668.2,
        "corridor_offset_m": 358.711,
        "id": "line-6-0735-0859-s027668",
        "junction_group": 0,
        "line": "line-6",
        "platform_length_m": 85.0
      },
      "type": "Feature"
    },
    {
      "geometry": {
        "coordinates": [
          39.67436248828406,
          -4.0359043371846095
        ],
        "type": "Point"
      },
      "properties": {
        "anchor_kind": null,
        "anchor_name": null,
        "archetype": "interchange-elevated",
        "chainage_m": 28318.7,
        "corridor_offset_m": 376.295,
        "id": "line-6-0758-0836-s028319",
        "junction_group": 0,
        "line": "line-6",
        "platform_length_m": 85.0
      },
      "type": "Feature"
    },
    {
      "geometry": {
        "coordinates": [
          39.669859724139286,
          -4.03860382968002
        ],
        "type": "Point"
      },
      "properties": {
        "anchor_kind": "amenity:university",
        "anchor_name": "Technical University Of Mombasa",
        "archetype": "interchange-elevated",
        "chainage_m": 28954.7,
        "corridor_offset_m": 354.542,
        "id": "line-6-0773-0811-s028955",
        "junction_group": 0,
        "line": "line-6",
        "platform_length_m": 85.0
      },
      "type": "Feature"
    },
    {
      "geometry": {
        "coordinates": [
          39.66625751282347,
          -4.042923017672678
        ],
        "type": "Point"
      },
      "properties": {
        "anchor_kind": null,
        "anchor_name": null,
        "archetype": "interchange-elevated",
        "chainage_m": 29703.8,
        "corridor_offset_m": 284.813,
        "id": "line-6-0797-0791-s029704",
        "junction_group": 0,
        "line": "line-6",
        "platform_length_m": 85.0
      },
      "type": "Feature"
    },
    {
      "geometry": {
        "coordinates": [
          39.67274149319194,
          -4.058220141813339
        ],
        "type": "Point"
      },
      "properties": {
        "anchor_kind": "amenity:marketplace",
        "anchor_name": "Markiti",
        "archetype": "major",
        "chainage_m": 31973.2,
        "corridor_offset_m": 220.843,
        "id": "line-6-0882-0827-s031973",
        "junction_group": null,
        "line": "line-6",
        "platform_length_m": 85.0
      },
      "type": "Feature"
    },
    {
      "geometry": {
        "coordinates": [
          39.66967961357349,
          -4.067398416297736
        ],
        "type": "Point"
      },
      "properties": {
        "anchor_kind": "amenity:hospital",
        "anchor_name": "Pandya Memorial Hospital",
        "archetype": "interchange-elevated",
        "chainage_m": 33178.9,
        "corridor_offset_m": 167.462,
        "id": "line-6-0933-0810-s033179",
        "junction_group": 13,
        "line": "line-6",
        "platform_length_m": 85.0
      },
      "type": "Feature"
    },
    {
      "geometry": {
        "coordinates": [
          39.66535695999451,
          -4.066138653133211
        ],
        "type": "Point"
      },
      "properties": {
        "anchor_kind": null,
        "anchor_name": null,
        "archetype": "interchange-elevated",
        "chainage_m": 33839.7,
        "corridor_offset_m": 119.158,
        "id": "line-6-0926-0786-s033840",
        "junction_group": 13,
        "line": "line-6",
        "platform_length_m": 85.0
      },
      "type": "Feature"
    },
    {
      "geometry": {
        "coordinates": [
          39.66121441698132,
          -4.065418788467768
        ],
        "type": "Point"
      },
      "properties": {
        "anchor_kind": null,
        "anchor_name": null,
        "archetype": "interchange-elevated",
        "chainage_m": 34474.3,
        "corridor_offset_m": 61.162,
        "id": "line-6-0922-0763-s034474",
        "junction_group": 13,
        "line": "line-6",
        "platform_length_m": 85.0
      },
      "type": "Feature"
    },
    {
      "geometry": {
        "coordinates": [
          39.651488446428615,
          -4.0708177734585895
        ],
        "type": "Point"
      },
      "properties": {
        "anchor_kind": null,
        "anchor_name": null,
        "archetype": "standard",
        "chainage_m": 35913.9,
        "corridor_offset_m": 39.184,
        "id": "line-6-0952-0709-s035914",
        "junction_group": null,
        "line": "line-6",
        "platform_length_m": 85.0
      },
      "type": "Feature"
    },
    {
      "geometry": {
        "coordinates": [
          39.64176247587591,
          -4.078016420113019
        ],
        "type": "Point"
      },
      "properties": {
        "anchor_kind": null,
        "anchor_name": null,
        "archetype": "interchange-elevated",
        "chainage_m": 37325.3,
        "corridor_offset_m": 75.434,
        "id": "line-6-0992-0655-s037325",
        "junction_group": 8,
        "line": "line-6",
        "platform_length_m": 85.0
      },
      "type": "Feature"
    },
    {
      "geometry": {
        "coordinates": [
          39.630595620796875,
          -4.089714220926465
        ],
        "type": "Point"
      },
      "properties": {
        "anchor_kind": null,
        "anchor_name": null,
        "archetype": "standard",
        "chainage_m": 39232.7,
        "corridor_offset_m": 78.962,
        "id": "line-6-1057-0593-s039233",
        "junction_group": null,
        "line": "line-6",
        "platform_length_m": 85.0
      },
      "type": "Feature"
    },
    {
      "geometry": {
        "coordinates": [
          39.61762766005994,
          -4.101951920238995
        ],
        "type": "Point"
      },
      "properties": {
        "anchor_kind": null,
        "anchor_name": null,
        "archetype": "standard",
        "chainage_m": 41252.6,
        "corridor_offset_m": 106.421,
        "id": "line-6-1125-0521-s041253",
        "junction_group": null,
        "line": "line-6",
        "platform_length_m": 85.0
      },
      "type": "Feature"
    },
    {
      "geometry": {
        "coordinates": [
          39.60483980988878,
          -4.1147295180506065
        ],
        "type": "Point"
      },
      "properties": {
        "anchor_kind": null,
        "anchor_name": null,
        "archetype": "standard",
        "chainage_m": 43260.7,
        "corridor_offset_m": 163.167,
        "id": "line-6-1196-0450-s043261",
        "junction_group": null,
        "line": "line-6",
        "platform_length_m": 85.0
      },
      "type": "Feature"
    },
    {
      "geometry": {
        "coordinates": [
          39.60610058384932,
          -4.098532563078141
        ],
        "type": "Point"
      },
      "properties": {
        "anchor_kind": null,
        "anchor_name": null,
        "archetype": "halt",
        "chainage_m": 46276.4,
        "corridor_offset_m": 171.427,
        "id": "line-6-1106-0457-s046276",
        "junction_group": null,
        "line": "line-6",
        "platform_length_m": 81.0
      },
      "type": "Feature"
    },
    {
      "geometry": {
        "coordinates": [
          39.60141770913876,
          -4.082515574272037
        ],
        "type": "Point"
      },
      "properties": {
        "anchor_kind": null,
        "anchor_name": null,
        "archetype": "standard",
        "chainage_m": 48288.3,
        "corridor_offset_m": 110.522,
        "id": "line-6-1017-0431-s048288",
        "junction_group": null,
        "line": "line-6",
        "platform_length_m": 85.0
      },
      "type": "Feature"
    },
    {
      "geometry": {
        "coordinates": [
          39.60628069441511,
          -4.067578382464097
        ],
        "type": "Point"
      },
      "properties": {
        "anchor_kind": null,
        "anchor_name": null,
        "archetype": "standard",
        "chainage_m": 50304.6,
        "corridor_offset_m": 115.124,
        "id": "line-6-0934-0458-s050305",
        "junction_group": null,
        "line": "line-6",
        "platform_length_m": 85.0
      },
      "type": "Feature"
    },
    {
      "geometry": {
        "coordinates": [
          39.60628069441511,
          -4.055700615484289
        ],
        "type": "Point"
      },
      "properties": {
        "anchor_kind": null,
        "anchor_name": null,
        "archetype": "standard",
        "chainage_m": 51624.6,
        "corridor_offset_m": 151.313,
        "id": "line-6-0868-0458-s051625",
        "junction_group": null,
        "line": "line-6",
        "platform_length_m": 85.0
      },
      "type": "Feature"
    },
    {
      "geometry": {
        "coordinates": [
          39.60628069441511,
          -4.04364288233812
        ],
        "type": "Point"
      },
      "properties": {
        "anchor_kind": null,
        "anchor_name": null,
        "archetype": "interchange-elevated",
        "chainage_m": 52964.6,
        "corridor_offset_m": 188.051,
        "id": "line-6-0801-0458-s052965",
        "junction_group": 7,
        "line": "line-6",
        "platform_length_m": 85.0
      },
      "type": "Feature"
    },
    {
      "geometry": {
        "coordinates": [
          39.60736135780986,
          -4.031945081524674
        ],
        "type": "Point"
      },
      "properties": {
        "anchor_kind": "place:neighbourhood",
        "anchor_name": "kwa bomoa",
        "archetype": "standard",
        "chainage_m": 54314.3,
        "corridor_offset_m": 186.494,
        "id": "line-6-0736-0464-s054314",
        "junction_group": null,
        "line": "line-6",
        "platform_length_m": 85.0
      },
      "type": "Feature"
    },
    {
      "geometry": {
        "coordinates": [
          39.608081800073016,
          -4.018987517546702
        ],
        "type": "Point"
      },
      "properties": {
        "anchor_kind": "place:neighbourhood",
        "anchor_name": "Bokole",
        "archetype": "standard",
        "chainage_m": 56315.9,
        "corridor_offset_m": 76.217,
        "id": "line-6-0664-0468-s056316",
        "junction_group": null,
        "line": "line-6",
        "platform_length_m": 85.0
      },
      "type": "Feature"
    }
  ],
  "type": "FeatureCollection"
}
