{
  "features": [
    {
      "geometry": {
        "coordinates": [
          40.085040128704456,
          35.377860742180474
        ],
        "type": "Point"
      },
      "properties": {
        "anchor_kind": "amenity:university",
        "anchor_name": "جامعة الجزيرة",
        "archetype": "terminal",
        "chainage_m": 0.0,
        "corridor_offset_m": 0.0,
        "id": "line-1-0317-0298-s000000",
        "junction_group": 0,
        "line": "line-1",
        "platform_length_m": 59.5
      },
      "type": "Feature"
    },
    {
      "geometry": {
        "coordinates": [
          40.093849526185785,
          35.37084206169241
        ],
        "type": "Point"
      },
      "properties": {
        "anchor_kind": null,
        "anchor_name": null,
        "archetype": "interchange",
        "chainage_m": 1263.7,
        "corridor_offset_m": 0.042,
        "id": "line-1-0356-0338-s001264",
        "junction_group": 1,
        "line": "line-1",
        "platform_length_m": 59.5
      },
      "type": "Feature"
    },
    {
      "geometry": {
        "coordinates": [
          40.09428999605986,
          35.37048212935968
        ],
        "type": "Point"
      },
      "properties": {
        "anchor_kind": null,
        "anchor_name": null,
        "archetype": "interchange",
        "chainage_m": 1332.0,
        "corridor_offset_m": 0.058,
        "id": "line-1-0358-0340-s001332",
        "junction_group": 1,
        "line": "line-1",
        "platform_length_m": 59.5
      },
      "type": "Feature"
    },
    {
      "geometry": {
        "coordinates": [
          40.09473046593392,
          35.37012219702696
        ],
        "type": "Point"
      },
      "properties": {
        "anchor_kind": null,
        "anchor_name": null,
        "archetype": "interchange",
        "chainage_m": 1400.2,
        "corridor_offset_m": 0.027,
        "id": "line-1-0360-0342-s001400",
        "junction_group": 1,
        "line": "line-1",
        "platform_length_m": 59.5
      },
      "type": "Feature"
    },
    {
      "geometry": {
        "coordinates": [
          40.095391170745025,
          35.36958229852788
        ],
        "type": "Point"
      },
      "properties": {
        "anchor_kind": null,
        "anchor_name": null,
        "archetype": "interchange",
        "chainage_m": 1496.8,
        "corridor_offset_m": 0.005,
        "id": "line-1-0363-0345-s001497",
        "junction_group": 1,
        "line": "line-1",
        "platform_length_m": 59.5
      },
      "type": "Feature"
    },
    {
      "geometry": {
        "coordinates": [
          40.09583164061909,
          35.36922236619516
        ],
        "type": "Point"
      },
      "properties": {
        "anchor_kind": null,
        "anchor_name": null,
        "archetype": "interchange",
        "chainage_m": 1565.1,
        "corridor_offset_m": 0.02,
        "id": "line-1-0365-0347-s001565",
        "junction_group": 1,
        "line": "line-1",
        "platform_length_m": 59.5
      },
      "type": "Feature"
    },
    {
      "geometry": {
        "coordinates": [
          40.096492345430185,
          35.368682467696075
        ],
        "type": "Point"
      },
      "properties": {
        "anchor_kind": null,
        "anchor_name": null,
        "archetype": "interchange",
        "chainage_m": 1661.7,
        "corridor_offset_m": 0.052,
        "id": "line-1-0368-0350-s001662",
        "junction_group": 1,
        "line": "line-1",
        "platform_length_m": 59.5
      },
      "type": "Feature"
    },
    {
      "geometry": {
        "coordinates": [
          40.09693281530426,
          35.368322535363355
        ],
        "type": "Point"
      },
      "properties": {
        "anchor_kind": null,
        "anchor_name": null,
        "archetype": "interchange",
        "chainage_m": 1729.9,
        "corridor_offset_m": 0.033,
        "id": "line-1-0370-0352-s001730",
        "junction_group": 1,
        "line": "line-1",
        "platform_length_m": 59.5
      },
      "type": "Feature"
    },
    {
      "geometry": {
        "coordinates": [
          40.097813755052385,
          35.36760267069791
        ],
        "type": "Point"
      },
      "properties": {
        "anchor_kind": null,
        "anchor_name": null,
        "archetype": "interchange",
        "chainage_m": 1843.1,
        "corridor_offset_m": 0.03,
        "id": "line-1-0374-0356-s001843",
        "junction_group": 1,
        "line": "line-1",
        "platform_length_m": 59.5
      },
      "type": "Feature"
    },
    {
      "geometry": {
        "coordinates": [
          40.09825422492646,
          35.36724273836519
        ],
        "type": "Point"
      },
      "properties": {
        "anchor_kind": null,
        "anchor_name": null,
        "archetype": "interchange",
        "chainage_m": 1911.4,
        "corridor_offset_m": 0.046,
        "id": "line-1-0376-0358-s001911",
        "junction_group": 1,
        "line": "line-1",
        "platform_length_m": 59.5
      },
      "type": "Feature"
    },
    {
      "geometry": {
        "coordinates": [
          40.099355399611625,
          35.36634290753339
        ],
        "type": "Point"
      },
      "properties": {
        "anchor_kind": null,
        "anchor_name": null,
        "archetype": "interchange",
        "chainage_m": 2064.5,
        "corridor_offset_m": 0.008,
        "id": "line-1-0381-0363-s002065",
        "junction_group": 2,
        "line": "line-1",
        "platform_length_m": 59.5
      },
      "type": "Feature"
    },
    {
      "geometry": {
        "coordinates": [
          40.101777983918986,
          35.36436327970342
        ],
        "type": "Point"
      },
      "properties": {
        "anchor_kind": "planning:residential",
        "anchor_name": "Residential planning stop; site release open",
        "archetype": "interchange",
        "chainage_m": 2387.4,
        "corridor_offset_m": 0.065,
        "id": "line-1-0392-0374-s002387",
        "junction_group": 2,
        "line": "line-1",
        "platform_length_m": 59.5
      },
      "type": "Feature"
    },
    {
      "geometry": {
        "coordinates": [
          40.10221845379306,
          35.3640033473707
        ],
        "type": "Point"
      },
      "properties": {
        "anchor_kind": null,
        "anchor_name": null,
        "archetype": "interchange",
        "chainage_m": 2455.6,
        "corridor_offset_m": 0.019,
        "id": "line-1-0394-0376-s002456",
        "junction_group": 2,
        "line": "line-1",
        "platform_length_m": 59.5
      },
      "type": "Feature"
    },
    {
      "geometry": {
        "coordinates": [
          40.11939677888166,
          35.35014595256092
        ],
        "type": "Point"
      },
      "properties": {
        "anchor_kind": null,
        "anchor_name": null,
        "archetype": "interchange",
        "chainage_m": 4887.8,
        "corridor_offset_m": 0.007,
        "id": "line-1-0471-0454-s004888",
        "junction_group": 3,
        "line": "line-1",
        "platform_length_m": 59.5
      },
      "type": "Feature"
    },
    {
      "geometry": {
        "coordinates": [
          40.13040852573332,
          35.341327610409245
        ],
        "type": "Point"
      },
      "properties": {
        "anchor_kind": null,
        "anchor_name": null,
        "archetype": "interchange",
        "chainage_m": 6504.7,
        "corridor_offset_m": 0.097,
        "id": "line-1-0520-0504-s006505",
        "junction_group": 4,
        "line": "line-1",
        "platform_length_m": 59.5
      },
      "type": "Feature"
    },
    {
      "geometry": {
        "coordinates": [
          40.13437275459992,
          35.33808821941475
        ],
        "type": "Point"
      },
      "properties": {
        "anchor_kind": "place:neighbourhood",
        "anchor_name": "الرشدية",
        "archetype": "interchange",
        "chainage_m": 7037.2,
        "corridor_offset_m": 0.048,
        "id": "line-1-0538-0522-s007037",
        "junction_group": 4,
        "line": "line-1",
        "platform_length_m": 59.5
      },
      "type": "Feature"
    },
    {
      "geometry": {
        "coordinates": [
          40.14053933283686,
          35.333229132923016
        ],
        "type": "Point"
      },
      "properties": {
        "anchor_kind": null,
        "anchor_name": null,
        "archetype": "interchange",
        "chainage_m": 7949.7,
        "corridor_offset_m": 0.018,
        "id": "line-1-0565-0550-s007950",
        "junction_group": 5,
        "line": "line-1",
        "platform_length_m": 59.5
      },
      "type": "Feature"
    },
    {
      "geometry": {
        "coordinates": [
          40.15771765792546,
          35.319191771946876
        ],
        "type": "Point"
      },
      "properties": {
        "anchor_kind": "planning:residential",
        "anchor_name": "Residential planning stop; site release open",
        "archetype": "standard",
        "chainage_m": 10413.7,
        "corridor_offset_m": 0.094,
        "id": "line-1-0643-0628-s010414",
        "junction_group": null,
        "line": "line-1",
        "platform_length_m": 59.5
      },
      "type": "Feature"
    },
    {
      "geometry": {
        "coordinates": [
          40.17709833238439,
          35.30371468163985
        ],
        "type": "Point"
      },
      "properties": {
        "anchor_kind": null,
        "anchor_name": null,
        "archetype": "interchange",
        "chainage_m": 13179.0,
        "corridor_offset_m": 0.088,
        "id": "line-1-0729-0716-s013179",
        "junction_group": 6,
        "line": "line-1",
        "platform_length_m": 59.5
      },
      "type": "Feature"
    },
    {
      "geometry": {
        "coordinates": [
          40.191193368354526,
          35.29237681315913
        ],
        "type": "Point"
      },
      "properties": {
        "anchor_kind": "planning:residential",
        "anchor_name": "Residential planning stop; site release open",
        "archetype": "halt",
        "chainage_m": 15191.8,
        "corridor_offset_m": 0.113,
        "id": "line-1-0792-0780-s015192",
        "junction_group": null,
        "line": "line-1",
        "platform_length_m": 55.5
      },
      "type": "Feature"
    },
    {
      "geometry": {
        "coordinates": [
          40.20242535014323,
          35.28337850484109
        ],
        "type": "Point"
      },
      "properties": {
        "anchor_kind": "planning:residential",
        "anchor_name": "Residential planning stop; site release open",
        "archetype": "halt",
        "chainage_m": 16790.0,
        "corridor_offset_m": 0.096,
        "id": "line-1-0842-0831-s016790",
        "junction_group": null,
        "line": "line-1",
        "platform_length_m": 55.5
      },
      "type": "Feature"
    },
    {
      "geometry": {
        "coordinates": [
          40.214097801806,
          35.274740128855775
        ],
        "type": "Point"
      },
      "properties": {
        "anchor_kind": "planning:residential",
        "anchor_name": "Residential planning stop; site release open",
        "archetype": "halt",
        "chainage_m": 18400.0,
        "corridor_offset_m": 0.242,
        "id": "line-1-0890-0884-s018400",
        "junction_group": null,
        "line": "line-1",
        "platform_length_m": 55.5
      },
      "type": "Feature"
    },
    {
      "geometry": {
        "coordinates": [
          40.22907377752426,
          35.27114080552856
        ],
        "type": "Point"
      },
      "properties": {
        "anchor_kind": "place:town",
        "anchor_name": "المريعية",
        "archetype": "depot-terminal",
        "chainage_m": 20914.8,
        "corridor_offset_m": 0.0,
        "id": "line-1-0910-0952-s020915",
        "junction_group": null,
        "line": "line-1",
        "platform_length_m": 59.5
      },
      "type": "Feature"
    },
    {
      "geometry": {
        "coordinates": [
          40.170050814399325,
          35.403775870136414
        ],
        "type": "Point"
      },
      "properties": {
        "anchor_kind": "railway:station",
        "anchor_name": null,
        "archetype": "terminal",
        "chainage_m": 0.0,
        "corridor_offset_m": 0.0,
        "id": "line-2-0173-0684-s000000",
        "junction_group": null,
        "line": "line-2",
        "platform_length_m": 59.5
      },
      "type": "Feature"
    },
    {
      "geometry": {
        "coordinates": [
          40.17555668782516,
          35.39279793398841
        ],
        "type": "Point"
      },
      "properties": {
        "anchor_kind": null,
        "anchor_name": null,
        "archetype": "halt",
        "chainage_m": 1722.5,
        "corridor_offset_m": 0.14,
        "id": "line-2-0234-0709-s001722",
        "junction_group": null,
        "line": "line-2",
        "platform_length_m": 55.5
      },
      "type": "Feature"
    },
    {
      "geometry": {
        "coordinates": [
          40.16564611565866,
          35.38146006550769
        ],
        "type": "Point"
      },
      "properties": {
        "anchor_kind": null,
        "anchor_name": null,
        "archetype": "interchange",
        "chainage_m": 3460.7,
        "corridor_offset_m": 0.09,
        "id": "line-2-0297-0664-s003461",
        "junction_group": 10,
        "line": "line-2",
        "platform_length_m": 59.5
      },
      "type": "Feature"
    },
    {
      "geometry": {
        "coordinates": [
          40.15661648324029,
          35.371381960191485
        ],
        "type": "Point"
      },
      "properties": {
        "anchor_kind": null,
        "anchor_name": null,
        "archetype": "interchange",
        "chainage_m": 4990.7,
        "corridor_offset_m": 0.142,
        "id": "line-2-0353-0623-s004991",
        "junction_group": 11,
        "line": "line-2",
        "platform_length_m": 59.5
      },
      "type": "Feature"
    },
    {
      "geometry": {
        "coordinates": [
          40.14450356170346,
          35.35734459921535
        ],
        "type": "Point"
      },
      "properties": {
        "anchor_kind": "planning:residential",
        "anchor_name": "Residential planning stop; site release open",
        "archetype": "standard",
        "chainage_m": 7146.9,
        "corridor_offset_m": 0.085,
        "id": "line-2-0431-0568-s007147",
        "junction_group": null,
        "line": "line-2",
        "platform_length_m": 59.5
      },
      "type": "Feature"
    },
    {
      "geometry": {
        "coordinates": [
          40.13040852573332,
          35.341327610409245
        ],
        "type": "Point"
      },
      "properties": {
        "anchor_kind": null,
        "anchor_name": null,
        "archetype": "interchange",
        "chainage_m": 9621.1,
        "corridor_offset_m": 0.061,
        "id": "line-2-0520-0504-s009621",
        "junction_group": 4,
        "line": "line-2",
        "platform_length_m": 59.5
      },
      "type": "Feature"
    },
    {
      "geometry": {
        "coordinates": [
          40.12622406192969,
          35.3364685239175
        ],
        "type": "Point"
      },
      "properties": {
        "anchor_kind": null,
        "anchor_name": null,
        "archetype": "interchange",
        "chainage_m": 10353.7,
        "corridor_offset_m": 0.098,
        "id": "line-2-0547-0485-s010354",
        "junction_group": 12,
        "line": "line-2",
        "platform_length_m": 59.5
      },
      "type": "Feature"
    },
    {
      "geometry": {
        "coordinates": [
          40.124021712559355,
          35.33394899758846
        ],
        "type": "Point"
      },
      "properties": {
        "anchor_kind": null,
        "anchor_name": null,
        "archetype": "interchange",
        "chainage_m": 10751.7,
        "corridor_offset_m": 0.106,
        "id": "line-2-0561-0475-s010752",
        "junction_group": 12,
        "line": "line-2",
        "platform_length_m": 59.5
      },
      "type": "Feature"
    },
    {
      "geometry": {
        "coordinates": [
          40.112129025959554,
          35.3204515351114
        ],
        "type": "Point"
      },
      "properties": {
        "anchor_kind": "amenity:university",
        "anchor_name": "جامعة الفرات",
        "archetype": "terminal",
        "chainage_m": 12804.4,
        "corridor_offset_m": 0.0,
        "id": "line-2-0636-0421-s012804",
        "junction_group": null,
        "line": "line-2",
        "platform_length_m": 59.5
      },
      "type": "Feature"
    },
    {
      "geometry": {
        "coordinates": [
          40.25329962059793,
          35.39351779865385
        ],
        "type": "Point"
      },
      "properties": {
        "anchor_kind": "tourism:attraction",
        "anchor_name": "دوار المعامل",
        "archetype": "terminal",
        "chainage_m": 0.0,
        "corridor_offset_m": 0.0,
        "id": "line-3-0230-1062-s000000",
        "junction_group": null,
        "line": "line-3",
        "platform_length_m": 59.5
      },
      "type": "Feature"
    },
    {
      "geometry": {
        "coordinates": [
          40.23303800639086,
          35.38146006550769
        ],
        "type": "Point"
      },
      "properties": {
        "anchor_kind": "planning:residential",
        "anchor_name": "Residential planning stop; site release open",
        "archetype": "halt",
        "chainage_m": 2406.8,
        "corridor_offset_m": 0.311,
        "id": "line-3-0297-0970-s002407",
        "junction_group": null,
        "line": "line-3",
        "platform_length_m": 55.5
      },
      "type": "Feature"
    },
    {
      "geometry": {
        "coordinates": [
          40.220044145105895,
          35.37264172335601
        ],
        "type": "Point"
      },
      "properties": {
        "anchor_kind": "planning:residential",
        "anchor_name": "Residential planning stop; site release open",
        "archetype": "interchange-elevated",
        "chainage_m": 3992.7,
        "corridor_offset_m": 0.698,
        "id": "line-3-0346-0911-s003993",
        "junction_group": 7,
        "line": "line-3",
        "platform_length_m": 59.5
      },
      "type": "Feature"
    },
    {
      "geometry": {
        "coordinates": [
          40.205508639261694,
          35.36670283986611
        ],
        "type": "Point"
      },
      "properties": {
        "anchor_kind": "planning:residential",
        "anchor_name": "Residential planning stop; site release open",
        "archetype": "halt",
        "chainage_m": 5597.8,
        "corridor_offset_m": 0.607,
        "id": "line-3-0379-0845-s005598",
        "junction_group": null,
        "line": "line-3",
        "platform_length_m": 55.5
      },
      "type": "Feature"
    },
    {
      "geometry": {
        "coordinates": [
          40.191193368354526,
          35.36094392254257
        ],
        "type": "Point"
      },
      "properties": {
        "anchor_kind": "planning:residential",
        "anchor_name": "Residential planning stop; site release open",
        "archetype": "halt",
        "chainage_m": 7186.3,
        "corridor_offset_m": 0.543,
        "id": "line-3-0411-0780-s007186",
        "junction_group": null,
        "line": "line-3",
        "platform_length_m": 55.5
      },
      "type": "Feature"
    },
    {
      "geometry": {
        "coordinates": [
          40.17445551313999,
          35.35410520822086
        ],
        "type": "Point"
      },
      "properties": {
        "anchor_kind": null,
        "anchor_name": null,
        "archetype": "interchange",
        "chainage_m": 9044.5,
        "corridor_offset_m": 0.479,
        "id": "line-3-0449-0704-s009045",
        "junction_group": 13,
        "line": "line-3",
        "platform_length_m": 59.5
      },
      "type": "Feature"
    },
    {
      "geometry": {
        "coordinates": [
          40.16234259160316,
          35.34924612172912
        ],
        "type": "Point"
      },
      "properties": {
        "anchor_kind": "planning:residential",
        "anchor_name": "Residential planning stop; site release open",
        "archetype": "standard",
        "chainage_m": 10403.4,
        "corridor_offset_m": 0.327,
        "id": "line-3-0476-0649-s010403",
        "junction_group": null,
        "line": "line-3",
        "platform_length_m": 59.5
      },
      "type": "Feature"
    },
    {
      "geometry": {
        "coordinates": [
          40.14802732069599,
          35.34348720440558
        ],
        "type": "Point"
      },
      "properties": {
        "anchor_kind": "planning:residential",
        "anchor_name": "Residential planning stop; site release open",
        "archetype": "major",
        "chainage_m": 12003.6,
        "corridor_offset_m": 0.282,
        "id": "line-3-0508-0584-s012004",
        "junction_group": null,
        "line": "line-3",
        "platform_length_m": 59.5
      },
      "type": "Feature"
    },
    {
      "geometry": {
        "coordinates": [
          40.13437275459992,
          35.33808821941475
        ],
        "type": "Point"
      },
      "properties": {
        "anchor_kind": "place:neighbourhood",
        "anchor_name": "الرشدية",
        "archetype": "interchange",
        "chainage_m": 13515.6,
        "corridor_offset_m": 0.141,
        "id": "line-3-0538-0522-s013516",
        "junction_group": 4,
        "line": "line-3",
        "platform_length_m": 59.5
      },
      "type": "Feature"
    },
    {
      "geometry": {
        "coordinates": [
          40.12754547155189,
          35.33538872691934
        ],
        "type": "Point"
      },
      "properties": {
        "anchor_kind": null,
        "anchor_name": null,
        "archetype": "interchange",
        "chainage_m": 14271.6,
        "corridor_offset_m": 0.071,
        "id": "line-3-0553-0491-s014272",
        "junction_group": 12,
        "line": "line-3",
        "platform_length_m": 59.5
      },
      "type": "Feature"
    },
    {
      "geometry": {
        "coordinates": [
          40.124021712559355,
          35.33394899758846
        ],
        "type": "Point"
      },
      "properties": {
        "anchor_kind": null,
        "anchor_name": null,
        "archetype": "interchange",
        "chainage_m": 14669.5,
        "corridor_offset_m": 0.143,
        "id": "line-3-0561-0475-s014670",
        "junction_group": 12,
        "line": "line-3",
        "platform_length_m": 59.5
      },
      "type": "Feature"
    },
    {
      "geometry": {
        "coordinates": [
          40.11300996570769,
          35.32944984342944
        ],
        "type": "Point"
      },
      "properties": {
        "anchor_kind": "amenity:hospital",
        "anchor_name": "مستشفى دير الزور الوطني",
        "archetype": "terminal",
        "chainage_m": 15888.4,
        "corridor_offset_m": 0.0,
        "id": "line-3-0586-0425-s015888",
        "junction_group": null,
        "line": "line-3",
        "platform_length_m": 59.5
      },
      "type": "Feature"
    },
    {
      "geometry": {
        "coordinates": [
          40.16564611565866,
          35.38146006550769
        ],
        "type": "Point"
      },
      "properties": {
        "anchor_kind": null,
        "anchor_name": null,
        "archetype": "terminal",
        "chainage_m": 0.0,
        "corridor_offset_m": 0.0,
        "id": "line-4-0297-0664-s000000",
        "junction_group": 10,
        "line": "line-4",
        "platform_length_m": 59.5
      },
      "type": "Feature"
    },
    {
      "geometry": {
        "coordinates": [
          40.17621739263626,
          35.365263110535224
        ],
        "type": "Point"
      },
      "properties": {
        "anchor_kind": null,
        "anchor_name": null,
        "archetype": "terminal",
        "chainage_m": 2244.5,
        "corridor_offset_m": 0.0,
        "id": "line-4-0387-0712-s002245",
        "junction_group": null,
        "line": "line-4",
        "platform_length_m": 59.5
      },
      "type": "Feature"
    },
    {
      "geometry": {
        "coordinates": [
          40.11939677888166,
          35.35014595256092
        ],
        "type": "Point"
      },
      "properties": {
        "anchor_kind": "place:neighbourhood",
        "anchor_name": "الثورة والجورة",
        "archetype": "terminal",
        "chainage_m": 0.0,
        "corridor_offset_m": 0.0,
        "id": "line-5-0471-0454-s000000",
        "junction_group": 3,
        "line": "line-5",
        "platform_length_m": 59.5
      },
      "type": "Feature"
    },
    {
      "geometry": {
        "coordinates": [
          40.12622406192969,
          35.3364685239175
        ],
        "type": "Point"
      },
      "properties": {
        "anchor_kind": null,
        "anchor_name": null,
        "archetype": "interchange",
        "chainage_m": 2041.9,
        "corridor_offset_m": 0.304,
        "id": "line-5-0547-0485-s002042",
        "junction_group": 12,
        "line": "line-5",
        "platform_length_m": 59.5
      },
      "type": "Feature"
    },
    {
      "geometry": {
        "coordinates": [
          40.12754547155189,
          35.33538872691934
        ],
        "type": "Point"
      },
      "properties": {
        "anchor_kind": null,
        "anchor_name": null,
        "archetype": "interchange",
        "chainage_m": 2211.6,
        "corridor_offset_m": 0.313,
        "id": "line-5-0553-0491-s002212",
        "junction_group": 12,
        "line": "line-5",
        "platform_length_m": 59.5
      },
      "type": "Feature"
    },
    {
      "geometry": {
        "coordinates": [
          40.14053933283686,
          35.333229132923016
        ],
        "type": "Point"
      },
      "properties": {
        "anchor_kind": null,
        "anchor_name": null,
        "archetype": "interchange",
        "chainage_m": 4140.4,
        "corridor_offset_m": 0.578,
        "id": "line-5-0565-0550-s004140",
        "junction_group": 5,
        "line": "line-5",
        "platform_length_m": 59.5
      },
      "type": "Feature"
    },
    {
      "geometry": {
        "coordinates": [
          40.154193898932924,
          35.338268185581114
        ],
        "type": "Point"
      },
      "properties": {
        "anchor_kind": "public_transport:station",
        "anchor_name": null,
        "archetype": "terminal",
        "chainage_m": 5612.3,
        "corridor_offset_m": 0.0,
        "id": "line-5-0537-0612-s005612",
        "junction_group": null,
        "line": "line-5",
        "platform_length_m": 59.5
      },
      "type": "Feature"
    },
    {
      "geometry": {
        "coordinates": [
          40.15661648324029,
          35.371381960191485
        ],
        "type": "Point"
      },
      "properties": {
        "anchor_kind": null,
        "anchor_name": null,
        "archetype": "terminal",
        "chainage_m": 0.0,
        "corridor_offset_m": 0.0,
        "id": "line-6-0353-0623-s000000",
        "junction_group": 11,
        "line": "line-6",
        "platform_length_m": 59.5
      },
      "type": "Feature"
    },
    {
      "geometry": {
        "coordinates": [
          40.13701557384432,
          35.382719828672215
        ],
        "type": "Point"
      },
      "properties": {
        "anchor_kind": "planning:residential-priority",
        "anchor_name": "Residential planning stop; site release open",
        "archetype": "standard",
        "chainage_m": 2301.9,
        "corridor_offset_m": 1.386,
        "id": "line-6-0290-0534-s002302",
        "junction_group": null,
        "line": "line-6",
        "platform_length_m": 59.5
      },
      "type": "Feature"
    },
    {
      "geometry": {
        "coordinates": [
          40.13767627865543,
          35.40539556563366
        ],
        "type": "Point"
      },
      "properties": {
        "anchor_kind": null,
        "anchor_name": null,
        "archetype": "terminal",
        "chainage_m": 4846.8,
        "corridor_offset_m": 0.0,
        "id": "line-6-0164-0537-s004847",
        "junction_group": 14,
        "line": "line-6",
        "platform_length_m": 59.5
      },
      "type": "Feature"
    },
    {
      "geometry": {
        "coordinates": [
          40.17445551313999,
          35.35410520822086
        ],
        "type": "Point"
      },
      "properties": {
        "anchor_kind": null,
        "anchor_name": null,
        "archetype": "terminal",
        "chainage_m": 0.0,
        "corridor_offset_m": 0.0,
        "id": "line-7-0449-0704-s000000",
        "junction_group": 13,
        "line": "line-7",
        "platform_length_m": 59.5
      },
      "type": "Feature"
    },
    {
      "geometry": {
        "coordinates": [
          40.18106256125099,
          35.34330723823921
        ],
        "type": "Point"
      },
      "properties": {
        "anchor_kind": "planning:residential-priority",
        "anchor_name": "Residential planning stop; site release open",
        "archetype": "standard",
        "chainage_m": 1448.5,
        "corridor_offset_m": 1.034,
        "id": "line-7-0509-0734-s001449",
        "junction_group": null,
        "line": "line-7",
        "platform_length_m": 59.5
      },
      "type": "Feature"
    },
    {
      "geometry": {
        "coordinates": [
          40.204187229639494,
          35.346726595400064
        ],
        "type": "Point"
      },
      "properties": {
        "anchor_kind": null,
        "anchor_name": null,
        "archetype": "terminal",
        "chainage_m": 3705.9,
        "corridor_offset_m": 0.0,
        "id": "line-7-0490-0839-s003706",
        "junction_group": null,
        "line": "line-7",
        "platform_length_m": 59.5
      },
      "type": "Feature"
    },
    {
      "geometry": {
        "coordinates": [
          40.085040128704456,
          35.377860742180474
        ],
        "type": "Point"
      },
      "properties": {
        "anchor_kind": "amenity:university",
        "anchor_name": "جامعة الجزيرة",
        "archetype": "terminal",
        "chainage_m": 0.0,
        "corridor_offset_m": 0.0,
        "id": "line-8-0317-0298-s000000",
        "junction_group": 0,
        "line": "line-8",
        "platform_length_m": 59.5
      },
      "type": "Feature"
    },
    {
      "geometry": {
        "coordinates": [
          40.08129613477489,
          35.395317460317465
        ],
        "type": "Point"
      },
      "properties": {
        "anchor_kind": "planning:residential-priority",
        "anchor_name": "Residential planning stop; site release open",
        "archetype": "halt",
        "chainage_m": 2080.8,
        "corridor_offset_m": 0.932,
        "id": "line-8-0220-0281-s002081",
        "junction_group": null,
        "line": "line-8",
        "platform_length_m": 55.5
      },
      "type": "Feature"
    },
    {
      "geometry": {
        "coordinates": [
          40.06830227348992,
          35.40809505812907
        ],
        "type": "Point"
      },
      "properties": {
        "anchor_kind": "planning:residential",
        "anchor_name": "Residential planning stop; site release open",
        "archetype": "halt",
        "chainage_m": 3989.6,
        "corridor_offset_m": 0.525,
        "id": "line-8-0149-0222-s003990",
        "junction_group": null,
        "line": "line-8",
        "platform_length_m": 55.5
      },
      "type": "Feature"
    },
    {
      "geometry": {
        "coordinates": [
          40.05530841220495,
          35.41925296044344
        ],
        "type": "Point"
      },
      "properties": {
        "anchor_kind": "place:town",
        "anchor_name": "عياش",
        "archetype": "terminal",
        "chainage_m": 5718.4,
        "corridor_offset_m": 0.0,
        "id": "line-8-0087-0163-s005718",
        "junction_group": null,
        "line": "line-8",
        "platform_length_m": 59.5
      },
      "type": "Feature"
    },
    {
      "geometry": {
        "coordinates": [
          40.10221845379306,
          35.364183313537055
        ],
        "type": "Point"
      },
      "properties": {
        "anchor_kind": null,
        "anchor_name": null,
        "archetype": "terminal",
        "chainage_m": 0.0,
        "corridor_offset_m": 0.0,
        "id": "line-9-0393-0376-s000000",
        "junction_group": 2,
        "line": "line-9",
        "platform_length_m": 59.5
      },
      "type": "Feature"
    },
    {
      "geometry": {
        "coordinates": [
          40.10508150797449,
          35.365263110535224
        ],
        "type": "Point"
      },
      "properties": {
        "anchor_kind": null,
        "anchor_name": null,
        "archetype": "interchange",
        "chainage_m": 326.3,
        "corridor_offset_m": 0.124,
        "id": "line-9-0387-0389-s000326",
        "junction_group": 2,
        "line": "line-9",
        "platform_length_m": 59.5
      },
      "type": "Feature"
    },
    {
      "geometry": {
        "coordinates": [
          40.11829560419649,
          35.38469945650218
        ],
        "type": "Point"
      },
      "properties": {
        "anchor_kind": null,
        "anchor_name": null,
        "archetype": "interchange",
        "chainage_m": 2983.3,
        "corridor_offset_m": 0.875,
        "id": "line-9-0279-0449-s002983",
        "junction_group": 8,
        "line": "line-9",
        "platform_length_m": 59.5
      },
      "type": "Feature"
    },
    {
      "geometry": {
        "coordinates": [
          40.11983724875572,
          35.39027840765936
        ],
        "type": "Point"
      },
      "properties": {
        "anchor_kind": null,
        "anchor_name": null,
        "archetype": "interchange",
        "chainage_m": 3661.3,
        "corridor_offset_m": 1.335,
        "id": "line-9-0248-0456-s003661",
        "junction_group": 9,
        "line": "line-9",
        "platform_length_m": 59.5
      },
      "type": "Feature"
    },
    {
      "geometry": {
        "coordinates": [
          40.13767627865543,
          35.40539556563366
        ],
        "type": "Point"
      },
      "properties": {
        "anchor_kind": "planning:residential-priority",
        "anchor_name": "Residential planning stop; site release open",
        "archetype": "interchange-elevated",
        "chainage_m": 6012.3,
        "corridor_offset_m": 1.421,
        "id": "line-9-0164-0537-s006012",
        "junction_group": 14,
        "line": "line-9",
        "platform_length_m": 59.5
      },
      "type": "Feature"
    },
    {
      "geometry": {
        "coordinates": [
          40.11168855608549,
          35.4143938739517
        ],
        "type": "Point"
      },
      "properties": {
        "anchor_kind": "planning:residential",
        "anchor_name": "Residential planning stop; site release open",
        "archetype": "halt",
        "chainage_m": 8786.6,
        "corridor_offset_m": 0.002,
        "id": "line-9-0114-0419-s008787",
        "junction_group": null,
        "line": "line-9",
        "platform_length_m": 55.5
      },
      "type": "Feature"
    },
    {
      "geometry": {
        "coordinates": [
          40.097813755052385,
          35.42519184393334
        ],
        "type": "Point"
      },
      "properties": {
        "anchor_kind": null,
        "anchor_name": null,
        "archetype": "terminal",
        "chainage_m": 10543.6,
        "corridor_offset_m": 0.0,
        "id": "line-9-0054-0356-s010544",
        "junction_group": null,
        "line": "line-9",
        "platform_length_m": 59.5
      },
      "type": "Feature"
    },
    {
      "geometry": {
        "coordinates": [
          40.22026438004293,
          35.37264172335601
        ],
        "type": "Point"
      },
      "properties": {
        "anchor_kind": null,
        "anchor_name": null,
        "archetype": "terminal",
        "chainage_m": 0.0,
        "corridor_offset_m": 0.0,
        "id": "line-10-0346-0912-s000000",
        "junction_group": 7,
        "line": "line-10",
        "platform_length_m": 59.5
      },
      "type": "Feature"
    },
    {
      "geometry": {
        "coordinates": [
          40.22907377752426,
          35.363283482705256
        ],
        "type": "Point"
      },
      "properties": {
        "anchor_kind": "planning:residential-priority",
        "anchor_name": "Residential planning stop; site release open",
        "archetype": "halt",
        "chainage_m": 1371.4,
        "corridor_offset_m": 0.837,
        "id": "line-10-0398-0952-s001371",
        "junction_group": null,
        "line": "line-10",
        "platform_length_m": 55.5
      },
      "type": "Feature"
    },
    {
      "geometry": {
        "coordinates": [
          40.22907377752426,
          35.34834629089731
        ],
        "type": "Point"
      },
      "properties": {
        "anchor_kind": null,
        "anchor_name": null,
        "archetype": "halt",
        "chainage_m": 3031.4,
        "corridor_offset_m": 0.473,
        "id": "line-10-0481-0952-s003031",
        "junction_group": null,
        "line": "line-10",
        "platform_length_m": 55.5
      },
      "type": "Feature"
    },
    {
      "geometry": {
        "coordinates": [
          40.227311898028,
          35.33394899758846
        ],
        "type": "Point"
      },
      "properties": {
        "anchor_kind": "planning:residential-priority",
        "anchor_name": "Residential planning stop; site release open",
        "archetype": "halt",
        "chainage_m": 4697.6,
        "corridor_offset_m": 0.255,
        "id": "line-10-0561-0944-s004698",
        "junction_group": null,
        "line": "line-10",
        "platform_length_m": 55.5
      },
      "type": "Feature"
    },
    {
      "geometry": {
        "coordinates": [
          40.227311898028,
          35.31757207644963
        ],
        "type": "Point"
      },
      "properties": {
        "anchor_kind": null,
        "anchor_name": null,
        "archetype": "halt",
        "chainage_m": 6517.6,
        "corridor_offset_m": 0.144,
        "id": "line-10-0652-0944-s006518",
        "junction_group": null,
        "line": "line-10",
        "platform_length_m": 55.5
      },
      "type": "Feature"
    },
    {
      "geometry": {
        "coordinates": [
          40.23105589195756,
          35.30263488464169
        ],
        "type": "Point"
      },
      "properties": {
        "anchor_kind": null,
        "anchor_name": null,
        "archetype": "terminal",
        "chainage_m": 8318.5,
        "corridor_offset_m": 0.0,
        "id": "line-10-0735-0961-s008318",
        "junction_group": null,
        "line": "line-10",
        "platform_length_m": 59.5
      },
      "type": "Feature"
    },
    {
      "geometry": {
        "coordinates": [
          40.17709833238439,
          35.30371468163985
        ],
        "type": "Point"
      },
      "properties": {
        "anchor_kind": null,
        "anchor_name": null,
        "archetype": "terminal",
        "chainage_m": 0.0,
        "corridor_offset_m": 0.0,
        "id": "line-11-0729-0716-s000000",
        "junction_group": 6,
        "line": "line-11",
        "platform_length_m": 59.5
      },
      "type": "Feature"
    },
    {
      "geometry": {
        "coordinates": [
          40.16366400122536,
          35.30785390346615
        ],
        "type": "Point"
      },
      "properties": {
        "anchor_kind": "place:neighbourhood",
        "anchor_name": "الجفرة",
        "archetype": "standard",
        "chainage_m": 1637.6,
        "corridor_offset_m": 0.138,
        "id": "line-11-0706-0655-s001638",
        "junction_group": null,
        "line": "line-11",
        "platform_length_m": 59.5
      },
      "type": "Feature"
    },
    {
      "geometry": {
        "coordinates": [
          40.14978920019226,
          35.315772414786025
        ],
        "type": "Point"
      },
      "properties": {
        "anchor_kind": "place:neighbourhood",
        "anchor_name": "ميسلون",
        "archetype": "terminal",
        "chainage_m": 3262.2,
        "corridor_offset_m": 0.0,
        "id": "line-11-0662-0592-s003262",
        "junction_group": null,
        "line": "line-11",
        "platform_length_m": 59.5
      },
      "type": "Feature"
    },
    {
      "geometry": {
        "coordinates": [
          40.093849526185785,
          35.37084206169241
        ],
        "type": "Point"
      },
      "properties": {
        "anchor_kind": null,
        "anchor_name": null,
        "archetype": "terminal",
        "chainage_m": 0.0,
        "corridor_offset_m": 0.0,
        "id": "line-12-0356-0338-s000000",
        "junction_group": 1,
        "line": "line-12",
        "platform_length_m": 59.5
      },
      "type": "Feature"
    },
    {
      "geometry": {
        "coordinates": [
          40.09451023099689,
          35.37030216319332
        ],
        "type": "Point"
      },
      "properties": {
        "anchor_kind": null,
        "anchor_name": null,
        "archetype": "interchange",
        "chainage_m": 84.9,
        "corridor_offset_m": 0.073,
        "id": "line-12-0359-0341-s000085",
        "junction_group": 1,
        "line": "line-12",
        "platform_length_m": 59.5
      },
      "type": "Feature"
    },
    {
      "geometry": {
        "coordinates": [
          40.095170935807985,
          35.36976226469424
        ],
        "type": "Point"
      },
      "properties": {
        "anchor_kind": null,
        "anchor_name": null,
        "archetype": "interchange",
        "chainage_m": 169.7,
        "corridor_offset_m": 0.047,
        "id": "line-12-0362-0344-s000170",
        "junction_group": 1,
        "line": "line-12",
        "platform_length_m": 59.5
      },
      "type": "Feature"
    },
    {
      "geometry": {
        "coordinates": [
          40.09583164061909,
          35.36922236619516
        ],
        "type": "Point"
      },
      "properties": {
        "anchor_kind": null,
        "anchor_name": null,
        "archetype": "interchange",
        "chainage_m": 254.6,
        "corridor_offset_m": 0.12,
        "id": "line-12-0365-0347-s000255",
        "junction_group": 1,
        "line": "line-12",
        "platform_length_m": 59.5
      },
      "type": "Feature"
    },
    {
      "geometry": {
        "coordinates": [
          40.096492345430185,
          35.368682467696075
        ],
        "type": "Point"
      },
      "properties": {
        "anchor_kind": null,
        "anchor_name": null,
        "archetype": "interchange",
        "chainage_m": 339.4,
        "corridor_offset_m": 0.093,
        "id": "line-12-0368-0350-s000339",
        "junction_group": 1,
        "line": "line-12",
        "platform_length_m": 59.5
      },
      "type": "Feature"
    },
    {
      "geometry": {
        "coordinates": [
          40.097813755052385,
          35.36760267069791
        ],
        "type": "Point"
      },
      "properties": {
        "anchor_kind": null,
        "anchor_name": null,
        "archetype": "interchange",
        "chainage_m": 509.1,
        "corridor_offset_m": 0.14,
        "id": "line-12-0374-0356-s000509",
        "junction_group": 1,
        "line": "line-12",
        "platform_length_m": 59.5
      },
      "type": "Feature"
    },
    {
      "geometry": {
        "coordinates": [
          40.09847445986349,
          35.36706277219883
        ],
        "type": "Point"
      },
      "properties": {
        "anchor_kind": null,
        "anchor_name": null,
        "archetype": "interchange",
        "chainage_m": 594.0,
        "corridor_offset_m": 0.213,
        "id": "line-12-0377-0359-s000594",
        "junction_group": 1,
        "line": "line-12",
        "platform_length_m": 59.5
      },
      "type": "Feature"
    },
    {
      "geometry": {
        "coordinates": [
          40.099355399611625,
          35.36634290753339
        ],
        "type": "Point"
      },
      "properties": {
        "anchor_kind": null,
        "anchor_name": null,
        "archetype": "interchange",
        "chainage_m": 707.1,
        "corridor_offset_m": 0.211,
        "id": "line-12-0381-0363-s000707",
        "junction_group": 2,
        "line": "line-12",
        "platform_length_m": 59.5
      },
      "type": "Feature"
    },
    {
      "geometry": {
        "coordinates": [
          40.101998218856025,
          35.364183313537055
        ],
        "type": "Point"
      },
      "properties": {
        "anchor_kind": null,
        "anchor_name": null,
        "archetype": "interchange",
        "chainage_m": 1046.5,
        "corridor_offset_m": 0.304,
        "id": "line-12-0393-0375-s001047",
        "junction_group": 2,
        "line": "line-12",
        "platform_length_m": 59.5
      },
      "type": "Feature"
    },
    {
      "geometry": {
        "coordinates": [
          40.10508150797449,
          35.365263110535224
        ],
        "type": "Point"
      },
      "properties": {
        "anchor_kind": null,
        "anchor_name": null,
        "archetype": "interchange",
        "chainage_m": 1392.8,
        "corridor_offset_m": 0.554,
        "id": "line-12-0387-0389-s001393",
        "junction_group": 2,
        "line": "line-12",
        "platform_length_m": 59.5
      },
      "type": "Feature"
    },
    {
      "geometry": {
        "coordinates": [
          40.117855134322426,
          35.384339524169455
        ],
        "type": "Point"
      },
      "properties": {
        "anchor_kind": "planning:residential",
        "anchor_name": "Residential planning stop; site release open",
        "archetype": "interchange",
        "chainage_m": 3993.3,
        "corridor_offset_m": 0.424,
        "id": "line-12-0281-0447-s003993",
        "junction_group": 8,
        "line": "line-12",
        "platform_length_m": 59.5
      },
      "type": "Feature"
    },
    {
      "geometry": {
        "coordinates": [
          40.11983724875572,
          35.39027840765936
        ],
        "type": "Point"
      },
      "properties": {
        "anchor_kind": null,
        "anchor_name": null,
        "archetype": "interchange",
        "chainage_m": 4727.8,
        "corridor_offset_m": 0.121,
        "id": "line-12-0248-0456-s004728",
        "junction_group": 9,
        "line": "line-12",
        "platform_length_m": 59.5
      },
      "type": "Feature"
    },
    {
      "geometry": {
        "coordinates": [
          40.11983724875572,
          35.391898103156606
        ],
        "type": "Point"
      },
      "properties": {
        "anchor_kind": null,
        "anchor_name": null,
        "archetype": "terminal",
        "chainage_m": 4907.8,
        "corridor_offset_m": 0.0,
        "id": "line-12-0239-0456-s004908",
        "junction_group": 9,
        "line": "line-12",
        "platform_length_m": 59.5
      },
      "type": "Feature"
    }
  ],
  "type": "FeatureCollection"
}
