{
  "features": [
    {
      "geometry": {
        "coordinates": [
          44.18681983224341,
          13.994083482705252
        ],
        "type": "Point"
      },
      "properties": {
        "anchor_kind": "place:suburb",
        "anchor_name": "العكدة",
        "archetype": "terminal",
        "chainage_m": 0.0,
        "corridor_offset_m": 0.0,
        "id": "line-1-0398-0570-s000000",
        "junction_group": null,
        "line": "line-1",
        "platform_length_m": 59.5
      },
      "type": "Feature"
    },
    {
      "geometry": {
        "coordinates": [
          44.184042798967944,
          13.989404362379872
        ],
        "type": "Point"
      },
      "properties": {
        "anchor_kind": null,
        "anchor_name": null,
        "archetype": "interchange",
        "chainage_m": 679.4,
        "corridor_offset_m": 0.0,
        "id": "line-1-0424-0555-s000679",
        "junction_group": 0,
        "line": "line-1",
        "platform_length_m": 59.5
      },
      "type": "Feature"
    },
    {
      "geometry": {
        "coordinates": [
          44.18071035903739,
          13.98382541122269
        ],
        "type": "Point"
      },
      "properties": {
        "anchor_kind": null,
        "anchor_name": null,
        "archetype": "interchange",
        "chainage_m": 1483.7,
        "corridor_offset_m": 0.049,
        "id": "line-1-0455-0537-s001484",
        "junction_group": 1,
        "line": "line-1",
        "platform_length_m": 59.5
      },
      "type": "Feature"
    },
    {
      "geometry": {
        "coordinates": [
          44.16849141262536,
          13.962409437425764
        ],
        "type": "Point"
      },
      "properties": {
        "anchor_kind": null,
        "anchor_name": null,
        "archetype": "interchange",
        "chainage_m": 4492.4,
        "corridor_offset_m": 0.048,
        "id": "line-1-0574-0471-s004492",
        "junction_group": 2,
        "line": "line-1",
        "platform_length_m": 59.5
      },
      "type": "Feature"
    },
    {
      "geometry": {
        "coordinates": [
          44.16275221052273,
          13.952871230608645
        ],
        "type": "Point"
      },
      "properties": {
        "anchor_kind": null,
        "anchor_name": null,
        "archetype": "interchange",
        "chainage_m": 5844.4,
        "corridor_offset_m": 0.012,
        "id": "line-1-0627-0440-s005844",
        "junction_group": 3,
        "line": "line-1",
        "platform_length_m": 59.5
      },
      "type": "Feature"
    },
    {
      "geometry": {
        "coordinates": [
          44.15368056848956,
          13.937034207968901
        ],
        "type": "Point"
      },
      "properties": {
        "anchor_kind": null,
        "anchor_name": null,
        "archetype": "interchange",
        "chainage_m": 8057.2,
        "corridor_offset_m": 0.001,
        "id": "line-1-0715-0391-s008057",
        "junction_group": 4,
        "line": "line-1",
        "platform_length_m": 59.5
      },
      "type": "Feature"
    },
    {
      "geometry": {
        "coordinates": [
          44.14405351980129,
          13.920657286830075
        ],
        "type": "Point"
      },
      "properties": {
        "anchor_kind": "place:suburb",
        "anchor_name": "حنان",
        "archetype": "terminal",
        "chainage_m": 10413.4,
        "corridor_offset_m": 0.0,
        "id": "line-1-0806-0339-s010413",
        "junction_group": null,
        "line": "line-1",
        "platform_length_m": 59.5
      },
      "type": "Feature"
    },
    {
      "geometry": {
        "coordinates": [
          44.1797846812789,
          13.92677613648634
        ],
        "type": "Point"
      },
      "properties": {
        "anchor_kind": "place:suburb",
        "anchor_name": "الظهرة",
        "archetype": "terminal",
        "chainage_m": 0.0,
        "corridor_offset_m": 0.0,
        "id": "line-2-0772-0532-s000000",
        "junction_group": null,
        "line": "line-2",
        "platform_length_m": 59.5
      },
      "type": "Feature"
    },
    {
      "geometry": {
        "coordinates": [
          44.16886168372875,
          13.943512989957886
        ],
        "type": "Point"
      },
      "properties": {
        "anchor_kind": "planning:residential",
        "anchor_name": "Residential planning stop; site release open",
        "archetype": "interchange",
        "chainage_m": 2395.6,
        "corridor_offset_m": 0.185,
        "id": "line-2-0679-0473-s002396",
        "junction_group": 7,
        "line": "line-2",
        "platform_length_m": 59.5
      },
      "type": "Feature"
    },
    {
      "geometry": {
        "coordinates": [
          44.16275221052273,
          13.952871230608645
        ],
        "type": "Point"
      },
      "properties": {
        "anchor_kind": null,
        "anchor_name": null,
        "archetype": "interchange",
        "chainage_m": 3767.6,
        "corridor_offset_m": 0.223,
        "id": "line-2-0627-0440-s003768",
        "junction_group": 3,
        "line": "line-2",
        "platform_length_m": 59.5
      },
      "type": "Feature"
    },
    {
      "geometry": {
        "coordinates": [
          44.15608733066163,
          13.963129302091206
        ],
        "type": "Point"
      },
      "properties": {
        "anchor_kind": null,
        "anchor_name": null,
        "archetype": "interchange",
        "chainage_m": 5287.8,
        "corridor_offset_m": 0.352,
        "id": "line-2-0570-0404-s005288",
        "junction_group": 6,
        "line": "line-2",
        "platform_length_m": 59.5
      },
      "type": "Feature"
    },
    {
      "geometry": {
        "coordinates": [
          44.14794136638694,
          13.975726933736457
        ],
        "type": "Point"
      },
      "properties": {
        "anchor_kind": "planning:residential",
        "anchor_name": "Residential planning stop; site release open",
        "archetype": "standard",
        "chainage_m": 7192.9,
        "corridor_offset_m": 0.45,
        "id": "line-2-0500-0360-s007193",
        "junction_group": null,
        "line": "line-2",
        "platform_length_m": 59.5
      },
      "type": "Feature"
    },
    {
      "geometry": {
        "coordinates": [
          44.13886972435376,
          13.989944260878953
        ],
        "type": "Point"
      },
      "properties": {
        "anchor_kind": null,
        "anchor_name": null,
        "archetype": "interchange",
        "chainage_m": 9296.0,
        "corridor_offset_m": 0.571,
        "id": "line-2-0421-0311-s009296",
        "junction_group": 5,
        "line": "line-2",
        "platform_length_m": 59.5
      },
      "type": "Feature"
    },
    {
      "geometry": {
        "coordinates": [
          44.13331565780284,
          13.998222704531548
        ],
        "type": "Point"
      },
      "properties": {
        "anchor_kind": null,
        "anchor_name": null,
        "archetype": "interchange",
        "chainage_m": 10511.4,
        "corridor_offset_m": 0.617,
        "id": "line-2-0375-0281-s010511",
        "junction_group": 8,
        "line": "line-2",
        "platform_length_m": 59.5
      },
      "type": "Feature"
    },
    {
      "geometry": {
        "coordinates": [
          44.12665077794173,
          14.008660742180469
        ],
        "type": "Point"
      },
      "properties": {
        "anchor_kind": "planning:residential",
        "anchor_name": "Residential planning stop; site release open",
        "archetype": "halt",
        "chainage_m": 12004.8,
        "corridor_offset_m": 0.705,
        "id": "line-2-0317-0245-s012005",
        "junction_group": null,
        "line": "line-2",
        "platform_length_m": 55.5
      },
      "type": "Feature"
    },
    {
      "geometry": {
        "coordinates": [
          44.11794940701195,
          14.019458712162113
        ],
        "type": "Point"
      },
      "properties": {
        "anchor_kind": "planning:residential",
        "anchor_name": "Residential planning stop; site release open",
        "archetype": "halt",
        "chainage_m": 13605.9,
        "corridor_offset_m": 0.617,
        "id": "line-2-0257-0198-s013606",
        "junction_group": null,
        "line": "line-2",
        "platform_length_m": 55.5
      },
      "type": "Feature"
    },
    {
      "geometry": {
        "coordinates": [
          44.101472342910874,
          14.035475700968217
        ],
        "type": "Point"
      },
      "properties": {
        "anchor_kind": null,
        "anchor_name": null,
        "archetype": "interchange-elevated",
        "chainage_m": 16123.2,
        "corridor_offset_m": 0.169,
        "id": "line-2-0168-0109-s016123",
        "junction_group": 9,
        "line": "line-2",
        "platform_length_m": 59.5
      },
      "type": "Feature"
    },
    {
      "geometry": {
        "coordinates": [
          44.092030429774304,
          14.045373840118057
        ],
        "type": "Point"
      },
      "properties": {
        "anchor_kind": null,
        "anchor_name": null,
        "archetype": "depot-terminal",
        "chainage_m": 17762.8,
        "corridor_offset_m": 0.0,
        "id": "line-2-0113-0058-s017763",
        "junction_group": null,
        "line": "line-2",
        "platform_length_m": 59.5
      },
      "type": "Feature"
    },
    {
      "geometry": {
        "coordinates": [
          44.187004967795104,
          13.903200568693086
        ],
        "type": "Point"
      },
      "properties": {
        "anchor_kind": "amenity:hospital",
        "anchor_name": "مركز صحي هدفان",
        "archetype": "terminal",
        "chainage_m": 0.0,
        "corridor_offset_m": 0.0,
        "id": "line-3-0903-0571-s000000",
        "junction_group": null,
        "line": "line-3",
        "platform_length_m": 59.5
      },
      "type": "Feature"
    },
    {
      "geometry": {
        "coordinates": [
          44.18904145886378,
          13.917237929669222
        ],
        "type": "Point"
      },
      "properties": {
        "anchor_kind": null,
        "anchor_name": null,
        "archetype": "standard",
        "chainage_m": 1651.1,
        "corridor_offset_m": 0.112,
        "id": "line-3-0825-0582-s001651",
        "junction_group": null,
        "line": "line-3",
        "platform_length_m": 59.5
      },
      "type": "Feature"
    },
    {
      "geometry": {
        "coordinates": [
          44.191818492139234,
          13.930915358312637
        ],
        "type": "Point"
      },
      "properties": {
        "anchor_kind": null,
        "anchor_name": null,
        "archetype": "interchange",
        "chainage_m": 3307.1,
        "corridor_offset_m": 0.071,
        "id": "line-3-0749-0597-s003307",
        "junction_group": 10,
        "line": "line-3",
        "platform_length_m": 59.5
      },
      "type": "Feature"
    },
    {
      "geometry": {
        "coordinates": [
          44.195521203173186,
          13.949991771946873
        ],
        "type": "Point"
      },
      "properties": {
        "anchor_kind": "planning:residential",
        "anchor_name": "Residential planning stop; site release open",
        "archetype": "standard",
        "chainage_m": 5604.5,
        "corridor_offset_m": 0.067,
        "id": "line-3-0643-0617-s005605",
        "junction_group": null,
        "line": "line-3",
        "platform_length_m": 59.5
      },
      "type": "Feature"
    },
    {
      "geometry": {
        "coordinates": [
          44.198113100896954,
          13.963309268257566
        ],
        "type": "Point"
      },
      "properties": {
        "anchor_kind": "planning:residential",
        "anchor_name": "Residential planning stop; site release open",
        "archetype": "standard",
        "chainage_m": 7200.5,
        "corridor_offset_m": 0.048,
        "id": "line-3-0569-0631-s007200",
        "junction_group": null,
        "line": "line-3",
        "platform_length_m": 59.5
      },
      "type": "Feature"
    },
    {
      "geometry": {
        "coordinates": [
          44.200704998620715,
          13.97662676456826
        ],
        "type": "Point"
      },
      "properties": {
        "anchor_kind": "planning:residential",
        "anchor_name": "Residential planning stop; site release open",
        "archetype": "standard",
        "chainage_m": 8808.2,
        "corridor_offset_m": 0.037,
        "id": "line-3-0495-0645-s008808",
        "junction_group": null,
        "line": "line-3",
        "platform_length_m": 59.5
      },
      "type": "Feature"
    },
    {
      "geometry": {
        "coordinates": [
          44.20477798075806,
          13.997502839866105
        ],
        "type": "Point"
      },
      "properties": {
        "anchor_kind": "tourism:attraction",
        "anchor_name": "العلاية",
        "archetype": "terminal",
        "chainage_m": 11322.2,
        "corridor_offset_m": 0.0,
        "id": "line-3-0379-0667-s011322",
        "junction_group": null,
        "line": "line-3",
        "platform_length_m": 59.5
      },
      "type": "Feature"
    },
    {
      "geometry": {
        "coordinates": [
          44.16849141262536,
          13.962409437425764
        ],
        "type": "Point"
      },
      "properties": {
        "anchor_kind": null,
        "anchor_name": null,
        "archetype": "terminal",
        "chainage_m": 0.0,
        "corridor_offset_m": 0.0,
        "id": "line-4-0574-0471-s000000",
        "junction_group": 2,
        "line": "line-4",
        "platform_length_m": 59.5
      },
      "type": "Feature"
    },
    {
      "geometry": {
        "coordinates": [
          44.17645224134835,
          13.959529978763992
        ],
        "type": "Point"
      },
      "properties": {
        "anchor_kind": "leisure:stadium",
        "anchor_name": "ملعب إب",
        "archetype": "interchange",
        "chainage_m": 978.4,
        "corridor_offset_m": 13.468,
        "id": "line-4-0590-0514-s000978",
        "junction_group": 11,
        "line": "line-4",
        "platform_length_m": 59.5
      },
      "type": "Feature"
    },
    {
      "geometry": {
        "coordinates": [
          44.181450901244176,
          13.94171332829428
        ],
        "type": "Point"
      },
      "properties": {
        "anchor_kind": "place:suburb",
        "anchor_name": "وادى الذهب",
        "archetype": "terminal",
        "chainage_m": 3219.7,
        "corridor_offset_m": 0.0,
        "id": "line-4-0689-0541-s003220",
        "junction_group": null,
        "line": "line-4",
        "platform_length_m": 59.5
      },
      "type": "Feature"
    },
    {
      "geometry": {
        "coordinates": [
          44.18071035903739,
          13.98382541122269
        ],
        "type": "Point"
      },
      "properties": {
        "anchor_kind": "place:suburb",
        "anchor_name": "جرافة",
        "archetype": "terminal",
        "chainage_m": 0.0,
        "corridor_offset_m": 0.0,
        "id": "line-5-0455-0537-s000000",
        "junction_group": 1,
        "line": "line-5",
        "platform_length_m": 59.5
      },
      "type": "Feature"
    },
    {
      "geometry": {
        "coordinates": [
          44.16145626166085,
          13.978426426231868
        ],
        "type": "Point"
      },
      "properties": {
        "anchor_kind": "place:suburb",
        "anchor_name": "نزهة السفلى",
        "archetype": "terminal",
        "chainage_m": 2643.3,
        "corridor_offset_m": 0.0,
        "id": "line-5-0485-0433-s002643",
        "junction_group": null,
        "line": "line-5",
        "platform_length_m": 59.5
      },
      "type": "Feature"
    },
    {
      "geometry": {
        "coordinates": [
          44.15368056848956,
          13.937034207968901
        ],
        "type": "Point"
      },
      "properties": {
        "anchor_kind": null,
        "anchor_name": null,
        "archetype": "terminal",
        "chainage_m": 0.0,
        "corridor_offset_m": 0.0,
        "id": "line-6-0715-0391-s000000",
        "junction_group": 4,
        "line": "line-6",
        "platform_length_m": 59.5
      },
      "type": "Feature"
    },
    {
      "geometry": {
        "coordinates": [
          44.169046819280446,
          13.943153057625166
        ],
        "type": "Point"
      },
      "properties": {
        "anchor_kind": null,
        "anchor_name": null,
        "archetype": "interchange",
        "chainage_m": 2528.8,
        "corridor_offset_m": 0.828,
        "id": "line-6-0681-0474-s002529",
        "junction_group": 7,
        "line": "line-6",
        "platform_length_m": 59.5
      },
      "type": "Feature"
    },
    {
      "geometry": {
        "coordinates": [
          44.17645224134835,
          13.959529978763992
        ],
        "type": "Point"
      },
      "properties": {
        "anchor_kind": "leisure:stadium",
        "anchor_name": "ملعب إب",
        "archetype": "interchange",
        "chainage_m": 4686.0,
        "corridor_offset_m": 14.149,
        "id": "line-6-0590-0514-s004686",
        "junction_group": 11,
        "line": "line-6",
        "platform_length_m": 59.5
      },
      "type": "Feature"
    },
    {
      "geometry": {
        "coordinates": [
          44.185338747829825,
          13.978606392398229
        ],
        "type": "Point"
      },
      "properties": {
        "anchor_kind": "planning:residential",
        "anchor_name": "Residential planning stop; site release open",
        "archetype": "major",
        "chainage_m": 7197.8,
        "corridor_offset_m": 0.284,
        "id": "line-6-0484-0562-s007198",
        "junction_group": null,
        "line": "line-6",
        "platform_length_m": 59.5
      },
      "type": "Feature"
    },
    {
      "geometry": {
        "coordinates": [
          44.184042798967944,
          13.989404362379872
        ],
        "type": "Point"
      },
      "properties": {
        "anchor_kind": null,
        "anchor_name": null,
        "archetype": "interchange",
        "chainage_m": 8455.8,
        "corridor_offset_m": 0.248,
        "id": "line-6-0424-0555-s008456",
        "junction_group": 0,
        "line": "line-6",
        "platform_length_m": 59.5
      },
      "type": "Feature"
    },
    {
      "geometry": {
        "coordinates": [
          44.172008988107606,
          14.005781283518697
        ],
        "type": "Point"
      },
      "properties": {
        "anchor_kind": null,
        "anchor_name": null,
        "archetype": "terminal",
        "chainage_m": 10814.3,
        "corridor_offset_m": 0.0,
        "id": "line-6-0333-0490-s010814",
        "junction_group": null,
        "line": "line-6",
        "platform_length_m": 59.5
      },
      "type": "Feature"
    },
    {
      "geometry": {
        "coordinates": [
          44.13331565780284,
          13.998222704531548
        ],
        "type": "Point"
      },
      "properties": {
        "anchor_kind": null,
        "anchor_name": null,
        "archetype": "terminal",
        "chainage_m": 0.0,
        "corridor_offset_m": 0.0,
        "id": "line-7-0375-0281-s000000",
        "junction_group": 8,
        "line": "line-7",
        "platform_length_m": 59.5
      },
      "type": "Feature"
    },
    {
      "geometry": {
        "coordinates": [
          44.13035348897568,
          13.978786358564589
        ],
        "type": "Point"
      },
      "properties": {
        "anchor_kind": "planning:residential",
        "anchor_name": "Residential planning stop; site release open",
        "archetype": "halt",
        "chainage_m": 2407.7,
        "corridor_offset_m": 0.106,
        "id": "line-7-0483-0265-s002408",
        "junction_group": null,
        "line": "line-7",
        "platform_length_m": 55.5
      },
      "type": "Feature"
    },
    {
      "geometry": {
        "coordinates": [
          44.134426471113024,
          13.968348320915668
        ],
        "type": "Point"
      },
      "properties": {
        "anchor_kind": null,
        "anchor_name": null,
        "archetype": "terminal",
        "chainage_m": 3749.9,
        "corridor_offset_m": 0.0,
        "id": "line-7-0541-0287-s003750",
        "junction_group": null,
        "line": "line-7",
        "platform_length_m": 59.5
      },
      "type": "Feature"
    },
    {
      "geometry": {
        "coordinates": [
          44.191818492139234,
          13.930915358312637
        ],
        "type": "Point"
      },
      "properties": {
        "anchor_kind": null,
        "anchor_name": null,
        "archetype": "terminal",
        "chainage_m": 0.0,
        "corridor_offset_m": 0.0,
        "id": "line-8-0749-0597-s000000",
        "junction_group": 10,
        "line": "line-8",
        "platform_length_m": 59.5
      },
      "type": "Feature"
    },
    {
      "geometry": {
        "coordinates": [
          44.20403743855127,
          13.928215865817226
        ],
        "type": "Point"
      },
      "properties": {
        "anchor_kind": "planning:residential-priority",
        "anchor_name": "Residential planning stop; site release open",
        "archetype": "standard",
        "chainage_m": 1444.3,
        "corridor_offset_m": 0.186,
        "id": "line-8-0764-0663-s001444",
        "junction_group": null,
        "line": "line-8",
        "platform_length_m": 59.5
      },
      "type": "Feature"
    },
    {
      "geometry": {
        "coordinates": [
          44.2240320781346,
          13.919757455998273
        ],
        "type": "Point"
      },
      "properties": {
        "anchor_kind": "planning:residential",
        "anchor_name": "Residential planning stop; site release open",
        "archetype": "halt",
        "chainage_m": 3993.6,
        "corridor_offset_m": 0.103,
        "id": "line-8-0811-0771-s003994",
        "junction_group": null,
        "line": "line-8",
        "platform_length_m": 55.5
      },
      "type": "Feature"
    },
    {
      "geometry": {
        "coordinates": [
          44.240879413339066,
          13.919757455998273
        ],
        "type": "Point"
      },
      "properties": {
        "anchor_kind": "planning:residential-priority",
        "anchor_name": "Residential planning stop; site release open",
        "archetype": "halt",
        "chainage_m": 5813.6,
        "corridor_offset_m": 0.54,
        "id": "line-8-0811-0862-s005814",
        "junction_group": null,
        "line": "line-8",
        "platform_length_m": 55.5
      },
      "type": "Feature"
    },
    {
      "geometry": {
        "coordinates": [
          44.25513485081977,
          13.910219249181154
        ],
        "type": "Point"
      },
      "properties": {
        "anchor_kind": null,
        "anchor_name": null,
        "archetype": "terminal",
        "chainage_m": 7792.7,
        "corridor_offset_m": 0.0,
        "id": "line-8-0864-0939-s007793",
        "junction_group": null,
        "line": "line-8",
        "platform_length_m": 59.5
      },
      "type": "Feature"
    },
    {
      "geometry": {
        "coordinates": [
          44.101472342910874,
          14.035475700968217
        ],
        "type": "Point"
      },
      "properties": {
        "anchor_kind": null,
        "anchor_name": null,
        "archetype": "terminal",
        "chainage_m": 0.0,
        "corridor_offset_m": 0.0,
        "id": "line-9-0168-0109-s000000",
        "junction_group": 9,
        "line": "line-9",
        "platform_length_m": 59.5
      },
      "type": "Feature"
    },
    {
      "geometry": {
        "coordinates": [
          44.088142583188656,
          14.022518136990245
        ],
        "type": "Point"
      },
      "properties": {
        "anchor_kind": "planning:residential-priority",
        "anchor_name": "Residential planning stop; site release open",
        "archetype": "halt",
        "chainage_m": 2036.5,
        "corridor_offset_m": 0.44,
        "id": "line-9-0240-0037-s002036",
        "junction_group": null,
        "line": "line-9",
        "platform_length_m": 55.5
      },
      "type": "Feature"
    },
    {
      "geometry": {
        "coordinates": [
          44.09295610753279,
          14.009560573012273
        ],
        "type": "Point"
      },
      "properties": {
        "anchor_kind": null,
        "anchor_name": null,
        "archetype": "terminal",
        "chainage_m": 3691.9,
        "corridor_offset_m": 0.0,
        "id": "line-9-0312-0063-s003692",
        "junction_group": null,
        "line": "line-9",
        "platform_length_m": 59.5
      },
      "type": "Feature"
    },
    {
      "geometry": {
        "coordinates": [
          44.13886972435376,
          13.989944260878953
        ],
        "type": "Point"
      },
      "properties": {
        "anchor_kind": null,
        "anchor_name": null,
        "archetype": "terminal",
        "chainage_m": 0.0,
        "corridor_offset_m": 0.0,
        "id": "line-10-0421-0311-s000000",
        "junction_group": 5,
        "line": "line-10",
        "platform_length_m": 59.5
      },
      "type": "Feature"
    },
    {
      "geometry": {
        "coordinates": [
          44.15738327952351,
          14.000562264694237
        ],
        "type": "Point"
      },
      "properties": {
        "anchor_kind": null,
        "anchor_name": null,
        "archetype": "terminal",
        "chainage_m": 2488.8,
        "corridor_offset_m": 0.0,
        "id": "line-10-0362-0411-s002489",
        "junction_group": null,
        "line": "line-10",
        "platform_length_m": 59.5
      },
      "type": "Feature"
    },
    {
      "geometry": {
        "coordinates": [
          44.15608733066163,
          13.963129302091206
        ],
        "type": "Point"
      },
      "properties": {
        "anchor_kind": null,
        "anchor_name": null,
        "archetype": "terminal",
        "chainage_m": 0.0,
        "corridor_offset_m": 0.0,
        "id": "line-11-0570-0404-s000000",
        "junction_group": 6,
        "line": "line-11",
        "platform_length_m": 59.5
      },
      "type": "Feature"
    },
    {
      "geometry": {
        "coordinates": [
          44.141646757629225,
          13.953771061440449
        ],
        "type": "Point"
      },
      "properties": {
        "anchor_kind": "planning:residential-priority",
        "anchor_name": "Residential planning stop; site release open",
        "archetype": "standard",
        "chainage_m": 1990.8,
        "corridor_offset_m": 0.505,
        "id": "line-11-0622-0326-s001991",
        "junction_group": null,
        "line": "line-11",
        "platform_length_m": 59.5
      },
      "type": "Feature"
    },
    {
      "geometry": {
        "coordinates": [
          44.14831163749033,
          13.941893294460641
        ],
        "type": "Point"
      },
      "properties": {
        "anchor_kind": null,
        "anchor_name": null,
        "archetype": "terminal",
        "chainage_m": 3609.0,
        "corridor_offset_m": 0.0,
        "id": "line-11-0688-0362-s003609",
        "junction_group": null,
        "line": "line-11",
        "platform_length_m": 59.5
      },
      "type": "Feature"
    }
  ],
  "type": "FeatureCollection"
}
