{
  "features": [
    {
      "geometry": {
        "coordinates": [
          -6.58173550511004,
          34.25994882842026
        ],
        "type": "Point"
      },
      "properties": {
        "id": "interchange-000",
        "junction_group": 0,
        "line_count": 3,
        "lines": "line-1,line-2,line-3",
        "platform_count": 3,
        "platforms": "line-1-0556-0544-s007028,line-2-0556-0544-s007896,line-3-0556-0544-s008013"
      },
      "type": "Feature"
    },
    {
      "geometry": {
        "coordinates": [
          -6.592713295728852,
          34.24771112910773
        ],
        "type": "Point"
      },
      "properties": {
        "id": "interchange-001",
        "junction_group": 1,
        "line_count": 2,
        "lines": "line-2,line-3",
        "platform_count": 2,
        "platforms": "line-2-0621-0498-s010076,line-3-0627-0489-s005229"
      },
      "type": "Feature"
    }
  ],
  "type": "FeatureCollection"
}
