{
  "features": [
    {
      "geometry": {
        "coordinates": [
          68.41461573927855,
          25.420452493731176
        ],
        "type": "Point"
      },
      "properties": {
        "id": "interchange-000",
        "junction_group": 0,
        "line_count": 2,
        "lines": "line-1,line-6",
        "platform_count": 3,
        "platforms": "line-1-0668-1087-s000000,line-6-0657-1089-s022083,line-6-0668-1087-s022320"
      },
      "type": "Feature"
    },
    {
      "geometry": {
        "coordinates": [
          68.3855459577887,
          25.419342702371953
        ],
        "type": "Point"
      },
      "properties": {
        "id": "interchange-001",
        "junction_group": 1,
        "line_count": 2,
        "lines": "line-1,line-3",
        "platform_count": 2,
        "platforms": "line-1-0671-0948-s004050,line-3-0670-0935-s014090"
      },
      "type": "Feature"
    },
    {
      "geometry": {
        "coordinates": [
          68.36105872737178,
          25.401053640715546
        ],
        "type": "Point"
      },
      "properties": {
        "id": "interchange-002",
        "junction_group": 2,
        "line_count": 4,
        "lines": "line-1,line-2,line-4,line-5",
        "platform_count": 8,
        "platforms": "line-1-0762-0861-s007258,line-1-0787-0814-s008916,line-2-0756-0799-s014085,line-2-0787-0814-s014830,line-4-0755-0832-s012168,line-4-0787-0814-s011322,line-5-0756-0799-s013090,line-5-0787-0814-s013834"
      },
      "type": "Feature"
    },
    {
      "geometry": {
        "coordinates": [
          68.26810669231712,
          25.424291771946873
        ],
        "type": "Point"
      },
      "properties": {
        "id": "interchange-003",
        "junction_group": 3,
        "line_count": 2,
        "lines": "line-2,line-6",
        "platform_count": 2,
        "platforms": "line-2-0643-0351-s000000,line-6-0643-0351-s000723"
      },
      "type": "Feature"
    },
    {
      "geometry": {
        "coordinates": [
          68.28103396116666,
          25.424831670445954
        ],
        "type": "Point"
      },
      "properties": {
        "id": "interchange-004",
        "junction_group": 4,
        "line_count": 2,
        "lines": "line-2,line-6",
        "platform_count": 2,
        "platforms": "line-2-0640-0416-s002909,line-6-0640-0416-s002097"
      },
      "type": "Feature"
    },
    {
      "geometry": {
        "coordinates": [
          68.37401085635372,
          25.38640889392794
        ],
        "type": "Point"
      },
      "properties": {
        "id": "interchange-005",
        "junction_group": 5,
        "line_count": 4,
        "lines": "line-2,line-3,line-4,line-5",
        "platform_count": 6,
        "platforms": "line-2-0815-0886-s016502,line-2-0864-0907-s017714,line-3-0867-0890-s008844,line-3-0898-0850-s007637,line-4-0887-0877-s008520,line-5-0790-0891-s015515"
      },
      "type": "Feature"
    },
    {
      "geometry": {
        "coordinates": [
          68.40102553356495,
          25.37432116642071
        ],
        "type": "Point"
      },
      "properties": {
        "id": "interchange-006",
        "junction_group": 6,
        "line_count": 2,
        "lines": "line-2,line-6",
        "platform_count": 3,
        "platforms": "line-2-0925-1015-s020778,line-6-0912-1028-s032147,line-6-0925-1015-s032514"
      },
      "type": "Feature"
    },
    {
      "geometry": {
        "coordinates": [
          68.36272435624278,
          25.33192413706223
        ],
        "type": "Point"
      },
      "properties": {
        "id": "interchange-007",
        "junction_group": 7,
        "line_count": 2,
        "lines": "line-3,line-6",
        "platform_count": 4,
        "platforms": "line-3-1143-0853-s001328,line-3-1157-0800-s000000,line-6-1157-0800-s042190,line-6-1168-0854-s039076"
      },
      "type": "Feature"
    },
    {
      "geometry": {
        "coordinates": [
          68.38241358110592,
          25.452186527732785
        ],
        "type": "Point"
      },
      "properties": {
        "id": "interchange-008",
        "junction_group": 8,
        "line_count": 2,
        "lines": "line-3,line-6",
        "platform_count": 4,
        "platforms": "line-3-0479-0923-s019452,line-3-0492-0947-s018109,line-6-0479-0923-s014682,line-6-0502-0910-s014067"
      },
      "type": "Feature"
    },
    {
      "geometry": {
        "coordinates": [
          68.39007050188603,
          25.365712784796454
        ],
        "type": "Point"
      },
      "properties": {
        "id": "interchange-009",
        "junction_group": 9,
        "line_count": 2,
        "lines": "line-4,line-6",
        "platform_count": 4,
        "platforms": "line-4-0950-0952-s006498,line-4-0970-0973-s005912,line-6-0970-0973-s033762,line-6-0984-0959-s034170"
      },
      "type": "Feature"
    },
    {
      "geometry": {
        "coordinates": [
          68.33247786181919,
          25.439348941199054
        ],
        "type": "Point"
      },
      "properties": {
        "id": "interchange-010",
        "junction_group": 10,
        "line_count": 2,
        "lines": "line-4,line-6",
        "platform_count": 3,
        "platforms": "line-4-0552-0678-s018219,line-4-0563-0673-s017941,line-6-0563-0673-s008772"
      },
      "type": "Feature"
    },
    {
      "geometry": {
        "coordinates": [
          68.26015144994817,
          25.40875469291773
        ],
        "type": "Point"
      },
      "properties": {
        "id": "interchange-011",
        "junction_group": 11,
        "line_count": 2,
        "lines": "line-5,line-6",
        "platform_count": 3,
        "platforms": "line-5-0726-0313-s000000,line-6-0726-0313-s058597,line-6-0736-0307-s058301"
      },
      "type": "Feature"
    },
    {
      "geometry": {
        "coordinates": [
          68.2704932650278,
          25.39855661015729
        ],
        "type": "Point"
      },
      "properties": {
        "id": "interchange-012",
        "junction_group": 12,
        "line_count": 2,
        "lines": "line-5,line-6",
        "platform_count": 2,
        "platforms": "line-5-0780-0374-s002153,line-6-0792-0352-s056378"
      },
      "type": "Feature"
    },
    {
      "geometry": {
        "coordinates": [
          68.40984259385719,
          25.3905781101153
        ],
        "type": "Point"
      },
      "properties": {
        "id": "interchange-013",
        "junction_group": 13,
        "line_count": 2,
        "lines": "line-5,line-6",
        "platform_count": 3,
        "platforms": "line-5-0827-1049-s019542,line-5-0832-1071-s020024,line-6-0832-1071-s030080"
      },
      "type": "Feature"
    }
  ],
  "type": "FeatureCollection"
}
