{
  "features": [
    {
      "geometry": {
        "coordinates": [
          30.00152800481057,
          -1.9411291077277473
        ],
        "type": "Point"
      },
      "properties": {
        "charger_bus_voltage_v": 650.0,
        "charger_contact_count": 6,
        "charger_efficiency": 0.98,
        "charger_max_current_a": 2475.0,
        "charger_max_kw": 1500.0,
        "grid_export_kw": 2400.0,
        "grid_import_kw": 2400.0,
        "line": "line-1",
        "pv_nameplate_kw": 300.0,
        "station": "line-1-0617-0008-s000000",
        "storage_capacity_kwh": 1500.0,
        "storage_initial_soc": 0.6,
        "storage_max_charge_kw": 1500.0,
        "storage_max_discharge_kw": 1500.0,
        "storage_module_kwh": 500.0,
        "tier": "terminal"
      },
      "type": "Feature"
    },
    {
      "geometry": {
        "coordinates": [
          30.042154956244506,
          -1.9425688370586331
        ],
        "type": "Point"
      },
      "properties": {
        "charger_bus_voltage_v": 650.0,
        "charger_contact_count": 6,
        "charger_efficiency": 0.98,
        "charger_max_current_a": 2475.0,
        "charger_max_kw": 1500.0,
        "grid_export_kw": 1800.0,
        "grid_import_kw": 1800.0,
        "line": "line-1",
        "pv_nameplate_kw": 300.0,
        "station": "line-1-0625-0234-s005630",
        "storage_capacity_kwh": 1500.0,
        "storage_initial_soc": 0.5,
        "storage_max_charge_kw": 1500.0,
        "storage_max_discharge_kw": 1500.0,
        "storage_module_kwh": 500.0,
        "tier": "interchange"
      },
      "type": "Feature"
    },
    {
      "geometry": {
        "coordinates": [
          30.051322985107916,
          -1.9445484648886011
        ],
        "type": "Point"
      },
      "properties": {
        "charger_bus_voltage_v": 650.0,
        "charger_contact_count": 6,
        "charger_efficiency": 0.98,
        "charger_max_current_a": 2475.0,
        "charger_max_kw": 1500.0,
        "grid_export_kw": 1800.0,
        "grid_import_kw": 1800.0,
        "line": "line-1",
        "pv_nameplate_kw": 300.0,
        "station": "line-1-0636-0285-s007151",
        "storage_capacity_kwh": 1500.0,
        "storage_initial_soc": 0.5,
        "storage_max_charge_kw": 1500.0,
        "storage_max_discharge_kw": 1500.0,
        "storage_module_kwh": 500.0,
        "tier": "interchange"
      },
      "type": "Feature"
    },
    {
      "geometry": {
        "coordinates": [
          30.058154065437517,
          -1.9508472807112263
        ],
        "type": "Point"
      },
      "properties": {
        "charger_bus_voltage_v": 650.0,
        "charger_contact_count": 6,
        "charger_efficiency": 0.98,
        "charger_max_current_a": 2475.0,
        "charger_max_kw": 1500.0,
        "grid_export_kw": 1800.0,
        "grid_import_kw": 1800.0,
        "line": "line-1",
        "pv_nameplate_kw": 300.0,
        "station": "line-1-0671-0323-s008460",
        "storage_capacity_kwh": 1500.0,
        "storage_initial_soc": 0.5,
        "storage_max_charge_kw": 1500.0,
        "storage_max_discharge_kw": 1500.0,
        "storage_module_kwh": 500.0,
        "tier": "interchange"
      },
      "type": "Feature"
    },
    {
      "geometry": {
        "coordinates": [
          30.062288666689643,
          -1.9445484648886011
        ],
        "type": "Point"
      },
      "properties": {
        "charger_bus_voltage_v": 650.0,
        "charger_contact_count": 6,
        "charger_efficiency": 0.98,
        "charger_max_current_a": 2475.0,
        "charger_max_kw": 1500.0,
        "grid_export_kw": 1800.0,
        "grid_import_kw": 1800.0,
        "line": "line-1",
        "pv_nameplate_kw": 300.0,
        "station": "line-1-0636-0346-s009665",
        "storage_capacity_kwh": 1500.0,
        "storage_initial_soc": 0.5,
        "storage_max_charge_kw": 1500.0,
        "storage_max_discharge_kw": 1500.0,
        "storage_module_kwh": 500.0,
        "tier": "major"
      },
      "type": "Feature"
    },
    {
      "geometry": {
        "coordinates": [
          30.073793644086862,
          -1.9548065363711622
        ],
        "type": "Point"
      },
      "properties": {
        "charger_bus_voltage_v": 650.0,
        "charger_contact_count": 6,
        "charger_efficiency": 0.98,
        "charger_max_current_a": 2475.0,
        "charger_max_kw": 1500.0,
        "grid_export_kw": 1800.0,
        "grid_import_kw": 1800.0,
        "line": "line-1",
        "pv_nameplate_kw": 300.0,
        "station": "line-1-0693-0410-s011675",
        "storage_capacity_kwh": 1500.0,
        "storage_initial_soc": 0.5,
        "storage_max_charge_kw": 1500.0,
        "storage_max_discharge_kw": 1500.0,
        "storage_module_kwh": 500.0,
        "tier": "interchange"
      },
      "type": "Feature"
    },
    {
      "geometry": {
        "coordinates": [
          30.07469247044602,
          -1.9560662995356874
        ],
        "type": "Point"
      },
      "properties": {
        "charger_bus_voltage_v": 650.0,
        "charger_contact_count": 6,
        "charger_efficiency": 0.98,
        "charger_max_current_a": 2475.0,
        "charger_max_kw": 1500.0,
        "grid_export_kw": 1800.0,
        "grid_import_kw": 1800.0,
        "line": "line-1",
        "pv_nameplate_kw": 300.0,
        "station": "line-1-0700-0415-s011857",
        "storage_capacity_kwh": 1500.0,
        "storage_initial_soc": 0.5,
        "storage_max_charge_kw": 1500.0,
        "storage_max_discharge_kw": 1500.0,
        "storage_module_kwh": 500.0,
        "tier": "interchange"
      },
      "type": "Feature"
    },
    {
      "geometry": {
        "coordinates": [
          30.0836807340376,
          -1.9684839650145773
        ],
        "type": "Point"
      },
      "properties": {
        "charger_bus_voltage_v": 650.0,
        "charger_contact_count": 6,
        "charger_efficiency": 0.98,
        "charger_max_current_a": 2475.0,
        "charger_max_kw": 1500.0,
        "grid_export_kw": 1800.0,
        "grid_import_kw": 1800.0,
        "line": "line-1",
        "pv_nameplate_kw": 300.0,
        "station": "line-1-0769-0465-s013698",
        "storage_capacity_kwh": 1500.0,
        "storage_initial_soc": 0.5,
        "storage_max_charge_kw": 1500.0,
        "storage_max_discharge_kw": 1500.0,
        "storage_module_kwh": 500.0,
        "tier": "interchange"
      },
      "type": "Feature"
    },
    {
      "geometry": {
        "coordinates": [
          30.096264303065812,
          -1.968663931180938
        ],
        "type": "Point"
      },
      "properties": {
        "charger_bus_voltage_v": 650.0,
        "charger_contact_count": 6,
        "charger_efficiency": 0.98,
        "charger_max_current_a": 2475.0,
        "charger_max_kw": 1500.0,
        "grid_export_kw": 1800.0,
        "grid_import_kw": 1800.0,
        "line": "line-1",
        "pv_nameplate_kw": 300.0,
        "station": "line-1-0770-0535-s015357",
        "storage_capacity_kwh": 1500.0,
        "storage_initial_soc": 0.5,
        "storage_max_charge_kw": 1500.0,
        "storage_max_discharge_kw": 1500.0,
        "storage_module_kwh": 500.0,
        "tier": "interchange"
      },
      "type": "Feature"
    },
    {
      "geometry": {
        "coordinates": [
          30.104353740298233,
          -1.9648846416873629
        ],
        "type": "Point"
      },
      "properties": {
        "charger_bus_voltage_v": 650.0,
        "charger_contact_count": 6,
        "charger_efficiency": 0.98,
        "charger_max_current_a": 2475.0,
        "charger_max_kw": 1500.0,
        "grid_export_kw": 1800.0,
        "grid_import_kw": 1800.0,
        "line": "line-1",
        "pv_nameplate_kw": 300.0,
        "station": "line-1-0749-0580-s016558",
        "storage_capacity_kwh": 1500.0,
        "storage_initial_soc": 0.5,
        "storage_max_charge_kw": 1500.0,
        "storage_max_discharge_kw": 1500.0,
        "storage_module_kwh": 500.0,
        "tier": "major"
      },
      "type": "Feature"
    },
    {
      "geometry": {
        "coordinates": [
          30.113521769161643,
          -1.960745419861066
        ],
        "type": "Point"
      },
      "properties": {
        "charger_bus_voltage_v": 650.0,
        "charger_contact_count": 6,
        "charger_efficiency": 0.98,
        "charger_max_current_a": 2475.0,
        "charger_max_kw": 1500.0,
        "grid_export_kw": 1800.0,
        "grid_import_kw": 1800.0,
        "line": "line-1",
        "pv_nameplate_kw": 300.0,
        "station": "line-1-0726-0631-s017768",
        "storage_capacity_kwh": 1500.0,
        "storage_initial_soc": 0.5,
        "storage_max_charge_kw": 1500.0,
        "storage_max_discharge_kw": 1500.0,
        "storage_module_kwh": 500.0,
        "tier": "interchange"
      },
      "type": "Feature"
    },
    {
      "geometry": {
        "coordinates": [
          30.12916134781099,
          -1.963444912356477
        ],
        "type": "Point"
      },
      "properties": {
        "charger_bus_voltage_v": 650.0,
        "charger_contact_count": 6,
        "charger_efficiency": 0.98,
        "charger_max_current_a": 2475.0,
        "charger_max_kw": 1500.0,
        "grid_export_kw": 1500.0,
        "grid_import_kw": 1500.0,
        "line": "line-1",
        "pv_nameplate_kw": 300.0,
        "station": "line-1-0741-0718-s019782",
        "storage_capacity_kwh": 1500.0,
        "storage_initial_soc": 0.5,
        "storage_max_charge_kw": 1500.0,
        "storage_max_discharge_kw": 1500.0,
        "storage_module_kwh": 500.0,
        "tier": "standard"
      },
      "type": "Feature"
    },
    {
      "geometry": {
        "coordinates": [
          30.14426163064484,
          -1.9670442356836915
        ],
        "type": "Point"
      },
      "properties": {
        "charger_bus_voltage_v": 650.0,
        "charger_contact_count": 6,
        "charger_efficiency": 0.98,
        "charger_max_current_a": 2475.0,
        "charger_max_kw": 1500.0,
        "grid_export_kw": 1500.0,
        "grid_import_kw": 1500.0,
        "line": "line-1",
        "pv_nameplate_kw": 300.0,
        "station": "line-1-0761-0802-s021795",
        "storage_capacity_kwh": 1500.0,
        "storage_initial_soc": 0.5,
        "storage_max_charge_kw": 1500.0,
        "storage_max_discharge_kw": 1500.0,
        "storage_module_kwh": 500.0,
        "tier": "standard"
      },
      "type": "Feature"
    },
    {
      "geometry": {
        "coordinates": [
          30.15864285239137,
          -1.9720832883417918
        ],
        "type": "Point"
      },
      "properties": {
        "charger_bus_voltage_v": 650.0,
        "charger_contact_count": 6,
        "charger_efficiency": 0.98,
        "charger_max_current_a": 2475.0,
        "charger_max_kw": 1500.0,
        "grid_export_kw": 1500.0,
        "grid_import_kw": 1500.0,
        "line": "line-1",
        "pv_nameplate_kw": 300.0,
        "station": "line-1-0789-0882-s023823",
        "storage_capacity_kwh": 1500.0,
        "storage_initial_soc": 0.5,
        "storage_max_charge_kw": 1500.0,
        "storage_max_discharge_kw": 1500.0,
        "storage_module_kwh": 500.0,
        "tier": "standard"
      },
      "type": "Feature"
    },
    {
      "geometry": {
        "coordinates": [
          30.173743135225223,
          -1.9791019688298601
        ],
        "type": "Point"
      },
      "properties": {
        "charger_bus_voltage_v": 650.0,
        "charger_contact_count": 6,
        "charger_efficiency": 0.98,
        "charger_max_current_a": 2475.0,
        "charger_max_kw": 1500.0,
        "grid_export_kw": 1800.0,
        "grid_import_kw": 1800.0,
        "line": "line-1",
        "pv_nameplate_kw": 300.0,
        "station": "line-1-0828-0966-s025826",
        "storage_capacity_kwh": 1500.0,
        "storage_initial_soc": 0.5,
        "storage_max_charge_kw": 1500.0,
        "storage_max_discharge_kw": 1500.0,
        "storage_module_kwh": 500.0,
        "tier": "interchange"
      },
      "type": "Feature"
    },
    {
      "geometry": {
        "coordinates": [
          30.17697891011819,
          -1.9818014613252708
        ],
        "type": "Point"
      },
      "properties": {
        "charger_bus_voltage_v": 650.0,
        "charger_contact_count": 6,
        "charger_efficiency": 0.98,
        "charger_max_current_a": 2475.0,
        "charger_max_kw": 1500.0,
        "grid_export_kw": 1800.0,
        "grid_import_kw": 1800.0,
        "line": "line-1",
        "pv_nameplate_kw": 300.0,
        "station": "line-1-0843-0984-s026322",
        "storage_capacity_kwh": 1500.0,
        "storage_initial_soc": 0.5,
        "storage_max_charge_kw": 1500.0,
        "storage_max_discharge_kw": 1500.0,
        "storage_module_kwh": 500.0,
        "tier": "interchange"
      },
      "type": "Feature"
    },
    {
      "geometry": {
        "coordinates": [
          30.19747215110699,
          -1.993499262138718
        ],
        "type": "Point"
      },
      "properties": {
        "charger_bus_voltage_v": 650.0,
        "charger_contact_count": 6,
        "charger_efficiency": 0.98,
        "charger_max_current_a": 2475.0,
        "charger_max_kw": 1500.0,
        "grid_export_kw": 1500.0,
        "grid_import_kw": 1500.0,
        "line": "line-1",
        "pv_nameplate_kw": 300.0,
        "station": "line-1-0908-1098-s030656",
        "storage_capacity_kwh": 1500.0,
        "storage_initial_soc": 0.5,
        "storage_max_charge_kw": 1500.0,
        "storage_max_discharge_kw": 1500.0,
        "storage_module_kwh": 500.0,
        "tier": "standard"
      },
      "type": "Feature"
    },
    {
      "geometry": {
        "coordinates": [
          30.21203313812535,
          -1.9916996004751106
        ],
        "type": "Point"
      },
      "properties": {
        "charger_bus_voltage_v": 650.0,
        "charger_contact_count": 6,
        "charger_efficiency": 0.98,
        "charger_max_current_a": 2475.0,
        "charger_max_kw": 1500.0,
        "grid_export_kw": 9000.0,
        "grid_import_kw": 9000.0,
        "line": "line-1",
        "pv_nameplate_kw": 5000.0,
        "station": "line-1-0898-1179-s032505",
        "storage_capacity_kwh": 40000.0,
        "storage_initial_soc": 0.6,
        "storage_max_charge_kw": 10000.0,
        "storage_max_discharge_kw": 10000.0,
        "storage_module_kwh": 500.0,
        "tier": "depot-main"
      },
      "type": "Feature"
    },
    {
      "geometry": {
        "coordinates": [
          30.04503120059381,
          -1.9150340136054422
        ],
        "type": "Point"
      },
      "properties": {
        "charger_bus_voltage_v": 650.0,
        "charger_contact_count": 6,
        "charger_efficiency": 0.98,
        "charger_max_current_a": 2475.0,
        "charger_max_kw": 1500.0,
        "grid_export_kw": 2400.0,
        "grid_import_kw": 2400.0,
        "line": "line-2",
        "pv_nameplate_kw": 300.0,
        "station": "line-2-0472-0250-s000000",
        "storage_capacity_kwh": 1500.0,
        "storage_initial_soc": 0.6,
        "storage_max_charge_kw": 1500.0,
        "storage_max_discharge_kw": 1500.0,
        "storage_module_kwh": 500.0,
        "tier": "terminal"
      },
      "type": "Feature"
    },
    {
      "geometry": {
        "coordinates": [
          30.049884862933265,
          -1.926191915919807
        ],
        "type": "Point"
      },
      "properties": {
        "charger_bus_voltage_v": 650.0,
        "charger_contact_count": 6,
        "charger_efficiency": 0.98,
        "charger_max_current_a": 2475.0,
        "charger_max_kw": 1500.0,
        "grid_export_kw": 1800.0,
        "grid_import_kw": 1800.0,
        "line": "line-2",
        "pv_nameplate_kw": 300.0,
        "station": "line-2-0534-0277-s002009",
        "storage_capacity_kwh": 1500.0,
        "storage_initial_soc": 0.5,
        "storage_max_charge_kw": 1500.0,
        "storage_max_discharge_kw": 1500.0,
        "storage_module_kwh": 500.0,
        "tier": "interchange"
      },
      "type": "Feature"
    },
    {
      "geometry": {
        "coordinates": [
          30.055637351631873,
          -1.926371882086168
        ],
        "type": "Point"
      },
      "properties": {
        "charger_bus_voltage_v": 650.0,
        "charger_contact_count": 6,
        "charger_efficiency": 0.98,
        "charger_max_current_a": 2475.0,
        "charger_max_kw": 1500.0,
        "grid_export_kw": 1800.0,
        "grid_import_kw": 1800.0,
        "line": "line-2",
        "pv_nameplate_kw": 300.0,
        "station": "line-2-0535-0309-s002657",
        "storage_capacity_kwh": 1500.0,
        "storage_initial_soc": 0.5,
        "storage_max_charge_kw": 1500.0,
        "storage_max_discharge_kw": 1500.0,
        "storage_module_kwh": 500.0,
        "tier": "interchange"
      },
      "type": "Feature"
    },
    {
      "geometry": {
        "coordinates": [
          30.062827962505136,
          -1.9294313069143
        ],
        "type": "Point"
      },
      "properties": {
        "charger_bus_voltage_v": 650.0,
        "charger_contact_count": 6,
        "charger_efficiency": 0.98,
        "charger_max_current_a": 2475.0,
        "charger_max_kw": 1500.0,
        "grid_export_kw": 1500.0,
        "grid_import_kw": 1500.0,
        "line": "line-2",
        "pv_nameplate_kw": 300.0,
        "station": "line-2-0552-0349-s004013",
        "storage_capacity_kwh": 1500.0,
        "storage_initial_soc": 0.5,
        "storage_max_charge_kw": 1500.0,
        "storage_max_discharge_kw": 1500.0,
        "storage_module_kwh": 500.0,
        "tier": "standard"
      },
      "type": "Feature"
    },
    {
      "geometry": {
        "coordinates": [
          30.076310357892506,
          -1.9342903934060398
        ],
        "type": "Point"
      },
      "properties": {
        "charger_bus_voltage_v": 650.0,
        "charger_contact_count": 6,
        "charger_efficiency": 0.98,
        "charger_max_current_a": 2475.0,
        "charger_max_kw": 1500.0,
        "grid_export_kw": 1500.0,
        "grid_import_kw": 1500.0,
        "line": "line-2",
        "pv_nameplate_kw": 300.0,
        "station": "line-2-0579-0424-s006026",
        "storage_capacity_kwh": 1500.0,
        "storage_initial_soc": 0.5,
        "storage_max_charge_kw": 1500.0,
        "storage_max_discharge_kw": 1500.0,
        "storage_module_kwh": 500.0,
        "tier": "standard"
      },
      "type": "Feature"
    },
    {
      "geometry": {
        "coordinates": [
          30.08907369219255,
          -1.9411291077277473
        ],
        "type": "Point"
      },
      "properties": {
        "charger_bus_voltage_v": 650.0,
        "charger_contact_count": 6,
        "charger_efficiency": 0.98,
        "charger_max_current_a": 2475.0,
        "charger_max_kw": 1500.0,
        "grid_export_kw": 1800.0,
        "grid_import_kw": 1800.0,
        "line": "line-2",
        "pv_nameplate_kw": 300.0,
        "station": "line-2-0617-0495-s007808",
        "storage_capacity_kwh": 1500.0,
        "storage_initial_soc": 0.5,
        "storage_max_charge_kw": 1500.0,
        "storage_max_discharge_kw": 1500.0,
        "storage_module_kwh": 500.0,
        "tier": "major"
      },
      "type": "Feature"
    },
    {
      "geometry": {
        "coordinates": [
          30.1007584348616,
          -1.9364499874023684
        ],
        "type": "Point"
      },
      "properties": {
        "charger_bus_voltage_v": 650.0,
        "charger_contact_count": 6,
        "charger_efficiency": 0.98,
        "charger_max_current_a": 2475.0,
        "charger_max_kw": 1500.0,
        "grid_export_kw": 1800.0,
        "grid_import_kw": 1800.0,
        "line": "line-2",
        "pv_nameplate_kw": 300.0,
        "station": "line-2-0591-0560-s009814",
        "storage_capacity_kwh": 1500.0,
        "storage_initial_soc": 0.5,
        "storage_max_charge_kw": 1500.0,
        "storage_max_discharge_kw": 1500.0,
        "storage_module_kwh": 500.0,
        "tier": "interchange"
      },
      "type": "Feature"
    },
    {
      "geometry": {
        "coordinates": [
          30.10956693318135,
          -1.9459881942194868
        ],
        "type": "Point"
      },
      "properties": {
        "charger_bus_voltage_v": 650.0,
        "charger_contact_count": 6,
        "charger_efficiency": 0.98,
        "charger_max_current_a": 2475.0,
        "charger_max_kw": 1500.0,
        "grid_export_kw": 1800.0,
        "grid_import_kw": 1800.0,
        "line": "line-2",
        "pv_nameplate_kw": 300.0,
        "station": "line-2-0644-0609-s011817",
        "storage_capacity_kwh": 1500.0,
        "storage_initial_soc": 0.5,
        "storage_max_charge_kw": 1500.0,
        "storage_max_discharge_kw": 1500.0,
        "storage_module_kwh": 500.0,
        "tier": "interchange"
      },
      "type": "Feature"
    },
    {
      "geometry": {
        "coordinates": [
          30.121071910578568,
          -1.9432887017240759
        ],
        "type": "Point"
      },
      "properties": {
        "charger_bus_voltage_v": 650.0,
        "charger_contact_count": 6,
        "charger_efficiency": 0.98,
        "charger_max_current_a": 2475.0,
        "charger_max_kw": 1500.0,
        "grid_export_kw": 1800.0,
        "grid_import_kw": 1800.0,
        "line": "line-2",
        "pv_nameplate_kw": 300.0,
        "station": "line-2-0629-0673-s013250",
        "storage_capacity_kwh": 1500.0,
        "storage_initial_soc": 0.5,
        "storage_max_charge_kw": 1500.0,
        "storage_max_discharge_kw": 1500.0,
        "storage_module_kwh": 500.0,
        "tier": "major"
      },
      "type": "Feature"
    },
    {
      "geometry": {
        "coordinates": [
          30.12322909384055,
          -1.948507720548537
        ],
        "type": "Point"
      },
      "properties": {
        "charger_bus_voltage_v": 650.0,
        "charger_contact_count": 6,
        "charger_efficiency": 0.98,
        "charger_max_current_a": 2475.0,
        "charger_max_kw": 1500.0,
        "grid_export_kw": 1800.0,
        "grid_import_kw": 1800.0,
        "line": "line-2",
        "pv_nameplate_kw": 300.0,
        "station": "line-2-0658-0685-s014452",
        "storage_capacity_kwh": 1500.0,
        "storage_initial_soc": 0.5,
        "storage_max_charge_kw": 1500.0,
        "storage_max_discharge_kw": 1500.0,
        "storage_module_kwh": 500.0,
        "tier": "major"
      },
      "type": "Feature"
    },
    {
      "geometry": {
        "coordinates": [
          30.130599469985643,
          -1.949767483713062
        ],
        "type": "Point"
      },
      "properties": {
        "charger_bus_voltage_v": 650.0,
        "charger_contact_count": 6,
        "charger_efficiency": 0.98,
        "charger_max_current_a": 2475.0,
        "charger_max_kw": 1500.0,
        "grid_export_kw": 1800.0,
        "grid_import_kw": 1800.0,
        "line": "line-2",
        "pv_nameplate_kw": 300.0,
        "station": "line-2-0665-0726-s015668",
        "storage_capacity_kwh": 1500.0,
        "storage_initial_soc": 0.5,
        "storage_max_charge_kw": 1500.0,
        "storage_max_discharge_kw": 1500.0,
        "storage_module_kwh": 500.0,
        "tier": "major"
      },
      "type": "Feature"
    },
    {
      "geometry": {
        "coordinates": [
          30.142284212654697,
          -1.9474279235503726
        ],
        "type": "Point"
      },
      "properties": {
        "charger_bus_voltage_v": 650.0,
        "charger_contact_count": 6,
        "charger_efficiency": 0.98,
        "charger_max_current_a": 2475.0,
        "charger_max_kw": 1500.0,
        "grid_export_kw": 1500.0,
        "grid_import_kw": 1500.0,
        "line": "line-2",
        "pv_nameplate_kw": 300.0,
        "station": "line-2-0652-0791-s017689",
        "storage_capacity_kwh": 1500.0,
        "storage_initial_soc": 0.5,
        "storage_max_charge_kw": 1500.0,
        "storage_max_discharge_kw": 1500.0,
        "storage_module_kwh": 500.0,
        "tier": "standard"
      },
      "type": "Feature"
    },
    {
      "geometry": {
        "coordinates": [
          30.151272476246273,
          -1.9366299535687292
        ],
        "type": "Point"
      },
      "properties": {
        "charger_bus_voltage_v": 650.0,
        "charger_contact_count": 6,
        "charger_efficiency": 0.98,
        "charger_max_current_a": 2475.0,
        "charger_max_kw": 1500.0,
        "grid_export_kw": 1800.0,
        "grid_import_kw": 1800.0,
        "line": "line-2",
        "pv_nameplate_kw": 300.0,
        "station": "line-2-0592-0841-s019690",
        "storage_capacity_kwh": 1500.0,
        "storage_initial_soc": 0.5,
        "storage_max_charge_kw": 1500.0,
        "storage_max_discharge_kw": 1500.0,
        "storage_module_kwh": 500.0,
        "tier": "interchange"
      },
      "type": "Feature"
    },
    {
      "geometry": {
        "coordinates": [
          30.155227312226568,
          -1.9366299535687292
        ],
        "type": "Point"
      },
      "properties": {
        "charger_bus_voltage_v": 650.0,
        "charger_contact_count": 6,
        "charger_efficiency": 0.98,
        "charger_max_current_a": 2475.0,
        "charger_max_kw": 1500.0,
        "grid_export_kw": 1800.0,
        "grid_import_kw": 1800.0,
        "line": "line-2",
        "pv_nameplate_kw": 300.0,
        "station": "line-2-0592-0863-s020130",
        "storage_capacity_kwh": 1500.0,
        "storage_initial_soc": 0.5,
        "storage_max_charge_kw": 1500.0,
        "storage_max_discharge_kw": 1500.0,
        "storage_module_kwh": 500.0,
        "tier": "interchange"
      },
      "type": "Feature"
    },
    {
      "geometry": {
        "coordinates": [
          30.163856045274485,
          -1.9440085663895188
        ],
        "type": "Point"
      },
      "properties": {
        "charger_bus_voltage_v": 650.0,
        "charger_contact_count": 6,
        "charger_efficiency": 0.98,
        "charger_max_current_a": 2475.0,
        "charger_max_kw": 1500.0,
        "grid_export_kw": 1800.0,
        "grid_import_kw": 1800.0,
        "line": "line-2",
        "pv_nameplate_kw": 300.0,
        "station": "line-2-0633-0911-s021571",
        "storage_capacity_kwh": 1500.0,
        "storage_initial_soc": 0.5,
        "storage_max_charge_kw": 1500.0,
        "storage_max_discharge_kw": 1500.0,
        "storage_module_kwh": 500.0,
        "tier": "interchange"
      },
      "type": "Feature"
    },
    {
      "geometry": {
        "coordinates": [
          30.173922900497054,
          -1.9461681603858476
        ],
        "type": "Point"
      },
      "properties": {
        "charger_bus_voltage_v": 650.0,
        "charger_contact_count": 6,
        "charger_efficiency": 0.98,
        "charger_max_current_a": 2475.0,
        "charger_max_kw": 1500.0,
        "grid_export_kw": 2400.0,
        "grid_import_kw": 2400.0,
        "line": "line-2",
        "pv_nameplate_kw": 300.0,
        "station": "line-2-0645-0967-s022830",
        "storage_capacity_kwh": 1500.0,
        "storage_initial_soc": 0.6,
        "storage_max_charge_kw": 1500.0,
        "storage_max_discharge_kw": 1500.0,
        "storage_module_kwh": 500.0,
        "tier": "terminal"
      },
      "type": "Feature"
    },
    {
      "geometry": {
        "coordinates": [
          30.088714161648884,
          -2.0154551344347262
        ],
        "type": "Point"
      },
      "properties": {
        "charger_bus_voltage_v": 650.0,
        "charger_contact_count": 6,
        "charger_efficiency": 0.98,
        "charger_max_current_a": 2475.0,
        "charger_max_kw": 1500.0,
        "grid_export_kw": 2400.0,
        "grid_import_kw": 2400.0,
        "line": "line-3",
        "pv_nameplate_kw": 300.0,
        "station": "line-3-1030-0493-s000000",
        "storage_capacity_kwh": 1500.0,
        "storage_initial_soc": 0.6,
        "storage_max_charge_kw": 1500.0,
        "storage_max_discharge_kw": 1500.0,
        "storage_module_kwh": 500.0,
        "tier": "terminal"
      },
      "type": "Feature"
    },
    {
      "geometry": {
        "coordinates": [
          30.09177017127002,
          -2.0014177734585896
        ],
        "type": "Point"
      },
      "properties": {
        "charger_bus_voltage_v": 650.0,
        "charger_contact_count": 6,
        "charger_efficiency": 0.98,
        "charger_max_current_a": 2475.0,
        "charger_max_kw": 1500.0,
        "grid_export_kw": 1500.0,
        "grid_import_kw": 1500.0,
        "line": "line-3",
        "pv_nameplate_kw": 300.0,
        "station": "line-3-0952-0510-s002016",
        "storage_capacity_kwh": 1500.0,
        "storage_initial_soc": 0.5,
        "storage_max_charge_kw": 1500.0,
        "storage_max_discharge_kw": 1500.0,
        "storage_module_kwh": 500.0,
        "tier": "standard"
      },
      "type": "Feature"
    },
    {
      "geometry": {
        "coordinates": [
          30.10093820013343,
          -1.9886401756469785
        ],
        "type": "Point"
      },
      "properties": {
        "charger_bus_voltage_v": 650.0,
        "charger_contact_count": 6,
        "charger_efficiency": 0.98,
        "charger_max_current_a": 2475.0,
        "charger_max_kw": 1500.0,
        "grid_export_kw": 1500.0,
        "grid_import_kw": 1500.0,
        "line": "line-3",
        "pv_nameplate_kw": 300.0,
        "station": "line-3-0881-0561-s004034",
        "storage_capacity_kwh": 1500.0,
        "storage_initial_soc": 0.5,
        "storage_max_charge_kw": 1500.0,
        "storage_max_discharge_kw": 1500.0,
        "storage_module_kwh": 500.0,
        "tier": "standard"
      },
      "type": "Feature"
    },
    {
      "geometry": {
        "coordinates": [
          30.09716312942497,
          -1.9751427131699242
        ],
        "type": "Point"
      },
      "properties": {
        "charger_bus_voltage_v": 650.0,
        "charger_contact_count": 6,
        "charger_efficiency": 0.98,
        "charger_max_current_a": 2475.0,
        "charger_max_kw": 1500.0,
        "grid_export_kw": 1800.0,
        "grid_import_kw": 1800.0,
        "line": "line-3",
        "pv_nameplate_kw": 300.0,
        "station": "line-3-0806-0540-s005909",
        "storage_capacity_kwh": 1500.0,
        "storage_initial_soc": 0.5,
        "storage_max_charge_kw": 1500.0,
        "storage_max_discharge_kw": 1500.0,
        "storage_module_kwh": 500.0,
        "tier": "interchange"
      },
      "type": "Feature"
    },
    {
      "geometry": {
        "coordinates": [
          30.094107119803834,
          -1.9681240326818559
        ],
        "type": "Point"
      },
      "properties": {
        "charger_bus_voltage_v": 650.0,
        "charger_contact_count": 6,
        "charger_efficiency": 0.98,
        "charger_max_current_a": 2475.0,
        "charger_max_kw": 1500.0,
        "grid_export_kw": 1800.0,
        "grid_import_kw": 1800.0,
        "line": "line-3",
        "pv_nameplate_kw": 300.0,
        "station": "line-3-0767-0523-s006876",
        "storage_capacity_kwh": 1500.0,
        "storage_initial_soc": 0.5,
        "storage_max_charge_kw": 1500.0,
        "storage_max_discharge_kw": 1500.0,
        "storage_module_kwh": 500.0,
        "tier": "interchange"
      },
      "type": "Feature"
    },
    {
      "geometry": {
        "coordinates": [
          30.094107119803834,
          -1.964704675521002
        ],
        "type": "Point"
      },
      "properties": {
        "charger_bus_voltage_v": 650.0,
        "charger_contact_count": 6,
        "charger_efficiency": 0.98,
        "charger_max_current_a": 2475.0,
        "charger_max_kw": 1500.0,
        "grid_export_kw": 1800.0,
        "grid_import_kw": 1800.0,
        "line": "line-3",
        "pv_nameplate_kw": 300.0,
        "station": "line-3-0748-0523-s007273",
        "storage_capacity_kwh": 1500.0,
        "storage_initial_soc": 0.5,
        "storage_max_charge_kw": 1500.0,
        "storage_max_discharge_kw": 1500.0,
        "storage_module_kwh": 500.0,
        "tier": "interchange"
      },
      "type": "Feature"
    },
    {
      "geometry": {
        "coordinates": [
          30.09177017127002,
          -1.9618252168592305
        ],
        "type": "Point"
      },
      "properties": {
        "charger_bus_voltage_v": 650.0,
        "charger_contact_count": 6,
        "charger_efficiency": 0.98,
        "charger_max_current_a": 2475.0,
        "charger_max_kw": 1500.0,
        "grid_export_kw": 1800.0,
        "grid_import_kw": 1800.0,
        "line": "line-3",
        "pv_nameplate_kw": 300.0,
        "station": "line-3-0732-0510-s007759",
        "storage_capacity_kwh": 1500.0,
        "storage_initial_soc": 0.5,
        "storage_max_charge_kw": 1500.0,
        "storage_max_discharge_kw": 1500.0,
        "storage_module_kwh": 500.0,
        "tier": "interchange"
      },
      "type": "Feature"
    },
    {
      "geometry": {
        "coordinates": [
          30.102376322308086,
          -1.952466976208473
        ],
        "type": "Point"
      },
      "properties": {
        "charger_bus_voltage_v": 650.0,
        "charger_contact_count": 6,
        "charger_efficiency": 0.98,
        "charger_max_current_a": 2475.0,
        "charger_max_kw": 1500.0,
        "grid_export_kw": 1800.0,
        "grid_import_kw": 1800.0,
        "line": "line-3",
        "pv_nameplate_kw": 300.0,
        "station": "line-3-0680-0569-s009851",
        "storage_capacity_kwh": 1500.0,
        "storage_initial_soc": 0.5,
        "storage_max_charge_kw": 1500.0,
        "storage_max_discharge_kw": 1500.0,
        "storage_module_kwh": 500.0,
        "tier": "major"
      },
      "type": "Feature"
    },
    {
      "geometry": {
        "coordinates": [
          30.09985960850244,
          -1.938069682899615
        ],
        "type": "Point"
      },
      "properties": {
        "charger_bus_voltage_v": 650.0,
        "charger_contact_count": 6,
        "charger_efficiency": 0.98,
        "charger_max_current_a": 2475.0,
        "charger_max_kw": 1500.0,
        "grid_export_kw": 1800.0,
        "grid_import_kw": 1800.0,
        "line": "line-3",
        "pv_nameplate_kw": 300.0,
        "station": "line-3-0600-0555-s011863",
        "storage_capacity_kwh": 1500.0,
        "storage_initial_soc": 0.5,
        "storage_max_charge_kw": 1500.0,
        "storage_max_discharge_kw": 1500.0,
        "storage_module_kwh": 500.0,
        "tier": "interchange"
      },
      "type": "Feature"
    },
    {
      "geometry": {
        "coordinates": [
          30.09608453779398,
          -1.9234924234243962
        ],
        "type": "Point"
      },
      "properties": {
        "charger_bus_voltage_v": 650.0,
        "charger_contact_count": 6,
        "charger_efficiency": 0.98,
        "charger_max_current_a": 2475.0,
        "charger_max_kw": 1500.0,
        "grid_export_kw": 1500.0,
        "grid_import_kw": 1500.0,
        "line": "line-3",
        "pv_nameplate_kw": 300.0,
        "station": "line-3-0519-0534-s013879",
        "storage_capacity_kwh": 1500.0,
        "storage_initial_soc": 0.5,
        "storage_max_charge_kw": 1500.0,
        "storage_max_discharge_kw": 1500.0,
        "storage_module_kwh": 500.0,
        "tier": "standard"
      },
      "type": "Feature"
    },
    {
      "geometry": {
        "coordinates": [
          30.08925345746438,
          -1.9103548932800634
        ],
        "type": "Point"
      },
      "properties": {
        "charger_bus_voltage_v": 650.0,
        "charger_contact_count": 6,
        "charger_efficiency": 0.98,
        "charger_max_current_a": 2475.0,
        "charger_max_kw": 1500.0,
        "grid_export_kw": 1500.0,
        "grid_import_kw": 1500.0,
        "line": "line-3",
        "pv_nameplate_kw": 300.0,
        "station": "line-3-0446-0496-s015898",
        "storage_capacity_kwh": 1500.0,
        "storage_initial_soc": 0.5,
        "storage_max_charge_kw": 1500.0,
        "storage_max_discharge_kw": 1500.0,
        "storage_module_kwh": 500.0,
        "tier": "standard"
      },
      "type": "Feature"
    },
    {
      "geometry": {
        "coordinates": [
          30.097702425240463,
          -1.9018964834611094
        ],
        "type": "Point"
      },
      "properties": {
        "charger_bus_voltage_v": 650.0,
        "charger_contact_count": 6,
        "charger_efficiency": 0.98,
        "charger_max_current_a": 2475.0,
        "charger_max_kw": 1500.0,
        "grid_export_kw": 1500.0,
        "grid_import_kw": 1500.0,
        "line": "line-3",
        "pv_nameplate_kw": 300.0,
        "station": "line-3-0399-0543-s017228",
        "storage_capacity_kwh": 1500.0,
        "storage_initial_soc": 0.5,
        "storage_max_charge_kw": 1500.0,
        "storage_max_discharge_kw": 1500.0,
        "storage_module_kwh": 500.0,
        "tier": "standard"
      },
      "type": "Feature"
    },
    {
      "geometry": {
        "coordinates": [
          30.10093820013343,
          -1.8914584458121875
        ],
        "type": "Point"
      },
      "properties": {
        "charger_bus_voltage_v": 650.0,
        "charger_contact_count": 6,
        "charger_efficiency": 0.98,
        "charger_max_current_a": 2475.0,
        "charger_max_kw": 1500.0,
        "grid_export_kw": 2400.0,
        "grid_import_kw": 2400.0,
        "line": "line-3",
        "pv_nameplate_kw": 300.0,
        "station": "line-3-0341-0561-s018537",
        "storage_capacity_kwh": 1500.0,
        "storage_initial_soc": 0.6,
        "storage_max_charge_kw": 1500.0,
        "storage_max_discharge_kw": 1500.0,
        "storage_module_kwh": 500.0,
        "tier": "terminal"
      },
      "type": "Feature"
    },
    {
      "geometry": {
        "coordinates": [
          30.153609424780086,
          -1.8597844005327
        ],
        "type": "Point"
      },
      "properties": {
        "charger_bus_voltage_v": 650.0,
        "charger_contact_count": 6,
        "charger_efficiency": 0.98,
        "charger_max_current_a": 2475.0,
        "charger_max_kw": 1500.0,
        "grid_export_kw": 2400.0,
        "grid_import_kw": 2400.0,
        "line": "line-4",
        "pv_nameplate_kw": 300.0,
        "station": "line-4-0165-0854-s000000",
        "storage_capacity_kwh": 1500.0,
        "storage_initial_soc": 0.6,
        "storage_max_charge_kw": 1500.0,
        "storage_max_discharge_kw": 1500.0,
        "storage_module_kwh": 500.0,
        "tier": "terminal"
      },
      "type": "Feature"
    },
    {
      "geometry": {
        "coordinates": [
          30.149115292984295,
          -1.8824601374941512
        ],
        "type": "Point"
      },
      "properties": {
        "charger_bus_voltage_v": 650.0,
        "charger_contact_count": 6,
        "charger_efficiency": 0.98,
        "charger_max_current_a": 2475.0,
        "charger_max_kw": 1500.0,
        "grid_export_kw": 1500.0,
        "grid_import_kw": 1500.0,
        "line": "line-4",
        "pv_nameplate_kw": 300.0,
        "station": "line-4-0291-0829-s002727",
        "storage_capacity_kwh": 1500.0,
        "storage_initial_soc": 0.5,
        "storage_max_charge_kw": 1500.0,
        "storage_max_discharge_kw": 1500.0,
        "storage_module_kwh": 500.0,
        "tier": "standard"
      },
      "type": "Feature"
    },
    {
      "geometry": {
        "coordinates": [
          30.143542569557518,
          -1.891098513479466
        ],
        "type": "Point"
      },
      "properties": {
        "charger_bus_voltage_v": 650.0,
        "charger_contact_count": 6,
        "charger_efficiency": 0.98,
        "charger_max_current_a": 2475.0,
        "charger_max_kw": 1500.0,
        "grid_export_kw": 1800.0,
        "grid_import_kw": 1800.0,
        "line": "line-4",
        "pv_nameplate_kw": 300.0,
        "station": "line-4-0339-0798-s003944",
        "storage_capacity_kwh": 1500.0,
        "storage_initial_soc": 0.5,
        "storage_max_charge_kw": 1500.0,
        "storage_max_discharge_kw": 1500.0,
        "storage_module_kwh": 500.0,
        "tier": "interchange"
      },
      "type": "Feature"
    },
    {
      "geometry": {
        "coordinates": [
          30.13707101977158,
          -1.8991969909656985
        ],
        "type": "Point"
      },
      "properties": {
        "charger_bus_voltage_v": 650.0,
        "charger_contact_count": 6,
        "charger_efficiency": 0.98,
        "charger_max_current_a": 2475.0,
        "charger_max_kw": 1500.0,
        "grid_export_kw": 1500.0,
        "grid_import_kw": 1500.0,
        "line": "line-4",
        "pv_nameplate_kw": 300.0,
        "station": "line-4-0384-0762-s005344",
        "storage_capacity_kwh": 1500.0,
        "storage_initial_soc": 0.5,
        "storage_max_charge_kw": 1500.0,
        "storage_max_discharge_kw": 1500.0,
        "storage_module_kwh": 500.0,
        "tier": "standard"
      },
      "type": "Feature"
    },
    {
      "geometry": {
        "coordinates": [
          30.128262521451834,
          -1.9058557391210453
        ],
        "type": "Point"
      },
      "properties": {
        "charger_bus_voltage_v": 650.0,
        "charger_contact_count": 6,
        "charger_efficiency": 0.98,
        "charger_max_current_a": 2475.0,
        "charger_max_kw": 1500.0,
        "grid_export_kw": 1500.0,
        "grid_import_kw": 1500.0,
        "line": "line-4",
        "pv_nameplate_kw": 300.0,
        "station": "line-4-0421-0713-s006741",
        "storage_capacity_kwh": 1500.0,
        "storage_initial_soc": 0.5,
        "storage_max_charge_kw": 1500.0,
        "storage_max_discharge_kw": 1500.0,
        "storage_module_kwh": 500.0,
        "tier": "standard"
      },
      "type": "Feature"
    },
    {
      "geometry": {
        "coordinates": [
          30.120352849491244,
          -1.9179134722672138
        ],
        "type": "Point"
      },
      "properties": {
        "charger_bus_voltage_v": 650.0,
        "charger_contact_count": 6,
        "charger_efficiency": 0.98,
        "charger_max_current_a": 2475.0,
        "charger_max_kw": 1500.0,
        "grid_export_kw": 1500.0,
        "grid_import_kw": 1500.0,
        "line": "line-4",
        "pv_nameplate_kw": 300.0,
        "station": "line-4-0488-0669-s008761",
        "storage_capacity_kwh": 1500.0,
        "storage_initial_soc": 0.5,
        "storage_max_charge_kw": 1500.0,
        "storage_max_discharge_kw": 1500.0,
        "storage_module_kwh": 500.0,
        "tier": "standard"
      },
      "type": "Feature"
    },
    {
      "geometry": {
        "coordinates": [
          30.111184820627834,
          -1.9225925925925926
        ],
        "type": "Point"
      },
      "properties": {
        "charger_bus_voltage_v": 650.0,
        "charger_contact_count": 6,
        "charger_efficiency": 0.98,
        "charger_max_current_a": 2475.0,
        "charger_max_kw": 1500.0,
        "grid_export_kw": 1500.0,
        "grid_import_kw": 1500.0,
        "line": "line-4",
        "pv_nameplate_kw": 300.0,
        "station": "line-4-0514-0618-s010764",
        "storage_capacity_kwh": 1500.0,
        "storage_initial_soc": 0.5,
        "storage_max_charge_kw": 1500.0,
        "storage_max_discharge_kw": 1500.0,
        "storage_module_kwh": 500.0,
        "tier": "standard"
      },
      "type": "Feature"
    },
    {
      "geometry": {
        "coordinates": [
          30.103454913939075,
          -1.9339304610733183
        ],
        "type": "Point"
      },
      "properties": {
        "charger_bus_voltage_v": 650.0,
        "charger_contact_count": 6,
        "charger_efficiency": 0.98,
        "charger_max_current_a": 2475.0,
        "charger_max_kw": 1500.0,
        "grid_export_kw": 1800.0,
        "grid_import_kw": 1800.0,
        "line": "line-4",
        "pv_nameplate_kw": 300.0,
        "station": "line-4-0577-0575-s012781",
        "storage_capacity_kwh": 1500.0,
        "storage_initial_soc": 0.5,
        "storage_max_charge_kw": 1500.0,
        "storage_max_discharge_kw": 1500.0,
        "storage_module_kwh": 500.0,
        "tier": "interchange"
      },
      "type": "Feature"
    },
    {
      "geometry": {
        "coordinates": [
          30.094646415619327,
          -1.9420289385595508
        ],
        "type": "Point"
      },
      "properties": {
        "charger_bus_voltage_v": 650.0,
        "charger_contact_count": 6,
        "charger_efficiency": 0.98,
        "charger_max_current_a": 2475.0,
        "charger_max_kw": 1500.0,
        "grid_export_kw": 1800.0,
        "grid_import_kw": 1800.0,
        "line": "line-4",
        "pv_nameplate_kw": 300.0,
        "station": "line-4-0622-0526-s014232",
        "storage_capacity_kwh": 1500.0,
        "storage_initial_soc": 0.5,
        "storage_max_charge_kw": 1500.0,
        "storage_max_discharge_kw": 1500.0,
        "storage_module_kwh": 500.0,
        "tier": "major"
      },
      "type": "Feature"
    },
    {
      "geometry": {
        "coordinates": [
          30.092489232357348,
          -1.951027246877587
        ],
        "type": "Point"
      },
      "properties": {
        "charger_bus_voltage_v": 650.0,
        "charger_contact_count": 6,
        "charger_efficiency": 0.98,
        "charger_max_current_a": 2475.0,
        "charger_max_kw": 1500.0,
        "grid_export_kw": 1800.0,
        "grid_import_kw": 1800.0,
        "line": "line-4",
        "pv_nameplate_kw": 300.0,
        "station": "line-4-0672-0514-s015448",
        "storage_capacity_kwh": 1500.0,
        "storage_initial_soc": 0.5,
        "storage_max_charge_kw": 1500.0,
        "storage_max_discharge_kw": 1500.0,
        "storage_module_kwh": 500.0,
        "tier": "major"
      },
      "type": "Feature"
    },
    {
      "geometry": {
        "coordinates": [
          30.078287775882654,
          -1.953006874707555
        ],
        "type": "Point"
      },
      "properties": {
        "charger_bus_voltage_v": 650.0,
        "charger_contact_count": 6,
        "charger_efficiency": 0.98,
        "charger_max_current_a": 2475.0,
        "charger_max_kw": 1500.0,
        "grid_export_kw": 1800.0,
        "grid_import_kw": 1800.0,
        "line": "line-4",
        "pv_nameplate_kw": 300.0,
        "station": "line-4-0683-0435-s017464",
        "storage_capacity_kwh": 1500.0,
        "storage_initial_soc": 0.5,
        "storage_max_charge_kw": 1500.0,
        "storage_max_discharge_kw": 1500.0,
        "storage_module_kwh": 500.0,
        "tier": "interchange"
      },
      "type": "Feature"
    },
    {
      "geometry": {
        "coordinates": [
          30.074153174630528,
          -1.9560662995356874
        ],
        "type": "Point"
      },
      "properties": {
        "charger_bus_voltage_v": 650.0,
        "charger_contact_count": 6,
        "charger_efficiency": 0.98,
        "charger_max_current_a": 2475.0,
        "charger_max_kw": 1500.0,
        "grid_export_kw": 1800.0,
        "grid_import_kw": 1800.0,
        "line": "line-4",
        "pv_nameplate_kw": 300.0,
        "station": "line-4-0700-0412-s018065",
        "storage_capacity_kwh": 1500.0,
        "storage_initial_soc": 0.5,
        "storage_max_charge_kw": 1500.0,
        "storage_max_discharge_kw": 1500.0,
        "storage_module_kwh": 500.0,
        "tier": "interchange"
      },
      "type": "Feature"
    },
    {
      "geometry": {
        "coordinates": [
          30.068939981747413,
          -1.966144404851888
        ],
        "type": "Point"
      },
      "properties": {
        "charger_bus_voltage_v": 650.0,
        "charger_contact_count": 6,
        "charger_efficiency": 0.98,
        "charger_max_current_a": 2475.0,
        "charger_max_kw": 1500.0,
        "grid_export_kw": 1500.0,
        "grid_import_kw": 1500.0,
        "line": "line-4",
        "pv_nameplate_kw": 300.0,
        "station": "line-4-0756-0383-s019472",
        "storage_capacity_kwh": 1500.0,
        "storage_initial_soc": 0.5,
        "storage_max_charge_kw": 1500.0,
        "storage_max_discharge_kw": 1500.0,
        "storage_module_kwh": 500.0,
        "tier": "standard"
      },
      "type": "Feature"
    },
    {
      "geometry": {
        "coordinates": [
          30.06192913614598,
          -1.9783821041644172
        ],
        "type": "Point"
      },
      "properties": {
        "charger_bus_voltage_v": 650.0,
        "charger_contact_count": 6,
        "charger_efficiency": 0.98,
        "charger_max_current_a": 2475.0,
        "charger_max_kw": 1500.0,
        "grid_export_kw": 1500.0,
        "grid_import_kw": 1500.0,
        "line": "line-4",
        "pv_nameplate_kw": 300.0,
        "station": "line-4-0824-0344-s021495",
        "storage_capacity_kwh": 1500.0,
        "storage_initial_soc": 0.5,
        "storage_max_charge_kw": 1500.0,
        "storage_max_discharge_kw": 1500.0,
        "storage_module_kwh": 500.0,
        "tier": "standard"
      },
      "type": "Feature"
    },
    {
      "geometry": {
        "coordinates": [
          30.05491829054455,
          -1.9868405139833711
        ],
        "type": "Point"
      },
      "properties": {
        "charger_bus_voltage_v": 650.0,
        "charger_contact_count": 6,
        "charger_efficiency": 0.98,
        "charger_max_current_a": 2475.0,
        "charger_max_kw": 1500.0,
        "grid_export_kw": 1500.0,
        "grid_import_kw": 1500.0,
        "line": "line-4",
        "pv_nameplate_kw": 300.0,
        "station": "line-4-0871-0305-s022828",
        "storage_capacity_kwh": 1500.0,
        "storage_initial_soc": 0.5,
        "storage_max_charge_kw": 1500.0,
        "storage_max_discharge_kw": 1500.0,
        "storage_module_kwh": 500.0,
        "tier": "standard"
      },
      "type": "Feature"
    },
    {
      "geometry": {
        "coordinates": [
          30.052581342010736,
          -1.9945790591368824
        ],
        "type": "Point"
      },
      "properties": {
        "charger_bus_voltage_v": 650.0,
        "charger_contact_count": 6,
        "charger_efficiency": 0.98,
        "charger_max_current_a": 2475.0,
        "charger_max_kw": 1500.0,
        "grid_export_kw": 2400.0,
        "grid_import_kw": 2400.0,
        "line": "line-4",
        "pv_nameplate_kw": 300.0,
        "station": "line-4-0914-0292-s024190",
        "storage_capacity_kwh": 1500.0,
        "storage_initial_soc": 0.6,
        "storage_max_charge_kw": 1500.0,
        "storage_max_discharge_kw": 1500.0,
        "storage_module_kwh": 500.0,
        "tier": "terminal"
      },
      "type": "Feature"
    },
    {
      "geometry": {
        "coordinates": [
          30.044491904778315,
          -1.866263182521686
        ],
        "type": "Point"
      },
      "properties": {
        "charger_bus_voltage_v": 650.0,
        "charger_contact_count": 6,
        "charger_efficiency": 0.98,
        "charger_max_current_a": 2475.0,
        "charger_max_kw": 1500.0,
        "grid_export_kw": 2400.0,
        "grid_import_kw": 2400.0,
        "line": "line-5",
        "pv_nameplate_kw": 300.0,
        "station": "line-5-0201-0247-s000000",
        "storage_capacity_kwh": 1500.0,
        "storage_initial_soc": 0.6,
        "storage_max_charge_kw": 1500.0,
        "storage_max_discharge_kw": 1500.0,
        "storage_module_kwh": 500.0,
        "tier": "terminal"
      },
      "type": "Feature"
    },
    {
      "geometry": {
        "coordinates": [
          30.07559129680518,
          -1.898837058632977
        ],
        "type": "Point"
      },
      "properties": {
        "charger_bus_voltage_v": 650.0,
        "charger_contact_count": 6,
        "charger_efficiency": 0.98,
        "charger_max_current_a": 2475.0,
        "charger_max_kw": 1500.0,
        "grid_export_kw": 1800.0,
        "grid_import_kw": 1800.0,
        "line": "line-5",
        "pv_nameplate_kw": 300.0,
        "station": "line-5-0382-0420-s006929",
        "storage_capacity_kwh": 1500.0,
        "storage_initial_soc": 0.5,
        "storage_max_charge_kw": 1500.0,
        "storage_max_discharge_kw": 1500.0,
        "storage_module_kwh": 500.0,
        "tier": "interchange"
      },
      "type": "Feature"
    },
    {
      "geometry": {
        "coordinates": [
          30.078827071698147,
          -1.9101749271137027
        ],
        "type": "Point"
      },
      "properties": {
        "charger_bus_voltage_v": 650.0,
        "charger_contact_count": 6,
        "charger_efficiency": 0.98,
        "charger_max_current_a": 2475.0,
        "charger_max_kw": 1500.0,
        "grid_export_kw": 1500.0,
        "grid_import_kw": 1500.0,
        "line": "line-5",
        "pv_nameplate_kw": 300.0,
        "station": "line-5-0445-0438-s008477",
        "storage_capacity_kwh": 1500.0,
        "storage_initial_soc": 0.5,
        "storage_max_charge_kw": 1500.0,
        "storage_max_discharge_kw": 1500.0,
        "storage_module_kwh": 500.0,
        "tier": "standard"
      },
      "type": "Feature"
    },
    {
      "geometry": {
        "coordinates": [
          30.085118856212254,
          -1.920432998596264
        ],
        "type": "Point"
      },
      "properties": {
        "charger_bus_voltage_v": 650.0,
        "charger_contact_count": 6,
        "charger_efficiency": 0.98,
        "charger_max_current_a": 2475.0,
        "charger_max_kw": 1500.0,
        "grid_export_kw": 1500.0,
        "grid_import_kw": 1500.0,
        "line": "line-5",
        "pv_nameplate_kw": 300.0,
        "station": "line-5-0502-0473-s010039",
        "storage_capacity_kwh": 1500.0,
        "storage_initial_soc": 0.5,
        "storage_max_charge_kw": 1500.0,
        "storage_max_discharge_kw": 1500.0,
        "storage_module_kwh": 500.0,
        "tier": "standard"
      },
      "type": "Feature"
    },
    {
      "geometry": {
        "coordinates": [
          30.095725007250316,
          -1.9310510024115466
        ],
        "type": "Point"
      },
      "properties": {
        "charger_bus_voltage_v": 650.0,
        "charger_contact_count": 6,
        "charger_efficiency": 0.98,
        "charger_max_current_a": 2475.0,
        "charger_max_kw": 1500.0,
        "grid_export_kw": 1500.0,
        "grid_import_kw": 1500.0,
        "line": "line-5",
        "pv_nameplate_kw": 300.0,
        "station": "line-5-0561-0532-s012043",
        "storage_capacity_kwh": 1500.0,
        "storage_initial_soc": 0.5,
        "storage_max_charge_kw": 1500.0,
        "storage_max_discharge_kw": 1500.0,
        "storage_module_kwh": 500.0,
        "tier": "standard"
      },
      "type": "Feature"
    },
    {
      "geometry": {
        "coordinates": [
          30.103994209754568,
          -1.9452683295540438
        ],
        "type": "Point"
      },
      "properties": {
        "charger_bus_voltage_v": 650.0,
        "charger_contact_count": 6,
        "charger_efficiency": 0.98,
        "charger_max_current_a": 2475.0,
        "charger_max_kw": 1500.0,
        "grid_export_kw": 1500.0,
        "grid_import_kw": 1500.0,
        "line": "line-5",
        "pv_nameplate_kw": 300.0,
        "station": "line-5-0640-0578-s014051",
        "storage_capacity_kwh": 1500.0,
        "storage_initial_soc": 0.5,
        "storage_max_charge_kw": 1500.0,
        "storage_max_discharge_kw": 1500.0,
        "storage_module_kwh": 500.0,
        "tier": "standard"
      },
      "type": "Feature"
    },
    {
      "geometry": {
        "coordinates": [
          30.111544351171496,
          -1.9503073822121442
        ],
        "type": "Point"
      },
      "properties": {
        "charger_bus_voltage_v": 650.0,
        "charger_contact_count": 6,
        "charger_efficiency": 0.98,
        "charger_max_current_a": 2475.0,
        "charger_max_kw": 1500.0,
        "grid_export_kw": 1800.0,
        "grid_import_kw": 1800.0,
        "line": "line-5",
        "pv_nameplate_kw": 300.0,
        "station": "line-5-0668-0620-s015267",
        "storage_capacity_kwh": 1500.0,
        "storage_initial_soc": 0.5,
        "storage_max_charge_kw": 1500.0,
        "storage_max_discharge_kw": 1500.0,
        "storage_module_kwh": 500.0,
        "tier": "interchange"
      },
      "type": "Feature"
    },
    {
      "geometry": {
        "coordinates": [
          30.111724116443327,
          -1.956966130367491
        ],
        "type": "Point"
      },
      "properties": {
        "charger_bus_voltage_v": 650.0,
        "charger_contact_count": 6,
        "charger_efficiency": 0.98,
        "charger_max_current_a": 2475.0,
        "charger_max_kw": 1500.0,
        "grid_export_kw": 1800.0,
        "grid_import_kw": 1800.0,
        "line": "line-5",
        "pv_nameplate_kw": 300.0,
        "station": "line-5-0705-0621-s016470",
        "storage_capacity_kwh": 1500.0,
        "storage_initial_soc": 0.5,
        "storage_max_charge_kw": 1500.0,
        "storage_max_discharge_kw": 1500.0,
        "storage_module_kwh": 500.0,
        "tier": "interchange"
      },
      "type": "Feature"
    },
    {
      "geometry": {
        "coordinates": [
          30.112802708074316,
          -1.964704675521002
        ],
        "type": "Point"
      },
      "properties": {
        "charger_bus_voltage_v": 650.0,
        "charger_contact_count": 6,
        "charger_efficiency": 0.98,
        "charger_max_current_a": 2475.0,
        "charger_max_kw": 1500.0,
        "grid_export_kw": 1800.0,
        "grid_import_kw": 1800.0,
        "line": "line-5",
        "pv_nameplate_kw": 300.0,
        "station": "line-5-0748-0627-s017675",
        "storage_capacity_kwh": 1500.0,
        "storage_initial_soc": 0.5,
        "storage_max_charge_kw": 1500.0,
        "storage_max_discharge_kw": 1500.0,
        "storage_module_kwh": 500.0,
        "tier": "interchange"
      },
      "type": "Feature"
    },
    {
      "geometry": {
        "coordinates": [
          30.121970736937726,
          -1.9773023071662528
        ],
        "type": "Point"
      },
      "properties": {
        "charger_bus_voltage_v": 650.0,
        "charger_contact_count": 6,
        "charger_efficiency": 0.98,
        "charger_max_current_a": 2475.0,
        "charger_max_kw": 1500.0,
        "grid_export_kw": 1500.0,
        "grid_import_kw": 1500.0,
        "line": "line-5",
        "pv_nameplate_kw": 300.0,
        "station": "line-5-0818-0678-s019700",
        "storage_capacity_kwh": 1500.0,
        "storage_initial_soc": 0.5,
        "storage_max_charge_kw": 1500.0,
        "storage_max_discharge_kw": 1500.0,
        "storage_module_kwh": 500.0,
        "tier": "standard"
      },
      "type": "Feature"
    },
    {
      "geometry": {
        "coordinates": [
          30.132037592160295,
          -1.9893600403124214
        ],
        "type": "Point"
      },
      "properties": {
        "charger_bus_voltage_v": 650.0,
        "charger_contact_count": 6,
        "charger_efficiency": 0.98,
        "charger_max_current_a": 2475.0,
        "charger_max_kw": 1500.0,
        "grid_export_kw": 1500.0,
        "grid_import_kw": 1500.0,
        "line": "line-5",
        "pv_nameplate_kw": 300.0,
        "station": "line-5-0885-0734-s021701",
        "storage_capacity_kwh": 1500.0,
        "storage_initial_soc": 0.5,
        "storage_max_charge_kw": 1500.0,
        "storage_max_discharge_kw": 1500.0,
        "storage_module_kwh": 500.0,
        "tier": "standard"
      },
      "type": "Feature"
    },
    {
      "geometry": {
        "coordinates": [
          30.14048655993638,
          -1.992779397473275
        ],
        "type": "Point"
      },
      "properties": {
        "charger_bus_voltage_v": 650.0,
        "charger_contact_count": 6,
        "charger_efficiency": 0.98,
        "charger_max_current_a": 2475.0,
        "charger_max_kw": 1500.0,
        "grid_export_kw": 1500.0,
        "grid_import_kw": 1500.0,
        "line": "line-5",
        "pv_nameplate_kw": 300.0,
        "station": "line-5-0904-0781-s023305",
        "storage_capacity_kwh": 1500.0,
        "storage_initial_soc": 0.5,
        "storage_max_charge_kw": 1500.0,
        "storage_max_discharge_kw": 1500.0,
        "storage_module_kwh": 500.0,
        "tier": "standard"
      },
      "type": "Feature"
    },
    {
      "geometry": {
        "coordinates": [
          30.14965458879979,
          -1.9988982471295398
        ],
        "type": "Point"
      },
      "properties": {
        "charger_bus_voltage_v": 650.0,
        "charger_contact_count": 6,
        "charger_efficiency": 0.98,
        "charger_max_current_a": 2475.0,
        "charger_max_kw": 1500.0,
        "grid_export_kw": 2400.0,
        "grid_import_kw": 2400.0,
        "line": "line-5",
        "pv_nameplate_kw": 300.0,
        "station": "line-5-0938-0832-s024924",
        "storage_capacity_kwh": 1500.0,
        "storage_initial_soc": 0.6,
        "storage_max_charge_kw": 1500.0,
        "storage_max_discharge_kw": 1500.0,
        "storage_module_kwh": 500.0,
        "tier": "terminal"
      },
      "type": "Feature"
    },
    {
      "geometry": {
        "coordinates": [
          30.056895708534697,
          -1.9213328294280676
        ],
        "type": "Point"
      },
      "properties": {
        "charger_bus_voltage_v": 650.0,
        "charger_contact_count": 6,
        "charger_efficiency": 0.98,
        "charger_max_current_a": 2475.0,
        "charger_max_kw": 1500.0,
        "grid_export_kw": 1800.0,
        "grid_import_kw": 1800.0,
        "line": "line-6",
        "pv_nameplate_kw": 300.0,
        "station": "line-6-0507-0316-s000000",
        "storage_capacity_kwh": 1500.0,
        "storage_initial_soc": 0.5,
        "storage_max_charge_kw": 1500.0,
        "storage_max_discharge_kw": 1500.0,
        "storage_module_kwh": 500.0,
        "tier": "interchange"
      },
      "type": "Feature"
    },
    {
      "geometry": {
        "coordinates": [
          30.065883972126276,
          -1.9123345211100313
        ],
        "type": "Point"
      },
      "properties": {
        "charger_bus_voltage_v": 650.0,
        "charger_contact_count": 6,
        "charger_efficiency": 0.98,
        "charger_max_current_a": 2475.0,
        "charger_max_kw": 1500.0,
        "grid_export_kw": 1500.0,
        "grid_import_kw": 1500.0,
        "line": "line-6",
        "pv_nameplate_kw": 300.0,
        "station": "line-6-0457-0366-s002013",
        "storage_capacity_kwh": 1500.0,
        "storage_initial_soc": 0.5,
        "storage_max_charge_kw": 1500.0,
        "storage_max_discharge_kw": 1500.0,
        "storage_module_kwh": 500.0,
        "tier": "standard"
      },
      "type": "Feature"
    },
    {
      "geometry": {
        "coordinates": [
          30.07559129680518,
          -1.898837058632977
        ],
        "type": "Point"
      },
      "properties": {
        "charger_bus_voltage_v": 650.0,
        "charger_contact_count": 6,
        "charger_efficiency": 0.98,
        "charger_max_current_a": 2475.0,
        "charger_max_kw": 1500.0,
        "grid_export_kw": 1800.0,
        "grid_import_kw": 1800.0,
        "line": "line-6",
        "pv_nameplate_kw": 300.0,
        "station": "line-6-0382-0420-s004093",
        "storage_capacity_kwh": 1500.0,
        "storage_initial_soc": 0.5,
        "storage_max_charge_kw": 1500.0,
        "storage_max_discharge_kw": 1500.0,
        "storage_module_kwh": 500.0,
        "tier": "interchange"
      },
      "type": "Feature"
    },
    {
      "geometry": {
        "coordinates": [
          30.12358862438421,
          -1.8606842313645036
        ],
        "type": "Point"
      },
      "properties": {
        "charger_bus_voltage_v": 650.0,
        "charger_contact_count": 6,
        "charger_efficiency": 0.98,
        "charger_max_current_a": 2475.0,
        "charger_max_kw": 1500.0,
        "grid_export_kw": 1500.0,
        "grid_import_kw": 1500.0,
        "line": "line-6",
        "pv_nameplate_kw": 300.0,
        "station": "line-6-0170-0687-s013972",
        "storage_capacity_kwh": 1500.0,
        "storage_initial_soc": 0.5,
        "storage_max_charge_kw": 1500.0,
        "storage_max_discharge_kw": 1500.0,
        "storage_module_kwh": 500.0,
        "tier": "standard"
      },
      "type": "Feature"
    },
    {
      "geometry": {
        "coordinates": [
          30.129520878354654,
          -1.8770611525033294
        ],
        "type": "Point"
      },
      "properties": {
        "charger_bus_voltage_v": 650.0,
        "charger_contact_count": 6,
        "charger_efficiency": 0.98,
        "charger_max_current_a": 2475.0,
        "charger_max_kw": 1500.0,
        "grid_export_kw": 1500.0,
        "grid_import_kw": 1500.0,
        "line": "line-6",
        "pv_nameplate_kw": 300.0,
        "station": "line-6-0261-0720-s016065",
        "storage_capacity_kwh": 1500.0,
        "storage_initial_soc": 0.5,
        "storage_max_charge_kw": 1500.0,
        "storage_max_discharge_kw": 1500.0,
        "storage_module_kwh": 500.0,
        "tier": "standard"
      },
      "type": "Feature"
    },
    {
      "geometry": {
        "coordinates": [
          30.142284212654697,
          -1.889838750314941
        ],
        "type": "Point"
      },
      "properties": {
        "charger_bus_voltage_v": 650.0,
        "charger_contact_count": 6,
        "charger_efficiency": 0.98,
        "charger_max_current_a": 2475.0,
        "charger_max_kw": 1500.0,
        "grid_export_kw": 1800.0,
        "grid_import_kw": 1800.0,
        "line": "line-6",
        "pv_nameplate_kw": 300.0,
        "station": "line-6-0332-0791-s018085",
        "storage_capacity_kwh": 1500.0,
        "storage_initial_soc": 0.5,
        "storage_max_charge_kw": 1500.0,
        "storage_max_discharge_kw": 1500.0,
        "storage_module_kwh": 500.0,
        "tier": "interchange"
      },
      "type": "Feature"
    },
    {
      "geometry": {
        "coordinates": [
          30.143542569557518,
          -1.891098513479466
        ],
        "type": "Point"
      },
      "properties": {
        "charger_bus_voltage_v": 650.0,
        "charger_contact_count": 6,
        "charger_efficiency": 0.98,
        "charger_max_current_a": 2475.0,
        "charger_max_kw": 1500.0,
        "grid_export_kw": 1800.0,
        "grid_import_kw": 1800.0,
        "line": "line-6",
        "pv_nameplate_kw": 300.0,
        "station": "line-6-0339-0798-s018283",
        "storage_capacity_kwh": 1500.0,
        "storage_initial_soc": 0.5,
        "storage_max_charge_kw": 1500.0,
        "storage_max_discharge_kw": 1500.0,
        "storage_module_kwh": 500.0,
        "tier": "interchange"
      },
      "type": "Feature"
    },
    {
      "geometry": {
        "coordinates": [
          30.151092710974442,
          -1.9042360436237988
        ],
        "type": "Point"
      },
      "properties": {
        "charger_bus_voltage_v": 650.0,
        "charger_contact_count": 6,
        "charger_efficiency": 0.98,
        "charger_max_current_a": 2475.0,
        "charger_max_kw": 1500.0,
        "grid_export_kw": 1500.0,
        "grid_import_kw": 1500.0,
        "line": "line-6",
        "pv_nameplate_kw": 300.0,
        "station": "line-6-0412-0840-s020091",
        "storage_capacity_kwh": 1500.0,
        "storage_initial_soc": 0.5,
        "storage_max_charge_kw": 1500.0,
        "storage_max_discharge_kw": 1500.0,
        "storage_module_kwh": 500.0,
        "tier": "standard"
      },
      "type": "Feature"
    },
    {
      "geometry": {
        "coordinates": [
          30.159002382935032,
          -1.9191732354317388
        ],
        "type": "Point"
      },
      "properties": {
        "charger_bus_voltage_v": 650.0,
        "charger_contact_count": 6,
        "charger_efficiency": 0.98,
        "charger_max_current_a": 2475.0,
        "charger_max_kw": 1500.0,
        "grid_export_kw": 1500.0,
        "grid_import_kw": 1500.0,
        "line": "line-6",
        "pv_nameplate_kw": 300.0,
        "station": "line-6-0495-0884-s022115",
        "storage_capacity_kwh": 1500.0,
        "storage_initial_soc": 0.5,
        "storage_max_charge_kw": 1500.0,
        "storage_max_discharge_kw": 1500.0,
        "storage_module_kwh": 500.0,
        "tier": "standard"
      },
      "type": "Feature"
    },
    {
      "geometry": {
        "coordinates": [
          30.155227312226568,
          -1.933390562574236
        ],
        "type": "Point"
      },
      "properties": {
        "charger_bus_voltage_v": 650.0,
        "charger_contact_count": 6,
        "charger_efficiency": 0.98,
        "charger_max_current_a": 2475.0,
        "charger_max_kw": 1500.0,
        "grid_export_kw": 1800.0,
        "grid_import_kw": 1800.0,
        "line": "line-6",
        "pv_nameplate_kw": 300.0,
        "station": "line-6-0574-0863-s024119",
        "storage_capacity_kwh": 1500.0,
        "storage_initial_soc": 0.5,
        "storage_max_charge_kw": 1500.0,
        "storage_max_discharge_kw": 1500.0,
        "storage_module_kwh": 500.0,
        "tier": "interchange"
      },
      "type": "Feature"
    },
    {
      "geometry": {
        "coordinates": [
          30.155227312226568,
          -1.9366299535687292
        ],
        "type": "Point"
      },
      "properties": {
        "charger_bus_voltage_v": 650.0,
        "charger_contact_count": 6,
        "charger_efficiency": 0.98,
        "charger_max_current_a": 2475.0,
        "charger_max_kw": 1500.0,
        "grid_export_kw": 1800.0,
        "grid_import_kw": 1800.0,
        "line": "line-6",
        "pv_nameplate_kw": 300.0,
        "station": "line-6-0592-0863-s024479",
        "storage_capacity_kwh": 1500.0,
        "storage_initial_soc": 0.5,
        "storage_max_charge_kw": 1500.0,
        "storage_max_discharge_kw": 1500.0,
        "storage_module_kwh": 500.0,
        "tier": "interchange"
      },
      "type": "Feature"
    },
    {
      "geometry": {
        "coordinates": [
          30.160620270381518,
          -1.9483277543821762
        ],
        "type": "Point"
      },
      "properties": {
        "charger_bus_voltage_v": 650.0,
        "charger_contact_count": 6,
        "charger_efficiency": 0.98,
        "charger_max_current_a": 2475.0,
        "charger_max_kw": 1500.0,
        "grid_export_kw": 1800.0,
        "grid_import_kw": 1800.0,
        "line": "line-6",
        "pv_nameplate_kw": 300.0,
        "station": "line-6-0657-0893-s026270",
        "storage_capacity_kwh": 1500.0,
        "storage_initial_soc": 0.5,
        "storage_max_charge_kw": 1500.0,
        "storage_max_discharge_kw": 1500.0,
        "storage_module_kwh": 500.0,
        "tier": "interchange"
      },
      "type": "Feature"
    },
    {
      "geometry": {
        "coordinates": [
          30.163676280002655,
          -1.9623651153583128
        ],
        "type": "Point"
      },
      "properties": {
        "charger_bus_voltage_v": 650.0,
        "charger_contact_count": 6,
        "charger_efficiency": 0.98,
        "charger_max_current_a": 2475.0,
        "charger_max_kw": 1500.0,
        "grid_export_kw": 1500.0,
        "grid_import_kw": 1500.0,
        "line": "line-6",
        "pv_nameplate_kw": 300.0,
        "station": "line-6-0735-0910-s028143",
        "storage_capacity_kwh": 1500.0,
        "storage_initial_soc": 0.5,
        "storage_max_charge_kw": 1500.0,
        "storage_max_discharge_kw": 1500.0,
        "storage_module_kwh": 500.0,
        "tier": "standard"
      },
      "type": "Feature"
    },
    {
      "geometry": {
        "coordinates": [
          30.174102665768885,
          -1.9704635928445453
        ],
        "type": "Point"
      },
      "properties": {
        "charger_bus_voltage_v": 650.0,
        "charger_contact_count": 6,
        "charger_efficiency": 0.98,
        "charger_max_current_a": 2475.0,
        "charger_max_kw": 1500.0,
        "grid_export_kw": 1500.0,
        "grid_import_kw": 1500.0,
        "line": "line-6",
        "pv_nameplate_kw": 300.0,
        "station": "line-6-0780-0968-s030160",
        "storage_capacity_kwh": 1500.0,
        "storage_initial_soc": 0.5,
        "storage_max_charge_kw": 1500.0,
        "storage_max_discharge_kw": 1500.0,
        "storage_module_kwh": 500.0,
        "tier": "standard"
      },
      "type": "Feature"
    },
    {
      "geometry": {
        "coordinates": [
          30.17697891011819,
          -1.9818014613252708
        ],
        "type": "Point"
      },
      "properties": {
        "charger_bus_voltage_v": 650.0,
        "charger_contact_count": 6,
        "charger_efficiency": 0.98,
        "charger_max_current_a": 2475.0,
        "charger_max_kw": 1500.0,
        "grid_export_kw": 1800.0,
        "grid_import_kw": 1800.0,
        "line": "line-6",
        "pv_nameplate_kw": 300.0,
        "station": "line-6-0843-0984-s031986",
        "storage_capacity_kwh": 1500.0,
        "storage_initial_soc": 0.5,
        "storage_max_charge_kw": 1500.0,
        "storage_max_discharge_kw": 1500.0,
        "storage_module_kwh": 500.0,
        "tier": "interchange"
      },
      "type": "Feature"
    },
    {
      "geometry": {
        "coordinates": [
          30.17572055321537,
          -1.9828812583234352
        ],
        "type": "Point"
      },
      "properties": {
        "charger_bus_voltage_v": 650.0,
        "charger_contact_count": 6,
        "charger_efficiency": 0.98,
        "charger_max_current_a": 2475.0,
        "charger_max_kw": 1500.0,
        "grid_export_kw": 1800.0,
        "grid_import_kw": 1800.0,
        "line": "line-6",
        "pv_nameplate_kw": 300.0,
        "station": "line-6-0849-0977-s032188",
        "storage_capacity_kwh": 1500.0,
        "storage_initial_soc": 0.5,
        "storage_max_charge_kw": 1500.0,
        "storage_max_discharge_kw": 1500.0,
        "storage_module_kwh": 500.0,
        "tier": "interchange"
      },
      "type": "Feature"
    },
    {
      "geometry": {
        "coordinates": [
          30.16097980092518,
          -1.9904398373105856
        ],
        "type": "Point"
      },
      "properties": {
        "charger_bus_voltage_v": 650.0,
        "charger_contact_count": 6,
        "charger_efficiency": 0.98,
        "charger_max_current_a": 2475.0,
        "charger_max_kw": 1500.0,
        "grid_export_kw": 1500.0,
        "grid_import_kw": 1500.0,
        "line": "line-6",
        "pv_nameplate_kw": 300.0,
        "station": "line-6-0891-0895-s034216",
        "storage_capacity_kwh": 1500.0,
        "storage_initial_soc": 0.5,
        "storage_max_charge_kw": 1500.0,
        "storage_max_discharge_kw": 1500.0,
        "storage_module_kwh": 500.0,
        "tier": "standard"
      },
      "type": "Feature"
    },
    {
      "geometry": {
        "coordinates": [
          30.15037364988712,
          -1.998718280963179
        ],
        "type": "Point"
      },
      "properties": {
        "charger_bus_voltage_v": 650.0,
        "charger_contact_count": 6,
        "charger_efficiency": 0.98,
        "charger_max_current_a": 2475.0,
        "charger_max_kw": 1500.0,
        "grid_export_kw": 1800.0,
        "grid_import_kw": 1800.0,
        "line": "line-6",
        "pv_nameplate_kw": 300.0,
        "station": "line-6-0937-0836-s035777",
        "storage_capacity_kwh": 1500.0,
        "storage_initial_soc": 0.5,
        "storage_max_charge_kw": 1500.0,
        "storage_max_discharge_kw": 1500.0,
        "storage_module_kwh": 500.0,
        "tier": "interchange"
      },
      "type": "Feature"
    },
    {
      "geometry": {
        "coordinates": [
          30.147137874994147,
          -2.0005179426267863
        ],
        "type": "Point"
      },
      "properties": {
        "charger_bus_voltage_v": 650.0,
        "charger_contact_count": 6,
        "charger_efficiency": 0.98,
        "charger_max_current_a": 2475.0,
        "charger_max_kw": 1500.0,
        "grid_export_kw": 1800.0,
        "grid_import_kw": 1800.0,
        "line": "line-6",
        "pv_nameplate_kw": 300.0,
        "station": "line-6-0947-0818-s036220",
        "storage_capacity_kwh": 1500.0,
        "storage_initial_soc": 0.5,
        "storage_max_charge_kw": 1500.0,
        "storage_max_discharge_kw": 1500.0,
        "storage_module_kwh": 500.0,
        "tier": "interchange"
      },
      "type": "Feature"
    },
    {
      "geometry": {
        "coordinates": [
          30.1349138365096,
          -2.0093362847784615
        ],
        "type": "Point"
      },
      "properties": {
        "charger_bus_voltage_v": 650.0,
        "charger_contact_count": 6,
        "charger_efficiency": 0.98,
        "charger_max_current_a": 2475.0,
        "charger_max_kw": 1500.0,
        "grid_export_kw": 1500.0,
        "grid_import_kw": 1500.0,
        "line": "line-6",
        "pv_nameplate_kw": 300.0,
        "station": "line-6-0996-0750-s038221",
        "storage_capacity_kwh": 1500.0,
        "storage_initial_soc": 0.5,
        "storage_max_charge_kw": 1500.0,
        "storage_max_discharge_kw": 1500.0,
        "storage_module_kwh": 500.0,
        "tier": "standard"
      },
      "type": "Feature"
    },
    {
      "geometry": {
        "coordinates": [
          30.123049328568715,
          -2.0042972321203614
        ],
        "type": "Point"
      },
      "properties": {
        "charger_bus_voltage_v": 650.0,
        "charger_contact_count": 6,
        "charger_efficiency": 0.98,
        "charger_max_current_a": 2475.0,
        "charger_max_kw": 1500.0,
        "grid_export_kw": 1500.0,
        "grid_import_kw": 1500.0,
        "line": "line-6",
        "pv_nameplate_kw": 300.0,
        "station": "line-6-0968-0684-s040232",
        "storage_capacity_kwh": 1500.0,
        "storage_initial_soc": 0.5,
        "storage_max_charge_kw": 1500.0,
        "storage_max_discharge_kw": 1500.0,
        "storage_module_kwh": 500.0,
        "tier": "standard"
      },
      "type": "Feature"
    },
    {
      "geometry": {
        "coordinates": [
          30.113342003889812,
          -1.9916996004751106
        ],
        "type": "Point"
      },
      "properties": {
        "charger_bus_voltage_v": 650.0,
        "charger_contact_count": 6,
        "charger_efficiency": 0.98,
        "charger_max_current_a": 2475.0,
        "charger_max_kw": 1500.0,
        "grid_export_kw": 1500.0,
        "grid_import_kw": 1500.0,
        "line": "line-6",
        "pv_nameplate_kw": 300.0,
        "station": "line-6-0898-0630-s042241",
        "storage_capacity_kwh": 1500.0,
        "storage_initial_soc": 0.5,
        "storage_max_charge_kw": 1500.0,
        "storage_max_discharge_kw": 1500.0,
        "storage_module_kwh": 500.0,
        "tier": "standard"
      },
      "type": "Feature"
    },
    {
      "geometry": {
        "coordinates": [
          30.111544351171496,
          -1.9774822733326136
        ],
        "type": "Point"
      },
      "properties": {
        "charger_bus_voltage_v": 650.0,
        "charger_contact_count": 6,
        "charger_efficiency": 0.98,
        "charger_max_current_a": 2475.0,
        "charger_max_kw": 1500.0,
        "grid_export_kw": 1500.0,
        "grid_import_kw": 1500.0,
        "line": "line-6",
        "pv_nameplate_kw": 300.0,
        "station": "line-6-0819-0620-s044268",
        "storage_capacity_kwh": 1500.0,
        "storage_initial_soc": 0.5,
        "storage_max_charge_kw": 1500.0,
        "storage_max_discharge_kw": 1500.0,
        "storage_module_kwh": 500.0,
        "tier": "standard"
      },
      "type": "Feature"
    },
    {
      "geometry": {
        "coordinates": [
          30.10201679176442,
          -1.9728031530072347
        ],
        "type": "Point"
      },
      "properties": {
        "charger_bus_voltage_v": 650.0,
        "charger_contact_count": 6,
        "charger_efficiency": 0.98,
        "charger_max_current_a": 2475.0,
        "charger_max_kw": 1500.0,
        "grid_export_kw": 1800.0,
        "grid_import_kw": 1800.0,
        "line": "line-6",
        "pv_nameplate_kw": 300.0,
        "station": "line-6-0793-0567-s045635",
        "storage_capacity_kwh": 1500.0,
        "storage_initial_soc": 0.5,
        "storage_max_charge_kw": 1500.0,
        "storage_max_discharge_kw": 1500.0,
        "storage_module_kwh": 500.0,
        "tier": "interchange"
      },
      "type": "Feature"
    },
    {
      "geometry": {
        "coordinates": [
          30.10093820013343,
          -1.9713634236763489
        ],
        "type": "Point"
      },
      "properties": {
        "charger_bus_voltage_v": 650.0,
        "charger_contact_count": 6,
        "charger_efficiency": 0.98,
        "charger_max_current_a": 2475.0,
        "charger_max_kw": 1500.0,
        "grid_export_kw": 1800.0,
        "grid_import_kw": 1800.0,
        "line": "line-6",
        "pv_nameplate_kw": 300.0,
        "station": "line-6-0785-0561-s045845",
        "storage_capacity_kwh": 1500.0,
        "storage_initial_soc": 0.5,
        "storage_max_charge_kw": 1500.0,
        "storage_max_discharge_kw": 1500.0,
        "storage_module_kwh": 500.0,
        "tier": "interchange"
      },
      "type": "Feature"
    },
    {
      "geometry": {
        "coordinates": [
          30.094107119803834,
          -1.9681240326818559
        ],
        "type": "Point"
      },
      "properties": {
        "charger_bus_voltage_v": 650.0,
        "charger_contact_count": 6,
        "charger_efficiency": 0.98,
        "charger_max_current_a": 2475.0,
        "charger_max_kw": 1500.0,
        "grid_export_kw": 1800.0,
        "grid_import_kw": 1800.0,
        "line": "line-6",
        "pv_nameplate_kw": 300.0,
        "station": "line-6-0767-0523-s046777",
        "storage_capacity_kwh": 1500.0,
        "storage_initial_soc": 0.5,
        "storage_max_charge_kw": 1500.0,
        "storage_max_discharge_kw": 1500.0,
        "storage_module_kwh": 500.0,
        "tier": "interchange"
      },
      "type": "Feature"
    },
    {
      "geometry": {
        "coordinates": [
          30.0905118143672,
          -1.9670442356836915
        ],
        "type": "Point"
      },
      "properties": {
        "charger_bus_voltage_v": 650.0,
        "charger_contact_count": 6,
        "charger_efficiency": 0.98,
        "charger_max_current_a": 2475.0,
        "charger_max_kw": 1500.0,
        "grid_export_kw": 1800.0,
        "grid_import_kw": 1800.0,
        "line": "line-6",
        "pv_nameplate_kw": 300.0,
        "station": "line-6-0761-0503-s047227",
        "storage_capacity_kwh": 1500.0,
        "storage_initial_soc": 0.5,
        "storage_max_charge_kw": 1500.0,
        "storage_max_discharge_kw": 1500.0,
        "storage_module_kwh": 500.0,
        "tier": "interchange"
      },
      "type": "Feature"
    },
    {
      "geometry": {
        "coordinates": [
          30.08817486583339,
          -1.96668430335097
        ],
        "type": "Point"
      },
      "properties": {
        "charger_bus_voltage_v": 650.0,
        "charger_contact_count": 6,
        "charger_efficiency": 0.98,
        "charger_max_current_a": 2475.0,
        "charger_max_kw": 1500.0,
        "grid_export_kw": 1800.0,
        "grid_import_kw": 1800.0,
        "line": "line-6",
        "pv_nameplate_kw": 300.0,
        "station": "line-6-0759-0490-s047504",
        "storage_capacity_kwh": 1500.0,
        "storage_initial_soc": 0.5,
        "storage_max_charge_kw": 1500.0,
        "storage_max_discharge_kw": 1500.0,
        "storage_module_kwh": 500.0,
        "tier": "interchange"
      },
      "type": "Feature"
    },
    {
      "geometry": {
        "coordinates": [
          30.074153174630528,
          -1.9560662995356874
        ],
        "type": "Point"
      },
      "properties": {
        "charger_bus_voltage_v": 650.0,
        "charger_contact_count": 6,
        "charger_efficiency": 0.98,
        "charger_max_current_a": 2475.0,
        "charger_max_kw": 1500.0,
        "grid_export_kw": 1800.0,
        "grid_import_kw": 1800.0,
        "line": "line-6",
        "pv_nameplate_kw": 300.0,
        "station": "line-6-0700-0412-s049693",
        "storage_capacity_kwh": 1500.0,
        "storage_initial_soc": 0.5,
        "storage_max_charge_kw": 1500.0,
        "storage_max_discharge_kw": 1500.0,
        "storage_module_kwh": 500.0,
        "tier": "interchange"
      },
      "type": "Feature"
    },
    {
      "geometry": {
        "coordinates": [
          30.06426608467979,
          -1.9555264010366051
        ],
        "type": "Point"
      },
      "properties": {
        "charger_bus_voltage_v": 650.0,
        "charger_contact_count": 6,
        "charger_efficiency": 0.98,
        "charger_max_current_a": 2475.0,
        "charger_max_kw": 1500.0,
        "grid_export_kw": 1800.0,
        "grid_import_kw": 1800.0,
        "line": "line-6",
        "pv_nameplate_kw": 300.0,
        "station": "line-6-0697-0357-s050957",
        "storage_capacity_kwh": 1500.0,
        "storage_initial_soc": 0.5,
        "storage_max_charge_kw": 1500.0,
        "storage_max_discharge_kw": 1500.0,
        "storage_module_kwh": 500.0,
        "tier": "major"
      },
      "type": "Feature"
    },
    {
      "geometry": {
        "coordinates": [
          30.05653617799103,
          -1.955706367202966
        ],
        "type": "Point"
      },
      "properties": {
        "charger_bus_voltage_v": 650.0,
        "charger_contact_count": 6,
        "charger_efficiency": 0.98,
        "charger_max_current_a": 2475.0,
        "charger_max_kw": 1500.0,
        "grid_export_kw": 1800.0,
        "grid_import_kw": 1800.0,
        "line": "line-6",
        "pv_nameplate_kw": 300.0,
        "station": "line-6-0698-0314-s052215",
        "storage_capacity_kwh": 1500.0,
        "storage_initial_soc": 0.5,
        "storage_max_charge_kw": 1500.0,
        "storage_max_discharge_kw": 1500.0,
        "storage_module_kwh": 500.0,
        "tier": "interchange"
      },
      "type": "Feature"
    },
    {
      "geometry": {
        "coordinates": [
          30.04593002695297,
          -1.9454482957204047
        ],
        "type": "Point"
      },
      "properties": {
        "charger_bus_voltage_v": 650.0,
        "charger_contact_count": 6,
        "charger_efficiency": 0.98,
        "charger_max_current_a": 2475.0,
        "charger_max_kw": 1500.0,
        "grid_export_kw": 1800.0,
        "grid_import_kw": 1800.0,
        "line": "line-6",
        "pv_nameplate_kw": 300.0,
        "station": "line-6-0641-0255-s055974",
        "storage_capacity_kwh": 1500.0,
        "storage_initial_soc": 0.5,
        "storage_max_charge_kw": 1500.0,
        "storage_max_discharge_kw": 1500.0,
        "storage_module_kwh": 500.0,
        "tier": "interchange"
      },
      "type": "Feature"
    },
    {
      "geometry": {
        "coordinates": [
          30.04970509766143,
          -1.9452683295540438
        ],
        "type": "Point"
      },
      "properties": {
        "charger_bus_voltage_v": 650.0,
        "charger_contact_count": 6,
        "charger_efficiency": 0.98,
        "charger_max_current_a": 2475.0,
        "charger_max_kw": 1500.0,
        "grid_export_kw": 1800.0,
        "grid_import_kw": 1800.0,
        "line": "line-6",
        "pv_nameplate_kw": 300.0,
        "station": "line-6-0640-0276-s056968",
        "storage_capacity_kwh": 1500.0,
        "storage_initial_soc": 0.5,
        "storage_max_charge_kw": 1500.0,
        "storage_max_discharge_kw": 1500.0,
        "storage_module_kwh": 500.0,
        "tier": "interchange"
      },
      "type": "Feature"
    },
    {
      "geometry": {
        "coordinates": [
          30.051322985107916,
          -1.9445484648886011
        ],
        "type": "Point"
      },
      "properties": {
        "charger_bus_voltage_v": 650.0,
        "charger_contact_count": 6,
        "charger_efficiency": 0.98,
        "charger_max_current_a": 2475.0,
        "charger_max_kw": 1500.0,
        "grid_export_kw": 1800.0,
        "grid_import_kw": 1800.0,
        "line": "line-6",
        "pv_nameplate_kw": 300.0,
        "station": "line-6-0636-0285-s057181",
        "storage_capacity_kwh": 1500.0,
        "storage_initial_soc": 0.5,
        "storage_max_charge_kw": 1500.0,
        "storage_max_discharge_kw": 1500.0,
        "storage_module_kwh": 500.0,
        "tier": "interchange"
      },
      "type": "Feature"
    },
    {
      "geometry": {
        "coordinates": [
          30.052401576738905,
          -1.930871036245186
        ],
        "type": "Point"
      },
      "properties": {
        "charger_bus_voltage_v": 650.0,
        "charger_contact_count": 6,
        "charger_efficiency": 0.98,
        "charger_max_current_a": 2475.0,
        "charger_max_kw": 1500.0,
        "grid_export_kw": 1800.0,
        "grid_import_kw": 1800.0,
        "line": "line-6",
        "pv_nameplate_kw": 300.0,
        "station": "line-6-0560-0291-s058980",
        "storage_capacity_kwh": 1500.0,
        "storage_initial_soc": 0.5,
        "storage_max_charge_kw": 1500.0,
        "storage_max_discharge_kw": 1500.0,
        "storage_module_kwh": 500.0,
        "tier": "interchange"
      },
      "type": "Feature"
    },
    {
      "geometry": {
        "coordinates": [
          30.055637351631873,
          -1.926371882086168
        ],
        "type": "Point"
      },
      "properties": {
        "charger_bus_voltage_v": 650.0,
        "charger_contact_count": 6,
        "charger_efficiency": 0.98,
        "charger_max_current_a": 2475.0,
        "charger_max_kw": 1500.0,
        "grid_export_kw": 1800.0,
        "grid_import_kw": 1800.0,
        "line": "line-6",
        "pv_nameplate_kw": 300.0,
        "station": "line-6-0535-0309-s059629",
        "storage_capacity_kwh": 1500.0,
        "storage_initial_soc": 0.5,
        "storage_max_charge_kw": 1500.0,
        "storage_max_discharge_kw": 1500.0,
        "storage_module_kwh": 500.0,
        "tier": "interchange"
      },
      "type": "Feature"
    }
  ],
  "type": "FeatureCollection"
}
