{
  "features": [
    {
      "geometry": {
        "coordinates": [
          30.00152800481057,
          -1.9411291077277473
        ],
        "type": "Point"
      },
      "properties": {
        "anchor_kind": "amenity:hospital",
        "anchor_name": "Nzove Health Post",
        "archetype": "terminal",
        "chainage_m": 0.0,
        "corridor_offset_m": 0.0,
        "id": "line-1-0617-0008-s000000",
        "junction_group": null,
        "line": "line-1",
        "platform_length_m": 85.0
      },
      "type": "Feature"
    },
    {
      "geometry": {
        "coordinates": [
          30.022740306886696,
          -1.9488676528812583
        ],
        "type": "Point"
      },
      "properties": {
        "anchor_kind": null,
        "anchor_name": null,
        "archetype": "halt",
        "chainage_m": 3014.8,
        "corridor_offset_m": 11.913,
        "id": "line-1-0660-0126-s003015",
        "junction_group": null,
        "line": "line-1",
        "platform_length_m": 81.0
      },
      "type": "Feature"
    },
    {
      "geometry": {
        "coordinates": [
          30.042154956244506,
          -1.9425688370586331
        ],
        "type": "Point"
      },
      "properties": {
        "anchor_kind": null,
        "anchor_name": null,
        "archetype": "interchange-elevated",
        "chainage_m": 5629.6,
        "corridor_offset_m": 24.71,
        "id": "line-1-0625-0234-s005630",
        "junction_group": 0,
        "line": "line-1",
        "platform_length_m": 85.0
      },
      "type": "Feature"
    },
    {
      "geometry": {
        "coordinates": [
          30.051322985107916,
          -1.9445484648886011
        ],
        "type": "Point"
      },
      "properties": {
        "anchor_kind": "amenity:hospital",
        "anchor_name": "Akabahizi Health Post",
        "archetype": "interchange-elevated",
        "chainage_m": 7151.3,
        "corridor_offset_m": 42.726,
        "id": "line-1-0636-0285-s007151",
        "junction_group": 0,
        "line": "line-1",
        "platform_length_m": 85.0
      },
      "type": "Feature"
    },
    {
      "geometry": {
        "coordinates": [
          30.058154065437517,
          -1.9508472807112263
        ],
        "type": "Point"
      },
      "properties": {
        "anchor_kind": "place:suburb",
        "anchor_name": "Nyarugenge",
        "archetype": "interchange-elevated",
        "chainage_m": 8459.8,
        "corridor_offset_m": 93.844,
        "id": "line-1-0671-0323-s008460",
        "junction_group": 0,
        "line": "line-1",
        "platform_length_m": 85.0
      },
      "type": "Feature"
    },
    {
      "geometry": {
        "coordinates": [
          30.062288666689643,
          -1.9445484648886011
        ],
        "type": "Point"
      },
      "properties": {
        "anchor_kind": "amenity:hospital",
        "anchor_name": "Polyclinique La Medicale (Dr Kanimba Hospital)",
        "archetype": "major",
        "chainage_m": 9665.5,
        "corridor_offset_m": 118.728,
        "id": "line-1-0636-0346-s009665",
        "junction_group": null,
        "line": "line-1",
        "platform_length_m": 85.0
      },
      "type": "Feature"
    },
    {
      "geometry": {
        "coordinates": [
          30.073793644086862,
          -1.9548065363711622
        ],
        "type": "Point"
      },
      "properties": {
        "anchor_kind": null,
        "anchor_name": null,
        "archetype": "interchange-elevated",
        "chainage_m": 11675.4,
        "corridor_offset_m": 104.082,
        "id": "line-1-0693-0410-s011675",
        "junction_group": 1,
        "line": "line-1",
        "platform_length_m": 85.0
      },
      "type": "Feature"
    },
    {
      "geometry": {
        "coordinates": [
          30.07469247044602,
          -1.9560662995356874
        ],
        "type": "Point"
      },
      "properties": {
        "anchor_kind": null,
        "anchor_name": null,
        "archetype": "interchange-elevated",
        "chainage_m": 11856.9,
        "corridor_offset_m": 102.278,
        "id": "line-1-0700-0415-s011857",
        "junction_group": 1,
        "line": "line-1",
        "platform_length_m": 85.0
      },
      "type": "Feature"
    },
    {
      "geometry": {
        "coordinates": [
          30.0836807340376,
          -1.9684839650145773
        ],
        "type": "Point"
      },
      "properties": {
        "anchor_kind": "shop:mall",
        "anchor_name": "Mundi Center",
        "archetype": "interchange-elevated",
        "chainage_m": 13697.9,
        "corridor_offset_m": 62.32,
        "id": "line-1-0769-0465-s013698",
        "junction_group": 2,
        "line": "line-1",
        "platform_length_m": 85.0
      },
      "type": "Feature"
    },
    {
      "geometry": {
        "coordinates": [
          30.096264303065812,
          -1.968663931180938
        ],
        "type": "Point"
      },
      "properties": {
        "anchor_kind": "amenity:university",
        "anchor_name": "University Of Lay Adventists of Kigali",
        "archetype": "interchange-elevated",
        "chainage_m": 15356.8,
        "corridor_offset_m": 53.043,
        "id": "line-1-0770-0535-s015357",
        "junction_group": 2,
        "line": "line-1",
        "platform_length_m": 85.0
      },
      "type": "Feature"
    },
    {
      "geometry": {
        "coordinates": [
          30.104353740298233,
          -1.9648846416873629
        ],
        "type": "Point"
      },
      "properties": {
        "anchor_kind": "amenity:hospital",
        "anchor_name": "APAPER Primary School",
        "archetype": "major",
        "chainage_m": 16557.6,
        "corridor_offset_m": 40.288,
        "id": "line-1-0749-0580-s016558",
        "junction_group": null,
        "line": "line-1",
        "platform_length_m": 85.0
      },
      "type": "Feature"
    },
    {
      "geometry": {
        "coordinates": [
          30.113521769161643,
          -1.960745419861066
        ],
        "type": "Point"
      },
      "properties": {
        "anchor_kind": "amenity:hospital",
        "anchor_name": "Ivuriro Polyfam",
        "archetype": "interchange-elevated",
        "chainage_m": 17768.1,
        "corridor_offset_m": 41.017,
        "id": "line-1-0726-0631-s017768",
        "junction_group": 3,
        "line": "line-1",
        "platform_length_m": 85.0
      },
      "type": "Feature"
    },
    {
      "geometry": {
        "coordinates": [
          30.12916134781099,
          -1.963444912356477
        ],
        "type": "Point"
      },
      "properties": {
        "anchor_kind": null,
        "anchor_name": null,
        "archetype": "standard",
        "chainage_m": 19781.5,
        "corridor_offset_m": 53.217,
        "id": "line-1-0741-0718-s019782",
        "junction_group": null,
        "line": "line-1",
        "platform_length_m": 85.0
      },
      "type": "Feature"
    },
    {
      "geometry": {
        "coordinates": [
          30.14426163064484,
          -1.9670442356836915
        ],
        "type": "Point"
      },
      "properties": {
        "anchor_kind": "amenity:hospital",
        "anchor_name": "Bella Vitae Medical Clinic",
        "archetype": "standard",
        "chainage_m": 21794.9,
        "corridor_offset_m": 62.215,
        "id": "line-1-0761-0802-s021795",
        "junction_group": null,
        "line": "line-1",
        "platform_length_m": 85.0
      },
      "type": "Feature"
    },
    {
      "geometry": {
        "coordinates": [
          30.15864285239137,
          -1.9720832883417918
        ],
        "type": "Point"
      },
      "properties": {
        "anchor_kind": "amenity:hospital",
        "anchor_name": "Nyarugunga Health Centre",
        "archetype": "standard",
        "chainage_m": 23822.8,
        "corridor_offset_m": 18.259,
        "id": "line-1-0789-0882-s023823",
        "junction_group": null,
        "line": "line-1",
        "platform_length_m": 85.0
      },
      "type": "Feature"
    },
    {
      "geometry": {
        "coordinates": [
          30.173743135225223,
          -1.9791019688298601
        ],
        "type": "Point"
      },
      "properties": {
        "anchor_kind": "amenity:hospital",
        "anchor_name": "Kanombe Oncology",
        "archetype": "interchange-elevated",
        "chainage_m": 25825.9,
        "corridor_offset_m": 19.326,
        "id": "line-1-0828-0966-s025826",
        "junction_group": 4,
        "line": "line-1",
        "platform_length_m": 85.0
      },
      "type": "Feature"
    },
    {
      "geometry": {
        "coordinates": [
          30.17697891011819,
          -1.9818014613252708
        ],
        "type": "Point"
      },
      "properties": {
        "anchor_kind": null,
        "anchor_name": null,
        "archetype": "interchange-elevated",
        "chainage_m": 26321.9,
        "corridor_offset_m": 35.261,
        "id": "line-1-0843-0984-s026322",
        "junction_group": 4,
        "line": "line-1",
        "platform_length_m": 85.0
      },
      "type": "Feature"
    },
    {
      "geometry": {
        "coordinates": [
          30.19405661094219,
          -1.9879203109815355
        ],
        "type": "Point"
      },
      "properties": {
        "anchor_kind": null,
        "anchor_name": null,
        "archetype": "halt",
        "chainage_m": 28826.4,
        "corridor_offset_m": 2.163,
        "id": "line-1-0877-1079-s028826",
        "junction_group": null,
        "line": "line-1",
        "platform_length_m": 81.0
      },
      "type": "Feature"
    },
    {
      "geometry": {
        "coordinates": [
          30.19747215110699,
          -1.993499262138718
        ],
        "type": "Point"
      },
      "properties": {
        "anchor_kind": null,
        "anchor_name": null,
        "archetype": "standard",
        "chainage_m": 30656.3,
        "corridor_offset_m": 2.15,
        "id": "line-1-0908-1098-s030656",
        "junction_group": null,
        "line": "line-1",
        "platform_length_m": 85.0
      },
      "type": "Feature"
    },
    {
      "geometry": {
        "coordinates": [
          30.21203313812535,
          -1.9916996004751106
        ],
        "type": "Point"
      },
      "properties": {
        "anchor_kind": "amenity:hospital",
        "anchor_name": "Masaka Hospital, Rwanda",
        "archetype": "depot-terminal",
        "chainage_m": 32505.5,
        "corridor_offset_m": 0.0,
        "id": "line-1-0898-1179-s032505",
        "junction_group": null,
        "line": "line-1",
        "platform_length_m": 85.0
      },
      "type": "Feature"
    },
    {
      "geometry": {
        "coordinates": [
          30.04503120059381,
          -1.9150340136054422
        ],
        "type": "Point"
      },
      "properties": {
        "anchor_kind": "amenity:hospital",
        "anchor_name": "Karuruma Hospital",
        "archetype": "terminal",
        "chainage_m": 0.0,
        "corridor_offset_m": 0.0,
        "id": "line-2-0472-0250-s000000",
        "junction_group": null,
        "line": "line-2",
        "platform_length_m": 85.0
      },
      "type": "Feature"
    },
    {
      "geometry": {
        "coordinates": [
          30.049884862933265,
          -1.926191915919807
        ],
        "type": "Point"
      },
      "properties": {
        "anchor_kind": null,
        "anchor_name": null,
        "archetype": "interchange-elevated",
        "chainage_m": 2009.1,
        "corridor_offset_m": 17.183,
        "id": "line-2-0534-0277-s002009",
        "junction_group": 5,
        "line": "line-2",
        "platform_length_m": 85.0
      },
      "type": "Feature"
    },
    {
      "geometry": {
        "coordinates": [
          30.055637351631873,
          -1.926371882086168
        ],
        "type": "Point"
      },
      "properties": {
        "anchor_kind": null,
        "anchor_name": null,
        "archetype": "interchange-elevated",
        "chainage_m": 2657.4,
        "corridor_offset_m": 39.842,
        "id": "line-2-0535-0309-s002657",
        "junction_group": 5,
        "line": "line-2",
        "platform_length_m": 85.0
      },
      "type": "Feature"
    },
    {
      "geometry": {
        "coordinates": [
          30.062827962505136,
          -1.9294313069143
        ],
        "type": "Point"
      },
      "properties": {
        "anchor_kind": "amenity:hospital",
        "anchor_name": "Ruhango Health Post",
        "archetype": "standard",
        "chainage_m": 4012.8,
        "corridor_offset_m": 12.872,
        "id": "line-2-0552-0349-s004013",
        "junction_group": null,
        "line": "line-2",
        "platform_length_m": 85.0
      },
      "type": "Feature"
    },
    {
      "geometry": {
        "coordinates": [
          30.076310357892506,
          -1.9342903934060398
        ],
        "type": "Point"
      },
      "properties": {
        "anchor_kind": "amenity:hospital",
        "anchor_name": null,
        "archetype": "standard",
        "chainage_m": 6026.2,
        "corridor_offset_m": 8.982,
        "id": "line-2-0579-0424-s006026",
        "junction_group": null,
        "line": "line-2",
        "platform_length_m": 85.0
      },
      "type": "Feature"
    },
    {
      "geometry": {
        "coordinates": [
          30.08907369219255,
          -1.9411291077277473
        ],
        "type": "Point"
      },
      "properties": {
        "anchor_kind": "amenity:university",
        "anchor_name": "Carnegie Mellon University in Rwanda",
        "archetype": "major",
        "chainage_m": 7807.8,
        "corridor_offset_m": 17.242,
        "id": "line-2-0617-0495-s007808",
        "junction_group": null,
        "line": "line-2",
        "platform_length_m": 85.0
      },
      "type": "Feature"
    },
    {
      "geometry": {
        "coordinates": [
          30.1007584348616,
          -1.9364499874023684
        ],
        "type": "Point"
      },
      "properties": {
        "anchor_kind": "amenity:hospital",
        "anchor_name": "Baho International Hospital",
        "archetype": "interchange-elevated",
        "chainage_m": 9813.8,
        "corridor_offset_m": 13.151,
        "id": "line-2-0591-0560-s009814",
        "junction_group": 6,
        "line": "line-2",
        "platform_length_m": 85.0
      },
      "type": "Feature"
    },
    {
      "geometry": {
        "coordinates": [
          30.10956693318135,
          -1.9459881942194868
        ],
        "type": "Point"
      },
      "properties": {
        "anchor_kind": null,
        "anchor_name": null,
        "archetype": "interchange-elevated",
        "chainage_m": 11817.4,
        "corridor_offset_m": 40.365,
        "id": "line-2-0644-0609-s011817",
        "junction_group": 3,
        "line": "line-2",
        "platform_length_m": 85.0
      },
      "type": "Feature"
    },
    {
      "geometry": {
        "coordinates": [
          30.121071910578568,
          -1.9432887017240759
        ],
        "type": "Point"
      },
      "properties": {
        "anchor_kind": null,
        "anchor_name": null,
        "archetype": "major",
        "chainage_m": 13250.0,
        "corridor_offset_m": 20.295,
        "id": "line-2-0629-0673-s013250",
        "junction_group": null,
        "line": "line-2",
        "platform_length_m": 85.0
      },
      "type": "Feature"
    },
    {
      "geometry": {
        "coordinates": [
          30.12322909384055,
          -1.948507720548537
        ],
        "type": "Point"
      },
      "properties": {
        "anchor_kind": "amenity:hospital",
        "anchor_name": "Ubuzima Polyclinic",
        "archetype": "major",
        "chainage_m": 14452.2,
        "corridor_offset_m": 23.088,
        "id": "line-2-0658-0685-s014452",
        "junction_group": null,
        "line": "line-2",
        "platform_length_m": 85.0
      },
      "type": "Feature"
    },
    {
      "geometry": {
        "coordinates": [
          30.130599469985643,
          -1.949767483713062
        ],
        "type": "Point"
      },
      "properties": {
        "anchor_kind": "amenity:hospital",
        "anchor_name": "Inyamibwa Hp Health Services",
        "archetype": "major",
        "chainage_m": 15667.6,
        "corridor_offset_m": 15.792,
        "id": "line-2-0665-0726-s015668",
        "junction_group": null,
        "line": "line-2",
        "platform_length_m": 85.0
      },
      "type": "Feature"
    },
    {
      "geometry": {
        "coordinates": [
          30.142284212654697,
          -1.9474279235503726
        ],
        "type": "Point"
      },
      "properties": {
        "anchor_kind": "amenity:university",
        "anchor_name": "Adventist University of Central Africa",
        "archetype": "standard",
        "chainage_m": 17688.7,
        "corridor_offset_m": 30.4,
        "id": "line-2-0652-0791-s017689",
        "junction_group": null,
        "line": "line-2",
        "platform_length_m": 85.0
      },
      "type": "Feature"
    },
    {
      "geometry": {
        "coordinates": [
          30.151272476246273,
          -1.9366299535687292
        ],
        "type": "Point"
      },
      "properties": {
        "anchor_kind": null,
        "anchor_name": null,
        "archetype": "interchange-elevated",
        "chainage_m": 19690.4,
        "corridor_offset_m": 22.119,
        "id": "line-2-0592-0841-s019690",
        "junction_group": 7,
        "line": "line-2",
        "platform_length_m": 85.0
      },
      "type": "Feature"
    },
    {
      "geometry": {
        "coordinates": [
          30.155227312226568,
          -1.9366299535687292
        ],
        "type": "Point"
      },
      "properties": {
        "anchor_kind": null,
        "anchor_name": null,
        "archetype": "interchange-elevated",
        "chainage_m": 20130.4,
        "corridor_offset_m": 4.771,
        "id": "line-2-0592-0863-s020130",
        "junction_group": 7,
        "line": "line-2",
        "platform_length_m": 85.0
      },
      "type": "Feature"
    },
    {
      "geometry": {
        "coordinates": [
          30.163856045274485,
          -1.9440085663895188
        ],
        "type": "Point"
      },
      "properties": {
        "anchor_kind": null,
        "anchor_name": null,
        "archetype": "interchange-elevated",
        "chainage_m": 21570.6,
        "corridor_offset_m": 9.126,
        "id": "line-2-0633-0911-s021571",
        "junction_group": 8,
        "line": "line-2",
        "platform_length_m": 85.0
      },
      "type": "Feature"
    },
    {
      "geometry": {
        "coordinates": [
          30.173922900497054,
          -1.9461681603858476
        ],
        "type": "Point"
      },
      "properties": {
        "anchor_kind": "amenity:hospital",
        "anchor_name": "Rubungo Health Centre",
        "archetype": "terminal",
        "chainage_m": 22830.0,
        "corridor_offset_m": 0.0,
        "id": "line-2-0645-0967-s022830",
        "junction_group": null,
        "line": "line-2",
        "platform_length_m": 85.0
      },
      "type": "Feature"
    },
    {
      "geometry": {
        "coordinates": [
          30.088714161648884,
          -2.0154551344347262
        ],
        "type": "Point"
      },
      "properties": {
        "anchor_kind": "amenity:hospital",
        "anchor_name": "Karembure Health Post",
        "archetype": "terminal",
        "chainage_m": 0.0,
        "corridor_offset_m": 0.0,
        "id": "line-3-1030-0493-s000000",
        "junction_group": null,
        "line": "line-3",
        "platform_length_m": 85.0
      },
      "type": "Feature"
    },
    {
      "geometry": {
        "coordinates": [
          30.09177017127002,
          -2.0014177734585896
        ],
        "type": "Point"
      },
      "properties": {
        "anchor_kind": "place:suburb",
        "anchor_name": "Nyanza",
        "archetype": "standard",
        "chainage_m": 2015.6,
        "corridor_offset_m": 0.299,
        "id": "line-3-0952-0510-s002016",
        "junction_group": null,
        "line": "line-3",
        "platform_length_m": 85.0
      },
      "type": "Feature"
    },
    {
      "geometry": {
        "coordinates": [
          30.10093820013343,
          -1.9886401756469785
        ],
        "type": "Point"
      },
      "properties": {
        "anchor_kind": "amenity:university",
        "anchor_name": "Mount Kenya University Rwanda",
        "archetype": "standard",
        "chainage_m": 4033.9,
        "corridor_offset_m": 0.751,
        "id": "line-3-0881-0561-s004034",
        "junction_group": null,
        "line": "line-3",
        "platform_length_m": 85.0
      },
      "type": "Feature"
    },
    {
      "geometry": {
        "coordinates": [
          30.09716312942497,
          -1.9751427131699242
        ],
        "type": "Point"
      },
      "properties": {
        "anchor_kind": null,
        "anchor_name": null,
        "archetype": "interchange-elevated",
        "chainage_m": 5908.7,
        "corridor_offset_m": 0.846,
        "id": "line-3-0806-0540-s005909",
        "junction_group": 2,
        "line": "line-3",
        "platform_length_m": 85.0
      },
      "type": "Feature"
    },
    {
      "geometry": {
        "coordinates": [
          30.094107119803834,
          -1.9681240326818559
        ],
        "type": "Point"
      },
      "properties": {
        "anchor_kind": null,
        "anchor_name": null,
        "archetype": "interchange-elevated",
        "chainage_m": 6876.4,
        "corridor_offset_m": 0.825,
        "id": "line-3-0767-0523-s006876",
        "junction_group": 2,
        "line": "line-3",
        "platform_length_m": 85.0
      },
      "type": "Feature"
    },
    {
      "geometry": {
        "coordinates": [
          30.094107119803834,
          -1.964704675521002
        ],
        "type": "Point"
      },
      "properties": {
        "anchor_kind": "amenity:hospital",
        "anchor_name": "Rugando Health Post",
        "archetype": "interchange-elevated",
        "chainage_m": 7272.9,
        "corridor_offset_m": 0.611,
        "id": "line-3-0748-0523-s007273",
        "junction_group": 2,
        "line": "line-3",
        "platform_length_m": 85.0
      },
      "type": "Feature"
    },
    {
      "geometry": {
        "coordinates": [
          30.09177017127002,
          -1.9618252168592305
        ],
        "type": "Point"
      },
      "properties": {
        "anchor_kind": null,
        "anchor_name": null,
        "archetype": "interchange-elevated",
        "chainage_m": 7759.2,
        "corridor_offset_m": 0.761,
        "id": "line-3-0732-0510-s007759",
        "junction_group": 2,
        "line": "line-3",
        "platform_length_m": 85.0
      },
      "type": "Feature"
    },
    {
      "geometry": {
        "coordinates": [
          30.102376322308086,
          -1.952466976208473
        ],
        "type": "Point"
      },
      "properties": {
        "anchor_kind": "amenity:hospital",
        "anchor_name": null,
        "archetype": "major",
        "chainage_m": 9851.2,
        "corridor_offset_m": 1.704,
        "id": "line-3-0680-0569-s009851",
        "junction_group": null,
        "line": "line-3",
        "platform_length_m": 85.0
      },
      "type": "Feature"
    },
    {
      "geometry": {
        "coordinates": [
          30.09985960850244,
          -1.938069682899615
        ],
        "type": "Point"
      },
      "properties": {
        "anchor_kind": "amenity:hospital",
        "anchor_name": "Baho International Hospital",
        "archetype": "interchange-elevated",
        "chainage_m": 11862.5,
        "corridor_offset_m": 7.919,
        "id": "line-3-0600-0555-s011863",
        "junction_group": 6,
        "line": "line-3",
        "platform_length_m": 85.0
      },
      "type": "Feature"
    },
    {
      "geometry": {
        "coordinates": [
          30.09608453779398,
          -1.9234924234243962
        ],
        "type": "Point"
      },
      "properties": {
        "anchor_kind": "amenity:hospital",
        "anchor_name": "Rwanda International Institute Of Ophthalmology (Riio) And Riio Ihospital",
        "archetype": "standard",
        "chainage_m": 13878.8,
        "corridor_offset_m": 0.606,
        "id": "line-3-0519-0534-s013879",
        "junction_group": null,
        "line": "line-3",
        "platform_length_m": 85.0
      },
      "type": "Feature"
    },
    {
      "geometry": {
        "coordinates": [
          30.08925345746438,
          -1.9103548932800634
        ],
        "type": "Point"
      },
      "properties": {
        "anchor_kind": "amenity:hospital",
        "anchor_name": "Kagugu Health Centre",
        "archetype": "standard",
        "chainage_m": 15898.4,
        "corridor_offset_m": 0.292,
        "id": "line-3-0446-0496-s015898",
        "junction_group": null,
        "line": "line-3",
        "platform_length_m": 85.0
      },
      "type": "Feature"
    },
    {
      "geometry": {
        "coordinates": [
          30.097702425240463,
          -1.9018964834611094
        ],
        "type": "Point"
      },
      "properties": {
        "anchor_kind": null,
        "anchor_name": null,
        "archetype": "standard",
        "chainage_m": 17227.8,
        "corridor_offset_m": 0.224,
        "id": "line-3-0399-0543-s017228",
        "junction_group": null,
        "line": "line-3",
        "platform_length_m": 85.0
      },
      "type": "Feature"
    },
    {
      "geometry": {
        "coordinates": [
          30.10093820013343,
          -1.8914584458121875
        ],
        "type": "Point"
      },
      "properties": {
        "anchor_kind": "amenity:hospital",
        "anchor_name": "Kami Health Post",
        "archetype": "terminal",
        "chainage_m": 18536.9,
        "corridor_offset_m": 0.0,
        "id": "line-3-0341-0561-s018537",
        "junction_group": null,
        "line": "line-3",
        "platform_length_m": 85.0
      },
      "type": "Feature"
    },
    {
      "geometry": {
        "coordinates": [
          30.153609424780086,
          -1.8597844005327
        ],
        "type": "Point"
      },
      "properties": {
        "anchor_kind": "amenity:hospital",
        "anchor_name": "Gikomero Ii Health Centre",
        "archetype": "terminal",
        "chainage_m": 0.0,
        "corridor_offset_m": 0.0,
        "id": "line-4-0165-0854-s000000",
        "junction_group": null,
        "line": "line-4",
        "platform_length_m": 85.0
      },
      "type": "Feature"
    },
    {
      "geometry": {
        "coordinates": [
          30.149115292984295,
          -1.8824601374941512
        ],
        "type": "Point"
      },
      "properties": {
        "anchor_kind": null,
        "anchor_name": null,
        "archetype": "standard",
        "chainage_m": 2727.1,
        "corridor_offset_m": 27.238,
        "id": "line-4-0291-0829-s002727",
        "junction_group": null,
        "line": "line-4",
        "platform_length_m": 85.0
      },
      "type": "Feature"
    },
    {
      "geometry": {
        "coordinates": [
          30.143542569557518,
          -1.891098513479466
        ],
        "type": "Point"
      },
      "properties": {
        "anchor_kind": null,
        "anchor_name": null,
        "archetype": "interchange-elevated",
        "chainage_m": 3943.9,
        "corridor_offset_m": 23.288,
        "id": "line-4-0339-0798-s003944",
        "junction_group": 9,
        "line": "line-4",
        "platform_length_m": 85.0
      },
      "type": "Feature"
    },
    {
      "geometry": {
        "coordinates": [
          30.13707101977158,
          -1.8991969909656985
        ],
        "type": "Point"
      },
      "properties": {
        "anchor_kind": null,
        "anchor_name": null,
        "archetype": "standard",
        "chainage_m": 5344.2,
        "corridor_offset_m": 0.963,
        "id": "line-4-0384-0762-s005344",
        "junction_group": null,
        "line": "line-4",
        "platform_length_m": 85.0
      },
      "type": "Feature"
    },
    {
      "geometry": {
        "coordinates": [
          30.128262521451834,
          -1.9058557391210453
        ],
        "type": "Point"
      },
      "properties": {
        "anchor_kind": null,
        "anchor_name": null,
        "archetype": "standard",
        "chainage_m": 6741.0,
        "corridor_offset_m": 13.011,
        "id": "line-4-0421-0713-s006741",
        "junction_group": null,
        "line": "line-4",
        "platform_length_m": 85.0
      },
      "type": "Feature"
    },
    {
      "geometry": {
        "coordinates": [
          30.120352849491244,
          -1.9179134722672138
        ],
        "type": "Point"
      },
      "properties": {
        "anchor_kind": null,
        "anchor_name": null,
        "archetype": "standard",
        "chainage_m": 8760.6,
        "corridor_offset_m": 16.664,
        "id": "line-4-0488-0669-s008761",
        "junction_group": null,
        "line": "line-4",
        "platform_length_m": 85.0
      },
      "type": "Feature"
    },
    {
      "geometry": {
        "coordinates": [
          30.111184820627834,
          -1.9225925925925926
        ],
        "type": "Point"
      },
      "properties": {
        "anchor_kind": "amenity:hospital",
        "anchor_name": "Kinyinya Health Centre",
        "archetype": "standard",
        "chainage_m": 10763.7,
        "corridor_offset_m": 9.787,
        "id": "line-4-0514-0618-s010764",
        "junction_group": null,
        "line": "line-4",
        "platform_length_m": 85.0
      },
      "type": "Feature"
    },
    {
      "geometry": {
        "coordinates": [
          30.103454913939075,
          -1.9339304610733183
        ],
        "type": "Point"
      },
      "properties": {
        "anchor_kind": "amenity:hospital",
        "anchor_name": "Baho International Hospital",
        "archetype": "interchange-elevated",
        "chainage_m": 12781.1,
        "corridor_offset_m": 31.868,
        "id": "line-4-0577-0575-s012781",
        "junction_group": 6,
        "line": "line-4",
        "platform_length_m": 85.0
      },
      "type": "Feature"
    },
    {
      "geometry": {
        "coordinates": [
          30.094646415619327,
          -1.9420289385595508
        ],
        "type": "Point"
      },
      "properties": {
        "anchor_kind": "amenity:hospital",
        "anchor_name": "King Faisal Hospital",
        "archetype": "major",
        "chainage_m": 14232.5,
        "corridor_offset_m": 50.872,
        "id": "line-4-0622-0526-s014232",
        "junction_group": null,
        "line": "line-4",
        "platform_length_m": 85.0
      },
      "type": "Feature"
    },
    {
      "geometry": {
        "coordinates": [
          30.092489232357348,
          -1.951027246877587
        ],
        "type": "Point"
      },
      "properties": {
        "anchor_kind": "amenity:hospital",
        "anchor_name": "Maisha Optical Centre",
        "archetype": "major",
        "chainage_m": 15447.9,
        "corridor_offset_m": 64.308,
        "id": "line-4-0672-0514-s015448",
        "junction_group": null,
        "line": "line-4",
        "platform_length_m": 85.0
      },
      "type": "Feature"
    },
    {
      "geometry": {
        "coordinates": [
          30.078287775882654,
          -1.953006874707555
        ],
        "type": "Point"
      },
      "properties": {
        "anchor_kind": "place:neighbourhood",
        "anchor_name": "Kimihurura",
        "archetype": "interchange-elevated",
        "chainage_m": 17464.1,
        "corridor_offset_m": 41.104,
        "id": "line-4-0683-0435-s017464",
        "junction_group": 1,
        "line": "line-4",
        "platform_length_m": 85.0
      },
      "type": "Feature"
    },
    {
      "geometry": {
        "coordinates": [
          30.074153174630528,
          -1.9560662995356874
        ],
        "type": "Point"
      },
      "properties": {
        "anchor_kind": null,
        "anchor_name": null,
        "archetype": "interchange-elevated",
        "chainage_m": 18064.9,
        "corridor_offset_m": 46.964,
        "id": "line-4-0700-0412-s018065",
        "junction_group": 1,
        "line": "line-4",
        "platform_length_m": 85.0
      },
      "type": "Feature"
    },
    {
      "geometry": {
        "coordinates": [
          30.068939981747413,
          -1.966144404851888
        ],
        "type": "Point"
      },
      "properties": {
        "anchor_kind": "amenity:hospital",
        "anchor_name": "Muslims New Hospital",
        "archetype": "standard",
        "chainage_m": 19472.0,
        "corridor_offset_m": 41.425,
        "id": "line-4-0756-0383-s019472",
        "junction_group": null,
        "line": "line-4",
        "platform_length_m": 85.0
      },
      "type": "Feature"
    },
    {
      "geometry": {
        "coordinates": [
          30.06192913614598,
          -1.9783821041644172
        ],
        "type": "Point"
      },
      "properties": {
        "anchor_kind": null,
        "anchor_name": null,
        "archetype": "standard",
        "chainage_m": 21494.5,
        "corridor_offset_m": 42.886,
        "id": "line-4-0824-0344-s021495",
        "junction_group": null,
        "line": "line-4",
        "platform_length_m": 85.0
      },
      "type": "Feature"
    },
    {
      "geometry": {
        "coordinates": [
          30.05491829054455,
          -1.9868405139833711
        ],
        "type": "Point"
      },
      "properties": {
        "anchor_kind": null,
        "anchor_name": null,
        "archetype": "standard",
        "chainage_m": 22827.9,
        "corridor_offset_m": 32.036,
        "id": "line-4-0871-0305-s022828",
        "junction_group": null,
        "line": "line-4",
        "platform_length_m": 85.0
      },
      "type": "Feature"
    },
    {
      "geometry": {
        "coordinates": [
          30.052581342010736,
          -1.9945790591368824
        ],
        "type": "Point"
      },
      "properties": {
        "anchor_kind": "amenity:hospital",
        "anchor_name": "CHUK",
        "archetype": "terminal",
        "chainage_m": 24189.6,
        "corridor_offset_m": 0.0,
        "id": "line-4-0914-0292-s024190",
        "junction_group": null,
        "line": "line-4",
        "platform_length_m": 85.0
      },
      "type": "Feature"
    },
    {
      "geometry": {
        "coordinates": [
          30.044491904778315,
          -1.866263182521686
        ],
        "type": "Point"
      },
      "properties": {
        "anchor_kind": "amenity:hospital",
        "anchor_name": "Bweramvura Health Post",
        "archetype": "terminal",
        "chainage_m": 0.0,
        "corridor_offset_m": 0.0,
        "id": "line-5-0201-0247-s000000",
        "junction_group": null,
        "line": "line-5",
        "platform_length_m": 85.0
      },
      "type": "Feature"
    },
    {
      "geometry": {
        "coordinates": [
          30.056715943262862,
          -1.883899866825037
        ],
        "type": "Point"
      },
      "properties": {
        "anchor_kind": null,
        "anchor_name": null,
        "archetype": "halt",
        "chainage_m": 3009.4,
        "corridor_offset_m": 36.286,
        "id": "line-5-0299-0315-s003009",
        "junction_group": null,
        "line": "line-5",
        "platform_length_m": 81.0
      },
      "type": "Feature"
    },
    {
      "geometry": {
        "coordinates": [
          30.06300772777697,
          -1.892358276643991
        ],
        "type": "Point"
      },
      "properties": {
        "anchor_kind": null,
        "anchor_name": null,
        "archetype": "halt",
        "chainage_m": 4970.2,
        "corridor_offset_m": 6.467,
        "id": "line-5-0346-0350-s004970",
        "junction_group": null,
        "line": "line-5",
        "platform_length_m": 81.0
      },
      "type": "Feature"
    },
    {
      "geometry": {
        "coordinates": [
          30.07559129680518,
          -1.898837058632977
        ],
        "type": "Point"
      },
      "properties": {
        "anchor_kind": null,
        "anchor_name": null,
        "archetype": "interchange-elevated",
        "chainage_m": 6928.7,
        "corridor_offset_m": 25.155,
        "id": "line-5-0382-0420-s006929",
        "junction_group": 10,
        "line": "line-5",
        "platform_length_m": 85.0
      },
      "type": "Feature"
    },
    {
      "geometry": {
        "coordinates": [
          30.078827071698147,
          -1.9101749271137027
        ],
        "type": "Point"
      },
      "properties": {
        "anchor_kind": null,
        "anchor_name": null,
        "archetype": "standard",
        "chainage_m": 8477.2,
        "corridor_offset_m": 4.599,
        "id": "line-5-0445-0438-s008477",
        "junction_group": null,
        "line": "line-5",
        "platform_length_m": 85.0
      },
      "type": "Feature"
    },
    {
      "geometry": {
        "coordinates": [
          30.085118856212254,
          -1.920432998596264
        ],
        "type": "Point"
      },
      "properties": {
        "anchor_kind": null,
        "anchor_name": null,
        "archetype": "standard",
        "chainage_m": 10038.9,
        "corridor_offset_m": 51.253,
        "id": "line-5-0502-0473-s010039",
        "junction_group": null,
        "line": "line-5",
        "platform_length_m": 85.0
      },
      "type": "Feature"
    },
    {
      "geometry": {
        "coordinates": [
          30.095725007250316,
          -1.9310510024115466
        ],
        "type": "Point"
      },
      "properties": {
        "anchor_kind": null,
        "anchor_name": null,
        "archetype": "standard",
        "chainage_m": 12043.4,
        "corridor_offset_m": 27.706,
        "id": "line-5-0561-0532-s012043",
        "junction_group": null,
        "line": "line-5",
        "platform_length_m": 85.0
      },
      "type": "Feature"
    },
    {
      "geometry": {
        "coordinates": [
          30.103994209754568,
          -1.9452683295540438
        ],
        "type": "Point"
      },
      "properties": {
        "anchor_kind": "amenity:hospital",
        "anchor_name": "Nyaruguru",
        "archetype": "standard",
        "chainage_m": 14051.3,
        "corridor_offset_m": 28.53,
        "id": "line-5-0640-0578-s014051",
        "junction_group": null,
        "line": "line-5",
        "platform_length_m": 85.0
      },
      "type": "Feature"
    },
    {
      "geometry": {
        "coordinates": [
          30.111544351171496,
          -1.9503073822121442
        ],
        "type": "Point"
      },
      "properties": {
        "anchor_kind": "amenity:hospital",
        "anchor_name": null,
        "archetype": "interchange-elevated",
        "chainage_m": 15266.7,
        "corridor_offset_m": 48.272,
        "id": "line-5-0668-0620-s015267",
        "junction_group": 3,
        "line": "line-5",
        "platform_length_m": 85.0
      },
      "type": "Feature"
    },
    {
      "geometry": {
        "coordinates": [
          30.111724116443327,
          -1.956966130367491
        ],
        "type": "Point"
      },
      "properties": {
        "anchor_kind": "amenity:hospital",
        "anchor_name": "Ivuriro Polyfam",
        "archetype": "interchange-elevated",
        "chainage_m": 16470.4,
        "corridor_offset_m": 27.143,
        "id": "line-5-0705-0621-s016470",
        "junction_group": 3,
        "line": "line-5",
        "platform_length_m": 85.0
      },
      "type": "Feature"
    },
    {
      "geometry": {
        "coordinates": [
          30.112802708074316,
          -1.964704675521002
        ],
        "type": "Point"
      },
      "properties": {
        "anchor_kind": "amenity:hospital",
        "anchor_name": "Best Care Specialists Hospital",
        "archetype": "interchange-elevated",
        "chainage_m": 17675.5,
        "corridor_offset_m": 19.853,
        "id": "line-5-0748-0627-s017675",
        "junction_group": 3,
        "line": "line-5",
        "platform_length_m": 85.0
      },
      "type": "Feature"
    },
    {
      "geometry": {
        "coordinates": [
          30.121970736937726,
          -1.9773023071662528
        ],
        "type": "Point"
      },
      "properties": {
        "anchor_kind": null,
        "anchor_name": null,
        "archetype": "standard",
        "chainage_m": 19700.0,
        "corridor_offset_m": 11.426,
        "id": "line-5-0818-0678-s019700",
        "junction_group": null,
        "line": "line-5",
        "platform_length_m": 85.0
      },
      "type": "Feature"
    },
    {
      "geometry": {
        "coordinates": [
          30.132037592160295,
          -1.9893600403124214
        ],
        "type": "Point"
      },
      "properties": {
        "anchor_kind": null,
        "anchor_name": null,
        "archetype": "standard",
        "chainage_m": 21701.1,
        "corridor_offset_m": 43.344,
        "id": "line-5-0885-0734-s021701",
        "junction_group": null,
        "line": "line-5",
        "platform_length_m": 85.0
      },
      "type": "Feature"
    },
    {
      "geometry": {
        "coordinates": [
          30.14048655993638,
          -1.992779397473275
        ],
        "type": "Point"
      },
      "properties": {
        "anchor_kind": null,
        "anchor_name": null,
        "archetype": "standard",
        "chainage_m": 23304.7,
        "corridor_offset_m": 13.401,
        "id": "line-5-0904-0781-s023305",
        "junction_group": null,
        "line": "line-5",
        "platform_length_m": 85.0
      },
      "type": "Feature"
    },
    {
      "geometry": {
        "coordinates": [
          30.14965458879979,
          -1.9988982471295398
        ],
        "type": "Point"
      },
      "properties": {
        "anchor_kind": "amenity:marketplace",
        "anchor_name": "Fruits shop",
        "archetype": "terminal",
        "chainage_m": 24923.6,
        "corridor_offset_m": 6.003,
        "id": "line-5-0938-0832-s024924",
        "junction_group": 11,
        "line": "line-5",
        "platform_length_m": 85.0
      },
      "type": "Feature"
    },
    {
      "geometry": {
        "coordinates": [
          30.056895708534697,
          -1.9213328294280676
        ],
        "type": "Point"
      },
      "properties": {
        "anchor_kind": "amenity:university",
        "anchor_name": "Kigali Independent University (ULK)",
        "archetype": "interchange-elevated",
        "chainage_m": 0.0,
        "corridor_offset_m": 0.0,
        "id": "line-6-0507-0316-s000000",
        "junction_group": 5,
        "line": "line-6",
        "platform_length_m": 85.0
      },
      "type": "Feature"
    },
    {
      "geometry": {
        "coordinates": [
          30.065883972126276,
          -1.9123345211100313
        ],
        "type": "Point"
      },
      "properties": {
        "anchor_kind": null,
        "anchor_name": null,
        "archetype": "standard",
        "chainage_m": 2013.4,
        "corridor_offset_m": 18.489,
        "id": "line-6-0457-0366-s002013",
        "junction_group": null,
        "line": "line-6",
        "platform_length_m": 85.0
      },
      "type": "Feature"
    },
    {
      "geometry": {
        "coordinates": [
          30.07559129680518,
          -1.898837058632977
        ],
        "type": "Point"
      },
      "properties": {
        "anchor_kind": null,
        "anchor_name": null,
        "archetype": "interchange-elevated",
        "chainage_m": 4093.3,
        "corridor_offset_m": 55.703,
        "id": "line-6-0382-0420-s004093",
        "junction_group": 10,
        "line": "line-6",
        "platform_length_m": 85.0
      },
      "type": "Feature"
    },
    {
      "geometry": {
        "coordinates": [
          30.086736743658737,
          -1.8873192239858907
        ],
        "type": "Point"
      },
      "properties": {
        "anchor_kind": null,
        "anchor_name": null,
        "archetype": "halt",
        "chainage_m": 6062.6,
        "corridor_offset_m": 70.789,
        "id": "line-6-0318-0482-s006063",
        "junction_group": null,
        "line": "line-6",
        "platform_length_m": 81.0
      },
      "type": "Feature"
    },
    {
      "geometry": {
        "coordinates": [
          30.086916508930567,
          -1.8720220998452293
        ],
        "type": "Point"
      },
      "properties": {
        "anchor_kind": "place:town",
        "anchor_name": "Nyacyonga",
        "archetype": "halt",
        "chainage_m": 8047.7,
        "corridor_offset_m": 49.832,
        "id": "line-6-0233-0483-s008048",
        "junction_group": null,
        "line": "line-6",
        "platform_length_m": 81.0
      },
      "type": "Feature"
    },
    {
      "geometry": {
        "coordinates": [
          30.10633115828838,
          -1.8678828780189325
        ],
        "type": "Point"
      },
      "properties": {
        "anchor_kind": null,
        "anchor_name": null,
        "archetype": "halt",
        "chainage_m": 11061.7,
        "corridor_offset_m": 158.884,
        "id": "line-6-0210-0591-s011062",
        "junction_group": null,
        "line": "line-6",
        "platform_length_m": 81.0
      },
      "type": "Feature"
    },
    {
      "geometry": {
        "coordinates": [
          30.12358862438421,
          -1.8606842313645036
        ],
        "type": "Point"
      },
      "properties": {
        "anchor_kind": "amenity:hospital",
        "anchor_name": "Rwamagana Level Two Teaching Hospital",
        "archetype": "standard",
        "chainage_m": 13971.7,
        "corridor_offset_m": 128.108,
        "id": "line-6-0170-0687-s013972",
        "junction_group": null,
        "line": "line-6",
        "platform_length_m": 85.0
      },
      "type": "Feature"
    },
    {
      "geometry": {
        "coordinates": [
          30.129520878354654,
          -1.8770611525033294
        ],
        "type": "Point"
      },
      "properties": {
        "anchor_kind": null,
        "anchor_name": null,
        "archetype": "standard",
        "chainage_m": 16065.0,
        "corridor_offset_m": 211.784,
        "id": "line-6-0261-0720-s016065",
        "junction_group": null,
        "line": "line-6",
        "platform_length_m": 85.0
      },
      "type": "Feature"
    },
    {
      "geometry": {
        "coordinates": [
          30.142284212654697,
          -1.889838750314941
        ],
        "type": "Point"
      },
      "properties": {
        "anchor_kind": null,
        "anchor_name": null,
        "archetype": "interchange-elevated",
        "chainage_m": 18084.9,
        "corridor_offset_m": 326.13,
        "id": "line-6-0332-0791-s018085",
        "junction_group": 9,
        "line": "line-6",
        "platform_length_m": 85.0
      },
      "type": "Feature"
    },
    {
      "geometry": {
        "coordinates": [
          30.143542569557518,
          -1.891098513479466
        ],
        "type": "Point"
      },
      "properties": {
        "anchor_kind": null,
        "anchor_name": null,
        "archetype": "interchange-elevated",
        "chainage_m": 18282.9,
        "corridor_offset_m": 338.527,
        "id": "line-6-0339-0798-s018283",
        "junction_group": 9,
        "line": "line-6",
        "platform_length_m": 85.0
      },
      "type": "Feature"
    },
    {
      "geometry": {
        "coordinates": [
          30.151092710974442,
          -1.9042360436237988
        ],
        "type": "Point"
      },
      "properties": {
        "anchor_kind": null,
        "anchor_name": null,
        "archetype": "standard",
        "chainage_m": 20090.9,
        "corridor_offset_m": 374.767,
        "id": "line-6-0412-0840-s020091",
        "junction_group": null,
        "line": "line-6",
        "platform_length_m": 85.0
      },
      "type": "Feature"
    },
    {
      "geometry": {
        "coordinates": [
          30.159002382935032,
          -1.9191732354317388
        ],
        "type": "Point"
      },
      "properties": {
        "anchor_kind": null,
        "anchor_name": null,
        "archetype": "standard",
        "chainage_m": 22115.4,
        "corridor_offset_m": 450.346,
        "id": "line-6-0495-0884-s022115",
        "junction_group": null,
        "line": "line-6",
        "platform_length_m": 85.0
      },
      "type": "Feature"
    },
    {
      "geometry": {
        "coordinates": [
          30.155227312226568,
          -1.933390562574236
        ],
        "type": "Point"
      },
      "properties": {
        "anchor_kind": "amenity:university",
        "anchor_name": "African Leadership University",
        "archetype": "interchange-elevated",
        "chainage_m": 24119.0,
        "corridor_offset_m": 417.172,
        "id": "line-6-0574-0863-s024119",
        "junction_group": 7,
        "line": "line-6",
        "platform_length_m": 85.0
      },
      "type": "Feature"
    },
    {
      "geometry": {
        "coordinates": [
          30.155227312226568,
          -1.9366299535687292
        ],
        "type": "Point"
      },
      "properties": {
        "anchor_kind": null,
        "anchor_name": null,
        "archetype": "interchange-elevated",
        "chainage_m": 24479.0,
        "corridor_offset_m": 455.888,
        "id": "line-6-0592-0863-s024479",
        "junction_group": 7,
        "line": "line-6",
        "platform_length_m": 85.0
      },
      "type": "Feature"
    },
    {
      "geometry": {
        "coordinates": [
          30.160620270381518,
          -1.9483277543821762
        ],
        "type": "Point"
      },
      "properties": {
        "anchor_kind": null,
        "anchor_name": null,
        "archetype": "interchange-elevated",
        "chainage_m": 26269.6,
        "corridor_offset_m": 436.767,
        "id": "line-6-0657-0893-s026270",
        "junction_group": 8,
        "line": "line-6",
        "platform_length_m": 85.0
      },
      "type": "Feature"
    },
    {
      "geometry": {
        "coordinates": [
          30.163676280002655,
          -1.9623651153583128
        ],
        "type": "Point"
      },
      "properties": {
        "anchor_kind": null,
        "anchor_name": null,
        "archetype": "standard",
        "chainage_m": 28143.0,
        "corridor_offset_m": 432.775,
        "id": "line-6-0735-0910-s028143",
        "junction_group": null,
        "line": "line-6",
        "platform_length_m": 85.0
      },
      "type": "Feature"
    },
    {
      "geometry": {
        "coordinates": [
          30.174102665768885,
          -1.9704635928445453
        ],
        "type": "Point"
      },
      "properties": {
        "anchor_kind": "place:town",
        "anchor_name": "Murindi",
        "archetype": "standard",
        "chainage_m": 30159.8,
        "corridor_offset_m": 466.743,
        "id": "line-6-0780-0968-s030160",
        "junction_group": null,
        "line": "line-6",
        "platform_length_m": 85.0
      },
      "type": "Feature"
    },
    {
      "geometry": {
        "coordinates": [
          30.17697891011819,
          -1.9818014613252708
        ],
        "type": "Point"
      },
      "properties": {
        "anchor_kind": null,
        "anchor_name": null,
        "archetype": "interchange-elevated",
        "chainage_m": 31986.3,
        "corridor_offset_m": 448.351,
        "id": "line-6-0843-0984-s031986",
        "junction_group": 4,
        "line": "line-6",
        "platform_length_m": 85.0
      },
      "type": "Feature"
    },
    {
      "geometry": {
        "coordinates": [
          30.17572055321537,
          -1.9828812583234352
        ],
        "type": "Point"
      },
      "properties": {
        "anchor_kind": "amenity:hospital",
        "anchor_name": "Nanuri Medical Center",
        "archetype": "interchange-elevated",
        "chainage_m": 32187.7,
        "corridor_offset_m": 466.29,
        "id": "line-6-0849-0977-s032188",
        "junction_group": 4,
        "line": "line-6",
        "platform_length_m": 85.0
      },
      "type": "Feature"
    },
    {
      "geometry": {
        "coordinates": [
          30.16097980092518,
          -1.9904398373105856
        ],
        "type": "Point"
      },
      "properties": {
        "anchor_kind": null,
        "anchor_name": null,
        "archetype": "standard",
        "chainage_m": 34215.7,
        "corridor_offset_m": 519.952,
        "id": "line-6-0891-0895-s034216",
        "junction_group": null,
        "line": "line-6",
        "platform_length_m": 85.0
      },
      "type": "Feature"
    },
    {
      "geometry": {
        "coordinates": [
          30.15037364988712,
          -1.998718280963179
        ],
        "type": "Point"
      },
      "properties": {
        "anchor_kind": null,
        "anchor_name": null,
        "archetype": "interchange-elevated",
        "chainage_m": 35776.7,
        "corridor_offset_m": 560.099,
        "id": "line-6-0937-0836-s035777",
        "junction_group": 11,
        "line": "line-6",
        "platform_length_m": 85.0
      },
      "type": "Feature"
    },
    {
      "geometry": {
        "coordinates": [
          30.147137874994147,
          -2.0005179426267863
        ],
        "type": "Point"
      },
      "properties": {
        "anchor_kind": "amenity:marketplace",
        "anchor_name": "Fruits shop",
        "archetype": "interchange-elevated",
        "chainage_m": 36219.6,
        "corridor_offset_m": 560.952,
        "id": "line-6-0947-0818-s036220",
        "junction_group": 11,
        "line": "line-6",
        "platform_length_m": 85.0
      },
      "type": "Feature"
    },
    {
      "geometry": {
        "coordinates": [
          30.1349138365096,
          -2.0093362847784615
        ],
        "type": "Point"
      },
      "properties": {
        "anchor_kind": "amenity:hospital",
        "anchor_name": "Hospital De Dieu",
        "archetype": "standard",
        "chainage_m": 38220.7,
        "corridor_offset_m": 463.327,
        "id": "line-6-0996-0750-s038221",
        "junction_group": null,
        "line": "line-6",
        "platform_length_m": 85.0
      },
      "type": "Feature"
    },
    {
      "geometry": {
        "coordinates": [
          30.123049328568715,
          -2.0042972321203614
        ],
        "type": "Point"
      },
      "properties": {
        "anchor_kind": null,
        "anchor_name": null,
        "archetype": "standard",
        "chainage_m": 40232.0,
        "corridor_offset_m": 581.976,
        "id": "line-6-0968-0684-s040232",
        "junction_group": null,
        "line": "line-6",
        "platform_length_m": 85.0
      },
      "type": "Feature"
    },
    {
      "geometry": {
        "coordinates": [
          30.113342003889812,
          -1.9916996004751106
        ],
        "type": "Point"
      },
      "properties": {
        "anchor_kind": null,
        "anchor_name": null,
        "archetype": "standard",
        "chainage_m": 42241.4,
        "corridor_offset_m": 521.307,
        "id": "line-6-0898-0630-s042241",
        "junction_group": null,
        "line": "line-6",
        "platform_length_m": 85.0
      },
      "type": "Feature"
    },
    {
      "geometry": {
        "coordinates": [
          30.111544351171496,
          -1.9774822733326136
        ],
        "type": "Point"
      },
      "properties": {
        "anchor_kind": "amenity:hospital",
        "anchor_name": "Saint Samuella Clinic",
        "archetype": "standard",
        "chainage_m": 44267.9,
        "corridor_offset_m": 472.727,
        "id": "line-6-0819-0620-s044268",
        "junction_group": null,
        "line": "line-6",
        "platform_length_m": 85.0
      },
      "type": "Feature"
    },
    {
      "geometry": {
        "coordinates": [
          30.10201679176442,
          -1.9728031530072347
        ],
        "type": "Point"
      },
      "properties": {
        "anchor_kind": null,
        "anchor_name": null,
        "archetype": "interchange-elevated",
        "chainage_m": 45635.0,
        "corridor_offset_m": 384.082,
        "id": "line-6-0793-0567-s045635",
        "junction_group": 2,
        "line": "line-6",
        "platform_length_m": 85.0
      },
      "type": "Feature"
    },
    {
      "geometry": {
        "coordinates": [
          30.10093820013343,
          -1.9713634236763489
        ],
        "type": "Point"
      },
      "properties": {
        "anchor_kind": null,
        "anchor_name": null,
        "archetype": "interchange-elevated",
        "chainage_m": 45844.7,
        "corridor_offset_m": 385.329,
        "id": "line-6-0785-0561-s045845",
        "junction_group": 2,
        "line": "line-6",
        "platform_length_m": 85.0
      },
      "type": "Feature"
    },
    {
      "geometry": {
        "coordinates": [
          30.094107119803834,
          -1.9681240326818559
        ],
        "type": "Point"
      },
      "properties": {
        "anchor_kind": null,
        "anchor_name": null,
        "archetype": "interchange-elevated",
        "chainage_m": 46777.3,
        "corridor_offset_m": 403.054,
        "id": "line-6-0767-0523-s046777",
        "junction_group": 2,
        "line": "line-6",
        "platform_length_m": 85.0
      },
      "type": "Feature"
    },
    {
      "geometry": {
        "coordinates": [
          30.0905118143672,
          -1.9670442356836915
        ],
        "type": "Point"
      },
      "properties": {
        "anchor_kind": null,
        "anchor_name": null,
        "archetype": "interchange-elevated",
        "chainage_m": 47227.0,
        "corridor_offset_m": 398.912,
        "id": "line-6-0761-0503-s047227",
        "junction_group": 2,
        "line": "line-6",
        "platform_length_m": 85.0
      },
      "type": "Feature"
    },
    {
      "geometry": {
        "coordinates": [
          30.08817486583339,
          -1.96668430335097
        ],
        "type": "Point"
      },
      "properties": {
        "anchor_kind": "shop:mall",
        "anchor_name": "Mundi Center",
        "archetype": "interchange-elevated",
        "chainage_m": 47503.5,
        "corridor_offset_m": 401.895,
        "id": "line-6-0759-0490-s047504",
        "junction_group": 2,
        "line": "line-6",
        "platform_length_m": 85.0
      },
      "type": "Feature"
    },
    {
      "geometry": {
        "coordinates": [
          30.074153174630528,
          -1.9560662995356874
        ],
        "type": "Point"
      },
      "properties": {
        "anchor_kind": null,
        "anchor_name": null,
        "archetype": "interchange-elevated",
        "chainage_m": 49692.9,
        "corridor_offset_m": 412.91,
        "id": "line-6-0700-0412-s049693",
        "junction_group": 1,
        "line": "line-6",
        "platform_length_m": 85.0
      },
      "type": "Feature"
    },
    {
      "geometry": {
        "coordinates": [
          30.06426608467979,
          -1.9555264010366051
        ],
        "type": "Point"
      },
      "properties": {
        "anchor_kind": "amenity:hospital",
        "anchor_name": "Eyes And Dental Hospital",
        "archetype": "major",
        "chainage_m": 50957.2,
        "corridor_offset_m": 409.409,
        "id": "line-6-0697-0357-s050957",
        "junction_group": null,
        "line": "line-6",
        "platform_length_m": 85.0
      },
      "type": "Feature"
    },
    {
      "geometry": {
        "coordinates": [
          30.05653617799103,
          -1.955706367202966
        ],
        "type": "Point"
      },
      "properties": {
        "anchor_kind": null,
        "anchor_name": null,
        "archetype": "interchange-elevated",
        "chainage_m": 52214.6,
        "corridor_offset_m": 347.69,
        "id": "line-6-0698-0314-s052215",
        "junction_group": 0,
        "line": "line-6",
        "platform_length_m": 85.0
      },
      "type": "Feature"
    },
    {
      "geometry": {
        "coordinates": [
          30.04503120059381,
          -1.9573260627002125
        ],
        "type": "Point"
      },
      "properties": {
        "anchor_kind": null,
        "anchor_name": null,
        "archetype": "halt",
        "chainage_m": 54099.7,
        "corridor_offset_m": 121.85,
        "id": "line-6-0707-0250-s054100",
        "junction_group": null,
        "line": "line-6",
        "platform_length_m": 81.0
      },
      "type": "Feature"
    },
    {
      "geometry": {
        "coordinates": [
          30.04593002695297,
          -1.9454482957204047
        ],
        "type": "Point"
      },
      "properties": {
        "anchor_kind": null,
        "anchor_name": null,
        "archetype": "interchange-elevated",
        "chainage_m": 55973.9,
        "corridor_offset_m": 115.88,
        "id": "line-6-0641-0255-s055974",
        "junction_group": 0,
        "line": "line-6",
        "platform_length_m": 85.0
      },
      "type": "Feature"
    },
    {
      "geometry": {
        "coordinates": [
          30.04970509766143,
          -1.9452683295540438
        ],
        "type": "Point"
      },
      "properties": {
        "anchor_kind": "amenity:hospital",
        "anchor_name": "Akabahizi Health Post",
        "archetype": "interchange-elevated",
        "chainage_m": 56967.8,
        "corridor_offset_m": 14.254,
        "id": "line-6-0640-0276-s056968",
        "junction_group": 0,
        "line": "line-6",
        "platform_length_m": 85.0
      },
      "type": "Feature"
    },
    {
      "geometry": {
        "coordinates": [
          30.051322985107916,
          -1.9445484648886011
        ],
        "type": "Point"
      },
      "properties": {
        "anchor_kind": "amenity:hospital",
        "anchor_name": "Akabahizi Health Post",
        "archetype": "interchange-elevated",
        "chainage_m": 57181.0,
        "corridor_offset_m": 9.332,
        "id": "line-6-0636-0285-s057181",
        "junction_group": 0,
        "line": "line-6",
        "platform_length_m": 85.0
      },
      "type": "Feature"
    },
    {
      "geometry": {
        "coordinates": [
          30.052401576738905,
          -1.930871036245186
        ],
        "type": "Point"
      },
      "properties": {
        "anchor_kind": null,
        "anchor_name": null,
        "archetype": "interchange-elevated",
        "chainage_m": 58979.8,
        "corridor_offset_m": 39.501,
        "id": "line-6-0560-0291-s058980",
        "junction_group": 5,
        "line": "line-6",
        "platform_length_m": 85.0
      },
      "type": "Feature"
    },
    {
      "geometry": {
        "coordinates": [
          30.055637351631873,
          -1.926371882086168
        ],
        "type": "Point"
      },
      "properties": {
        "anchor_kind": null,
        "anchor_name": null,
        "archetype": "interchange-elevated",
        "chainage_m": 59628.9,
        "corridor_offset_m": 13.718,
        "id": "line-6-0535-0309-s059629",
        "junction_group": 5,
        "line": "line-6",
        "platform_length_m": 85.0
      },
      "type": "Feature"
    }
  ],
  "type": "FeatureCollection"
}
