{
  "features": [
    {
      "geometry": {
        "coordinates": [
          89.3168891100828,
          25.736010114098548
        ],
        "type": "Point"
      },
      "properties": {
        "anchor_kind": "amenity:marketplace",
        "anchor_name": "Nabdiganj Bazar নব্দীগনজ বাজার",
        "archetype": "terminal",
        "chainage_m": 0.0,
        "corridor_offset_m": 0.0,
        "id": "line-1-0594-0760-s000000",
        "junction_group": null,
        "line": "line-1",
        "platform_length_m": 59.5
      },
      "type": "Feature"
    },
    {
      "geometry": {
        "coordinates": [
          89.30312639003583,
          25.74050926825757
        ],
        "type": "Point"
      },
      "properties": {
        "anchor_kind": null,
        "anchor_name": null,
        "archetype": "standard",
        "chainage_m": 1610.5,
        "corridor_offset_m": 0.033,
        "id": "line-1-0569-0691-s001611",
        "junction_group": null,
        "line": "line-1",
        "platform_length_m": 59.5
      },
      "type": "Feature"
    },
    {
      "geometry": {
        "coordinates": [
          89.28936366998887,
          25.745008422416586
        ],
        "type": "Point"
      },
      "properties": {
        "anchor_kind": null,
        "anchor_name": null,
        "archetype": "interchange",
        "chainage_m": 3221.1,
        "corridor_offset_m": 0.034,
        "id": "line-1-0544-0622-s003221",
        "junction_group": 0,
        "line": "line-1",
        "platform_length_m": 59.5
      },
      "type": "Feature"
    },
    {
      "geometry": {
        "coordinates": [
          89.2724095945687,
          25.75076733974013
        ],
        "type": "Point"
      },
      "properties": {
        "anchor_kind": null,
        "anchor_name": null,
        "archetype": "interchange",
        "chainage_m": 5221.3,
        "corridor_offset_m": 0.031,
        "id": "line-1-0512-0537-s005221",
        "junction_group": 1,
        "line": "line-1",
        "platform_length_m": 59.5
      },
      "type": "Feature"
    },
    {
      "geometry": {
        "coordinates": [
          89.25545551914854,
          25.756346290897312
        ],
        "type": "Point"
      },
      "properties": {
        "anchor_kind": "planning:residential",
        "anchor_name": "Residential planning stop; site release open",
        "archetype": "interchange",
        "chainage_m": 7213.3,
        "corridor_offset_m": 0.008,
        "id": "line-1-0481-0452-s007213",
        "junction_group": 2,
        "line": "line-1",
        "platform_length_m": 59.5
      },
      "type": "Feature"
    },
    {
      "geometry": {
        "coordinates": [
          89.24129387967993,
          25.76102541122269
        ],
        "type": "Point"
      },
      "properties": {
        "anchor_kind": null,
        "anchor_name": null,
        "archetype": "interchange",
        "chainage_m": 8872.1,
        "corridor_offset_m": 0.014,
        "id": "line-1-0455-0381-s008872",
        "junction_group": 3,
        "line": "line-1",
        "platform_length_m": 59.5
      },
      "type": "Feature"
    },
    {
      "geometry": {
        "coordinates": [
          89.2317198135603,
          25.764084836050824
        ],
        "type": "Point"
      },
      "properties": {
        "anchor_kind": "amenity:hospital",
        "anchor_name": "Rainbow Clinic, Private hospital",
        "archetype": "interchange",
        "chainage_m": 9996.4,
        "corridor_offset_m": 0.03,
        "id": "line-1-0438-0333-s009996",
        "junction_group": 4,
        "line": "line-1",
        "platform_length_m": 59.5
      },
      "type": "Feature"
    },
    {
      "geometry": {
        "coordinates": [
          89.21775763380252,
          25.7687639563762
        ],
        "type": "Point"
      },
      "properties": {
        "anchor_kind": "amenity:college",
        "anchor_name": "বীর উত্তম শহীদ সামাদ স্কুল এন্ড কলেজ, রংপুর",
        "archetype": "terminal",
        "chainage_m": 11635.2,
        "corridor_offset_m": 0.0,
        "id": "line-1-0412-0263-s011635",
        "junction_group": null,
        "line": "line-1",
        "platform_length_m": 59.5
      },
      "type": "Feature"
    },
    {
      "geometry": {
        "coordinates": [
          89.32646317620241,
          25.812495734801857
        ],
        "type": "Point"
      },
      "properties": {
        "anchor_kind": "place:town",
        "anchor_name": "হারাগাছ",
        "archetype": "terminal",
        "chainage_m": 0.0,
        "corridor_offset_m": 0.0,
        "id": "line-2-0169-0808-s000000",
        "junction_group": null,
        "line": "line-2",
        "platform_length_m": 59.5
      },
      "type": "Feature"
    },
    {
      "geometry": {
        "coordinates": [
          89.31948208632352,
          25.80115786632113
        ],
        "type": "Point"
      },
      "properties": {
        "anchor_kind": null,
        "anchor_name": null,
        "archetype": "interchange",
        "chainage_m": 1641.7,
        "corridor_offset_m": 0.201,
        "id": "line-2-0232-0773-s001642",
        "junction_group": 6,
        "line": "line-2",
        "platform_length_m": 59.5
      },
      "type": "Feature"
    },
    {
      "geometry": {
        "coordinates": [
          89.31030693962555,
          25.784061080516864
        ],
        "type": "Point"
      },
      "properties": {
        "anchor_kind": "planning:residential",
        "anchor_name": "Residential planning stop; site release open",
        "archetype": "standard",
        "chainage_m": 3993.0,
        "corridor_offset_m": 0.114,
        "id": "line-2-0327-0727-s003993",
        "junction_group": null,
        "line": "line-2",
        "platform_length_m": 59.5
      },
      "type": "Feature"
    },
    {
      "geometry": {
        "coordinates": [
          89.30472206772244,
          25.77362304286794
        ],
        "type": "Point"
      },
      "properties": {
        "anchor_kind": null,
        "anchor_name": null,
        "archetype": "interchange",
        "chainage_m": 5408.4,
        "corridor_offset_m": 0.105,
        "id": "line-2-0385-0699-s005408",
        "junction_group": 7,
        "line": "line-2",
        "platform_length_m": 59.5
      },
      "type": "Feature"
    },
    {
      "geometry": {
        "coordinates": [
          89.29774097784355,
          25.76048551272361
        ],
        "type": "Point"
      },
      "properties": {
        "anchor_kind": "planning:residential",
        "anchor_name": "Residential planning stop; site release open",
        "archetype": "standard",
        "chainage_m": 7193.5,
        "corridor_offset_m": 0.083,
        "id": "line-2-0458-0664-s007194",
        "junction_group": null,
        "line": "line-2",
        "platform_length_m": 59.5
      },
      "type": "Feature"
    },
    {
      "geometry": {
        "coordinates": [
          89.28936366998887,
          25.745008422416586
        ],
        "type": "Point"
      },
      "properties": {
        "anchor_kind": null,
        "anchor_name": null,
        "archetype": "interchange",
        "chainage_m": 9308.3,
        "corridor_offset_m": 0.067,
        "id": "line-2-0544-0622-s009308",
        "junction_group": 0,
        "line": "line-2",
        "platform_length_m": 59.5
      },
      "type": "Feature"
    },
    {
      "geometry": {
        "coordinates": [
          89.28357933837493,
          25.73367055393586
        ],
        "type": "Point"
      },
      "properties": {
        "anchor_kind": null,
        "anchor_name": null,
        "archetype": "interchange",
        "chainage_m": 10832.0,
        "corridor_offset_m": 0.043,
        "id": "line-2-0607-0593-s010832",
        "junction_group": 8,
        "line": "line-2",
        "platform_length_m": 59.5
      },
      "type": "Feature"
    },
    {
      "geometry": {
        "coordinates": [
          89.27260905427953,
          25.713334377137098
        ],
        "type": "Point"
      },
      "properties": {
        "anchor_kind": "planning:residential",
        "anchor_name": "Residential planning stop; site release open",
        "archetype": "standard",
        "chainage_m": 13606.2,
        "corridor_offset_m": 0.008,
        "id": "line-2-0720-0538-s013606",
        "junction_group": null,
        "line": "line-2",
        "platform_length_m": 59.5
      },
      "type": "Feature"
    },
    {
      "geometry": {
        "coordinates": [
          89.26642580324393,
          25.70163657632365
        ],
        "type": "Point"
      },
      "properties": {
        "anchor_kind": "amenity:college",
        "anchor_name": "Rangpur Model College, College",
        "archetype": "depot-terminal",
        "chainage_m": 15221.6,
        "corridor_offset_m": 0.0,
        "id": "line-2-0785-0507-s015222",
        "junction_group": 9,
        "line": "line-2",
        "platform_length_m": 59.5
      },
      "type": "Feature"
    },
    {
      "geometry": {
        "coordinates": [
          89.24628037245057,
          25.717293632797034
        ],
        "type": "Point"
      },
      "properties": {
        "anchor_kind": "amenity:hospital",
        "anchor_name": "Makbul Hosen General Hospital, Hospital",
        "archetype": "terminal",
        "chainage_m": 0.0,
        "corridor_offset_m": 0.0,
        "id": "line-3-0698-0406-s000000",
        "junction_group": 5,
        "line": "line-3",
        "platform_length_m": 59.5
      },
      "type": "Feature"
    },
    {
      "geometry": {
        "coordinates": [
          89.24568199331809,
          25.72179278695605
        ],
        "type": "Point"
      },
      "properties": {
        "anchor_kind": null,
        "anchor_name": null,
        "archetype": "interchange",
        "chainage_m": 524.9,
        "corridor_offset_m": 0.055,
        "id": "line-3-0673-0403-s000525",
        "junction_group": 5,
        "line": "line-3",
        "platform_length_m": 59.5
      },
      "type": "Feature"
    },
    {
      "geometry": {
        "coordinates": [
          89.24448523505313,
          25.732590756937697
        ],
        "type": "Point"
      },
      "properties": {
        "anchor_kind": null,
        "anchor_name": null,
        "archetype": "interchange",
        "chainage_m": 1774.6,
        "corridor_offset_m": 0.04,
        "id": "line-3-0613-0397-s001775",
        "junction_group": 10,
        "line": "line-3",
        "platform_length_m": 59.5
      },
      "type": "Feature"
    },
    {
      "geometry": {
        "coordinates": [
          89.24288955736652,
          25.746808084080193
        ],
        "type": "Point"
      },
      "properties": {
        "anchor_kind": null,
        "anchor_name": null,
        "archetype": "standard",
        "chainage_m": 3420.8,
        "corridor_offset_m": 0.045,
        "id": "line-3-0534-0389-s003421",
        "junction_group": null,
        "line": "line-3",
        "platform_length_m": 59.5
      },
      "type": "Feature"
    },
    {
      "geometry": {
        "coordinates": [
          89.24129387967993,
          25.76102541122269
        ],
        "type": "Point"
      },
      "properties": {
        "anchor_kind": null,
        "anchor_name": null,
        "archetype": "interchange",
        "chainage_m": 5078.8,
        "corridor_offset_m": 0.036,
        "id": "line-3-0455-0381-s005079",
        "junction_group": 3,
        "line": "line-3",
        "platform_length_m": 59.5
      },
      "type": "Feature"
    },
    {
      "geometry": {
        "coordinates": [
          89.23929928257168,
          25.77830216319332
        ],
        "type": "Point"
      },
      "properties": {
        "anchor_kind": null,
        "anchor_name": null,
        "archetype": "interchange",
        "chainage_m": 7081.7,
        "corridor_offset_m": 0.015,
        "id": "line-3-0359-0371-s007082",
        "junction_group": 11,
        "line": "line-3",
        "platform_length_m": 59.5
      },
      "type": "Feature"
    },
    {
      "geometry": {
        "coordinates": [
          89.23770360488507,
          25.79323935500126
        ],
        "type": "Point"
      },
      "properties": {
        "anchor_kind": "planning:residential",
        "anchor_name": "Residential planning stop; site release open",
        "archetype": "halt",
        "chainage_m": 8807.9,
        "corridor_offset_m": 0.079,
        "id": "line-3-0276-0363-s008808",
        "junction_group": null,
        "line": "line-3",
        "platform_length_m": 55.5
      },
      "type": "Feature"
    },
    {
      "geometry": {
        "coordinates": [
          89.23730468546341,
          25.80853647914192
        ],
        "type": "Point"
      },
      "properties": {
        "anchor_kind": "amenity:college",
        "anchor_name": "Abdul Gani Unani Medical College, College",
        "archetype": "terminal",
        "chainage_m": 10590.8,
        "corridor_offset_m": 0.0,
        "id": "line-3-0191-0361-s010591",
        "junction_group": null,
        "line": "line-3",
        "platform_length_m": 59.5
      },
      "type": "Feature"
    },
    {
      "geometry": {
        "coordinates": [
          89.25565497885937,
          25.756166324730952
        ],
        "type": "Point"
      },
      "properties": {
        "anchor_kind": "amenity:marketplace",
        "anchor_name": "Rangpur City Bazar, Bazar",
        "archetype": "terminal",
        "chainage_m": 0.0,
        "corridor_offset_m": 0.0,
        "id": "line-4-0482-0453-s000000",
        "junction_group": 2,
        "line": "line-4",
        "platform_length_m": 59.5
      },
      "type": "Feature"
    },
    {
      "geometry": {
        "coordinates": [
          89.25764957596762,
          25.737269877263074
        ],
        "type": "Point"
      },
      "properties": {
        "anchor_kind": "amenity:bus_station",
        "anchor_name": "Kurigram Bus and Truck Stand",
        "archetype": "terminal",
        "chainage_m": 2414.8,
        "corridor_offset_m": 0.0,
        "id": "line-4-0587-0463-s002415",
        "junction_group": null,
        "line": "line-4",
        "platform_length_m": 59.5
      },
      "type": "Feature"
    },
    {
      "geometry": {
        "coordinates": [
          89.28357933837493,
          25.73367055393586
        ],
        "type": "Point"
      },
      "properties": {
        "anchor_kind": null,
        "anchor_name": null,
        "archetype": "terminal",
        "chainage_m": 0.0,
        "corridor_offset_m": 0.0,
        "id": "line-5-0607-0593-s000000",
        "junction_group": 8,
        "line": "line-5",
        "platform_length_m": 59.5
      },
      "type": "Feature"
    },
    {
      "geometry": {
        "coordinates": [
          89.29694313900025,
          25.72827156894504
        ],
        "type": "Point"
      },
      "properties": {
        "anchor_kind": "planning:residential-priority",
        "anchor_name": "Residential planning stop; site release open",
        "archetype": "standard",
        "chainage_m": 1588.5,
        "corridor_offset_m": 0.531,
        "id": "line-5-0637-0660-s001589",
        "junction_group": null,
        "line": "line-5",
        "platform_length_m": 59.5
      },
      "type": "Feature"
    },
    {
      "geometry": {
        "coordinates": [
          89.31668965037197,
          25.719273260627002
        ],
        "type": "Point"
      },
      "properties": {
        "anchor_kind": "planning:residential",
        "anchor_name": "Residential planning stop; site release open",
        "archetype": "standard",
        "chainage_m": 3994.5,
        "corridor_offset_m": 1.327,
        "id": "line-5-0687-0759-s003994",
        "junction_group": null,
        "line": "line-5",
        "platform_length_m": 59.5
      },
      "type": "Feature"
    },
    {
      "geometry": {
        "coordinates": [
          89.31748748921527,
          25.705955764316307
        ],
        "type": "Point"
      },
      "properties": {
        "anchor_kind": null,
        "anchor_name": null,
        "archetype": "terminal",
        "chainage_m": 5507.6,
        "corridor_offset_m": 0.0,
        "id": "line-5-0761-0763-s005508",
        "junction_group": null,
        "line": "line-5",
        "platform_length_m": 59.5
      },
      "type": "Feature"
    },
    {
      "geometry": {
        "coordinates": [
          89.24448523505313,
          25.732590756937697
        ],
        "type": "Point"
      },
      "properties": {
        "anchor_kind": null,
        "anchor_name": null,
        "archetype": "terminal",
        "chainage_m": 0.0,
        "corridor_offset_m": 0.0,
        "id": "line-6-0613-0397-s000000",
        "junction_group": 10,
        "line": "line-6",
        "platform_length_m": 59.5
      },
      "type": "Feature"
    },
    {
      "geometry": {
        "coordinates": [
          89.22793007905462,
          25.737089911096714
        ],
        "type": "Point"
      },
      "properties": {
        "anchor_kind": "planning:residential-priority",
        "anchor_name": "Residential planning stop; site release open",
        "archetype": "standard",
        "chainage_m": 1867.1,
        "corridor_offset_m": 1.471,
        "id": "line-6-0588-0314-s001867",
        "junction_group": null,
        "line": "line-6",
        "platform_length_m": 59.5
      },
      "type": "Feature"
    },
    {
      "geometry": {
        "coordinates": [
          89.2317198135603,
          25.764084836050824
        ],
        "type": "Point"
      },
      "properties": {
        "anchor_kind": "amenity:hospital",
        "anchor_name": "Rainbow Clinic, Private hospital",
        "archetype": "terminal",
        "chainage_m": 5024.5,
        "corridor_offset_m": 0.0,
        "id": "line-6-0438-0333-s005025",
        "junction_group": 4,
        "line": "line-6",
        "platform_length_m": 59.5
      },
      "type": "Feature"
    },
    {
      "geometry": {
        "coordinates": [
          89.23929928257168,
          25.77830216319332
        ],
        "type": "Point"
      },
      "properties": {
        "anchor_kind": null,
        "anchor_name": null,
        "archetype": "terminal",
        "chainage_m": 0.0,
        "corridor_offset_m": 0.0,
        "id": "line-7-0359-0371-s000000",
        "junction_group": 11,
        "line": "line-7",
        "platform_length_m": 59.5
      },
      "type": "Feature"
    },
    {
      "geometry": {
        "coordinates": [
          89.21775763380252,
          25.781901486520535
        ],
        "type": "Point"
      },
      "properties": {
        "anchor_kind": "planning:residential",
        "anchor_name": "Residential planning stop; site release open",
        "archetype": "standard",
        "chainage_m": 2392.0,
        "corridor_offset_m": 0.398,
        "id": "line-7-0339-0263-s002392",
        "junction_group": null,
        "line": "line-7",
        "platform_length_m": 59.5
      },
      "type": "Feature"
    },
    {
      "geometry": {
        "coordinates": [
          89.20279815549061,
          25.79125972717129
        ],
        "type": "Point"
      },
      "properties": {
        "anchor_kind": "planning:residential-priority",
        "anchor_name": "Residential planning stop; site release open",
        "archetype": "halt",
        "chainage_m": 4322.7,
        "corridor_offset_m": 0.117,
        "id": "line-7-0287-0188-s004323",
        "junction_group": null,
        "line": "line-7",
        "platform_length_m": 55.5
      },
      "type": "Feature"
    },
    {
      "geometry": {
        "coordinates": [
          89.18803813688952,
          25.79575888133031
        ],
        "type": "Point"
      },
      "properties": {
        "anchor_kind": "amenity:marketplace",
        "anchor_name": "Hajir Hat",
        "archetype": "terminal",
        "chainage_m": 6009.8,
        "corridor_offset_m": 0.0,
        "id": "line-7-0262-0114-s006010",
        "junction_group": null,
        "line": "line-7",
        "platform_length_m": 59.5
      },
      "type": "Feature"
    },
    {
      "geometry": {
        "coordinates": [
          89.26642580324393,
          25.70163657632365
        ],
        "type": "Point"
      },
      "properties": {
        "anchor_kind": "amenity:college",
        "anchor_name": "Rangpur Model College, College",
        "archetype": "terminal",
        "chainage_m": 0.0,
        "corridor_offset_m": 0.0,
        "id": "line-8-0785-0507-s000000",
        "junction_group": 9,
        "line": "line-8",
        "platform_length_m": 59.5
      },
      "type": "Feature"
    },
    {
      "geometry": {
        "coordinates": [
          89.2630349881599,
          25.687599215347515
        ],
        "type": "Point"
      },
      "properties": {
        "anchor_kind": "planning:residential-priority",
        "anchor_name": "Residential planning stop; site release open",
        "archetype": "standard",
        "chainage_m": 1700.8,
        "corridor_offset_m": 0.284,
        "id": "line-8-0863-0490-s001701",
        "junction_group": null,
        "line": "line-8",
        "platform_length_m": 59.5
      },
      "type": "Feature"
    },
    {
      "geometry": {
        "coordinates": [
          89.27300797370118,
          25.669602598711442
        ],
        "type": "Point"
      },
      "properties": {
        "anchor_kind": "planning:residential-priority",
        "anchor_name": "Residential planning stop; site release open",
        "archetype": "halt",
        "chainage_m": 4115.0,
        "corridor_offset_m": 0.022,
        "id": "line-8-0963-0540-s004115",
        "junction_group": null,
        "line": "line-8",
        "platform_length_m": 55.5
      },
      "type": "Feature"
    },
    {
      "geometry": {
        "coordinates": [
          89.26822094064137,
          25.65664503473347
        ],
        "type": "Point"
      },
      "properties": {
        "anchor_kind": null,
        "anchor_name": null,
        "archetype": "terminal",
        "chainage_m": 5753.9,
        "corridor_offset_m": 0.0,
        "id": "line-8-1035-0516-s005754",
        "junction_group": null,
        "line": "line-8",
        "platform_length_m": 59.5
      },
      "type": "Feature"
    },
    {
      "geometry": {
        "coordinates": [
          89.2724095945687,
          25.75076733974013
        ],
        "type": "Point"
      },
      "properties": {
        "anchor_kind": null,
        "anchor_name": null,
        "archetype": "terminal",
        "chainage_m": 0.0,
        "corridor_offset_m": 0.0,
        "id": "line-9-0512-0537-s000000",
        "junction_group": 1,
        "line": "line-9",
        "platform_length_m": 59.5
      },
      "type": "Feature"
    },
    {
      "geometry": {
        "coordinates": [
          89.27759554705017,
          25.764264802217184
        ],
        "type": "Point"
      },
      "properties": {
        "anchor_kind": "planning:residential-priority",
        "anchor_name": "Residential planning stop; site release open",
        "archetype": "standard",
        "chainage_m": 1715.4,
        "corridor_offset_m": 1.326,
        "id": "line-9-0437-0563-s001715",
        "junction_group": null,
        "line": "line-9",
        "platform_length_m": 59.5
      },
      "type": "Feature"
    },
    {
      "geometry": {
        "coordinates": [
          89.30472206772244,
          25.77362304286794
        ],
        "type": "Point"
      },
      "properties": {
        "anchor_kind": null,
        "anchor_name": null,
        "archetype": "interchange",
        "chainage_m": 4866.2,
        "corridor_offset_m": 0.746,
        "id": "line-9-0385-0699-s004866",
        "junction_group": 7,
        "line": "line-9",
        "platform_length_m": 59.5
      },
      "type": "Feature"
    },
    {
      "geometry": {
        "coordinates": [
          89.31748748921527,
          25.77362304286794
        ],
        "type": "Point"
      },
      "properties": {
        "anchor_kind": null,
        "anchor_name": null,
        "archetype": "terminal",
        "chainage_m": 6146.2,
        "corridor_offset_m": 0.0,
        "id": "line-9-0385-0763-s006146",
        "junction_group": null,
        "line": "line-9",
        "platform_length_m": 59.5
      },
      "type": "Feature"
    },
    {
      "geometry": {
        "coordinates": [
          89.24568199331809,
          25.72179278695605
        ],
        "type": "Point"
      },
      "properties": {
        "anchor_kind": null,
        "anchor_name": null,
        "archetype": "terminal",
        "chainage_m": 0.0,
        "corridor_offset_m": 0.0,
        "id": "line-10-0673-0403-s000000",
        "junction_group": 5,
        "line": "line-10",
        "platform_length_m": 59.5
      },
      "type": "Feature"
    },
    {
      "geometry": {
        "coordinates": [
          89.23291657182526,
          25.719993125292444
        ],
        "type": "Point"
      },
      "properties": {
        "anchor_kind": "planning:residential-priority",
        "anchor_name": "Residential planning stop; site release open",
        "archetype": "standard",
        "chainage_m": 1362.8,
        "corridor_offset_m": 1.235,
        "id": "line-10-0683-0339-s001363",
        "junction_group": null,
        "line": "line-10",
        "platform_length_m": 59.5
      },
      "type": "Feature"
    },
    {
      "geometry": {
        "coordinates": [
          89.2325176524036,
          25.70091671165821
        ],
        "type": "Point"
      },
      "properties": {
        "anchor_kind": null,
        "anchor_name": null,
        "archetype": "terminal",
        "chainage_m": 3499.4,
        "corridor_offset_m": 0.0,
        "id": "line-10-0789-0337-s003499",
        "junction_group": null,
        "line": "line-10",
        "platform_length_m": 59.5
      },
      "type": "Feature"
    },
    {
      "geometry": {
        "coordinates": [
          89.31948208632352,
          25.80115786632113
        ],
        "type": "Point"
      },
      "properties": {
        "anchor_kind": null,
        "anchor_name": null,
        "archetype": "terminal",
        "chainage_m": 0.0,
        "corridor_offset_m": 0.0,
        "id": "line-11-0232-0773-s000000",
        "junction_group": 6,
        "line": "line-11",
        "platform_length_m": 59.5
      },
      "type": "Feature"
    },
    {
      "geometry": {
        "coordinates": [
          89.34102373509268,
          25.80799658064284
        ],
        "type": "Point"
      },
      "properties": {
        "anchor_kind": null,
        "anchor_name": null,
        "archetype": "terminal",
        "chainage_m": 2739.9,
        "corridor_offset_m": 0.0,
        "id": "line-11-0194-0881-s002740",
        "junction_group": null,
        "line": "line-11",
        "platform_length_m": 59.5
      },
      "type": "Feature"
    }
  ],
  "type": "FeatureCollection"
}
