{
  "features": [
    {
      "geometry": {
        "coordinates": [
          -5.420726935958655,
          35.572409775762154
        ],
        "type": "Point"
      },
      "properties": {
        "archetype": "main-heavy",
        "fleet_stalls": 8,
        "line": "line-1",
        "station": "line-1-0584-0314-s000000"
      },
      "type": "Feature"
    },
    {
      "geometry": {
        "coordinates": [
          -5.423156836449767,
          35.510321448367705
        ],
        "type": "Point"
      },
      "properties": {
        "archetype": "main-heavy",
        "fleet_stalls": 9,
        "line": "line-2",
        "station": "line-2-0929-0303-s019780"
      },
      "type": "Feature"
    },
    {
      "geometry": {
        "coordinates": [
          -5.449885741852001,
          35.60678331353705
        ],
        "type": "Point"
      },
      "properties": {
        "archetype": "main-heavy",
        "fleet_stalls": 5,
        "line": "line-3",
        "station": "line-3-0393-0182-s000000"
      },
      "type": "Feature"
    }
  ],
  "type": "FeatureCollection"
}
