{
  "features": [
    {
      "geometry": {
        "coordinates": [
          44.08791377117796,
          15.498470287585933
        ],
        "type": "Point"
      },
      "properties": {
        "anchor_kind": "place:suburb",
        "anchor_name": "الجرنين",
        "archetype": "terminal",
        "chainage_m": 0.0,
        "corridor_offset_m": 0.0,
        "id": "line-1-0008-0203-s000000",
        "junction_group": null,
        "line": "line-1",
        "platform_length_m": 121.0
      },
      "type": "Feature"
    },
    {
      "geometry": {
        "coordinates": [
          44.111016019954704,
          15.476154482957204
        ],
        "type": "Point"
      },
      "properties": {
        "anchor_kind": null,
        "anchor_name": null,
        "archetype": "halt",
        "chainage_m": 3507.2,
        "corridor_offset_m": 262.342,
        "id": "line-1-0132-0327-s003507",
        "junction_group": null,
        "line": "line-1",
        "platform_length_m": 117.0
      },
      "type": "Feature"
    },
    {
      "geometry": {
        "coordinates": [
          44.11623265677526,
          15.446640031674045
        ],
        "type": "Point"
      },
      "properties": {
        "anchor_kind": null,
        "anchor_name": null,
        "archetype": "halt",
        "chainage_m": 7019.2,
        "corridor_offset_m": 509.497,
        "id": "line-1-0296-0355-s007019",
        "junction_group": null,
        "line": "line-1",
        "platform_length_m": 117.0
      },
      "type": "Feature"
    },
    {
      "geometry": {
        "coordinates": [
          44.12834270653726,
          15.421804700716265
        ],
        "type": "Point"
      },
      "properties": {
        "anchor_kind": "place:suburb",
        "anchor_name": "المحجر العالي",
        "archetype": "halt",
        "chainage_m": 10537.2,
        "corridor_offset_m": 471.089,
        "id": "line-1-0434-0420-s010537",
        "junction_group": null,
        "line": "line-1",
        "platform_length_m": 117.0
      },
      "type": "Feature"
    },
    {
      "geometry": {
        "coordinates": [
          44.1458557015777,
          15.398948997588453
        ],
        "type": "Point"
      },
      "properties": {
        "anchor_kind": null,
        "anchor_name": null,
        "archetype": "halt",
        "chainage_m": 14043.3,
        "corridor_offset_m": 416.275,
        "id": "line-1-0561-0514-s014043",
        "junction_group": null,
        "line": "line-1",
        "platform_length_m": 117.0
      },
      "type": "Feature"
    },
    {
      "geometry": {
        "coordinates": [
          44.16262346278663,
          15.377173091458806
        ],
        "type": "Point"
      },
      "properties": {
        "anchor_kind": "place:suburb",
        "anchor_name": "حميدة",
        "archetype": "interchange",
        "chainage_m": 17537.0,
        "corridor_offset_m": 244.061,
        "id": "line-1-0682-0604-s017537",
        "junction_group": 0,
        "line": "line-1",
        "platform_length_m": 121.0
      },
      "type": "Feature"
    },
    {
      "geometry": {
        "coordinates": [
          44.17790075633254,
          15.357196846992766
        ],
        "type": "Point"
      },
      "properties": {
        "anchor_kind": "amenity:university",
        "anchor_name": "جامعة الرازي",
        "archetype": "standard",
        "chainage_m": 20553.4,
        "corridor_offset_m": 239.185,
        "id": "line-1-0793-0686-s020553",
        "junction_group": null,
        "line": "line-1",
        "platform_length_m": 121.0
      },
      "type": "Feature"
    },
    {
      "geometry": {
        "coordinates": [
          44.19280543296269,
          15.337940467192167
        ],
        "type": "Point"
      },
      "properties": {
        "anchor_kind": "place:suburb",
        "anchor_name": "القحطمي",
        "archetype": "interchange",
        "chainage_m": 23555.3,
        "corridor_offset_m": 163.124,
        "id": "line-1-0900-0766-s023555",
        "junction_group": 1,
        "line": "line-1",
        "platform_length_m": 121.0
      },
      "type": "Feature"
    },
    {
      "geometry": {
        "coordinates": [
          44.21069104491889,
          15.314724831731635
        ],
        "type": "Point"
      },
      "properties": {
        "anchor_kind": null,
        "anchor_name": null,
        "archetype": "standard",
        "chainage_m": 27071.2,
        "corridor_offset_m": 154.76,
        "id": "line-1-1029-0862-s027071",
        "junction_group": null,
        "line": "line-1",
        "platform_length_m": 121.0
      },
      "type": "Feature"
    },
    {
      "geometry": {
        "coordinates": [
          44.22727249766994,
          15.293128891768347
        ],
        "type": "Point"
      },
      "properties": {
        "anchor_kind": null,
        "anchor_name": null,
        "archetype": "standard",
        "chainage_m": 30560.0,
        "corridor_offset_m": 41.794,
        "id": "line-1-1149-0951-s030560",
        "junction_group": null,
        "line": "line-1",
        "platform_length_m": 121.0
      },
      "type": "Feature"
    },
    {
      "geometry": {
        "coordinates": [
          44.237892079768926,
          15.279271496958572
        ],
        "type": "Point"
      },
      "properties": {
        "anchor_kind": null,
        "anchor_name": null,
        "archetype": "interchange",
        "chainage_m": 32619.1,
        "corridor_offset_m": 19.829,
        "id": "line-1-1226-1008-s032619",
        "junction_group": 2,
        "line": "line-1",
        "platform_length_m": 121.0
      },
      "type": "Feature"
    },
    {
      "geometry": {
        "coordinates": [
          44.253728298688465,
          15.248857214843609
        ],
        "type": "Point"
      },
      "properties": {
        "anchor_kind": "amenity:hospital",
        "anchor_name": "مستشفى 48 الطبي",
        "archetype": "depot-terminal",
        "chainage_m": 36880.6,
        "corridor_offset_m": 0.0,
        "id": "line-1-1395-1093-s036881",
        "junction_group": null,
        "line": "line-1",
        "platform_length_m": 121.0
      },
      "type": "Feature"
    },
    {
      "geometry": {
        "coordinates": [
          44.20286608968805,
          15.415865817226361
        ],
        "type": "Point"
      },
      "properties": {
        "anchor_kind": "amenity:university",
        "anchor_name": "جامعة دار السلام",
        "archetype": "terminal",
        "chainage_m": 0.0,
        "corridor_offset_m": 0.0,
        "id": "line-2-0467-0820-s000000",
        "junction_group": null,
        "line": "line-2",
        "platform_length_m": 121.0
      },
      "type": "Feature"
    },
    {
      "geometry": {
        "coordinates": [
          44.21274043795553,
          15.39319008026491
        ],
        "type": "Point"
      },
      "properties": {
        "anchor_kind": "amenity:hospital",
        "anchor_name": "مركز التعاون الطبي",
        "archetype": "standard",
        "chainage_m": 3017.6,
        "corridor_offset_m": 0.695,
        "id": "line-2-0593-0873-s003018",
        "junction_group": null,
        "line": "line-2",
        "platform_length_m": 121.0
      },
      "type": "Feature"
    },
    {
      "geometry": {
        "coordinates": [
          44.22280109468089,
          15.370514343303459
        ],
        "type": "Point"
      },
      "properties": {
        "anchor_kind": "place:suburb",
        "anchor_name": "المحاريق",
        "archetype": "interchange",
        "chainage_m": 6020.1,
        "corridor_offset_m": 2.488,
        "id": "line-2-0719-0927-s006020",
        "junction_group": 3,
        "line": "line-2",
        "platform_length_m": 121.0
      },
      "type": "Feature"
    },
    {
      "geometry": {
        "coordinates": [
          44.23267544294837,
          15.347838606342007
        ],
        "type": "Point"
      },
      "properties": {
        "anchor_kind": null,
        "anchor_name": null,
        "archetype": "standard",
        "chainage_m": 9026.1,
        "corridor_offset_m": 1.941,
        "id": "line-2-0845-0980-s009026",
        "junction_group": null,
        "line": "line-2",
        "platform_length_m": 121.0
      },
      "type": "Feature"
    },
    {
      "geometry": {
        "coordinates": [
          44.24739381112065,
          15.314184933232552
        ],
        "type": "Point"
      },
      "properties": {
        "anchor_kind": "place:suburb",
        "anchor_name": "حمراء علب",
        "archetype": "standard",
        "chainage_m": 13502.5,
        "corridor_offset_m": 0.914,
        "id": "line-2-1032-1059-s013503",
        "junction_group": null,
        "line": "line-2",
        "platform_length_m": 121.0
      },
      "type": "Feature"
    },
    {
      "geometry": {
        "coordinates": [
          44.26211217929293,
          15.280351293956736
        ],
        "type": "Point"
      },
      "properties": {
        "anchor_kind": "amenity:hospital",
        "anchor_name": "مستشفى عين الحياة التخصصي",
        "archetype": "terminal",
        "chainage_m": 17975.6,
        "corridor_offset_m": 0.0,
        "id": "line-2-1220-1138-s017976",
        "junction_group": null,
        "line": "line-2",
        "platform_length_m": 121.0
      },
      "type": "Feature"
    },
    {
      "geometry": {
        "coordinates": [
          44.1531217314349,
          15.401468523917503
        ],
        "type": "Point"
      },
      "properties": {
        "anchor_kind": "amenity:hospital",
        "anchor_name": "مستشفى شملان التخصصي",
        "archetype": "terminal",
        "chainage_m": 0.0,
        "corridor_offset_m": 0.0,
        "id": "line-3-0547-0553-s000000",
        "junction_group": null,
        "line": "line-3",
        "platform_length_m": 121.0
      },
      "type": "Feature"
    },
    {
      "geometry": {
        "coordinates": [
          44.173243044885616,
          15.38833099377317
        ],
        "type": "Point"
      },
      "properties": {
        "anchor_kind": null,
        "anchor_name": null,
        "archetype": "interchange",
        "chainage_m": 2905.3,
        "corridor_offset_m": 17.828,
        "id": "line-3-0620-0661-s002905",
        "junction_group": 0,
        "line": "line-3",
        "platform_length_m": 121.0
      },
      "type": "Feature"
    },
    {
      "geometry": {
        "coordinates": [
          44.19001080609454,
          15.377353057625166
        ],
        "type": "Point"
      },
      "properties": {
        "anchor_kind": null,
        "anchor_name": null,
        "archetype": "standard",
        "chainage_m": 5363.0,
        "corridor_offset_m": 68.244,
        "id": "line-3-0681-0751-s005363",
        "junction_group": null,
        "line": "line-3",
        "platform_length_m": 121.0
      },
      "type": "Feature"
    },
    {
      "geometry": {
        "coordinates": [
          44.210877353376766,
          15.363855595148113
        ],
        "type": "Point"
      },
      "properties": {
        "anchor_kind": "amenity:hospital",
        "anchor_name": "المستشفى العسكري",
        "archetype": "major",
        "chainage_m": 8364.9,
        "corridor_offset_m": 84.143,
        "id": "line-3-0756-0863-s008365",
        "junction_group": null,
        "line": "line-3",
        "platform_length_m": 121.0
      },
      "type": "Feature"
    },
    {
      "geometry": {
        "coordinates": [
          44.22689988075418,
          15.35341755749919
        ],
        "type": "Point"
      },
      "properties": {
        "anchor_kind": "place:suburb",
        "anchor_name": "وادي القصر",
        "archetype": "interchange",
        "chainage_m": 10694.3,
        "corridor_offset_m": 104.604,
        "id": "line-3-0814-0949-s010694",
        "junction_group": 4,
        "line": "line-3",
        "platform_length_m": 121.0
      },
      "type": "Feature"
    },
    {
      "geometry": {
        "coordinates": [
          44.240127781263446,
          15.344779181513875
        ],
        "type": "Point"
      },
      "properties": {
        "anchor_kind": null,
        "anchor_name": null,
        "archetype": "standard",
        "chainage_m": 12617.3,
        "corridor_offset_m": 133.995,
        "id": "line-3-0862-1020-s012617",
        "junction_group": null,
        "line": "line-3",
        "platform_length_m": 121.0
      },
      "type": "Feature"
    },
    {
      "geometry": {
        "coordinates": [
          44.25354199023059,
          15.3359608393622
        ],
        "type": "Point"
      },
      "properties": {
        "anchor_kind": null,
        "anchor_name": null,
        "archetype": "standard",
        "chainage_m": 14557.0,
        "corridor_offset_m": 146.562,
        "id": "line-3-0911-1092-s014557",
        "junction_group": null,
        "line": "line-3",
        "platform_length_m": 121.0
      },
      "type": "Feature"
    },
    {
      "geometry": {
        "coordinates": [
          44.27999779124912,
          15.31868408739157
        ],
        "type": "Point"
      },
      "properties": {
        "anchor_kind": null,
        "anchor_name": null,
        "archetype": "standard",
        "chainage_m": 18391.5,
        "corridor_offset_m": 177.665,
        "id": "line-3-1007-1234-s018391",
        "junction_group": null,
        "line": "line-3",
        "platform_length_m": 121.0
      },
      "type": "Feature"
    },
    {
      "geometry": {
        "coordinates": [
          44.31725948282451,
          15.294388654932872
        ],
        "type": "Point"
      },
      "properties": {
        "anchor_kind": null,
        "anchor_name": null,
        "archetype": "halt",
        "chainage_m": 23791.0,
        "corridor_offset_m": 238.556,
        "id": "line-3-1142-1434-s023791",
        "junction_group": null,
        "line": "line-3",
        "platform_length_m": 117.0
      },
      "type": "Feature"
    },
    {
      "geometry": {
        "coordinates": [
          44.35414855748415,
          15.272792714969587
        ],
        "type": "Point"
      },
      "properties": {
        "anchor_kind": "place:town",
        "anchor_name": "غيمان",
        "archetype": "terminal",
        "chainage_m": 29176.9,
        "corridor_offset_m": 0.0,
        "id": "line-3-1262-1632-s029177",
        "junction_group": null,
        "line": "line-3",
        "platform_length_m": 121.0
      },
      "type": "Feature"
    },
    {
      "geometry": {
        "coordinates": [
          44.19783576132537,
          15.274952308965915
        ],
        "type": "Point"
      },
      "properties": {
        "anchor_kind": "tourism:attraction",
        "anchor_name": "سد كمران",
        "archetype": "terminal",
        "chainage_m": 0.0,
        "corridor_offset_m": 0.0,
        "id": "line-4-1250-0793-s000000",
        "junction_group": null,
        "line": "line-4",
        "platform_length_m": 121.0
      },
      "type": "Feature"
    },
    {
      "geometry": {
        "coordinates": [
          44.20230716431442,
          15.28880970377569
        ],
        "type": "Point"
      },
      "properties": {
        "anchor_kind": "amenity:university",
        "anchor_name": "الجامعة اللبنانية الدولية",
        "archetype": "interchange",
        "chainage_m": 1738.8,
        "corridor_offset_m": 9.04,
        "id": "line-4-1173-0817-s001739",
        "junction_group": 5,
        "line": "line-4",
        "platform_length_m": 121.0
      },
      "type": "Feature"
    },
    {
      "geometry": {
        "coordinates": [
          44.21292674641341,
          15.321563546053342
        ],
        "type": "Point"
      },
      "properties": {
        "anchor_kind": null,
        "anchor_name": null,
        "archetype": "standard",
        "chainage_m": 5874.5,
        "corridor_offset_m": 3.807,
        "id": "line-4-0991-0874-s005874",
        "junction_group": null,
        "line": "line-4",
        "platform_length_m": 121.0
      },
      "type": "Feature"
    },
    {
      "geometry": {
        "coordinates": [
          44.222428477765135,
          15.350718065003779
        ],
        "type": "Point"
      },
      "properties": {
        "anchor_kind": null,
        "anchor_name": null,
        "archetype": "interchange",
        "chainage_m": 9572.1,
        "corridor_offset_m": 20.812,
        "id": "line-4-0829-0925-s009572",
        "junction_group": 4,
        "line": "line-4",
        "platform_length_m": 121.0
      },
      "type": "Feature"
    },
    {
      "geometry": {
        "coordinates": [
          44.22820403995932,
          15.369074613972574
        ],
        "type": "Point"
      },
      "properties": {
        "anchor_kind": "place:suburb",
        "anchor_name": "ماجل الأمير",
        "archetype": "interchange",
        "chainage_m": 11880.6,
        "corridor_offset_m": 24.446,
        "id": "line-4-0727-0956-s011881",
        "junction_group": 3,
        "line": "line-4",
        "platform_length_m": 121.0
      },
      "type": "Feature"
    },
    {
      "geometry": {
        "coordinates": [
          44.23472483598501,
          15.388870892272253
        ],
        "type": "Point"
      },
      "properties": {
        "anchor_kind": "place:neighbourhood",
        "anchor_name": "Almarawn",
        "archetype": "standard",
        "chainage_m": 14394.0,
        "corridor_offset_m": 32.284,
        "id": "line-4-0617-0991-s014394",
        "junction_group": null,
        "line": "line-4",
        "platform_length_m": 121.0
      },
      "type": "Feature"
    },
    {
      "geometry": {
        "coordinates": [
          44.24105932355283,
          15.408847136738293
        ],
        "type": "Point"
      },
      "properties": {
        "anchor_kind": null,
        "anchor_name": null,
        "archetype": "standard",
        "chainage_m": 16907.4,
        "corridor_offset_m": 35.343,
        "id": "line-4-0506-1025-s016907",
        "junction_group": null,
        "line": "line-4",
        "platform_length_m": 121.0
      },
      "type": "Feature"
    },
    {
      "geometry": {
        "coordinates": [
          44.24422656733674,
          15.446280099341324
        ],
        "type": "Point"
      },
      "properties": {
        "anchor_kind": "amenity:hospital",
        "anchor_name": "مستشفى فلسطين للأمومة والطفولة",
        "archetype": "terminal",
        "chainage_m": 21946.4,
        "corridor_offset_m": 0.0,
        "id": "line-4-0298-1042-s021946",
        "junction_group": null,
        "line": "line-4",
        "platform_length_m": 121.0
      },
      "type": "Feature"
    },
    {
      "geometry": {
        "coordinates": [
          44.33141892562316,
          15.38329194111507
        ],
        "type": "Point"
      },
      "properties": {
        "anchor_kind": "tourism:attraction",
        "anchor_name": null,
        "archetype": "terminal",
        "chainage_m": 0.0,
        "corridor_offset_m": 0.0,
        "id": "line-5-0648-1510-s000000",
        "junction_group": null,
        "line": "line-5",
        "platform_length_m": 121.0
      },
      "type": "Feature"
    },
    {
      "geometry": {
        "coordinates": [
          44.30216849773648,
          15.375913328294281
        ],
        "type": "Point"
      },
      "properties": {
        "anchor_kind": null,
        "anchor_name": null,
        "archetype": "halt",
        "chainage_m": 3495.2,
        "corridor_offset_m": 3.371,
        "id": "line-5-0689-1353-s003495",
        "junction_group": null,
        "line": "line-5",
        "platform_length_m": 117.0
      },
      "type": "Feature"
    },
    {
      "geometry": {
        "coordinates": [
          44.272172836018285,
          15.369794478638017
        ],
        "type": "Point"
      },
      "properties": {
        "anchor_kind": null,
        "anchor_name": null,
        "archetype": "standard",
        "chainage_m": 7008.6,
        "corridor_offset_m": 19.191,
        "id": "line-5-0723-1192-s007009",
        "junction_group": null,
        "line": "line-5",
        "platform_length_m": 121.0
      },
      "type": "Feature"
    },
    {
      "geometry": {
        "coordinates": [
          44.24422656733674,
          15.364035561314473
        ],
        "type": "Point"
      },
      "properties": {
        "anchor_kind": null,
        "anchor_name": null,
        "archetype": "standard",
        "chainage_m": 10297.1,
        "corridor_offset_m": 47.958,
        "id": "line-5-0755-1042-s010297",
        "junction_group": null,
        "line": "line-5",
        "platform_length_m": 121.0
      },
      "type": "Feature"
    },
    {
      "geometry": {
        "coordinates": [
          44.21851600014972,
          15.358816542490011
        ],
        "type": "Point"
      },
      "properties": {
        "anchor_kind": "place:suburb",
        "anchor_name": "حارة المدرسة",
        "archetype": "interchange",
        "chainage_m": 13309.1,
        "corridor_offset_m": 66.227,
        "id": "line-5-0784-0904-s013309",
        "junction_group": 6,
        "line": "line-5",
        "platform_length_m": 121.0
      },
      "type": "Feature"
    },
    {
      "geometry": {
        "coordinates": [
          44.19299174142057,
          15.35359752366555
        ],
        "type": "Point"
      },
      "properties": {
        "anchor_kind": "amenity:hospital",
        "anchor_name": "مركز الزراعة الصحي",
        "archetype": "standard",
        "chainage_m": 16312.8,
        "corridor_offset_m": 94.815,
        "id": "line-5-0813-0767-s016313",
        "junction_group": null,
        "line": "line-5",
        "platform_length_m": 121.0
      },
      "type": "Feature"
    },
    {
      "geometry": {
        "coordinates": [
          44.16728117423355,
          15.34837850484109
        ],
        "type": "Point"
      },
      "properties": {
        "anchor_kind": "amenity:hospital",
        "anchor_name": "مستشفى الامل لاورام السرطان",
        "archetype": "interchange",
        "chainage_m": 19324.7,
        "corridor_offset_m": 112.657,
        "id": "line-5-0842-0629-s019325",
        "junction_group": 7,
        "line": "line-5",
        "platform_length_m": 121.0
      },
      "type": "Feature"
    },
    {
      "geometry": {
        "coordinates": [
          44.13784443788899,
          15.342439621351186
        ],
        "type": "Point"
      },
      "properties": {
        "anchor_kind": null,
        "anchor_name": null,
        "archetype": "halt",
        "chainage_m": 22769.8,
        "corridor_offset_m": 127.784,
        "id": "line-5-0875-0471-s022770",
        "junction_group": null,
        "line": "line-5",
        "platform_length_m": 117.0
      },
      "type": "Feature"
    },
    {
      "geometry": {
        "coordinates": [
          44.10486784084477,
          15.342259655184826
        ],
        "type": "Point"
      },
      "properties": {
        "anchor_kind": null,
        "anchor_name": null,
        "archetype": "halt",
        "chainage_m": 26612.6,
        "corridor_offset_m": 98.044,
        "id": "line-5-0876-0294-s026613",
        "junction_group": null,
        "line": "line-5",
        "platform_length_m": 117.0
      },
      "type": "Feature"
    },
    {
      "geometry": {
        "coordinates": [
          44.08064774132076,
          15.339740128855775
        ],
        "type": "Point"
      },
      "properties": {
        "anchor_kind": "tourism:attraction",
        "anchor_name": "ارضية في حصن الرأس",
        "archetype": "terminal",
        "chainage_m": 30471.8,
        "corridor_offset_m": 0.0,
        "id": "line-5-0890-0164-s030472",
        "junction_group": null,
        "line": "line-5",
        "platform_length_m": 121.0
      },
      "type": "Feature"
    },
    {
      "geometry": {
        "coordinates": [
          44.05735918408614,
          15.369974444804377
        ],
        "type": "Point"
      },
      "properties": {
        "anchor_kind": "tourism:attraction",
        "anchor_name": "سد مروان مذبل",
        "archetype": "terminal",
        "chainage_m": 0.0,
        "corridor_offset_m": 0.0,
        "id": "line-6-0722-0039-s000000",
        "junction_group": null,
        "line": "line-6",
        "platform_length_m": 121.0
      },
      "type": "Feature"
    },
    {
      "geometry": {
        "coordinates": [
          44.08288344281528,
          15.360076305654538
        ],
        "type": "Point"
      },
      "properties": {
        "anchor_kind": null,
        "anchor_name": null,
        "archetype": "halt",
        "chainage_m": 3481.7,
        "corridor_offset_m": 0.912,
        "id": "line-6-0777-0176-s003482",
        "junction_group": null,
        "line": "line-6",
        "platform_length_m": 117.0
      },
      "type": "Feature"
    },
    {
      "geometry": {
        "coordinates": [
          44.11418326373862,
          15.356476982327322
        ],
        "type": "Point"
      },
      "properties": {
        "anchor_kind": null,
        "anchor_name": null,
        "archetype": "halt",
        "chainage_m": 7006.9,
        "corridor_offset_m": 3.24,
        "id": "line-6-0797-0344-s007007",
        "junction_group": null,
        "line": "line-6",
        "platform_length_m": 117.0
      },
      "type": "Feature"
    },
    {
      "geometry": {
        "coordinates": [
          44.14175691550441,
          15.349998200338337
        ],
        "type": "Point"
      },
      "properties": {
        "anchor_kind": null,
        "anchor_name": null,
        "archetype": "interchange",
        "chainage_m": 10276.8,
        "corridor_offset_m": 6.187,
        "id": "line-6-0833-0492-s010277",
        "junction_group": 8,
        "line": "line-6",
        "platform_length_m": 121.0
      },
      "type": "Feature"
    },
    {
      "geometry": {
        "coordinates": [
          44.16430023890752,
          15.34351941834935
        ],
        "type": "Point"
      },
      "properties": {
        "anchor_kind": "amenity:hospital",
        "anchor_name": "مستشفى الامل لاورام السرطان",
        "archetype": "interchange",
        "chainage_m": 13030.2,
        "corridor_offset_m": 0.521,
        "id": "line-6-0869-0613-s013030",
        "junction_group": 7,
        "line": "line-6",
        "platform_length_m": 121.0
      },
      "type": "Feature"
    },
    {
      "geometry": {
        "coordinates": [
          44.189079263805155,
          15.336500737861282
        ],
        "type": "Point"
      },
      "properties": {
        "anchor_kind": "amenity:hospital",
        "anchor_name": "المركز الاستشاري المجري السلوفاكي",
        "archetype": "interchange",
        "chainage_m": 16036.7,
        "corridor_offset_m": 0.874,
        "id": "line-6-0908-0746-s016037",
        "junction_group": 1,
        "line": "line-6",
        "platform_length_m": 121.0
      },
      "type": "Feature"
    },
    {
      "geometry": {
        "coordinates": [
          44.218888617065474,
          15.328042328042327
        ],
        "type": "Point"
      },
      "properties": {
        "anchor_kind": "amenity:university",
        "anchor_name": "جامعة السعيدة",
        "archetype": "terminal",
        "chainage_m": 19649.5,
        "corridor_offset_m": 0.0,
        "id": "line-6-0955-0906-s019650",
        "junction_group": null,
        "line": "line-6",
        "platform_length_m": 121.0
      },
      "type": "Feature"
    },
    {
      "geometry": {
        "coordinates": [
          44.209573194171625,
          15.438361588021452
        ],
        "type": "Point"
      },
      "properties": {
        "anchor_kind": "amenity:hospital",
        "anchor_name": "وحدة الحجر الصحي",
        "archetype": "standard",
        "chainage_m": 0.0,
        "corridor_offset_m": 0.0,
        "id": "line-7-0342-0856-s000000",
        "junction_group": null,
        "line": "line-7",
        "platform_length_m": 121.0
      },
      "type": "Feature"
    },
    {
      "geometry": {
        "coordinates": [
          44.228017731501446,
          15.442320843681388
        ],
        "type": "Point"
      },
      "properties": {
        "anchor_kind": null,
        "anchor_name": null,
        "archetype": "halt",
        "chainage_m": 3453.8,
        "corridor_offset_m": 239.452,
        "id": "line-7-0320-0955-s003454",
        "junction_group": null,
        "line": "line-7",
        "platform_length_m": 117.0
      },
      "type": "Feature"
    },
    {
      "geometry": {
        "coordinates": [
          44.22485048771754,
          15.411546629233705
        ],
        "type": "Point"
      },
      "properties": {
        "anchor_kind": null,
        "anchor_name": null,
        "archetype": "standard",
        "chainage_m": 7001.4,
        "corridor_offset_m": 42.61,
        "id": "line-7-0491-0938-s007001",
        "junction_group": null,
        "line": "line-7",
        "platform_length_m": 121.0
      },
      "type": "Feature"
    },
    {
      "geometry": {
        "coordinates": [
          44.22224216930726,
          15.385451535111399
        ],
        "type": "Point"
      },
      "properties": {
        "anchor_kind": "place:suburb",
        "anchor_name": "سد شعوب",
        "archetype": "standard",
        "chainage_m": 10017.3,
        "corridor_offset_m": 116.001,
        "id": "line-7-0636-0924-s010017",
        "junction_group": null,
        "line": "line-7",
        "platform_length_m": 121.0
      },
      "type": "Feature"
    },
    {
      "geometry": {
        "coordinates": [
          44.221124318559994,
          15.374293632797034
        ],
        "type": "Point"
      },
      "properties": {
        "anchor_kind": null,
        "anchor_name": null,
        "archetype": "interchange",
        "chainage_m": 11307.0,
        "corridor_offset_m": 183.685,
        "id": "line-7-0698-0918-s011307",
        "junction_group": 3,
        "line": "line-7",
        "platform_length_m": 121.0
      },
      "type": "Feature"
    },
    {
      "geometry": {
        "coordinates": [
          44.224477870801785,
          15.360076305654538
        ],
        "type": "Point"
      },
      "properties": {
        "anchor_kind": null,
        "anchor_name": null,
        "archetype": "interchange",
        "chainage_m": 13064.4,
        "corridor_offset_m": 216.094,
        "id": "line-7-0777-0936-s013064",
        "junction_group": 6,
        "line": "line-7",
        "platform_length_m": 121.0
      },
      "type": "Feature"
    },
    {
      "geometry": {
        "coordinates": [
          44.23267544294837,
          15.336860670194003
        ],
        "type": "Point"
      },
      "properties": {
        "anchor_kind": null,
        "anchor_name": null,
        "archetype": "standard",
        "chainage_m": 16032.4,
        "corridor_offset_m": 228.142,
        "id": "line-7-0906-0980-s016032",
        "junction_group": null,
        "line": "line-7",
        "platform_length_m": 121.0
      },
      "type": "Feature"
    },
    {
      "geometry": {
        "coordinates": [
          44.23248913449049,
          15.31364503473347
        ],
        "type": "Point"
      },
      "properties": {
        "anchor_kind": "amenity:hospital",
        "anchor_name": "مستشفى الصفاء العام",
        "archetype": "standard",
        "chainage_m": 19048.6,
        "corridor_offset_m": 272.995,
        "id": "line-7-1035-0979-s019049",
        "junction_group": null,
        "line": "line-7",
        "platform_length_m": 121.0
      },
      "type": "Feature"
    },
    {
      "geometry": {
        "coordinates": [
          44.24068670663708,
          15.289889500773855
        ],
        "type": "Point"
      },
      "properties": {
        "anchor_kind": "amenity:hospital",
        "anchor_name": "مستشفى العين والأنف التخصصي",
        "archetype": "standard",
        "chainage_m": 22064.8,
        "corridor_offset_m": 297.835,
        "id": "line-7-1167-1023-s022065",
        "junction_group": null,
        "line": "line-7",
        "platform_length_m": 121.0
      },
      "type": "Feature"
    },
    {
      "geometry": {
        "coordinates": [
          44.237892079768926,
          15.279271496958572
        ],
        "type": "Point"
      },
      "properties": {
        "anchor_kind": null,
        "anchor_name": null,
        "archetype": "interchange",
        "chainage_m": 23454.0,
        "corridor_offset_m": 296.753,
        "id": "line-7-1226-1008-s023454",
        "junction_group": 2,
        "line": "line-7",
        "platform_length_m": 121.0
      },
      "type": "Feature"
    },
    {
      "geometry": {
        "coordinates": [
          44.20230716431442,
          15.28880970377569
        ],
        "type": "Point"
      },
      "properties": {
        "anchor_kind": "amenity:university",
        "anchor_name": "الجامعة اللبنانية الدولية",
        "archetype": "interchange",
        "chainage_m": 28033.8,
        "corridor_offset_m": 267.179,
        "id": "line-7-1173-0817-s028034",
        "junction_group": 5,
        "line": "line-7",
        "platform_length_m": 121.0
      },
      "type": "Feature"
    },
    {
      "geometry": {
        "coordinates": [
          44.169889492643826,
          15.29618831659648
        ],
        "type": "Point"
      },
      "properties": {
        "anchor_kind": "place:suburb",
        "anchor_name": "بيت اللهيم",
        "archetype": "standard",
        "chainage_m": 32049.5,
        "corridor_offset_m": 278.661,
        "id": "line-7-1132-0643-s032049",
        "junction_group": null,
        "line": "line-7",
        "platform_length_m": 121.0
      },
      "type": "Feature"
    },
    {
      "geometry": {
        "coordinates": [
          44.141384298588655,
          15.313285102400748
        ],
        "type": "Point"
      },
      "properties": {
        "anchor_kind": null,
        "anchor_name": null,
        "archetype": "halt",
        "chainage_m": 36083.9,
        "corridor_offset_m": 213.944,
        "id": "line-7-1037-0490-s036084",
        "junction_group": null,
        "line": "line-7",
        "platform_length_m": 117.0
      },
      "type": "Feature"
    },
    {
      "geometry": {
        "coordinates": [
          44.14175691550441,
          15.349998200338337
        ],
        "type": "Point"
      },
      "properties": {
        "anchor_kind": null,
        "anchor_name": null,
        "archetype": "interchange",
        "chainage_m": 41502.7,
        "corridor_offset_m": 162.141,
        "id": "line-7-0833-0492-s041503",
        "junction_group": 8,
        "line": "line-7",
        "platform_length_m": 121.0
      },
      "type": "Feature"
    },
    {
      "geometry": {
        "coordinates": [
          44.14771878615647,
          15.361696001151783
        ],
        "type": "Point"
      },
      "properties": {
        "anchor_kind": null,
        "anchor_name": null,
        "archetype": "standard",
        "chainage_m": 43102.9,
        "corridor_offset_m": 147.136,
        "id": "line-7-0768-0524-s043103",
        "junction_group": null,
        "line": "line-7",
        "platform_length_m": 121.0
      },
      "type": "Feature"
    },
    {
      "geometry": {
        "coordinates": [
          44.164113930449645,
          15.382212144116906
        ],
        "type": "Point"
      },
      "properties": {
        "anchor_kind": "place:suburb",
        "anchor_name": "أسعد الكامل",
        "archetype": "interchange",
        "chainage_m": 46393.1,
        "corridor_offset_m": 99.34,
        "id": "line-7-0654-0612-s046393",
        "junction_group": 0,
        "line": "line-7",
        "platform_length_m": 121.0
      },
      "type": "Feature"
    },
    {
      "geometry": {
        "coordinates": [
          44.173243044885616,
          15.38833099377317
        ],
        "type": "Point"
      },
      "properties": {
        "anchor_kind": null,
        "anchor_name": null,
        "archetype": "interchange",
        "chainage_m": 47736.8,
        "corridor_offset_m": 60.502,
        "id": "line-7-0620-0661-s047737",
        "junction_group": 0,
        "line": "line-7",
        "platform_length_m": 121.0
      },
      "type": "Feature"
    },
    {
      "geometry": {
        "coordinates": [
          44.192432816046946,
          15.429723212036137
        ],
        "type": "Point"
      },
      "properties": {
        "anchor_kind": null,
        "anchor_name": null,
        "archetype": "halt",
        "chainage_m": 53400.9,
        "corridor_offset_m": 47.203,
        "id": "line-7-0390-0764-s053401",
        "junction_group": null,
        "line": "line-7",
        "platform_length_m": 117.0
      },
      "type": "Feature"
    }
  ],
  "type": "FeatureCollection"
}
