{
  "features": [
    {
      "geometry": {
        "coordinates": [
          39.26486023174404,
          -15.11665134074794
        ],
        "type": "Point"
      },
      "properties": {
        "id": "interchange-000",
        "junction_group": 0,
        "line_count": 2,
        "lines": "line-1,line-2",
        "platform_count": 2,
        "platforms": "line-1-0551-0542-s006084,line-2-0551-0542-s010016"
      },
      "type": "Feature"
    },
    {
      "geometry": {
        "coordinates": [
          39.30812890249149,
          -15.175950192563798
        ],
        "type": "Point"
      },
      "properties": {
        "id": "interchange-001",
        "junction_group": 1,
        "line_count": 2,
        "lines": "line-2,line-3",
        "platform_count": 2,
        "platforms": "line-2-0890-0781-s021127,line-3-0871-0768-s000000"
      },
      "type": "Feature"
    }
  ],
  "type": "FeatureCollection"
}
