{
  "features": [
    {
      "geometry": {
        "coordinates": [
          39.29575313214867,
          -15.142386502537523
        ],
        "type": "Point"
      },
      "properties": {
        "anchor_kind": "amenity:hospital",
        "anchor_name": "Centro de Saude",
        "archetype": "terminal",
        "chainage_m": 0.0,
        "corridor_offset_m": 0.0,
        "id": "line-1-0694-0708-s000000",
        "junction_group": null,
        "line": "line-1",
        "platform_length_m": 59.5
      },
      "type": "Feature"
    },
    {
      "geometry": {
        "coordinates": [
          39.28142329280435,
          -15.13662758521398
        ],
        "type": "Point"
      },
      "properties": {
        "anchor_kind": null,
        "anchor_name": null,
        "archetype": "standard",
        "chainage_m": 2005.1,
        "corridor_offset_m": 1.105,
        "id": "line-1-0662-0631-s002005",
        "junction_group": null,
        "line": "line-1",
        "platform_length_m": 59.5
      },
      "type": "Feature"
    },
    {
      "geometry": {
        "coordinates": [
          39.27900396927869,
          -15.12438988590145
        ],
        "type": "Point"
      },
      "properties": {
        "anchor_kind": "amenity:marketplace",
        "anchor_name": "Feira Municipal",
        "archetype": "standard",
        "chainage_m": 4008.2,
        "corridor_offset_m": 3.028,
        "id": "line-1-0594-0618-s004008",
        "junction_group": null,
        "line": "line-1",
        "platform_length_m": 59.5
      },
      "type": "Feature"
    },
    {
      "geometry": {
        "coordinates": [
          39.26486023174404,
          -15.11665134074794
        ],
        "type": "Point"
      },
      "properties": {
        "anchor_kind": null,
        "anchor_name": null,
        "archetype": "interchange-elevated",
        "chainage_m": 6084.4,
        "corridor_offset_m": 7.521,
        "id": "line-1-0551-0542-s006084",
        "junction_group": 0,
        "line": "line-1",
        "platform_length_m": 59.5
      },
      "type": "Feature"
    },
    {
      "geometry": {
        "coordinates": [
          39.25611344668972,
          -15.111252355757118
        ],
        "type": "Point"
      },
      "properties": {
        "anchor_kind": "amenity:hospital",
        "anchor_name": "25 de Septembro",
        "archetype": "major",
        "chainage_m": 7653.5,
        "corridor_offset_m": 4.027,
        "id": "line-1-0521-0495-s007654",
        "junction_group": null,
        "line": "line-1",
        "platform_length_m": 59.5
      },
      "type": "Feature"
    },
    {
      "geometry": {
        "coordinates": [
          39.24792496706439,
          -15.10927272792715
        ],
        "type": "Point"
      },
      "properties": {
        "anchor_kind": "amenity:bus_station",
        "anchor_name": "Nagi",
        "archetype": "major",
        "chainage_m": 8872.3,
        "corridor_offset_m": 3.326,
        "id": "line-1-0510-0451-s008872",
        "junction_group": null,
        "line": "line-1",
        "platform_length_m": 59.5
      },
      "type": "Feature"
    },
    {
      "geometry": {
        "coordinates": [
          39.230059193336416,
          -15.107653032429903
        ],
        "type": "Point"
      },
      "properties": {
        "anchor_kind": "amenity:bus_station",
        "anchor_name": "Fayna",
        "archetype": "standard",
        "chainage_m": 10883.5,
        "corridor_offset_m": 3.151,
        "id": "line-1-0501-0355-s010883",
        "junction_group": null,
        "line": "line-1",
        "platform_length_m": 59.5
      },
      "type": "Feature"
    },
    {
      "geometry": {
        "coordinates": [
          39.22000969561443,
          -15.115391577583415
        ],
        "type": "Point"
      },
      "properties": {
        "anchor_kind": "amenity:hospital",
        "anchor_name": null,
        "archetype": "standard",
        "chainage_m": 12898.3,
        "corridor_offset_m": 1.929,
        "id": "line-1-0544-0301-s012898",
        "junction_group": null,
        "line": "line-1",
        "platform_length_m": 59.5
      },
      "type": "Feature"
    },
    {
      "geometry": {
        "coordinates": [
          39.20642426350878,
          -15.122770190404204
        ],
        "type": "Point"
      },
      "properties": {
        "anchor_kind": null,
        "anchor_name": null,
        "archetype": "standard",
        "chainage_m": 14912.5,
        "corridor_offset_m": 0.47,
        "id": "line-1-0585-0228-s014912",
        "junction_group": null,
        "line": "line-1",
        "platform_length_m": 59.5
      },
      "type": "Feature"
    },
    {
      "geometry": {
        "coordinates": [
          39.18874459159047,
          -15.11935083324335
        ],
        "type": "Point"
      },
      "properties": {
        "anchor_kind": "amenity:hospital",
        "anchor_name": "hospital geral de marrere",
        "archetype": "terminal",
        "chainage_m": 16981.6,
        "corridor_offset_m": 0.0,
        "id": "line-1-0566-0133-s016982",
        "junction_group": null,
        "line": "line-1",
        "platform_length_m": 59.5
      },
      "type": "Feature"
    },
    {
      "geometry": {
        "coordinates": [
          39.2157293539921,
          -15.07183976532412
        ],
        "type": "Point"
      },
      "properties": {
        "anchor_kind": "amenity:hospital",
        "anchor_name": "Hospital Geral de Nampula",
        "archetype": "terminal",
        "chainage_m": 0.0,
        "corridor_offset_m": 0.0,
        "id": "line-2-0302-0278-s000000",
        "junction_group": null,
        "line": "line-2",
        "platform_length_m": 59.5
      },
      "type": "Feature"
    },
    {
      "geometry": {
        "coordinates": [
          39.22931478609775,
          -15.083717532303927
        ],
        "type": "Point"
      },
      "properties": {
        "anchor_kind": null,
        "anchor_name": null,
        "archetype": "standard",
        "chainage_m": 2018.5,
        "corridor_offset_m": 68.101,
        "id": "line-2-0368-0351-s002018",
        "junction_group": null,
        "line": "line-2",
        "platform_length_m": 59.5
      },
      "type": "Feature"
    },
    {
      "geometry": {
        "coordinates": [
          39.242714116393735,
          -15.095955231616456
        ],
        "type": "Point"
      },
      "properties": {
        "anchor_kind": null,
        "anchor_name": null,
        "archetype": "standard",
        "chainage_m": 4021.8,
        "corridor_offset_m": 141.797,
        "id": "line-2-0436-0423-s004022",
        "junction_group": null,
        "line": "line-2",
        "platform_length_m": 59.5
      },
      "type": "Feature"
    },
    {
      "geometry": {
        "coordinates": [
          39.25983548288305,
          -15.098294791779146
        ],
        "type": "Point"
      },
      "properties": {
        "anchor_kind": null,
        "anchor_name": null,
        "archetype": "standard",
        "chainage_m": 6039.8,
        "corridor_offset_m": 213.255,
        "id": "line-2-0449-0515-s006040",
        "junction_group": null,
        "line": "line-2",
        "platform_length_m": 59.5
      },
      "type": "Feature"
    },
    {
      "geometry": {
        "coordinates": [
          39.271932100511364,
          -15.108552863261707
        ],
        "type": "Point"
      },
      "properties": {
        "anchor_kind": null,
        "anchor_name": null,
        "archetype": "standard",
        "chainage_m": 8049.2,
        "corridor_offset_m": 154.721,
        "id": "line-2-0506-0580-s008049",
        "junction_group": null,
        "line": "line-2",
        "platform_length_m": 59.5
      },
      "type": "Feature"
    },
    {
      "geometry": {
        "coordinates": [
          39.26486023174404,
          -15.11665134074794
        ],
        "type": "Point"
      },
      "properties": {
        "anchor_kind": null,
        "anchor_name": null,
        "archetype": "interchange-elevated",
        "chainage_m": 10016.3,
        "corridor_offset_m": 147.233,
        "id": "line-2-0551-0542-s010016",
        "junction_group": 0,
        "line": "line-2",
        "platform_length_m": 59.5
      },
      "type": "Feature"
    },
    {
      "geometry": {
        "coordinates": [
          39.25983548288305,
          -15.127269344563222
        ],
        "type": "Point"
      },
      "properties": {
        "anchor_kind": "shop:mall",
        "anchor_name": "Monica Shopping",
        "archetype": "major",
        "chainage_m": 11691.1,
        "corridor_offset_m": 71.444,
        "id": "line-2-0610-0515-s011691",
        "junction_group": null,
        "line": "line-2",
        "platform_length_m": 59.5
      },
      "type": "Feature"
    },
    {
      "geometry": {
        "coordinates": [
          39.275654136704695,
          -15.13428802505129
        ],
        "type": "Point"
      },
      "properties": {
        "anchor_kind": null,
        "anchor_name": null,
        "archetype": "standard",
        "chainage_m": 13714.2,
        "corridor_offset_m": 68.625,
        "id": "line-2-0649-0600-s013714",
        "junction_group": null,
        "line": "line-2",
        "platform_length_m": 59.5
      },
      "type": "Feature"
    },
    {
      "geometry": {
        "coordinates": [
          39.28607583804601,
          -15.143466299535687
        ],
        "type": "Point"
      },
      "properties": {
        "anchor_kind": null,
        "anchor_name": null,
        "archetype": "standard",
        "chainage_m": 15724.1,
        "corridor_offset_m": 15.316,
        "id": "line-2-0700-0656-s015724",
        "junction_group": null,
        "line": "line-2",
        "platform_length_m": 59.5
      },
      "type": "Feature"
    },
    {
      "geometry": {
        "coordinates": [
          39.300963982819326,
          -15.150484980023755
        ],
        "type": "Point"
      },
      "properties": {
        "anchor_kind": null,
        "anchor_name": null,
        "archetype": "standard",
        "chainage_m": 17734.1,
        "corridor_offset_m": 11.176,
        "id": "line-2-0739-0736-s017734",
        "junction_group": null,
        "line": "line-2",
        "platform_length_m": 59.5
      },
      "type": "Feature"
    },
    {
      "geometry": {
        "coordinates": [
          39.30766364796732,
          -15.166861901162582
        ],
        "type": "Point"
      },
      "properties": {
        "anchor_kind": null,
        "anchor_name": null,
        "archetype": "standard",
        "chainage_m": 19852.3,
        "corridor_offset_m": 4.195,
        "id": "line-2-0830-0772-s019852",
        "junction_group": null,
        "line": "line-2",
        "platform_length_m": 59.5
      },
      "type": "Feature"
    },
    {
      "geometry": {
        "coordinates": [
          39.30933856425432,
          -15.177659871144225
        ],
        "type": "Point"
      },
      "properties": {
        "anchor_kind": "leisure:stadium",
        "anchor_name": null,
        "archetype": "interchange-elevated",
        "chainage_m": 21126.8,
        "corridor_offset_m": 17.54,
        "id": "line-2-0890-0781-s021127",
        "junction_group": 1,
        "line": "line-2",
        "platform_length_m": 59.5
      },
      "type": "Feature"
    },
    {
      "geometry": {
        "coordinates": [
          39.31473551673464,
          -15.18629824712954
        ],
        "type": "Point"
      },
      "properties": {
        "anchor_kind": "amenity:university",
        "anchor_name": "Universidade Mussa Bin Bique",
        "archetype": "depot-terminal",
        "chainage_m": 22385.7,
        "corridor_offset_m": 0.0,
        "id": "line-2-0938-0810-s022386",
        "junction_group": null,
        "line": "line-2",
        "platform_length_m": 59.5
      },
      "type": "Feature"
    },
    {
      "geometry": {
        "coordinates": [
          39.306919240728654,
          -15.17424051398337
        ],
        "type": "Point"
      },
      "properties": {
        "anchor_kind": "leisure:stadium",
        "anchor_name": null,
        "archetype": "terminal",
        "chainage_m": 0.0,
        "corridor_offset_m": 0.0,
        "id": "line-3-0871-0768-s000000",
        "junction_group": 1,
        "line": "line-3",
        "platform_length_m": 59.5
      },
      "type": "Feature"
    },
    {
      "geometry": {
        "coordinates": [
          39.31231619320898,
          -15.150484980023755
        ],
        "type": "Point"
      },
      "properties": {
        "anchor_kind": null,
        "anchor_name": null,
        "archetype": "halt",
        "chainage_m": 3007.1,
        "corridor_offset_m": 4.706,
        "id": "line-3-0739-0797-s003007",
        "junction_group": null,
        "line": "line-3",
        "platform_length_m": 55.5
      },
      "type": "Feature"
    },
    {
      "geometry": {
        "coordinates": [
          39.30431381539332,
          -15.138427246877587
        ],
        "type": "Point"
      },
      "properties": {
        "anchor_kind": null,
        "anchor_name": null,
        "archetype": "standard",
        "chainage_m": 5007.9,
        "corridor_offset_m": 3.318,
        "id": "line-3-0672-0754-s005008",
        "junction_group": null,
        "line": "line-3",
        "platform_length_m": 59.5
      },
      "type": "Feature"
    },
    {
      "geometry": {
        "coordinates": [
          39.30431381539332,
          -15.120430630241515
        ],
        "type": "Point"
      },
      "properties": {
        "anchor_kind": null,
        "anchor_name": null,
        "archetype": "standard",
        "chainage_m": 7007.9,
        "corridor_offset_m": 3.213,
        "id": "line-3-0572-0754-s007008",
        "junction_group": null,
        "line": "line-3",
        "platform_length_m": 59.5
      },
      "type": "Feature"
    },
    {
      "geometry": {
        "coordinates": [
          39.291286688716674,
          -15.114491746751611
        ],
        "type": "Point"
      },
      "properties": {
        "anchor_kind": null,
        "anchor_name": null,
        "archetype": "standard",
        "chainage_m": 9009.4,
        "corridor_offset_m": 0.658,
        "id": "line-3-0539-0684-s009009",
        "junction_group": null,
        "line": "line-3",
        "platform_length_m": 59.5
      },
      "type": "Feature"
    },
    {
      "geometry": {
        "coordinates": [
          39.288495161571674,
          -15.097754893280063
        ],
        "type": "Point"
      },
      "properties": {
        "anchor_kind": null,
        "anchor_name": null,
        "archetype": "standard",
        "chainage_m": 11010.2,
        "corridor_offset_m": 0.169,
        "id": "line-3-0446-0669-s011010",
        "junction_group": null,
        "line": "line-3",
        "platform_length_m": 59.5
      },
      "type": "Feature"
    },
    {
      "geometry": {
        "coordinates": [
          39.28756465252334,
          -15.086417024799339
        ],
        "type": "Point"
      },
      "properties": {
        "anchor_kind": "amenity:hospital",
        "anchor_name": "Centro de Saúde de Namiepe",
        "archetype": "terminal",
        "chainage_m": 12311.6,
        "corridor_offset_m": 0.0,
        "id": "line-3-0383-0664-s012312",
        "junction_group": null,
        "line": "line-3",
        "platform_length_m": 59.5
      },
      "type": "Feature"
    }
  ],
  "type": "FeatureCollection"
}
