{
  "features": [
    {
      "geometry": {
        "coordinates": [
          43.372740629191064,
          33.43154662923371
        ],
        "type": "Point"
      },
      "properties": {
        "archetype": "main-heavy",
        "fleet_stalls": 6,
        "line": "line-1",
        "station": "line-1-0491-0802-s000000"
      },
      "type": "Feature"
    },
    {
      "geometry": {
        "coordinates": [
          43.26102425965815,
          33.40221214411691
        ],
        "type": "Point"
      },
      "properties": {
        "archetype": "main-heavy",
        "fleet_stalls": 6,
        "line": "line-2",
        "station": "line-2-0654-0283-s000000"
      },
      "type": "Feature"
    },
    {
      "geometry": {
        "coordinates": [
          43.33808487679261,
          33.44414426087896
        ],
        "type": "Point"
      },
      "properties": {
        "archetype": "main-heavy",
        "fleet_stalls": 6,
        "line": "line-3",
        "station": "line-3-0421-0641-s013224"
      },
      "type": "Feature"
    }
  ],
  "type": "FeatureCollection"
}
