{
  "features": [
    {
      "geometry": {
        "coordinates": [
          27.98972437661753,
          7.713430183925421
        ],
        "type": "Point"
      },
      "properties": {
        "id": "interchange-000",
        "junction_group": 0,
        "line_count": 2,
        "lines": "line-1,line-3",
        "platform_count": 2,
        "platforms": "line-1-0300-0329-s003008,line-3-0301-0309-s002238"
      },
      "type": "Feature"
    },
    {
      "geometry": {
        "coordinates": [
          27.9978827395214,
          7.700682580474871
        ],
        "type": "Point"
      },
      "properties": {
        "id": "interchange-001",
        "junction_group": 1,
        "line_count": 3,
        "lines": "line-1,line-2,line-3",
        "platform_count": 3,
        "platforms": "line-1-0370-0371-s004995,line-2-0376-0351-s007885,line-3-0368-0370-s000000"
      },
      "type": "Feature"
    }
  ],
  "type": "FeatureCollection"
}
