{
  "features": [
    {
      "geometry": {
        "coordinates": [
          27.97377024471661,
          7.7244981031566065
        ],
        "type": "Point"
      },
      "properties": {
        "anchor_kind": "aeroway:aerodrome",
        "anchor_name": "مطار واو",
        "archetype": "terminal",
        "chainage_m": 0.0,
        "corridor_offset_m": 0.0,
        "id": "line-1-0239-0231-s000000",
        "junction_group": null,
        "line": "line-1",
        "platform_length_m": 49.0
      },
      "type": "Feature"
    },
    {
      "geometry": {
        "coordinates": [
          27.987367516223074,
          7.704341892524205
        ],
        "type": "Point"
      },
      "properties": {
        "anchor_kind": null,
        "anchor_name": null,
        "archetype": "standard",
        "chainage_m": 3013.6,
        "corridor_offset_m": 0.03,
        "id": "line-1-0351-0306-s003014",
        "junction_group": null,
        "line": "line-1",
        "platform_length_m": 49.0
      },
      "type": "Feature"
    },
    {
      "geometry": {
        "coordinates": [
          28.00350294507741,
          7.680046460065507
        ],
        "type": "Point"
      },
      "properties": {
        "anchor_kind": "amenity:marketplace",
        "anchor_name": null,
        "archetype": "depot-terminal",
        "chainage_m": 6626.7,
        "corridor_offset_m": 0.0,
        "id": "line-1-0486-0395-s006627",
        "junction_group": null,
        "line": "line-1",
        "platform_length_m": 49.0
      },
      "type": "Feature"
    },
    {
      "geometry": {
        "coordinates": [
          27.984466764968364,
          7.754012554439766
        ],
        "type": "Point"
      },
      "properties": {
        "anchor_kind": "amenity:bus_station",
        "anchor_name": "Zagallona, Wau",
        "archetype": "terminal",
        "chainage_m": 0.0,
        "corridor_offset_m": 0.0,
        "id": "line-2-0075-0290-s000000",
        "junction_group": null,
        "line": "line-2",
        "platform_length_m": 49.0
      },
      "type": "Feature"
    },
    {
      "geometry": {
        "coordinates": [
          27.990993455291463,
          7.724858035489328
        ],
        "type": "Point"
      },
      "properties": {
        "anchor_kind": null,
        "anchor_name": null,
        "archetype": "standard",
        "chainage_m": 3618.2,
        "corridor_offset_m": 0.653,
        "id": "line-2-0237-0326-s003618",
        "junction_group": null,
        "line": "line-2",
        "platform_length_m": 49.0
      },
      "type": "Feature"
    },
    {
      "geometry": {
        "coordinates": [
          27.99552587912695,
          7.699842738365187
        ],
        "type": "Point"
      },
      "properties": {
        "anchor_kind": "amenity:hospital",
        "anchor_name": "Comboni Hospital",
        "archetype": "terminal",
        "chainage_m": 6605.3,
        "corridor_offset_m": 0.0,
        "id": "line-2-0376-0351-s006605",
        "junction_group": 0,
        "line": "line-2",
        "platform_length_m": 49.0
      },
      "type": "Feature"
    },
    {
      "geometry": {
        "coordinates": [
          27.998970521241922,
          7.701282467696073
        ],
        "type": "Point"
      },
      "properties": {
        "anchor_kind": "amenity:college",
        "anchor_name": "St. Mary's Minor Seminary",
        "archetype": "terminal",
        "chainage_m": 0.0,
        "corridor_offset_m": 0.0,
        "id": "line-3-0368-0370-s000000",
        "junction_group": 0,
        "line": "line-3",
        "platform_length_m": 49.0
      },
      "type": "Feature"
    },
    {
      "geometry": {
        "coordinates": [
          27.987911407083335,
          7.713340200842241
        ],
        "type": "Point"
      },
      "properties": {
        "anchor_kind": "amenity:college",
        "anchor_name": "Saint Joseph Basic School",
        "archetype": "terminal",
        "chainage_m": 2032.8,
        "corridor_offset_m": 0.0,
        "id": "line-3-0301-0309-s002033",
        "junction_group": null,
        "line": "line-3",
        "platform_length_m": 49.0
      },
      "type": "Feature"
    }
  ],
  "type": "FeatureCollection"
}
