{
  "features": [
    {
      "geometry": {
        "coordinates": [
          30.959555976139715,
          30.746306187236797
        ],
        "type": "Point"
      },
      "properties": {
        "id": "interchange-000",
        "junction_group": 0,
        "line_count": 2,
        "lines": "line-1,line-3",
        "platform_count": 2,
        "platforms": "line-1-0773-0371-s010636,line-3-0774-0341-s007028"
      },
      "type": "Feature"
    },
    {
      "geometry": {
        "coordinates": [
          30.999500412164075,
          30.787068523917505
        ],
        "type": "Point"
      },
      "properties": {
        "id": "interchange-001",
        "junction_group": 1,
        "line_count": 2,
        "lines": "line-2,line-3",
        "platform_count": 2,
        "platforms": "line-2-0548-0548-s012056,line-3-0546-0546-s013896"
      },
      "type": "Feature"
    }
  ],
  "type": "FeatureCollection"
}
