{
  "features": [
    {
      "geometry": {
        "coordinates": [
          125.66734443755749,
          7.270371810099702
        ],
        "type": "Point"
      },
      "properties": {
        "anchor_kind": "amenity:college",
        "anchor_name": "East Asian College",
        "archetype": "terminal",
        "chainage_m": 0.0,
        "corridor_offset_m": 0.0,
        "id": "line-1-0053-1476-s000000",
        "junction_group": null,
        "line": "line-1",
        "platform_length_m": 85.0
      },
      "type": "Feature"
    },
    {
      "geometry": {
        "coordinates": [
          125.6490567381377,
          7.248775870136415
        ],
        "type": "Point"
      },
      "properties": {
        "anchor_kind": "place:neighbourhood",
        "anchor_name": "Muslim Village",
        "archetype": "halt",
        "chainage_m": 3517.9,
        "corridor_offset_m": 6.112,
        "id": "line-1-0173-1375-s003518",
        "junction_group": null,
        "line": "line-1",
        "platform_length_m": 81.0
      },
      "type": "Feature"
    },
    {
      "geometry": {
        "coordinates": [
          125.64127088590948,
          7.223400640679553
        ],
        "type": "Point"
      },
      "properties": {
        "anchor_kind": "place:neighbourhood",
        "anchor_name": "Calderon",
        "archetype": "halt",
        "chainage_m": 7017.0,
        "corridor_offset_m": 71.284,
        "id": "line-1-0314-1332-s007017",
        "junction_group": null,
        "line": "line-1",
        "platform_length_m": 81.0
      },
      "type": "Feature"
    },
    {
      "geometry": {
        "coordinates": [
          125.62189678850437,
          7.210623042867941
        ],
        "type": "Point"
      },
      "properties": {
        "anchor_kind": "place:neighbourhood",
        "anchor_name": "Purok 8",
        "archetype": "standard",
        "chainage_m": 10746.3,
        "corridor_offset_m": 80.74,
        "id": "line-1-0385-1225-s010746",
        "junction_group": null,
        "line": "line-1",
        "platform_length_m": 85.0
      },
      "type": "Feature"
    },
    {
      "geometry": {
        "coordinates": [
          125.60071202779037,
          7.191186696900983
        ],
        "type": "Point"
      },
      "properties": {
        "anchor_kind": "place:neighbourhood",
        "anchor_name": "Purok 1",
        "archetype": "interchange-elevated",
        "chainage_m": 14452.5,
        "corridor_offset_m": 108.339,
        "id": "line-1-0493-1108-s014452",
        "junction_group": 0,
        "line": "line-1",
        "platform_length_m": 85.0
      },
      "type": "Feature"
    },
    {
      "geometry": {
        "coordinates": [
          125.59491790520192,
          7.1708505201022215
        ],
        "type": "Point"
      },
      "properties": {
        "anchor_kind": "amenity:college",
        "anchor_name": "Jose Maria College - Indangan Campus",
        "archetype": "standard",
        "chainage_m": 17039.0,
        "corridor_offset_m": 117.029,
        "id": "line-1-0606-1076-s017039",
        "junction_group": null,
        "line": "line-1",
        "platform_length_m": 85.0
      },
      "type": "Feature"
    },
    {
      "geometry": {
        "coordinates": [
          125.58785631829726,
          7.151774106467984
        ],
        "type": "Point"
      },
      "properties": {
        "anchor_kind": "place:neighbourhood",
        "anchor_name": "Coog 2",
        "archetype": "standard",
        "chainage_m": 20059.5,
        "corridor_offset_m": 146.638,
        "id": "line-1-0712-1037-s020059",
        "junction_group": null,
        "line": "line-1",
        "platform_length_m": 85.0
      },
      "type": "Feature"
    },
    {
      "geometry": {
        "coordinates": [
          125.58423499167947,
          7.130178166504697
        ],
        "type": "Point"
      },
      "properties": {
        "anchor_kind": null,
        "anchor_name": null,
        "archetype": "standard",
        "chainage_m": 23076.6,
        "corridor_offset_m": 205.492,
        "id": "line-1-0832-1017-s023077",
        "junction_group": null,
        "line": "line-1",
        "platform_length_m": 85.0
      },
      "type": "Feature"
    },
    {
      "geometry": {
        "coordinates": [
          125.56214489931102,
          7.128738437173811
        ],
        "type": "Point"
      },
      "properties": {
        "anchor_kind": "place:neighbourhood",
        "anchor_name": "Casa Mira Homes",
        "archetype": "standard",
        "chainage_m": 26089.9,
        "corridor_offset_m": 162.621,
        "id": "line-1-0840-0895-s026090",
        "junction_group": null,
        "line": "line-1",
        "platform_length_m": 85.0
      },
      "type": "Feature"
    },
    {
      "geometry": {
        "coordinates": [
          125.56123956765659,
          7.1114616852031824
        ],
        "type": "Point"
      },
      "properties": {
        "anchor_kind": null,
        "anchor_name": null,
        "archetype": "standard",
        "chainage_m": 29095.9,
        "corridor_offset_m": 156.879,
        "id": "line-1-0936-0890-s029096",
        "junction_group": null,
        "line": "line-1",
        "platform_length_m": 85.0
      },
      "type": "Feature"
    },
    {
      "geometry": {
        "coordinates": [
          125.55562651139903,
          7.090045711406256
        ],
        "type": "Point"
      },
      "properties": {
        "anchor_kind": null,
        "anchor_name": null,
        "archetype": "standard",
        "chainage_m": 32122.6,
        "corridor_offset_m": 134.67,
        "id": "line-1-1055-0859-s032123",
        "junction_group": null,
        "line": "line-1",
        "platform_length_m": 85.0
      },
      "type": "Feature"
    },
    {
      "geometry": {
        "coordinates": [
          125.54367613356035,
          7.0695295684411334
        ],
        "type": "Point"
      },
      "properties": {
        "anchor_kind": "amenity:college",
        "anchor_name": "Saint Francis Xavier Regional Major Seminary of Mindanao",
        "archetype": "standard",
        "chainage_m": 35146.5,
        "corridor_offset_m": 62.592,
        "id": "line-1-1169-0793-s035147",
        "junction_group": null,
        "line": "line-1",
        "platform_length_m": 85.0
      },
      "type": "Feature"
    },
    {
      "geometry": {
        "coordinates": [
          125.52864762809658,
          7.04883345930965
        ],
        "type": "Point"
      },
      "properties": {
        "anchor_kind": "place:neighbourhood",
        "anchor_name": "Gallera De Oro",
        "archetype": "standard",
        "chainage_m": 38167.3,
        "corridor_offset_m": 29.609,
        "id": "line-1-1284-0710-s038167",
        "junction_group": null,
        "line": "line-1",
        "platform_length_m": 85.0
      },
      "type": "Feature"
    },
    {
      "geometry": {
        "coordinates": [
          125.5119895256548,
          7.030836842673578
        ],
        "type": "Point"
      },
      "properties": {
        "anchor_kind": "place:suburb",
        "anchor_name": "Dumoy",
        "archetype": "interchange-elevated",
        "chainage_m": 41173.4,
        "corridor_offset_m": 0.249,
        "id": "line-1-1384-0618-s041173",
        "junction_group": 1,
        "line": "line-1",
        "platform_length_m": 85.0
      },
      "type": "Feature"
    },
    {
      "geometry": {
        "coordinates": [
          125.49822848450724,
          7.02147860202282
        ],
        "type": "Point"
      },
      "properties": {
        "anchor_kind": "amenity:college",
        "anchor_name": "St. Peter College of Davao",
        "archetype": "standard",
        "chainage_m": 43180.8,
        "corridor_offset_m": 17.484,
        "id": "line-1-1436-0542-s043181",
        "junction_group": null,
        "line": "line-1",
        "platform_length_m": 85.0
      },
      "type": "Feature"
    },
    {
      "geometry": {
        "coordinates": [
          125.4859159740068,
          7.0191390418601305
        ],
        "type": "Point"
      },
      "properties": {
        "anchor_kind": "place:neighbourhood",
        "anchor_name": "Purok 7",
        "archetype": "standard",
        "chainage_m": 45195.6,
        "corridor_offset_m": 30.94,
        "id": "line-1-1449-0474-s045196",
        "junction_group": null,
        "line": "line-1",
        "platform_length_m": 85.0
      },
      "type": "Feature"
    },
    {
      "geometry": {
        "coordinates": [
          125.4859159740068,
          7.0036619515531084
        ],
        "type": "Point"
      },
      "properties": {
        "anchor_kind": "place:neighbourhood",
        "anchor_name": "Riverside",
        "archetype": "depot-terminal",
        "chainage_m": 47206.1,
        "corridor_offset_m": 0.0,
        "id": "line-1-1535-0474-s047206",
        "junction_group": null,
        "line": "line-1",
        "platform_length_m": 85.0
      },
      "type": "Feature"
    },
    {
      "geometry": {
        "coordinates": [
          125.40009053316545,
          7.246976208472807
        ],
        "type": "Point"
      },
      "properties": {
        "anchor_kind": "place:neighbourhood",
        "anchor_name": "Lawis",
        "archetype": "terminal",
        "chainage_m": 0.0,
        "corridor_offset_m": 0.0,
        "id": "line-2-0183-0000-s000000",
        "junction_group": null,
        "line": "line-2",
        "platform_length_m": 85.0
      },
      "type": "Feature"
    },
    {
      "geometry": {
        "coordinates": [
          125.41041131402612,
          7.221421012849585
        ],
        "type": "Point"
      },
      "properties": {
        "anchor_kind": "place:neighbourhood",
        "anchor_name": "Pagaran",
        "archetype": "halt",
        "chainage_m": 3509.4,
        "corridor_offset_m": 6.196,
        "id": "line-2-0325-0057-s003509",
        "junction_group": null,
        "line": "line-2",
        "platform_length_m": 81.0
      },
      "type": "Feature"
    },
    {
      "geometry": {
        "coordinates": [
          125.43720913099767,
          7.21044307670158
        ],
        "type": "Point"
      },
      "properties": {
        "anchor_kind": "place:neighbourhood",
        "anchor_name": "Purok 3 A-B",
        "archetype": "halt",
        "chainage_m": 7021.6,
        "corridor_offset_m": 15.28,
        "id": "line-2-0386-0205-s007022",
        "junction_group": null,
        "line": "line-2",
        "platform_length_m": 81.0
      },
      "type": "Feature"
    },
    {
      "geometry": {
        "coordinates": [
          125.45694536106457,
          7.186507576575604
        ],
        "type": "Point"
      },
      "properties": {
        "anchor_kind": "amenity:university",
        "anchor_name": "Holy Cross College of Calinan",
        "archetype": "interchange-elevated",
        "chainage_m": 11017.7,
        "corridor_offset_m": 68.71,
        "id": "line-2-0519-0314-s011018",
        "junction_group": 2,
        "line": "line-2",
        "platform_length_m": 85.0
      },
      "type": "Feature"
    },
    {
      "geometry": {
        "coordinates": [
          125.4694389378959,
          7.175169708094878
        ],
        "type": "Point"
      },
      "properties": {
        "anchor_kind": "place:neighbourhood",
        "anchor_name": "Purok 21",
        "archetype": "standard",
        "chainage_m": 13036.8,
        "corridor_offset_m": 72.457,
        "id": "line-2-0582-0383-s013037",
        "junction_group": null,
        "line": "line-2",
        "platform_length_m": 85.0
      },
      "type": "Feature"
    },
    {
      "geometry": {
        "coordinates": [
          125.48193251472723,
          7.1593326854551345
        ],
        "type": "Point"
      },
      "properties": {
        "anchor_kind": null,
        "anchor_name": null,
        "archetype": "standard",
        "chainage_m": 16091.6,
        "corridor_offset_m": 52.104,
        "id": "line-2-0670-0452-s016092",
        "junction_group": null,
        "line": "line-2",
        "platform_length_m": 85.0
      },
      "type": "Feature"
    },
    {
      "geometry": {
        "coordinates": [
          125.49424502522768,
          7.137196846992766
        ],
        "type": "Point"
      },
      "properties": {
        "anchor_kind": "place:neighbourhood",
        "anchor_name": "Centennial Village",
        "archetype": "standard",
        "chainage_m": 19114.9,
        "corridor_offset_m": 63.608,
        "id": "line-2-0793-0520-s019115",
        "junction_group": null,
        "line": "line-2",
        "platform_length_m": 85.0
      },
      "type": "Feature"
    },
    {
      "geometry": {
        "coordinates": [
          125.51832684723591,
          7.132157794334665
        ],
        "type": "Point"
      },
      "properties": {
        "anchor_kind": null,
        "anchor_name": null,
        "archetype": "standard",
        "chainage_m": 22134.5,
        "corridor_offset_m": 156.336,
        "id": "line-2-0821-0653-s022135",
        "junction_group": null,
        "line": "line-2",
        "platform_length_m": 85.0
      },
      "type": "Feature"
    },
    {
      "geometry": {
        "coordinates": [
          125.51705938291968,
          7.114881042364035
        ],
        "type": "Point"
      },
      "properties": {
        "anchor_kind": "place:neighbourhood",
        "anchor_name": "Purok 3-A",
        "archetype": "standard",
        "chainage_m": 25152.2,
        "corridor_offset_m": 126.953,
        "id": "line-2-0917-0646-s025152",
        "junction_group": null,
        "line": "line-2",
        "platform_length_m": 85.0
      },
      "type": "Feature"
    },
    {
      "geometry": {
        "coordinates": [
          125.53389855169236,
          7.0979642227261275
        ],
        "type": "Point"
      },
      "properties": {
        "anchor_kind": null,
        "anchor_name": null,
        "archetype": "standard",
        "chainage_m": 28168.7,
        "corridor_offset_m": 157.326,
        "id": "line-2-1011-0739-s028169",
        "junction_group": null,
        "line": "line-2",
        "platform_length_m": 85.0
      },
      "type": "Feature"
    },
    {
      "geometry": {
        "coordinates": [
          125.55345371542836,
          7.084826692581795
        ],
        "type": "Point"
      },
      "properties": {
        "anchor_kind": "place:neighbourhood",
        "anchor_name": "Marie Rivier",
        "archetype": "standard",
        "chainage_m": 31194.0,
        "corridor_offset_m": 181.868,
        "id": "line-2-1084-0847-s031194",
        "junction_group": null,
        "line": "line-2",
        "platform_length_m": 85.0
      },
      "type": "Feature"
    },
    {
      "geometry": {
        "coordinates": [
          125.57174141484813,
          7.070969297772019
        ],
        "type": "Point"
      },
      "properties": {
        "anchor_kind": "place:neighbourhood",
        "anchor_name": "Salvacion Village",
        "archetype": "standard",
        "chainage_m": 34207.0,
        "corridor_offset_m": 93.486,
        "id": "line-2-1161-0948-s034207",
        "junction_group": null,
        "line": "line-2",
        "platform_length_m": 85.0
      },
      "type": "Feature"
    },
    {
      "geometry": {
        "coordinates": [
          125.58133793038525,
          7.059271496958572
        ],
        "type": "Point"
      },
      "properties": {
        "anchor_kind": null,
        "anchor_name": null,
        "archetype": "interchange-elevated",
        "chainage_m": 36543.3,
        "corridor_offset_m": 37.368,
        "id": "line-2-1226-1001-s036543",
        "junction_group": 3,
        "line": "line-2",
        "platform_length_m": 85.0
      },
      "type": "Feature"
    },
    {
      "geometry": {
        "coordinates": [
          125.58586458865747,
          7.049733290141454
        ],
        "type": "Point"
      },
      "properties": {
        "anchor_kind": "amenity:university",
        "anchor_name": "National University Davao, SM Extension",
        "archetype": "interchange-elevated",
        "chainage_m": 38414.0,
        "corridor_offset_m": 21.107,
        "id": "line-2-1279-1026-s038414",
        "junction_group": 3,
        "line": "line-2",
        "platform_length_m": 85.0
      },
      "type": "Feature"
    },
    {
      "geometry": {
        "coordinates": [
          125.60034989512859,
          7.045774034481518
        ],
        "type": "Point"
      },
      "properties": {
        "anchor_kind": "place:neighbourhood",
        "anchor_name": "Caparida Compound",
        "archetype": "terminal",
        "chainage_m": 40380.6,
        "corridor_offset_m": 0.0,
        "id": "line-2-1301-1106-s040381",
        "junction_group": null,
        "line": "line-2",
        "platform_length_m": 85.0
      },
      "type": "Feature"
    },
    {
      "geometry": {
        "coordinates": [
          125.69396118819816,
          7.143855595148112
        ],
        "type": "Point"
      },
      "properties": {
        "anchor_kind": "place:neighbourhood",
        "anchor_name": "Carmel",
        "archetype": "terminal",
        "chainage_m": 0.0,
        "corridor_offset_m": 0.0,
        "id": "line-3-0756-1623-s000000",
        "junction_group": null,
        "line": "line-3",
        "platform_length_m": 85.0
      },
      "type": "Feature"
    },
    {
      "geometry": {
        "coordinates": [
          125.66191244763081,
          7.146015189144441
        ],
        "type": "Point"
      },
      "properties": {
        "anchor_kind": "place:neighbourhood",
        "anchor_name": "Jasa Community",
        "archetype": "standard",
        "chainage_m": 3789.7,
        "corridor_offset_m": 93.773,
        "id": "line-3-0744-1446-s003790",
        "junction_group": null,
        "line": "line-3",
        "platform_length_m": 85.0
      },
      "type": "Feature"
    },
    {
      "geometry": {
        "coordinates": [
          125.64652180950526,
          7.136117049994601
        ],
        "type": "Point"
      },
      "properties": {
        "anchor_kind": "place:neighbourhood",
        "anchor_name": "LPU Town",
        "archetype": "interchange-elevated",
        "chainage_m": 6339.3,
        "corridor_offset_m": 105.841,
        "id": "line-3-0799-1361-s006339",
        "junction_group": 4,
        "line": "line-3",
        "platform_length_m": 85.0
      },
      "type": "Feature"
    },
    {
      "geometry": {
        "coordinates": [
          125.62243998749703,
          7.1424158658172265
        ],
        "type": "Point"
      },
      "properties": {
        "anchor_kind": "place:suburb",
        "anchor_name": "Communal",
        "archetype": "standard",
        "chainage_m": 9818.6,
        "corridor_offset_m": 36.453,
        "id": "line-3-0764-1228-s009819",
        "junction_group": null,
        "line": "line-3",
        "platform_length_m": 85.0
      },
      "type": "Feature"
    },
    {
      "geometry": {
        "coordinates": [
          125.6034280227537,
          7.141156102652702
        ],
        "type": "Point"
      },
      "properties": {
        "anchor_kind": "place:neighbourhood",
        "anchor_name": "Juerba Homes",
        "archetype": "standard",
        "chainage_m": 12832.8,
        "corridor_offset_m": 15.44,
        "id": "line-3-0771-1123-s012833",
        "junction_group": null,
        "line": "line-3",
        "platform_length_m": 85.0
      },
      "type": "Feature"
    },
    {
      "geometry": {
        "coordinates": [
          125.5789840680837,
          7.14313573048267
        ],
        "type": "Point"
      },
      "properties": {
        "anchor_kind": "place:neighbourhood",
        "anchor_name": "Soller Residences",
        "archetype": "standard",
        "chainage_m": 15855.9,
        "corridor_offset_m": 48.338,
        "id": "line-3-0760-0988-s015856",
        "junction_group": null,
        "line": "line-3",
        "platform_length_m": 85.0
      },
      "type": "Feature"
    },
    {
      "geometry": {
        "coordinates": [
          125.55182411845036,
          7.134677320663715
        ],
        "type": "Point"
      },
      "properties": {
        "anchor_kind": null,
        "anchor_name": null,
        "archetype": "standard",
        "chainage_m": 19572.1,
        "corridor_offset_m": 101.123,
        "id": "line-3-0807-0838-s019572",
        "junction_group": null,
        "line": "line-3",
        "platform_length_m": 85.0
      },
      "type": "Feature"
    },
    {
      "geometry": {
        "coordinates": [
          125.5380630773028,
          7.140076305654537
        ],
        "type": "Point"
      },
      "properties": {
        "anchor_kind": "place:neighbourhood",
        "anchor_name": "Purok 4",
        "archetype": "standard",
        "chainage_m": 21882.9,
        "corridor_offset_m": 107.689,
        "id": "line-3-0777-0762-s021883",
        "junction_group": null,
        "line": "line-3",
        "platform_length_m": 85.0
      },
      "type": "Feature"
    },
    {
      "geometry": {
        "coordinates": [
          125.51488658694902,
          7.14817478314077
        ],
        "type": "Point"
      },
      "properties": {
        "anchor_kind": null,
        "anchor_name": null,
        "archetype": "standard",
        "chainage_m": 24897.7,
        "corridor_offset_m": 106.179,
        "id": "line-3-0732-0634-s024898",
        "junction_group": null,
        "line": "line-3",
        "platform_length_m": 85.0
      },
      "type": "Feature"
    },
    {
      "geometry": {
        "coordinates": [
          125.48881303530102,
          7.147274952308966
        ],
        "type": "Point"
      },
      "properties": {
        "anchor_kind": "place:neighbourhood",
        "anchor_name": "Fatima",
        "archetype": "standard",
        "chainage_m": 27902.0,
        "corridor_offset_m": 141.47,
        "id": "line-3-0737-0490-s027902",
        "junction_group": null,
        "line": "line-3",
        "platform_length_m": 85.0
      },
      "type": "Feature"
    },
    {
      "geometry": {
        "coordinates": [
          125.46581761127813,
          7.147094986142606
        ],
        "type": "Point"
      },
      "properties": {
        "anchor_kind": null,
        "anchor_name": null,
        "archetype": "interchange-elevated",
        "chainage_m": 30764.2,
        "corridor_offset_m": 125.579,
        "id": "line-3-0738-0363-s030764",
        "junction_group": 5,
        "line": "line-3",
        "platform_length_m": 85.0
      },
      "type": "Feature"
    },
    {
      "geometry": {
        "coordinates": [
          125.42562088582079,
          7.144035561314473
        ],
        "type": "Point"
      },
      "properties": {
        "anchor_kind": "place:neighbourhood",
        "anchor_name": "Purok 4",
        "archetype": "terminal",
        "chainage_m": 36372.7,
        "corridor_offset_m": 0.0,
        "id": "line-3-0755-0141-s036373",
        "junction_group": null,
        "line": "line-3",
        "platform_length_m": 85.0
      },
      "type": "Feature"
    },
    {
      "geometry": {
        "coordinates": [
          125.43539846768878,
          7.102643343051507
        ],
        "type": "Point"
      },
      "properties": {
        "anchor_kind": "place:neighbourhood",
        "anchor_name": "Talisay",
        "archetype": "terminal",
        "chainage_m": 0.0,
        "corridor_offset_m": 0.0,
        "id": "line-4-0985-0195-s000000",
        "junction_group": null,
        "line": "line-4",
        "platform_length_m": 85.0
      },
      "type": "Feature"
    },
    {
      "geometry": {
        "coordinates": [
          125.46599867760901,
          7.099223985890653
        ],
        "type": "Point"
      },
      "properties": {
        "anchor_kind": null,
        "anchor_name": null,
        "archetype": "interchange-elevated",
        "chainage_m": 3865.1,
        "corridor_offset_m": 21.52,
        "id": "line-4-1004-0364-s003865",
        "junction_group": 6,
        "line": "line-4",
        "platform_length_m": 85.0
      },
      "type": "Feature"
    },
    {
      "geometry": {
        "coordinates": [
          125.48193251472723,
          7.103183241550589
        ],
        "type": "Point"
      },
      "properties": {
        "anchor_kind": null,
        "anchor_name": null,
        "archetype": "standard",
        "chainage_m": 5854.2,
        "corridor_offset_m": 9.078,
        "id": "line-4-0982-0452-s005854",
        "junction_group": null,
        "line": "line-4",
        "platform_length_m": 85.0
      },
      "type": "Feature"
    },
    {
      "geometry": {
        "coordinates": [
          125.49297756091146,
          7.100663715221539
        ],
        "type": "Point"
      },
      "properties": {
        "anchor_kind": "place:neighbourhood",
        "anchor_name": "Purok 1",
        "archetype": "standard",
        "chainage_m": 7851.3,
        "corridor_offset_m": 5.378,
        "id": "line-4-0996-0513-s007851",
        "junction_group": null,
        "line": "line-4",
        "platform_length_m": 85.0
      },
      "type": "Feature"
    },
    {
      "geometry": {
        "coordinates": [
          125.5152487196108,
          7.094364899398913
        ],
        "type": "Point"
      },
      "properties": {
        "anchor_kind": "place:neighbourhood",
        "anchor_name": "Kalubihan II",
        "archetype": "standard",
        "chainage_m": 10857.8,
        "corridor_offset_m": 26.225,
        "id": "line-4-1031-0636-s010858",
        "junction_group": null,
        "line": "line-4",
        "platform_length_m": 85.0
      },
      "type": "Feature"
    },
    {
      "geometry": {
        "coordinates": [
          125.53824414363369,
          7.08860598207537
        ],
        "type": "Point"
      },
      "properties": {
        "anchor_kind": null,
        "anchor_name": null,
        "archetype": "standard",
        "chainage_m": 13871.8,
        "corridor_offset_m": 5.857,
        "id": "line-4-1063-0763-s013872",
        "junction_group": null,
        "line": "line-4",
        "platform_length_m": 85.0
      },
      "type": "Feature"
    },
    {
      "geometry": {
        "coordinates": [
          125.56178276664924,
          7.092745203901667
        ],
        "type": "Point"
      },
      "properties": {
        "anchor_kind": null,
        "anchor_name": null,
        "archetype": "standard",
        "chainage_m": 16872.8,
        "corridor_offset_m": 51.076,
        "id": "line-4-1040-0893-s016873",
        "junction_group": null,
        "line": "line-4",
        "platform_length_m": 85.0
      },
      "type": "Feature"
    },
    {
      "geometry": {
        "coordinates": [
          125.58260539470147,
          7.103183241550589
        ],
        "type": "Point"
      },
      "properties": {
        "anchor_kind": "place:neighbourhood",
        "anchor_name": "South Villa Country Homes",
        "archetype": "standard",
        "chainage_m": 19899.0,
        "corridor_offset_m": 9.08,
        "id": "line-4-0982-1008-s019899",
        "junction_group": null,
        "line": "line-4",
        "platform_length_m": 85.0
      },
      "type": "Feature"
    },
    {
      "geometry": {
        "coordinates": [
          125.60741148203326,
          7.106782564877803
        ],
        "type": "Point"
      },
      "properties": {
        "anchor_kind": "place:neighbourhood",
        "anchor_name": "Green Heights",
        "archetype": "standard",
        "chainage_m": 22904.1,
        "corridor_offset_m": 20.284,
        "id": "line-4-0962-1145-s022904",
        "junction_group": null,
        "line": "line-4",
        "platform_length_m": 85.0
      },
      "type": "Feature"
    },
    {
      "geometry": {
        "coordinates": [
          125.61501626793059,
          7.096164561062521
        ],
        "type": "Point"
      },
      "properties": {
        "anchor_kind": null,
        "anchor_name": null,
        "archetype": "interchange-elevated",
        "chainage_m": 24932.6,
        "corridor_offset_m": 107.137,
        "id": "line-4-1021-1187-s024933",
        "junction_group": 7,
        "line": "line-4",
        "platform_length_m": 85.0
      },
      "type": "Feature"
    },
    {
      "geometry": {
        "coordinates": [
          125.62750984476192,
          7.08860598207537
        ],
        "type": "Point"
      },
      "properties": {
        "anchor_kind": "amenity:college",
        "anchor_name": "Computer Sense College",
        "archetype": "standard",
        "chainage_m": 26940.6,
        "corridor_offset_m": 157.466,
        "id": "line-4-1063-1256-s026941",
        "junction_group": null,
        "line": "line-4",
        "platform_length_m": 85.0
      },
      "type": "Feature"
    },
    {
      "geometry": {
        "coordinates": [
          125.63927915626971,
          7.098324155058849
        ],
        "type": "Point"
      },
      "properties": {
        "anchor_kind": "amenity:marketplace",
        "anchor_name": "Molejon Enterprises",
        "archetype": "standard",
        "chainage_m": 28937.6,
        "corridor_offset_m": 171.703,
        "id": "line-4-1009-1321-s028938",
        "junction_group": null,
        "line": "line-4",
        "platform_length_m": 85.0
      },
      "type": "Feature"
    },
    {
      "geometry": {
        "coordinates": [
          125.66788763655015,
          7.098684087391571
        ],
        "type": "Point"
      },
      "properties": {
        "anchor_kind": "place:neighbourhood",
        "anchor_name": "Villa Vista",
        "archetype": "halt",
        "chainage_m": 32909.0,
        "corridor_offset_m": 115.124,
        "id": "line-4-1007-1479-s032909",
        "junction_group": null,
        "line": "line-4",
        "platform_length_m": 81.0
      },
      "type": "Feature"
    },
    {
      "geometry": {
        "coordinates": [
          125.6997553107866,
          7.093825000899831
        ],
        "type": "Point"
      },
      "properties": {
        "anchor_kind": "place:neighbourhood",
        "anchor_name": "Cabadiangan",
        "archetype": "terminal",
        "chainage_m": 36887.8,
        "corridor_offset_m": 0.0,
        "id": "line-4-1034-1655-s036888",
        "junction_group": null,
        "line": "line-4",
        "platform_length_m": 85.0
      },
      "type": "Feature"
    },
    {
      "geometry": {
        "coordinates": [
          125.47052533588123,
          7.252375193463629
        ],
        "type": "Point"
      },
      "properties": {
        "anchor_kind": "place:neighbourhood",
        "anchor_name": "Lansones",
        "archetype": "terminal",
        "chainage_m": 0.0,
        "corridor_offset_m": 0.0,
        "id": "line-5-0153-0389-s000000",
        "junction_group": null,
        "line": "line-5",
        "platform_length_m": 85.0
      },
      "type": "Feature"
    },
    {
      "geometry": {
        "coordinates": [
          125.4889941016319,
          7.214942230860599
        ],
        "type": "Point"
      },
      "properties": {
        "anchor_kind": null,
        "anchor_name": null,
        "archetype": "interchange-elevated",
        "chainage_m": 5457.5,
        "corridor_offset_m": 79.38,
        "id": "line-5-0361-0491-s005458",
        "junction_group": 8,
        "line": "line-5",
        "platform_length_m": 85.0
      },
      "type": "Feature"
    },
    {
      "geometry": {
        "coordinates": [
          125.49895274983079,
          7.205044091710759
        ],
        "type": "Point"
      },
      "properties": {
        "anchor_kind": null,
        "anchor_name": null,
        "archetype": "standard",
        "chainage_m": 7013.2,
        "corridor_offset_m": 137.682,
        "id": "line-5-0416-0546-s007013",
        "junction_group": null,
        "line": "line-5",
        "platform_length_m": 85.0
      },
      "type": "Feature"
    },
    {
      "geometry": {
        "coordinates": [
          125.5152487196108,
          7.185067847244718
        ],
        "type": "Point"
      },
      "properties": {
        "anchor_kind": "place:neighbourhood",
        "anchor_name": "Mangga",
        "archetype": "standard",
        "chainage_m": 10018.8,
        "corridor_offset_m": 173.295,
        "id": "line-5-0527-0636-s010019",
        "junction_group": null,
        "line": "line-5",
        "platform_length_m": 85.0
      },
      "type": "Feature"
    },
    {
      "geometry": {
        "coordinates": [
          125.53896840895725,
          7.180028794586618
        ],
        "type": "Point"
      },
      "properties": {
        "anchor_kind": null,
        "anchor_name": null,
        "archetype": "standard",
        "chainage_m": 13019.8,
        "corridor_offset_m": 164.1,
        "id": "line-5-0555-0767-s013020",
        "junction_group": null,
        "line": "line-5",
        "platform_length_m": 85.0
      },
      "type": "Feature"
    },
    {
      "geometry": {
        "coordinates": [
          125.55055665413414,
          7.163471907281432
        ],
        "type": "Point"
      },
      "properties": {
        "anchor_kind": null,
        "anchor_name": null,
        "archetype": "standard",
        "chainage_m": 16027.2,
        "corridor_offset_m": 125.513,
        "id": "line-5-0647-0831-s016027",
        "junction_group": null,
        "line": "line-5",
        "platform_length_m": 85.0
      },
      "type": "Feature"
    },
    {
      "geometry": {
        "coordinates": [
          125.56015316967125,
          7.142955764316309
        ],
        "type": "Point"
      },
      "properties": {
        "anchor_kind": null,
        "anchor_name": null,
        "archetype": "standard",
        "chainage_m": 19038.0,
        "corridor_offset_m": 81.352,
        "id": "line-5-0761-0884-s019038",
        "junction_group": null,
        "line": "line-5",
        "platform_length_m": 85.0
      },
      "type": "Feature"
    },
    {
      "geometry": {
        "coordinates": [
          125.57663020578214,
          7.125679012345679
        ],
        "type": "Point"
      },
      "properties": {
        "anchor_kind": "place:neighbourhood",
        "anchor_name": "Purok 12",
        "archetype": "standard",
        "chainage_m": 22044.7,
        "corridor_offset_m": 160.185,
        "id": "line-5-0857-0975-s022045",
        "junction_group": null,
        "line": "line-5",
        "platform_length_m": 85.0
      },
      "type": "Feature"
    },
    {
      "geometry": {
        "coordinates": [
          125.58821845095903,
          7.104622970881475
        ],
        "type": "Point"
      },
      "properties": {
        "anchor_kind": "place:neighbourhood",
        "anchor_name": "Sultan Camamara",
        "archetype": "standard",
        "chainage_m": 25068.1,
        "corridor_offset_m": 184.119,
        "id": "line-5-0974-1039-s025068",
        "junction_group": null,
        "line": "line-5",
        "platform_length_m": 85.0
      },
      "type": "Feature"
    },
    {
      "geometry": {
        "coordinates": [
          125.60560081872437,
          7.088785948241731
        ],
        "type": "Point"
      },
      "properties": {
        "anchor_kind": null,
        "anchor_name": null,
        "archetype": "interchange-elevated",
        "chainage_m": 28330.0,
        "corridor_offset_m": 153.752,
        "id": "line-5-1062-1135-s028330",
        "junction_group": 9,
        "line": "line-5",
        "platform_length_m": 85.0
      },
      "type": "Feature"
    },
    {
      "geometry": {
        "coordinates": [
          125.62262105382793,
          7.078167944426448
        ],
        "type": "Point"
      },
      "properties": {
        "anchor_kind": "amenity:university",
        "anchor_name": "UM Technical School",
        "archetype": "terminal",
        "chainage_m": 32058.7,
        "corridor_offset_m": 0.0,
        "id": "line-5-1121-1229-s032059",
        "junction_group": null,
        "line": "line-5",
        "platform_length_m": 85.0
      },
      "type": "Feature"
    },
    {
      "geometry": {
        "coordinates": [
          125.47704372379324,
          7.193526257063672
        ],
        "type": "Point"
      },
      "properties": {
        "anchor_kind": null,
        "anchor_name": null,
        "archetype": "standard",
        "chainage_m": 3501.1,
        "corridor_offset_m": 51.281,
        "id": "line-6-0480-0425-s003501",
        "junction_group": null,
        "line": "line-6",
        "platform_length_m": 85.0
      },
      "type": "Feature"
    },
    {
      "geometry": {
        "coordinates": [
          125.48464850969057,
          7.213502501529713
        ],
        "type": "Point"
      },
      "properties": {
        "anchor_kind": "place:neighbourhood",
        "anchor_name": "Purok 5",
        "archetype": "interchange-elevated",
        "chainage_m": 7010.4,
        "corridor_offset_m": 102.921,
        "id": "line-6-0369-0467-s007010",
        "junction_group": 8,
        "line": "line-6",
        "platform_length_m": 85.0
      },
      "type": "Feature"
    },
    {
      "geometry": {
        "coordinates": [
          125.50981672968413,
          7.229159558003095
        ],
        "type": "Point"
      },
      "properties": {
        "anchor_kind": "place:neighbourhood",
        "anchor_name": "Purok 9",
        "archetype": "standard",
        "chainage_m": 10522.9,
        "corridor_offset_m": 46.919,
        "id": "line-6-0282-0606-s010523",
        "junction_group": null,
        "line": "line-6",
        "platform_length_m": 85.0
      },
      "type": "Feature"
    },
    {
      "geometry": {
        "coordinates": [
          125.53589028133213,
          7.237078069322967
        ],
        "type": "Point"
      },
      "properties": {
        "anchor_kind": null,
        "anchor_name": null,
        "archetype": "halt",
        "chainage_m": 14023.1,
        "corridor_offset_m": 70.317,
        "id": "line-6-0238-0750-s014023",
        "junction_group": null,
        "line": "line-6",
        "platform_length_m": 81.0
      },
      "type": "Feature"
    },
    {
      "geometry": {
        "coordinates": [
          125.5594289043477,
          7.223400640679553
        ],
        "type": "Point"
      },
      "properties": {
        "anchor_kind": null,
        "anchor_name": null,
        "archetype": "standard",
        "chainage_m": 17523.9,
        "corridor_offset_m": 114.314,
        "id": "line-6-0314-0880-s017524",
        "junction_group": null,
        "line": "line-6",
        "platform_length_m": 85.0
      },
      "type": "Feature"
    },
    {
      "geometry": {
        "coordinates": [
          125.58079473139259,
          7.205583990209841
        ],
        "type": "Point"
      },
      "properties": {
        "anchor_kind": null,
        "anchor_name": null,
        "archetype": "standard",
        "chainage_m": 21044.6,
        "corridor_offset_m": 178.108,
        "id": "line-6-0413-0998-s021045",
        "junction_group": null,
        "line": "line-6",
        "platform_length_m": 85.0
      },
      "type": "Feature"
    },
    {
      "geometry": {
        "coordinates": [
          125.6016173594448,
          7.190286866069179
        ],
        "type": "Point"
      },
      "properties": {
        "anchor_kind": "place:neighbourhood",
        "anchor_name": "Purok 1",
        "archetype": "interchange-elevated",
        "chainage_m": 24048.8,
        "corridor_offset_m": 331.471,
        "id": "line-6-0498-1113-s024049",
        "junction_group": 0,
        "line": "line-6",
        "platform_length_m": 85.0
      },
      "type": "Feature"
    },
    {
      "geometry": {
        "coordinates": [
          125.60795468102592,
          7.16815102760681
        ],
        "type": "Point"
      },
      "properties": {
        "anchor_kind": "place:neighbourhood",
        "anchor_name": "Hope Village",
        "archetype": "standard",
        "chainage_m": 27063.8,
        "corridor_offset_m": 414.456,
        "id": "line-6-0621-1148-s027064",
        "junction_group": null,
        "line": "line-6",
        "platform_length_m": 85.0
      },
      "type": "Feature"
    },
    {
      "geometry": {
        "coordinates": [
          125.64145195224037,
          7.152134038800706
        ],
        "type": "Point"
      },
      "properties": {
        "anchor_kind": "place:neighbourhood",
        "anchor_name": "Golden Hills Village Phase 1",
        "archetype": "standard",
        "chainage_m": 33285.4,
        "corridor_offset_m": 264.361,
        "id": "line-6-0710-1333-s033285",
        "junction_group": null,
        "line": "line-6",
        "platform_length_m": 85.0
      },
      "type": "Feature"
    },
    {
      "geometry": {
        "coordinates": [
          125.64652180950526,
          7.136117049994601
        ],
        "type": "Point"
      },
      "properties": {
        "anchor_kind": "place:neighbourhood",
        "anchor_name": "LPU Town",
        "archetype": "interchange-elevated",
        "chainage_m": 35297.3,
        "corridor_offset_m": 351.754,
        "id": "line-6-0799-1361-s035297",
        "junction_group": 4,
        "line": "line-6",
        "platform_length_m": 85.0
      },
      "type": "Feature"
    },
    {
      "geometry": {
        "coordinates": [
          125.64036555425504,
          7.124599215347515
        ],
        "type": "Point"
      },
      "properties": {
        "anchor_kind": null,
        "anchor_name": null,
        "archetype": "standard",
        "chainage_m": 37322.4,
        "corridor_offset_m": 381.907,
        "id": "line-6-0863-1327-s037322",
        "junction_group": null,
        "line": "line-6",
        "platform_length_m": 85.0
      },
      "type": "Feature"
    },
    {
      "geometry": {
        "coordinates": [
          125.62732877843104,
          7.117220602526725
        ],
        "type": "Point"
      },
      "properties": {
        "anchor_kind": "place:neighbourhood",
        "anchor_name": "Diho 2",
        "archetype": "standard",
        "chainage_m": 39333.2,
        "corridor_offset_m": 353.452,
        "id": "line-6-0904-1255-s039333",
        "junction_group": null,
        "line": "line-6",
        "platform_length_m": 85.0
      },
      "type": "Feature"
    },
    {
      "geometry": {
        "coordinates": [
          125.61863759454836,
          7.105882734045999
        ],
        "type": "Point"
      },
      "properties": {
        "anchor_kind": "place:neighbourhood",
        "anchor_name": "Birsaba",
        "archetype": "major",
        "chainage_m": 41252.3,
        "corridor_offset_m": 294.135,
        "id": "line-6-0967-1207-s041252",
        "junction_group": null,
        "line": "line-6",
        "platform_length_m": 85.0
      },
      "type": "Feature"
    },
    {
      "geometry": {
        "coordinates": [
          125.61501626793059,
          7.096164561062521
        ],
        "type": "Point"
      },
      "properties": {
        "anchor_kind": null,
        "anchor_name": null,
        "archetype": "interchange-elevated",
        "chainage_m": 43157.4,
        "corridor_offset_m": 131.69,
        "id": "line-6-1021-1187-s043157",
        "junction_group": 7,
        "line": "line-6",
        "platform_length_m": 85.0
      },
      "type": "Feature"
    },
    {
      "geometry": {
        "coordinates": [
          125.6016173594448,
          7.085186624914516
        ],
        "type": "Point"
      },
      "properties": {
        "anchor_kind": "place:neighbourhood",
        "anchor_name": "Purok 5",
        "archetype": "interchange-elevated",
        "chainage_m": 45354.4,
        "corridor_offset_m": 125.519,
        "id": "line-6-1082-1113-s045354",
        "junction_group": 9,
        "line": "line-6",
        "platform_length_m": 85.0
      },
      "type": "Feature"
    },
    {
      "geometry": {
        "coordinates": [
          125.59763390016525,
          7.071329230104741
        ],
        "type": "Point"
      },
      "properties": {
        "anchor_kind": "amenity:university",
        "anchor_name": "University of the Immaculate Conception",
        "archetype": "major",
        "chainage_m": 47291.2,
        "corridor_offset_m": 66.269,
        "id": "line-6-1159-1091-s047291",
        "junction_group": null,
        "line": "line-6",
        "platform_length_m": 85.0
      },
      "type": "Feature"
    },
    {
      "geometry": {
        "coordinates": [
          125.58604565498837,
          7.059991361624015
        ],
        "type": "Point"
      },
      "properties": {
        "anchor_kind": null,
        "anchor_name": null,
        "archetype": "interchange-elevated",
        "chainage_m": 50287.5,
        "corridor_offset_m": 54.705,
        "id": "line-6-1222-1027-s050287",
        "junction_group": 3,
        "line": "line-6",
        "platform_length_m": 85.0
      },
      "type": "Feature"
    },
    {
      "geometry": {
        "coordinates": [
          125.58586458865747,
          7.049733290141454
        ],
        "type": "Point"
      },
      "properties": {
        "anchor_kind": "amenity:university",
        "anchor_name": "National University Davao, SM Extension",
        "archetype": "interchange-elevated",
        "chainage_m": 51535.2,
        "corridor_offset_m": 23.181,
        "id": "line-6-1279-1026-s051535",
        "junction_group": 3,
        "line": "line-6",
        "platform_length_m": 85.0
      },
      "type": "Feature"
    },
    {
      "geometry": {
        "coordinates": [
          125.57825980276014,
          7.04145484648886
        ],
        "type": "Point"
      },
      "properties": {
        "anchor_kind": "place:neighbourhood",
        "anchor_name": "Matina Executive Homes",
        "archetype": "standard",
        "chainage_m": 53541.7,
        "corridor_offset_m": 72.096,
        "id": "line-6-1325-0984-s053542",
        "junction_group": null,
        "line": "line-6",
        "platform_length_m": 85.0
      },
      "type": "Feature"
    },
    {
      "geometry": {
        "coordinates": [
          125.55653184305346,
          7.04649389914696
        ],
        "type": "Point"
      },
      "properties": {
        "anchor_kind": "place:neighbourhood",
        "anchor_name": "Muslim Village",
        "archetype": "standard",
        "chainage_m": 56549.0,
        "corridor_offset_m": 81.488,
        "id": "line-6-1297-0864-s056549",
        "junction_group": null,
        "line": "line-6",
        "platform_length_m": 85.0
      },
      "type": "Feature"
    },
    {
      "geometry": {
        "coordinates": [
          125.51561085227257,
          7.033356369002628
        ],
        "type": "Point"
      },
      "properties": {
        "anchor_kind": "amenity:college",
        "anchor_name": "Dr. P. Ocampo College Davao Campus",
        "archetype": "interchange-elevated",
        "chainage_m": 62000.3,
        "corridor_offset_m": 32.47,
        "id": "line-6-1370-0638-s062000",
        "junction_group": 1,
        "line": "line-6",
        "platform_length_m": 85.0
      },
      "type": "Feature"
    },
    {
      "geometry": {
        "coordinates": [
          125.50166874479413,
          7.047933628477846
        ],
        "type": "Point"
      },
      "properties": {
        "anchor_kind": "place:suburb",
        "anchor_name": "Baliok",
        "archetype": "standard",
        "chainage_m": 64945.0,
        "corridor_offset_m": 43.05,
        "id": "line-6-1289-0561-s064945",
        "junction_group": null,
        "line": "line-6",
        "platform_length_m": 85.0
      },
      "type": "Feature"
    },
    {
      "geometry": {
        "coordinates": [
          125.4857349076759,
          7.051712917971422
        ],
        "type": "Point"
      },
      "properties": {
        "anchor_kind": "place:neighbourhood",
        "anchor_name": "Green Prairie",
        "archetype": "standard",
        "chainage_m": 68440.3,
        "corridor_offset_m": 209.913,
        "id": "line-6-1268-0473-s068440",
        "junction_group": null,
        "line": "line-6",
        "platform_length_m": 85.0
      },
      "type": "Feature"
    },
    {
      "geometry": {
        "coordinates": [
          125.46889573890324,
          7.07366879026743
        ],
        "type": "Point"
      },
      "properties": {
        "anchor_kind": null,
        "anchor_name": null,
        "archetype": "halt",
        "chainage_m": 71949.4,
        "corridor_offset_m": 220.257,
        "id": "line-6-1146-0380-s071949",
        "junction_group": null,
        "line": "line-6",
        "platform_length_m": 81.0
      },
      "type": "Feature"
    },
    {
      "geometry": {
        "coordinates": [
          125.46599867760901,
          7.099223985890653
        ],
        "type": "Point"
      },
      "properties": {
        "anchor_kind": null,
        "anchor_name": null,
        "archetype": "interchange-elevated",
        "chainage_m": 75063.3,
        "corridor_offset_m": 141.882,
        "id": "line-6-1004-0364-s075063",
        "junction_group": 6,
        "line": "line-6",
        "platform_length_m": 85.0
      },
      "type": "Feature"
    },
    {
      "geometry": {
        "coordinates": [
          125.4694389378959,
          7.118840298023971
        ],
        "type": "Point"
      },
      "properties": {
        "anchor_kind": "place:neighbourhood",
        "anchor_name": "Talisay",
        "archetype": "standard",
        "chainage_m": 77639.9,
        "corridor_offset_m": 10.399,
        "id": "line-6-0895-0383-s077640",
        "junction_group": null,
        "line": "line-6",
        "platform_length_m": 85.0
      },
      "type": "Feature"
    },
    {
      "geometry": {
        "coordinates": [
          125.46762827458701,
          7.13089803117014
        ],
        "type": "Point"
      },
      "properties": {
        "anchor_kind": "place:neighbourhood",
        "anchor_name": "Purok 4",
        "archetype": "standard",
        "chainage_m": 79838.1,
        "corridor_offset_m": 105.312,
        "id": "line-6-0828-0373-s079838",
        "junction_group": null,
        "line": "line-6",
        "platform_length_m": 85.0
      },
      "type": "Feature"
    },
    {
      "geometry": {
        "coordinates": [
          125.46581761127813,
          7.147094986142606
        ],
        "type": "Point"
      },
      "properties": {
        "anchor_kind": null,
        "anchor_name": null,
        "archetype": "interchange-elevated",
        "chainage_m": 82030.9,
        "corridor_offset_m": 127.896,
        "id": "line-6-0738-0363-s082031",
        "junction_group": 5,
        "line": "line-6",
        "platform_length_m": 85.0
      },
      "type": "Feature"
    },
    {
      "geometry": {
        "coordinates": [
          125.46726614192524,
          7.1688708922722535
        ],
        "type": "Point"
      },
      "properties": {
        "anchor_kind": "place:neighbourhood",
        "anchor_name": "Purok 3",
        "archetype": "standard",
        "chainage_m": 84517.2,
        "corridor_offset_m": 13.748,
        "id": "line-6-0617-0371-s084517",
        "junction_group": null,
        "line": "line-6",
        "platform_length_m": 85.0
      },
      "type": "Feature"
    },
    {
      "geometry": {
        "coordinates": [
          125.45694536106457,
          7.186507576575604
        ],
        "type": "Point"
      },
      "properties": {
        "anchor_kind": "amenity:university",
        "anchor_name": "Holy Cross College of Calinan",
        "archetype": "interchange-elevated",
        "chainage_m": 87114.2,
        "corridor_offset_m": 33.651,
        "id": "line-6-0519-0314-s087114",
        "junction_group": 2,
        "line": "line-6",
        "platform_length_m": 85.0
      },
      "type": "Feature"
    }
  ],
  "type": "FeatureCollection"
}
