{
  "features": [
    {
      "geometry": {
        "coordinates": [
          30.912036470935732,
          3.019222873699744
        ],
        "type": "Point"
      },
      "properties": {
        "id": "interchange-000",
        "junction_group": 0,
        "line_count": 3,
        "lines": "line-1,line-2,line-3",
        "platform_count": 3,
        "platforms": "line-1-0380-0381-s005022,line-2-0380-0381-s008649,line-3-0380-0381-s008214"
      },
      "type": "Feature"
    }
  ],
  "type": "FeatureCollection"
}
