{
  "features": [
    {
      "geometry": {
        "coordinates": [
          30.887928247854767,
          3.042258542993917
        ],
        "type": "Point"
      },
      "properties": {
        "anchor_kind": "leisure:stadium",
        "anchor_name": "Greenlight Stadium",
        "archetype": "terminal",
        "chainage_m": 0.0,
        "corridor_offset_m": 0.0,
        "id": "line-1-0252-0247-s000000",
        "junction_group": null,
        "line": "line-1",
        "platform_length_m": 49.0
      },
      "type": "Feature"
    },
    {
      "geometry": {
        "coordinates": [
          30.89854306249489,
          3.0327203361767987
        ],
        "type": "Point"
      },
      "properties": {
        "anchor_kind": null,
        "anchor_name": null,
        "archetype": "standard",
        "chainage_m": 2004.5,
        "corridor_offset_m": 0.175,
        "id": "line-1-0305-0306-s002005",
        "junction_group": null,
        "line": "line-1",
        "platform_length_m": 49.0
      },
      "type": "Feature"
    },
    {
      "geometry": {
        "coordinates": [
          30.90645919544685,
          3.027861249685059
        ],
        "type": "Point"
      },
      "properties": {
        "anchor_kind": "amenity:college",
        "anchor_name": "Arua Multipurpose Technical School",
        "archetype": "major",
        "chainage_m": 3216.5,
        "corridor_offset_m": 0.498,
        "id": "line-1-0332-0350-s003216",
        "junction_group": null,
        "line": "line-1",
        "platform_length_m": 49.0
      },
      "type": "Feature"
    },
    {
      "geometry": {
        "coordinates": [
          30.912036470935732,
          3.019222873699744
        ],
        "type": "Point"
      },
      "properties": {
        "anchor_kind": "amenity:hospital",
        "anchor_name": "ARUA DISPENSARY",
        "archetype": "interchange-elevated",
        "chainage_m": 5021.6,
        "corridor_offset_m": 11.587,
        "id": "line-1-0380-0381-s005022",
        "junction_group": 0,
        "line": "line-1",
        "platform_length_m": 49.0
      },
      "type": "Feature"
    },
    {
      "geometry": {
        "coordinates": [
          30.911856558823185,
          3.009684666882626
        ],
        "type": "Point"
      },
      "properties": {
        "anchor_kind": "amenity:hospital",
        "anchor_name": "Family Care Hospital",
        "archetype": "standard",
        "chainage_m": 6333.5,
        "corridor_offset_m": 0.234,
        "id": "line-1-0433-0380-s006334",
        "junction_group": null,
        "line": "line-1",
        "platform_length_m": 49.0
      },
      "type": "Feature"
    },
    {
      "geometry": {
        "coordinates": [
          30.91869321909988,
          3.0023060540618363
        ],
        "type": "Point"
      },
      "properties": {
        "anchor_kind": null,
        "anchor_name": null,
        "archetype": "standard",
        "chainage_m": 7646.9,
        "corridor_offset_m": 0.133,
        "id": "line-1-0474-0418-s007647",
        "junction_group": null,
        "line": "line-1",
        "platform_length_m": 49.0
      },
      "type": "Feature"
    },
    {
      "geometry": {
        "coordinates": [
          30.933266100215985,
          2.9886286254184213
        ],
        "type": "Point"
      },
      "properties": {
        "anchor_kind": "amenity:hospital",
        "anchor_name": "Peace Drug Shop Muni",
        "archetype": "terminal",
        "chainage_m": 9896.5,
        "corridor_offset_m": 0.0,
        "id": "line-1-0550-0499-s009897",
        "junction_group": null,
        "line": "line-1",
        "platform_length_m": 49.0
      },
      "type": "Feature"
    },
    {
      "geometry": {
        "coordinates": [
          30.97734456778939,
          3.014723719540726
        ],
        "type": "Point"
      },
      "properties": {
        "anchor_kind": "amenity:hospital",
        "anchor_name": "Oluko Solidale III",
        "archetype": "terminal",
        "chainage_m": 0.0,
        "corridor_offset_m": 0.0,
        "id": "line-2-0405-0744-s000000",
        "junction_group": null,
        "line": "line-2",
        "platform_length_m": 49.0
      },
      "type": "Feature"
    },
    {
      "geometry": {
        "coordinates": [
          30.96187212611056,
          3.01310402404348
        ],
        "type": "Point"
      },
      "properties": {
        "anchor_kind": "amenity:hospital",
        "anchor_name": "OLUKO",
        "archetype": "standard",
        "chainage_m": 2007.1,
        "corridor_offset_m": 0.86,
        "id": "line-2-0414-0658-s002007",
        "junction_group": null,
        "line": "line-2",
        "platform_length_m": 49.0
      },
      "type": "Feature"
    },
    {
      "geometry": {
        "coordinates": [
          30.94657959654428,
          3.0086048698844614
        ],
        "type": "Point"
      },
      "properties": {
        "anchor_kind": "amenity:marketplace",
        "anchor_name": "Origama trading center",
        "archetype": "standard",
        "chainage_m": 4008.8,
        "corridor_offset_m": 1.793,
        "id": "line-2-0439-0573-s004009",
        "junction_group": null,
        "line": "line-2",
        "platform_length_m": 49.0
      },
      "type": "Feature"
    },
    {
      "geometry": {
        "coordinates": [
          30.931466979090537,
          3.0152636180398082
        ],
        "type": "Point"
      },
      "properties": {
        "anchor_kind": "amenity:marketplace",
        "anchor_name": "Ombeteni Market",
        "archetype": "standard",
        "chainage_m": 6023.6,
        "corridor_offset_m": 2.858,
        "id": "line-2-0402-0489-s006024",
        "junction_group": null,
        "line": "line-2",
        "platform_length_m": 49.0
      },
      "type": "Feature"
    },
    {
      "geometry": {
        "coordinates": [
          30.922111549238224,
          3.019042907533384
        ],
        "type": "Point"
      },
      "properties": {
        "anchor_kind": "amenity:college",
        "anchor_name": "Iriata International Institute of Management and Leadership",
        "archetype": "standard",
        "chainage_m": 7336.1,
        "corridor_offset_m": 3.605,
        "id": "line-2-0381-0437-s007336",
        "junction_group": null,
        "line": "line-2",
        "platform_length_m": 49.0
      },
      "type": "Feature"
    },
    {
      "geometry": {
        "coordinates": [
          30.912036470935732,
          3.019222873699744
        ],
        "type": "Point"
      },
      "properties": {
        "anchor_kind": "amenity:hospital",
        "anchor_name": "ARUA DISPENSARY",
        "archetype": "interchange-elevated",
        "chainage_m": 8648.7,
        "corridor_offset_m": 4.116,
        "id": "line-2-0380-0381-s008649",
        "junction_group": 0,
        "line": "line-2",
        "platform_length_m": 49.0
      },
      "type": "Feature"
    },
    {
      "geometry": {
        "coordinates": [
          30.903580601646137,
          3.0152636180398082
        ],
        "type": "Point"
      },
      "properties": {
        "anchor_kind": "amenity:hospital",
        "anchor_name": "EDIOFE",
        "archetype": "major",
        "chainage_m": 10065.5,
        "corridor_offset_m": 2.331,
        "id": "line-2-0402-0334-s010065",
        "junction_group": null,
        "line": "line-2",
        "platform_length_m": 49.0
      },
      "type": "Feature"
    },
    {
      "geometry": {
        "coordinates": [
          30.889547456867668,
          3.017963110535219
        ],
        "type": "Point"
      },
      "properties": {
        "anchor_kind": null,
        "anchor_name": null,
        "archetype": "standard",
        "chainage_m": 12070.6,
        "corridor_offset_m": 1.212,
        "id": "line-2-0387-0256-s012071",
        "junction_group": null,
        "line": "line-2",
        "platform_length_m": 49.0
      },
      "type": "Feature"
    },
    {
      "geometry": {
        "coordinates": [
          30.877493345327185,
          3.0197627721988267
        ],
        "type": "Point"
      },
      "properties": {
        "anchor_kind": null,
        "anchor_name": null,
        "archetype": "standard",
        "chainage_m": 13543.1,
        "corridor_offset_m": 0.693,
        "id": "line-2-0377-0189-s013543",
        "junction_group": null,
        "line": "line-2",
        "platform_length_m": 49.0
      },
      "type": "Feature"
    },
    {
      "geometry": {
        "coordinates": [
          30.86615888223688,
          3.0177831443688587
        ],
        "type": "Point"
      },
      "properties": {
        "anchor_kind": "amenity:marketplace",
        "anchor_name": "Ojovu",
        "archetype": "depot-terminal",
        "chainage_m": 15010.2,
        "corridor_offset_m": 0.0,
        "id": "line-2-0388-0126-s015010",
        "junction_group": null,
        "line": "line-2",
        "platform_length_m": 49.0
      },
      "type": "Feature"
    },
    {
      "geometry": {
        "coordinates": [
          30.93758399091705,
          3.0679937047835004
        ],
        "type": "Point"
      },
      "properties": {
        "anchor_kind": "amenity:university",
        "anchor_name": "Nile University",
        "archetype": "terminal",
        "chainage_m": 0.0,
        "corridor_offset_m": 0.0,
        "id": "line-3-0109-0523-s000000",
        "junction_group": null,
        "line": "line-3",
        "platform_length_m": 49.0
      },
      "type": "Feature"
    },
    {
      "geometry": {
        "coordinates": [
          30.92031242811278,
          3.0532364791419213
        ],
        "type": "Point"
      },
      "properties": {
        "anchor_kind": null,
        "anchor_name": null,
        "archetype": "halt",
        "chainage_m": 3015.0,
        "corridor_offset_m": 2.998,
        "id": "line-3-0191-0427-s003015",
        "junction_group": null,
        "line": "line-3",
        "platform_length_m": 45.0
      },
      "type": "Feature"
    },
    {
      "geometry": {
        "coordinates": [
          30.913115943610997,
          3.0391991181657847
        ],
        "type": "Point"
      },
      "properties": {
        "anchor_kind": "amenity:hospital",
        "anchor_name": "MASJID NOOR HC",
        "archetype": "standard",
        "chainage_m": 5026.4,
        "corridor_offset_m": 4.225,
        "id": "line-3-0269-0387-s005026",
        "junction_group": null,
        "line": "line-3",
        "platform_length_m": 49.0
      },
      "type": "Feature"
    },
    {
      "geometry": {
        "coordinates": [
          30.915814625299166,
          3.03056074218047
        ],
        "type": "Point"
      },
      "properties": {
        "anchor_kind": "amenity:university",
        "anchor_name": "Innovative Institute of Agriculture,Business and Capacity Building I.A.B.C",
        "archetype": "major",
        "chainage_m": 6242.4,
        "corridor_offset_m": 4.839,
        "id": "line-3-0317-0402-s006242",
        "junction_group": null,
        "line": "line-3",
        "platform_length_m": 49.0
      },
      "type": "Feature"
    },
    {
      "geometry": {
        "coordinates": [
          30.912036470935732,
          3.019222873699744
        ],
        "type": "Point"
      },
      "properties": {
        "anchor_kind": "amenity:hospital",
        "anchor_name": "ARUA DISPENSARY",
        "archetype": "interchange-elevated",
        "chainage_m": 8213.8,
        "corridor_offset_m": 17.085,
        "id": "line-3-0380-0381-s008214",
        "junction_group": 0,
        "line": "line-3",
        "platform_length_m": 49.0
      },
      "type": "Feature"
    },
    {
      "geometry": {
        "coordinates": [
          30.90879805290993,
          3.002486020228197
        ],
        "type": "Point"
      },
      "properties": {
        "anchor_kind": "amenity:college",
        "anchor_name": "West Nile School For Nursery Teachers",
        "archetype": "standard",
        "chainage_m": 10696.9,
        "corridor_offset_m": 1.037,
        "id": "line-3-0473-0363-s010697",
        "junction_group": null,
        "line": "line-3",
        "platform_length_m": 49.0
      },
      "type": "Feature"
    },
    {
      "geometry": {
        "coordinates": [
          30.912936031498454,
          2.9888085915847817
        ],
        "type": "Point"
      },
      "properties": {
        "anchor_kind": "amenity:hospital",
        "anchor_name": "AIDS INFORMATION.CENTRE A",
        "archetype": "terminal",
        "chainage_m": 12824.0,
        "corridor_offset_m": 0.0,
        "id": "line-3-0549-0386-s012824",
        "junction_group": null,
        "line": "line-3",
        "platform_length_m": 49.0
      },
      "type": "Feature"
    }
  ],
  "type": "FeatureCollection"
}
