{
  "features": [
    {
      "geometry": {
        "coordinates": [
          77.98982408257766,
          9.827695421660728
        ],
        "type": "Point"
      },
      "properties": {
        "archetype": "main-heavy",
        "fleet_stalls": 9,
        "line": "line-1",
        "station": "line-1-1342-0089-s036493"
      },
      "type": "Feature"
    },
    {
      "geometry": {
        "coordinates": [
          78.23021671763183,
          10.060031742432423
        ],
        "type": "Point"
      },
      "properties": {
        "archetype": "main-heavy",
        "fleet_stalls": 6,
        "line": "line-2",
        "station": "line-2-0051-1407-s000000"
      },
      "type": "Feature"
    },
    {
      "geometry": {
        "coordinates": [
          78.09415229748735,
          9.973647982579275
        ],
        "type": "Point"
      },
      "properties": {
        "archetype": "main-heavy",
        "fleet_stalls": 7,
        "line": "line-3",
        "station": "line-3-0531-0661-s000000"
      },
      "type": "Feature"
    },
    {
      "geometry": {
        "coordinates": [
          78.1368320217686,
          9.87772601590901
        ],
        "type": "Point"
      },
      "properties": {
        "archetype": "main-heavy",
        "fleet_stalls": 6,
        "line": "line-4",
        "station": "line-4-1064-0895-s000000"
      },
      "type": "Feature"
    },
    {
      "geometry": {
        "coordinates": [
          77.97742142765831,
          9.956191264442285
        ],
        "type": "Point"
      },
      "properties": {
        "archetype": "main-heavy",
        "fleet_stalls": 7,
        "line": "line-5",
        "station": "line-5-0628-0021-s000000"
      },
      "type": "Feature"
    },
    {
      "geometry": {
        "coordinates": [
          78.04727755757163,
          9.976347475074686
        ],
        "type": "Point"
      },
      "properties": {
        "archetype": "main-heavy",
        "fleet_stalls": 4,
        "line": "line-6",
        "station": "line-6-0516-0404-s000000"
      },
      "type": "Feature"
    }
  ],
  "type": "FeatureCollection"
}
