{
  "features": [
    {
      "geometry": {
        "coordinates": [
          70.30509553868352,
          28.436665478889967
        ],
        "type": "Point"
      },
      "properties": {
        "charger_bus_voltage_v": 650.0,
        "charger_contact_count": 4,
        "charger_efficiency": 0.98,
        "charger_max_current_a": 1650.0,
        "charger_max_kw": 1000.0,
        "grid_export_kw": 1600.0,
        "grid_import_kw": 1600.0,
        "line": "line-1",
        "pv_nameplate_kw": 300.0,
        "station": "line-1-0457-0559-s000000",
        "storage_capacity_kwh": 1000.0,
        "storage_initial_soc": 0.6,
        "storage_max_charge_kw": 1000.0,
        "storage_max_discharge_kw": 1000.0,
        "storage_module_kwh": 500.0,
        "tier": "terminal"
      },
      "type": "Feature"
    },
    {
      "geometry": {
        "coordinates": [
          70.30448269397208,
          28.420108591584782
        ],
        "type": "Point"
      },
      "properties": {
        "charger_bus_voltage_v": 650.0,
        "charger_contact_count": 4,
        "charger_efficiency": 0.98,
        "charger_max_current_a": 1650.0,
        "charger_max_kw": 1000.0,
        "grid_export_kw": 1200.0,
        "grid_import_kw": 1200.0,
        "line": "line-1",
        "pv_nameplate_kw": 300.0,
        "station": "line-1-0549-0556-s002531",
        "storage_capacity_kwh": 1000.0,
        "storage_initial_soc": 0.5,
        "storage_max_charge_kw": 1000.0,
        "storage_max_discharge_kw": 1000.0,
        "storage_module_kwh": 500.0,
        "tier": "interchange"
      },
      "type": "Feature"
    },
    {
      "geometry": {
        "coordinates": [
          70.3132668015027,
          28.416149335924846
        ],
        "type": "Point"
      },
      "properties": {
        "charger_bus_voltage_v": 650.0,
        "charger_contact_count": 4,
        "charger_efficiency": 0.98,
        "charger_max_current_a": 1650.0,
        "charger_max_kw": 1000.0,
        "grid_export_kw": 1200.0,
        "grid_import_kw": 1200.0,
        "line": "line-1",
        "pv_nameplate_kw": 300.0,
        "station": "line-1-0571-0599-s004234",
        "storage_capacity_kwh": 1000.0,
        "storage_initial_soc": 0.5,
        "storage_max_charge_kw": 1000.0,
        "storage_max_discharge_kw": 1000.0,
        "storage_module_kwh": 500.0,
        "tier": "major"
      },
      "type": "Feature"
    },
    {
      "geometry": {
        "coordinates": [
          70.31939524861711,
          28.40553133210956
        ],
        "type": "Point"
      },
      "properties": {
        "charger_bus_voltage_v": 650.0,
        "charger_contact_count": 4,
        "charger_efficiency": 0.98,
        "charger_max_current_a": 1650.0,
        "charger_max_kw": 1000.0,
        "grid_export_kw": 1000.0,
        "grid_import_kw": 1000.0,
        "line": "line-1",
        "pv_nameplate_kw": 300.0,
        "station": "line-1-0630-0629-s005944",
        "storage_capacity_kwh": 1000.0,
        "storage_initial_soc": 0.5,
        "storage_max_charge_kw": 1000.0,
        "storage_max_discharge_kw": 1000.0,
        "storage_module_kwh": 500.0,
        "tier": "standard"
      },
      "type": "Feature"
    },
    {
      "geometry": {
        "coordinates": [
          70.33328639540974,
          28.392213835798866
        ],
        "type": "Point"
      },
      "properties": {
        "charger_bus_voltage_v": 650.0,
        "charger_contact_count": 4,
        "charger_efficiency": 0.98,
        "charger_max_current_a": 1650.0,
        "charger_max_kw": 1000.0,
        "grid_export_kw": 1000.0,
        "grid_import_kw": 1000.0,
        "line": "line-1",
        "pv_nameplate_kw": 300.0,
        "station": "line-1-0704-0697-s008058",
        "storage_capacity_kwh": 1000.0,
        "storage_initial_soc": 0.5,
        "storage_max_charge_kw": 1000.0,
        "storage_max_discharge_kw": 1000.0,
        "storage_module_kwh": 500.0,
        "tier": "standard"
      },
      "type": "Feature"
    },
    {
      "geometry": {
        "coordinates": [
          70.35146745518246,
          28.389874275636178
        ],
        "type": "Point"
      },
      "properties": {
        "charger_bus_voltage_v": 650.0,
        "charger_contact_count": 4,
        "charger_efficiency": 0.98,
        "charger_max_current_a": 1650.0,
        "charger_max_kw": 1000.0,
        "grid_export_kw": 1600.0,
        "grid_import_kw": 1600.0,
        "line": "line-1",
        "pv_nameplate_kw": 300.0,
        "station": "line-1-0717-0786-s010172",
        "storage_capacity_kwh": 1000.0,
        "storage_initial_soc": 0.6,
        "storage_max_charge_kw": 1000.0,
        "storage_max_discharge_kw": 1000.0,
        "storage_module_kwh": 500.0,
        "tier": "terminal"
      },
      "type": "Feature"
    },
    {
      "geometry": {
        "coordinates": [
          70.28221600278977,
          28.38537512147716
        ],
        "type": "Point"
      },
      "properties": {
        "charger_bus_voltage_v": 650.0,
        "charger_contact_count": 4,
        "charger_efficiency": 0.98,
        "charger_max_current_a": 1650.0,
        "charger_max_kw": 1000.0,
        "grid_export_kw": 1600.0,
        "grid_import_kw": 1600.0,
        "line": "line-2",
        "pv_nameplate_kw": 300.0,
        "station": "line-2-0742-0447-s000000",
        "storage_capacity_kwh": 1000.0,
        "storage_initial_soc": 0.6,
        "storage_max_charge_kw": 1000.0,
        "storage_max_discharge_kw": 1000.0,
        "storage_module_kwh": 500.0,
        "tier": "terminal"
      },
      "type": "Feature"
    },
    {
      "geometry": {
        "coordinates": [
          70.29018298403848,
          28.410210452434942
        ],
        "type": "Point"
      },
      "properties": {
        "charger_bus_voltage_v": 650.0,
        "charger_contact_count": 4,
        "charger_efficiency": 0.98,
        "charger_max_current_a": 1650.0,
        "charger_max_kw": 1000.0,
        "grid_export_kw": 1000.0,
        "grid_import_kw": 1000.0,
        "line": "line-2",
        "pv_nameplate_kw": 300.0,
        "station": "line-2-0604-0486-s003199",
        "storage_capacity_kwh": 1000.0,
        "storage_initial_soc": 0.5,
        "storage_max_charge_kw": 1000.0,
        "storage_max_discharge_kw": 1000.0,
        "storage_module_kwh": 500.0,
        "tier": "standard"
      },
      "type": "Feature"
    },
    {
      "geometry": {
        "coordinates": [
          70.30448269397208,
          28.420108591584782
        ],
        "type": "Point"
      },
      "properties": {
        "charger_bus_voltage_v": 650.0,
        "charger_contact_count": 4,
        "charger_efficiency": 0.98,
        "charger_max_current_a": 1650.0,
        "charger_max_kw": 1000.0,
        "grid_export_kw": 1200.0,
        "grid_import_kw": 1200.0,
        "line": "line-2",
        "pv_nameplate_kw": 300.0,
        "station": "line-2-0549-0556-s005328",
        "storage_capacity_kwh": 1000.0,
        "storage_initial_soc": 0.5,
        "storage_max_charge_kw": 1000.0,
        "storage_max_discharge_kw": 1000.0,
        "storage_module_kwh": 500.0,
        "tier": "interchange"
      },
      "type": "Feature"
    },
    {
      "geometry": {
        "coordinates": [
          70.40192500309101,
          28.486336140805527
        ],
        "type": "Point"
      },
      "properties": {
        "charger_bus_voltage_v": 650.0,
        "charger_contact_count": 4,
        "charger_efficiency": 0.98,
        "charger_max_current_a": 1650.0,
        "charger_max_kw": 1000.0,
        "grid_export_kw": 1600.0,
        "grid_import_kw": 1600.0,
        "line": "line-2",
        "pv_nameplate_kw": 300.0,
        "station": "line-2-0181-1033-s018352",
        "storage_capacity_kwh": 1000.0,
        "storage_initial_soc": 0.6,
        "storage_max_charge_kw": 1000.0,
        "storage_max_discharge_kw": 1000.0,
        "storage_module_kwh": 500.0,
        "tier": "terminal"
      },
      "type": "Feature"
    },
    {
      "geometry": {
        "coordinates": [
          70.40212928466148,
          28.480757189648344
        ],
        "type": "Point"
      },
      "properties": {
        "charger_bus_voltage_v": 650.0,
        "charger_contact_count": 4,
        "charger_efficiency": 0.98,
        "charger_max_current_a": 1650.0,
        "charger_max_kw": 1000.0,
        "grid_export_kw": 1600.0,
        "grid_import_kw": 1600.0,
        "line": "line-3",
        "pv_nameplate_kw": 300.0,
        "station": "line-3-0212-1034-s000000",
        "storage_capacity_kwh": 1000.0,
        "storage_initial_soc": 0.6,
        "storage_max_charge_kw": 1000.0,
        "storage_max_discharge_kw": 1000.0,
        "storage_module_kwh": 500.0,
        "tier": "terminal"
      },
      "type": "Feature"
    },
    {
      "geometry": {
        "coordinates": [
          70.325727977302,
          28.428387035237375
        ],
        "type": "Point"
      },
      "properties": {
        "charger_bus_voltage_v": 650.0,
        "charger_contact_count": 4,
        "charger_efficiency": 0.98,
        "charger_max_current_a": 1650.0,
        "charger_max_kw": 1000.0,
        "grid_export_kw": 1000.0,
        "grid_import_kw": 1000.0,
        "line": "line-3",
        "pv_nameplate_kw": 300.0,
        "station": "line-3-0503-0660-s010315",
        "storage_capacity_kwh": 1000.0,
        "storage_initial_soc": 0.5,
        "storage_max_charge_kw": 1000.0,
        "storage_max_discharge_kw": 1000.0,
        "storage_module_kwh": 500.0,
        "tier": "standard"
      },
      "type": "Feature"
    },
    {
      "geometry": {
        "coordinates": [
          70.30448269397208,
          28.420108591584782
        ],
        "type": "Point"
      },
      "properties": {
        "charger_bus_voltage_v": 650.0,
        "charger_contact_count": 4,
        "charger_efficiency": 0.98,
        "charger_max_current_a": 1650.0,
        "charger_max_kw": 1000.0,
        "grid_export_kw": 1200.0,
        "grid_import_kw": 1200.0,
        "line": "line-3",
        "pv_nameplate_kw": 300.0,
        "station": "line-3-0549-0556-s012866",
        "storage_capacity_kwh": 1000.0,
        "storage_initial_soc": 0.5,
        "storage_max_charge_kw": 1000.0,
        "storage_max_discharge_kw": 1000.0,
        "storage_module_kwh": 500.0,
        "tier": "interchange"
      },
      "type": "Feature"
    },
    {
      "geometry": {
        "coordinates": [
          70.26955054542,
          28.387174783140768
        ],
        "type": "Point"
      },
      "properties": {
        "charger_bus_voltage_v": 650.0,
        "charger_contact_count": 4,
        "charger_efficiency": 0.98,
        "charger_max_current_a": 1650.0,
        "charger_max_kw": 1000.0,
        "grid_export_kw": 1000.0,
        "grid_import_kw": 1000.0,
        "line": "line-3",
        "pv_nameplate_kw": 300.0,
        "station": "line-3-0732-0385-s019095",
        "storage_capacity_kwh": 1000.0,
        "storage_initial_soc": 0.5,
        "storage_max_charge_kw": 1000.0,
        "storage_max_discharge_kw": 1000.0,
        "storage_module_kwh": 500.0,
        "tier": "standard"
      },
      "type": "Feature"
    },
    {
      "geometry": {
        "coordinates": [
          70.22440431834394,
          28.359639959687577
        ],
        "type": "Point"
      },
      "properties": {
        "charger_bus_voltage_v": 650.0,
        "charger_contact_count": 4,
        "charger_efficiency": 0.98,
        "charger_max_current_a": 1650.0,
        "charger_max_kw": 1000.0,
        "grid_export_kw": 6000.0,
        "grid_import_kw": 6000.0,
        "line": "line-3",
        "pv_nameplate_kw": 5000.0,
        "station": "line-3-0885-0164-s025052",
        "storage_capacity_kwh": 40000.0,
        "storage_initial_soc": 0.6,
        "storage_max_charge_kw": 10000.0,
        "storage_max_discharge_kw": 10000.0,
        "storage_module_kwh": 500.0,
        "tier": "depot-main"
      },
      "type": "Feature"
    }
  ],
  "type": "FeatureCollection"
}
