{
  "features": [
    {
      "geometry": {
        "coordinates": [
          35.372540012335115,
          33.519329809595796
        ],
        "type": "Point"
      },
      "properties": {
        "anchor_kind": "place:town",
        "anchor_name": "الغازية",
        "archetype": "terminal",
        "chainage_m": 0.0,
        "corridor_offset_m": 0.0,
        "id": "line-1-0585-0374-s000000",
        "junction_group": null,
        "line": "line-1",
        "platform_length_m": 49.0
      },
      "type": "Feature"
    },
    {
      "geometry": {
        "coordinates": [
          35.36952169411698,
          33.53354713673829
        ],
        "type": "Point"
      },
      "properties": {
        "anchor_kind": null,
        "anchor_name": null,
        "archetype": "standard",
        "chainage_m": 2010.8,
        "corridor_offset_m": 0.342,
        "id": "line-1-0506-0360-s002011",
        "junction_group": null,
        "line": "line-1",
        "platform_length_m": 49.0
      },
      "type": "Feature"
    },
    {
      "geometry": {
        "coordinates": [
          35.372324418176674,
          33.54398517438721
        ],
        "type": "Point"
      },
      "properties": {
        "anchor_kind": null,
        "anchor_name": null,
        "archetype": "interchange-elevated",
        "chainage_m": 3379.9,
        "corridor_offset_m": 0.929,
        "id": "line-1-0448-0373-s003380",
        "junction_group": 0,
        "line": "line-1",
        "platform_length_m": 49.0
      },
      "type": "Feature"
    },
    {
      "geometry": {
        "coordinates": [
          35.3746959539195,
          33.55802253536335
        ],
        "type": "Point"
      },
      "properties": {
        "anchor_kind": null,
        "anchor_name": null,
        "archetype": "interchange-elevated",
        "chainage_m": 5527.2,
        "corridor_offset_m": 2.204,
        "id": "line-1-0370-0384-s005527",
        "junction_group": 1,
        "line": "line-1",
        "platform_length_m": 49.0
      },
      "type": "Feature"
    },
    {
      "geometry": {
        "coordinates": [
          35.3690905058001,
          33.56450131735234
        ],
        "type": "Point"
      },
      "properties": {
        "anchor_kind": "tourism:attraction",
        "anchor_name": "صيدا - المدينة القديمة",
        "archetype": "major",
        "chainage_m": 7004.1,
        "corridor_offset_m": 1.136,
        "id": "line-1-0334-0358-s007004",
        "junction_group": null,
        "line": "line-1",
        "platform_length_m": 49.0
      },
      "type": "Feature"
    },
    {
      "geometry": {
        "coordinates": [
          35.3774986779792,
          33.57098009934132
        ],
        "type": "Point"
      },
      "properties": {
        "anchor_kind": "place:neighbourhood",
        "anchor_name": "حي البراد",
        "archetype": "major",
        "chainage_m": 8222.9,
        "corridor_offset_m": 1.233,
        "id": "line-1-0298-0397-s008223",
        "junction_group": null,
        "line": "line-1",
        "platform_length_m": 49.0
      },
      "type": "Feature"
    },
    {
      "geometry": {
        "coordinates": [
          35.38633803847516,
          33.58609725731562
        ],
        "type": "Point"
      },
      "properties": {
        "anchor_kind": "leisure:stadium",
        "anchor_name": null,
        "archetype": "standard",
        "chainage_m": 10242.5,
        "corridor_offset_m": 0.539,
        "id": "line-1-0214-0438-s010243",
        "junction_group": null,
        "line": "line-1",
        "platform_length_m": 49.0
      },
      "type": "Feature"
    },
    {
      "geometry": {
        "coordinates": [
          35.393021457386745,
          33.604993704783496
        ],
        "type": "Point"
      },
      "properties": {
        "anchor_kind": null,
        "anchor_name": null,
        "archetype": "halt",
        "chainage_m": 12627.6,
        "corridor_offset_m": 0.582,
        "id": "line-1-0109-0469-s012628",
        "junction_group": null,
        "line": "line-1",
        "platform_length_m": 45.0
      },
      "type": "Feature"
    },
    {
      "geometry": {
        "coordinates": [
          35.41113136669556,
          33.61471187776698
        ],
        "type": "Point"
      },
      "properties": {
        "anchor_kind": "amenity:university",
        "anchor_name": "الجامعة الإسلامية في لبنان",
        "archetype": "depot-terminal",
        "chainage_m": 15039.0,
        "corridor_offset_m": 0.0,
        "id": "line-1-0055-0553-s015039",
        "junction_group": null,
        "line": "line-1",
        "platform_length_m": 49.0
      },
      "type": "Feature"
    },
    {
      "geometry": {
        "coordinates": [
          35.36262268104696,
          33.53480689990282
        ],
        "type": "Point"
      },
      "properties": {
        "anchor_kind": "amenity:hospital",
        "anchor_name": null,
        "archetype": "terminal",
        "chainage_m": 0.0,
        "corridor_offset_m": 0.0,
        "id": "line-2-0499-0328-s000000",
        "junction_group": null,
        "line": "line-2",
        "platform_length_m": 49.0
      },
      "type": "Feature"
    },
    {
      "geometry": {
        "coordinates": [
          35.3673657525326,
          33.547224565381704
        ],
        "type": "Point"
      },
      "properties": {
        "anchor_kind": "amenity:marketplace",
        "anchor_name": "الخضار سوق",
        "archetype": "interchange-elevated",
        "chainage_m": 1710.5,
        "corridor_offset_m": 0.796,
        "id": "line-2-0430-0350-s001711",
        "junction_group": 0,
        "line": "line-2",
        "platform_length_m": 49.0
      },
      "type": "Feature"
    },
    {
      "geometry": {
        "coordinates": [
          35.3746959539195,
          33.55802253536335
        ],
        "type": "Point"
      },
      "properties": {
        "anchor_kind": null,
        "anchor_name": null,
        "archetype": "interchange-elevated",
        "chainage_m": 3509.4,
        "corridor_offset_m": 7.074,
        "id": "line-2-0370-0384-s003509",
        "junction_group": 1,
        "line": "line-2",
        "platform_length_m": 49.0
      },
      "type": "Feature"
    },
    {
      "geometry": {
        "coordinates": [
          35.3848288793661,
          33.54704459921535
        ],
        "type": "Point"
      },
      "properties": {
        "anchor_kind": "amenity:hospital",
        "anchor_name": "Al Hamshari Hospital",
        "archetype": "major",
        "chainage_m": 5351.9,
        "corridor_offset_m": 0.847,
        "id": "line-2-0431-0431-s005352",
        "junction_group": null,
        "line": "line-2",
        "platform_length_m": 49.0
      },
      "type": "Feature"
    },
    {
      "geometry": {
        "coordinates": [
          35.38073259035577,
          33.53372710290465
        ],
        "type": "Point"
      },
      "properties": {
        "anchor_kind": null,
        "anchor_name": null,
        "archetype": "standard",
        "chainage_m": 7357.0,
        "corridor_offset_m": 0.266,
        "id": "line-2-0505-0412-s007357",
        "junction_group": null,
        "line": "line-2",
        "platform_length_m": 49.0
      },
      "type": "Feature"
    },
    {
      "geometry": {
        "coordinates": [
          35.39129670411924,
          33.518969877263075
        ],
        "type": "Point"
      },
      "properties": {
        "anchor_kind": "place:suburb",
        "anchor_name": "النواويس",
        "archetype": "terminal",
        "chainage_m": 9802.9,
        "corridor_offset_m": 0.0,
        "id": "line-2-0587-0461-s009803",
        "junction_group": null,
        "line": "line-2",
        "platform_length_m": 49.0
      },
      "type": "Feature"
    },
    {
      "geometry": {
        "coordinates": [
          35.391512298277675,
          33.55622287369974
        ],
        "type": "Point"
      },
      "properties": {
        "anchor_kind": "place:neighbourhood",
        "anchor_name": "مار إلياس",
        "archetype": "terminal",
        "chainage_m": 0.0,
        "corridor_offset_m": 0.0,
        "id": "line-3-0380-0462-s000000",
        "junction_group": null,
        "line": "line-3",
        "platform_length_m": 49.0
      },
      "type": "Feature"
    },
    {
      "geometry": {
        "coordinates": [
          35.3746959539195,
          33.55802253536335
        ],
        "type": "Point"
      },
      "properties": {
        "anchor_kind": null,
        "anchor_name": null,
        "archetype": "interchange-elevated",
        "chainage_m": 1893.4,
        "corridor_offset_m": 7.242,
        "id": "line-3-0370-0384-s001893",
        "junction_group": 1,
        "line": "line-3",
        "platform_length_m": 49.0
      },
      "type": "Feature"
    },
    {
      "geometry": {
        "coordinates": [
          35.3865536326336,
          33.56324155418781
        ],
        "type": "Point"
      },
      "properties": {
        "anchor_kind": "amenity:hospital",
        "anchor_name": "Nakib Hospital",
        "archetype": "major",
        "chainage_m": 3612.2,
        "corridor_offset_m": 12.929,
        "id": "line-3-0341-0439-s003612",
        "junction_group": null,
        "line": "line-3",
        "platform_length_m": 49.0
      },
      "type": "Feature"
    },
    {
      "geometry": {
        "coordinates": [
          35.391512298277675,
          33.578718644494835
        ],
        "type": "Point"
      },
      "properties": {
        "anchor_kind": null,
        "anchor_name": null,
        "archetype": "standard",
        "chainage_m": 5612.4,
        "corridor_offset_m": 10.906,
        "id": "line-3-0255-0462-s005612",
        "junction_group": null,
        "line": "line-3",
        "platform_length_m": 49.0
      },
      "type": "Feature"
    },
    {
      "geometry": {
        "coordinates": [
          35.41328730827994,
          33.590776377641
        ],
        "type": "Point"
      },
      "properties": {
        "anchor_kind": null,
        "anchor_name": null,
        "archetype": "halt",
        "chainage_m": 8626.7,
        "corridor_offset_m": 5.875,
        "id": "line-3-0188-0563-s008627",
        "junction_group": null,
        "line": "line-3",
        "platform_length_m": 45.0
      },
      "type": "Feature"
    },
    {
      "geometry": {
        "coordinates": [
          35.43355315917313,
          33.617231404096025
        ],
        "type": "Point"
      },
      "properties": {
        "anchor_kind": "amenity:hospital",
        "anchor_name": "Sibline Governmental Hospital",
        "archetype": "terminal",
        "chainage_m": 12916.3,
        "corridor_offset_m": 0.0,
        "id": "line-3-0041-0657-s012916",
        "junction_group": null,
        "line": "line-3",
        "platform_length_m": 49.0
      },
      "type": "Feature"
    }
  ],
  "type": "FeatureCollection"
}
