{
  "features": [
    {
      "geometry": {
        "coordinates": [
          37.05029673657823,
          -1.0677266673865313
        ],
        "type": "Point"
      },
      "properties": {
        "archetype": "main-heavy",
        "fleet_stalls": 17,
        "line": "line-1",
        "station": "line-1-0098-2227-s000000"
      },
      "type": "Feature"
    },
    {
      "geometry": {
        "coordinates": [
          37.097379899309324,
          -1.2840459993521218
        ],
        "type": "Point"
      },
      "properties": {
        "archetype": "main-heavy",
        "fleet_stalls": 15,
        "line": "line-2",
        "station": "line-2-1300-2489-s000000"
      },
      "type": "Feature"
    },
    {
      "geometry": {
        "coordinates": [
          36.824405379505805,
          -1.173006874707555
        ],
        "type": "Point"
      },
      "properties": {
        "archetype": "main-heavy",
        "fleet_stalls": 15,
        "line": "line-3",
        "station": "line-3-0683-0970-s000000"
      },
      "type": "Feature"
    },
    {
      "geometry": {
        "coordinates": [
          36.94894214199681,
          -1.2487726307454199
        ],
        "type": "Point"
      },
      "properties": {
        "archetype": "main-heavy",
        "fleet_stalls": 11,
        "line": "line-4",
        "station": "line-4-1104-1663-s000000"
      },
      "type": "Feature"
    },
    {
      "geometry": {
        "coordinates": [
          36.94013651232573,
          -1.156090055069647
        ],
        "type": "Point"
      },
      "properties": {
        "archetype": "main-heavy",
        "fleet_stalls": 14,
        "line": "line-5",
        "station": "line-5-0589-1614-s000000"
      },
      "type": "Feature"
    },
    {
      "geometry": {
        "coordinates": [
          36.668060526162115,
          -1.1503311377461038
        ],
        "type": "Point"
      },
      "properties": {
        "archetype": "main-heavy",
        "fleet_stalls": 19,
        "line": "line-6",
        "station": "line-6-0557-0100-s057419"
      },
      "type": "Feature"
    },
    {
      "geometry": {
        "coordinates": [
          36.687109439328125,
          -1.0974210848360508
        ],
        "type": "Point"
      },
      "properties": {
        "archetype": "main-heavy",
        "fleet_stalls": 15,
        "line": "line-7",
        "station": "line-7-0263-0206-s000000"
      },
      "type": "Feature"
    },
    {
      "geometry": {
        "coordinates": [
          36.78235400515819,
          -1.3907659360040312
        ],
        "type": "Point"
      },
      "properties": {
        "archetype": "main-heavy",
        "fleet_stalls": 13,
        "line": "line-8",
        "station": "line-8-1893-0736-s000000"
      },
      "type": "Feature"
    },
    {
      "geometry": {
        "coordinates": [
          36.74641265956194,
          -1.2437335780873195
        ],
        "type": "Point"
      },
      "properties": {
        "archetype": "main-heavy",
        "fleet_stalls": 9,
        "line": "line-9",
        "station": "line-9-1076-0536-s000801"
      },
      "type": "Feature"
    },
    {
      "geometry": {
        "coordinates": [
          36.91749346460009,
          -1.2770273188640535
        ],
        "type": "Point"
      },
      "properties": {
        "archetype": "main-heavy",
        "fleet_stalls": 6,
        "line": "line-10",
        "station": "line-10-1261-1488-s000000"
      },
      "type": "Feature"
    },
    {
      "geometry": {
        "coordinates": [
          36.889279508307034,
          -1.311400856638952
        ],
        "type": "Point"
      },
      "properties": {
        "archetype": "main-heavy",
        "fleet_stalls": 7,
        "line": "line-11",
        "station": "line-11-1452-1331-s000000"
      },
      "type": "Feature"
    },
    {
      "geometry": {
        "coordinates": [
          36.91371962331248,
          -1.2512921570744702
        ],
        "type": "Point"
      },
      "properties": {
        "archetype": "main-heavy",
        "fleet_stalls": 5,
        "line": "line-12",
        "station": "line-12-1118-1467-s000000"
      },
      "type": "Feature"
    },
    {
      "geometry": {
        "coordinates": [
          36.74281852500231,
          -1.302222582154555
        ],
        "type": "Point"
      },
      "properties": {
        "archetype": "main-heavy",
        "fleet_stalls": 3,
        "line": "line-13",
        "station": "line-13-1401-0516-s000000"
      },
      "type": "Feature"
    },
    {
      "geometry": {
        "coordinates": [
          36.93312794993446,
          -1.2498524277435843
        ],
        "type": "Point"
      },
      "properties": {
        "archetype": "main-heavy",
        "fleet_stalls": 5,
        "line": "line-14",
        "station": "line-14-1110-1575-s000000"
      },
      "type": "Feature"
    },
    {
      "geometry": {
        "coordinates": [
          36.76582098618392,
          -1.3790681351905842
        ],
        "type": "Point"
      },
      "properties": {
        "archetype": "main-heavy",
        "fleet_stalls": 3,
        "line": "line-15",
        "station": "line-15-1828-0644-s000000"
      },
      "type": "Feature"
    },
    {
      "geometry": {
        "coordinates": [
          36.83734426392045,
          -1.2784670481949394
        ],
        "type": "Point"
      },
      "properties": {
        "archetype": "main-heavy",
        "fleet_stalls": 4,
        "line": "line-16",
        "station": "line-16-1269-1042-s000000"
      },
      "type": "Feature"
    },
    {
      "geometry": {
        "coordinates": [
          36.843454292671815,
          -1.3097811611417054
        ],
        "type": "Point"
      },
      "properties": {
        "archetype": "main-heavy",
        "fleet_stalls": 4,
        "line": "line-17",
        "station": "line-17-1443-1076-s000000"
      },
      "type": "Feature"
    },
    {
      "geometry": {
        "coordinates": [
          36.880833292091914,
          -1.2935842061692402
        ],
        "type": "Point"
      },
      "properties": {
        "archetype": "main-heavy",
        "fleet_stalls": 4,
        "line": "line-18",
        "station": "line-18-1353-1284-s000000"
      },
      "type": "Feature"
    },
    {
      "geometry": {
        "coordinates": [
          36.86861323458919,
          -1.2779271496958573
        ],
        "type": "Point"
      },
      "properties": {
        "archetype": "main-heavy",
        "fleet_stalls": 5,
        "line": "line-19",
        "station": "line-19-1266-1216-s000000"
      },
      "type": "Feature"
    },
    {
      "geometry": {
        "coordinates": [
          36.89880396489004,
          -1.2525519202389952
        ],
        "type": "Point"
      },
      "properties": {
        "archetype": "main-heavy",
        "fleet_stalls": 3,
        "line": "line-20",
        "station": "line-20-1125-1384-s000000"
      },
      "type": "Feature"
    },
    {
      "geometry": {
        "coordinates": [
          36.78235400515819,
          -1.1830849800237555
        ],
        "type": "Point"
      },
      "properties": {
        "archetype": "main-heavy",
        "fleet_stalls": 6,
        "line": "line-21",
        "station": "line-21-0739-0736-s000000"
      },
      "type": "Feature"
    },
    {
      "geometry": {
        "coordinates": [
          36.714604568709255,
          -1.2606503977252277
        ],
        "type": "Point"
      },
      "properties": {
        "archetype": "main-heavy",
        "fleet_stalls": 3,
        "line": "line-22",
        "station": "line-22-1170-0359-s000000"
      },
      "type": "Feature"
    },
    {
      "geometry": {
        "coordinates": [
          36.89790543125014,
          -1.2264568261166902
        ],
        "type": "Point"
      },
      "properties": {
        "archetype": "main-heavy",
        "fleet_stalls": 4,
        "line": "line-23",
        "station": "line-23-0980-1379-s000000"
      },
      "type": "Feature"
    },
    {
      "geometry": {
        "coordinates": [
          36.913180503128544,
          -1.2772072850304144
        ],
        "type": "Point"
      },
      "properties": {
        "archetype": "main-heavy",
        "fleet_stalls": 4,
        "line": "line-24",
        "station": "line-24-1262-1464-s000000"
      },
      "type": "Feature"
    },
    {
      "geometry": {
        "coordinates": [
          37.050476443306216,
          -1.0679066335528922
        ],
        "type": "Point"
      },
      "properties": {
        "archetype": "main-heavy",
        "fleet_stalls": 3,
        "line": "line-25",
        "station": "line-25-0099-2228-s000000"
      },
      "type": "Feature"
    },
    {
      "geometry": {
        "coordinates": [
          36.671295247265775,
          -1.336236187596732
        ],
        "type": "Point"
      },
      "properties": {
        "archetype": "main-heavy",
        "fleet_stalls": 5,
        "line": "line-26",
        "station": "line-26-1590-0118-s000000"
      },
      "type": "Feature"
    },
    {
      "geometry": {
        "coordinates": [
          36.78684667335772,
          -1.2795468451931038
        ],
        "type": "Point"
      },
      "properties": {
        "archetype": "main-heavy",
        "fleet_stalls": 4,
        "line": "line-27",
        "station": "line-27-1275-0761-s000000"
      },
      "type": "Feature"
    },
    {
      "geometry": {
        "coordinates": [
          36.930072935558776,
          -1.195862577835367
        ],
        "type": "Point"
      },
      "properties": {
        "archetype": "main-heavy",
        "fleet_stalls": 4,
        "line": "line-28",
        "station": "line-28-0810-1558-s000000"
      },
      "type": "Feature"
    },
    {
      "geometry": {
        "coordinates": [
          36.96026366585963,
          -1.4742702371954073
        ],
        "type": "Point"
      },
      "properties": {
        "archetype": "main-heavy",
        "fleet_stalls": 3,
        "line": "line-29",
        "station": "line-29-2357-1726-s000000"
      },
      "type": "Feature"
    },
    {
      "geometry": {
        "coordinates": [
          36.84992373487914,
          -1.1706673145448656
        ],
        "type": "Point"
      },
      "properties": {
        "archetype": "main-heavy",
        "fleet_stalls": 3,
        "line": "line-30",
        "station": "line-30-0670-1112-s000000"
      },
      "type": "Feature"
    },
    {
      "geometry": {
        "coordinates": [
          36.77282954857518,
          -1.17426663787208
        ],
        "type": "Point"
      },
      "properties": {
        "archetype": "main-heavy",
        "fleet_stalls": 3,
        "line": "line-31",
        "station": "line-31-0690-0683-s000000"
      },
      "type": "Feature"
    },
    {
      "geometry": {
        "coordinates": [
          36.89413158996253,
          -1.2863855595148113
        ],
        "type": "Point"
      },
      "properties": {
        "archetype": "main-heavy",
        "fleet_stalls": 5,
        "line": "line-32",
        "station": "line-32-1313-1358-s000000"
      },
      "type": "Feature"
    },
    {
      "geometry": {
        "coordinates": [
          36.767438346735744,
          -1.3803278983551093
        ],
        "type": "Point"
      },
      "properties": {
        "archetype": "main-heavy",
        "fleet_stalls": 4,
        "line": "line-33",
        "station": "line-33-1835-0653-s000000"
      },
      "type": "Feature"
    },
    {
      "geometry": {
        "coordinates": [
          36.88658390738731,
          -1.2372547960983336
        ],
        "type": "Point"
      },
      "properties": {
        "archetype": "main-heavy",
        "fleet_stalls": 6,
        "line": "line-34",
        "station": "line-34-1040-1316-s000000"
      },
      "type": "Feature"
    },
    {
      "geometry": {
        "coordinates": [
          36.77786133695866,
          -1.2098999388115035
        ],
        "type": "Point"
      },
      "properties": {
        "archetype": "main-heavy",
        "fleet_stalls": 4,
        "line": "line-35",
        "station": "line-35-0888-0711-s000000"
      },
      "type": "Feature"
    },
    {
      "geometry": {
        "coordinates": [
          36.737427323162876,
          -1.2503923262426664
        ],
        "type": "Point"
      },
      "properties": {
        "archetype": "main-heavy",
        "fleet_stalls": 3,
        "line": "line-36",
        "station": "line-36-1113-0486-s000000"
      },
      "type": "Feature"
    },
    {
      "geometry": {
        "coordinates": [
          36.91803258478404,
          -1.3716895223697945
        ],
        "type": "Point"
      },
      "properties": {
        "archetype": "main-heavy",
        "fleet_stalls": 3,
        "line": "line-37",
        "station": "line-37-1787-1491-s000000"
      },
      "type": "Feature"
    },
    {
      "geometry": {
        "coordinates": [
          36.71047131396569,
          -1.2543515819026023
        ],
        "type": "Point"
      },
      "properties": {
        "archetype": "main-heavy",
        "fleet_stalls": 3,
        "line": "line-38",
        "station": "line-38-1135-0336-s000000"
      },
      "type": "Feature"
    },
    {
      "geometry": {
        "coordinates": [
          36.71047131396569,
          -1.2543515819026023
        ],
        "type": "Point"
      },
      "properties": {
        "archetype": "main-heavy",
        "fleet_stalls": 3,
        "line": "line-39",
        "station": "line-39-1135-0336-s000000"
      },
      "type": "Feature"
    },
    {
      "geometry": {
        "coordinates": [
          36.71586251580513,
          -1.1199168556311414
        ],
        "type": "Point"
      },
      "properties": {
        "archetype": "main-heavy",
        "fleet_stalls": 4,
        "line": "line-40",
        "station": "line-40-0388-0366-s000000"
      },
      "type": "Feature"
    },
    {
      "geometry": {
        "coordinates": [
          36.781814884974246,
          -1.2509322247417485
        ],
        "type": "Point"
      },
      "properties": {
        "archetype": "main-heavy",
        "fleet_stalls": 7,
        "line": "line-41",
        "station": "line-41-1116-0733-s000000"
      },
      "type": "Feature"
    }
  ],
  "type": "FeatureCollection"
}
