{
  "features": [
    {
      "geometry": {
        "coordinates": [
          37.05029673657823,
          -1.0677266673865313
        ],
        "type": "Point"
      },
      "properties": {
        "anchor_kind": "amenity:bus_station",
        "anchor_name": "Witethie",
        "archetype": "terminal",
        "chainage_m": 0.0,
        "corridor_offset_m": 0.0,
        "id": "line-1-0098-2227-s000000",
        "junction_group": null,
        "line": "line-1",
        "platform_length_m": 121.0
      },
      "type": "Feature"
    },
    {
      "geometry": {
        "coordinates": [
          37.03556078488377,
          -1.0891426411834575
        ],
        "type": "Point"
      },
      "properties": {
        "anchor_kind": null,
        "anchor_name": null,
        "archetype": "halt",
        "chainage_m": 3490.8,
        "corridor_offset_m": 0.557,
        "id": "line-1-0217-2145-s003491",
        "junction_group": null,
        "line": "line-1",
        "platform_length_m": 117.0
      },
      "type": "Feature"
    },
    {
      "geometry": {
        "coordinates": [
          37.01453509770997,
          -1.1080390886513336
        ],
        "type": "Point"
      },
      "properties": {
        "anchor_kind": "amenity:hospital",
        "anchor_name": "Aghakan University Hospital (Juja Branch)",
        "archetype": "halt",
        "chainage_m": 7005.2,
        "corridor_offset_m": 0.43,
        "id": "line-1-0322-2028-s007005",
        "junction_group": null,
        "line": "line-1",
        "platform_length_m": 117.0
      },
      "type": "Feature"
    },
    {
      "geometry": {
        "coordinates": [
          37.000158559471465,
          -1.1290951301155383
        ],
        "type": "Point"
      },
      "properties": {
        "anchor_kind": null,
        "anchor_name": null,
        "archetype": "halt",
        "chainage_m": 10511.8,
        "corridor_offset_m": 0.99,
        "id": "line-1-0439-1948-s010512",
        "junction_group": null,
        "line": "line-1",
        "platform_length_m": 117.0
      },
      "type": "Feature"
    },
    {
      "geometry": {
        "coordinates": [
          36.98021111266555,
          -1.1479915775834144
        ],
        "type": "Point"
      },
      "properties": {
        "anchor_kind": null,
        "anchor_name": null,
        "archetype": "halt",
        "chainage_m": 14016.5,
        "corridor_offset_m": 0.924,
        "id": "line-1-0544-1837-s014017",
        "junction_group": null,
        "line": "line-1",
        "platform_length_m": 117.0
      },
      "type": "Feature"
    },
    {
      "geometry": {
        "coordinates": [
          36.96116219949953,
          -1.1661681603858476
        ],
        "type": "Point"
      },
      "properties": {
        "anchor_kind": null,
        "anchor_name": null,
        "archetype": "interchange",
        "chainage_m": 17289.5,
        "corridor_offset_m": 0.893,
        "id": "line-1-0645-1731-s017290",
        "junction_group": 0,
        "line": "line-1",
        "platform_length_m": 121.0
      },
      "type": "Feature"
    },
    {
      "geometry": {
        "coordinates": [
          36.939597392141785,
          -1.18668430335097
        ],
        "type": "Point"
      },
      "properties": {
        "anchor_kind": null,
        "anchor_name": null,
        "archetype": "standard",
        "chainage_m": 21020.6,
        "corridor_offset_m": 0.737,
        "id": "line-1-0759-1611-s021021",
        "junction_group": null,
        "line": "line-1",
        "platform_length_m": 121.0
      },
      "type": "Feature"
    },
    {
      "geometry": {
        "coordinates": [
          36.90976607529689,
          -1.2152989238023253
        ],
        "type": "Point"
      },
      "properties": {
        "anchor_kind": "place:neighbourhood",
        "anchor_name": "Clay City",
        "archetype": "standard",
        "chainage_m": 26126.4,
        "corridor_offset_m": 0.674,
        "id": "line-1-0918-1445-s026126",
        "junction_group": null,
        "line": "line-1",
        "platform_length_m": 121.0
      },
      "type": "Feature"
    },
    {
      "geometry": {
        "coordinates": [
          36.89251422941069,
          -1.2316758449411511
        ],
        "type": "Point"
      },
      "properties": {
        "anchor_kind": "leisure:stadium",
        "anchor_name": "Kasarani Stadium",
        "archetype": "standard",
        "chainage_m": 29140.0,
        "corridor_offset_m": 0.63,
        "id": "line-1-1009-1349-s029140",
        "junction_group": null,
        "line": "line-1",
        "platform_length_m": 121.0
      },
      "type": "Feature"
    },
    {
      "geometry": {
        "coordinates": [
          36.88065358536394,
          -1.2430137134218766
        ],
        "type": "Point"
      },
      "properties": {
        "anchor_kind": "place:suburb",
        "anchor_name": "Babadogo",
        "archetype": "standard",
        "chainage_m": 31181.1,
        "corridor_offset_m": 0.566,
        "id": "line-1-1072-1283-s031181",
        "junction_group": null,
        "line": "line-1",
        "platform_length_m": 121.0
      },
      "type": "Feature"
    },
    {
      "geometry": {
        "coordinates": [
          36.86843352786121,
          -1.2547115142353238
        ],
        "type": "Point"
      },
      "properties": {
        "anchor_kind": null,
        "anchor_name": null,
        "archetype": "interchange",
        "chainage_m": 33231.9,
        "corridor_offset_m": 0.508,
        "id": "line-1-1137-1215-s033232",
        "junction_group": 1,
        "line": "line-1",
        "platform_length_m": 121.0
      },
      "type": "Feature"
    },
    {
      "geometry": {
        "coordinates": [
          36.86430027311764,
          -1.2586707698952597
        ],
        "type": "Point"
      },
      "properties": {
        "anchor_kind": "amenity:hospital",
        "anchor_name": "Total community Development Health Care",
        "archetype": "interchange",
        "chainage_m": 33932.7,
        "corridor_offset_m": 0.528,
        "id": "line-1-1159-1192-s033933",
        "junction_group": 1,
        "line": "line-1",
        "platform_length_m": 121.0
      },
      "type": "Feature"
    },
    {
      "geometry": {
        "coordinates": [
          36.8436339993998,
          -1.2784670481949394
        ],
        "type": "Point"
      },
      "properties": {
        "anchor_kind": null,
        "anchor_name": null,
        "archetype": "interchange",
        "chainage_m": 37542.3,
        "corridor_offset_m": 0.466,
        "id": "line-1-1269-1077-s037542",
        "junction_group": 2,
        "line": "line-1",
        "platform_length_m": 121.0
      },
      "type": "Feature"
    },
    {
      "geometry": {
        "coordinates": [
          36.827280687153504,
          -1.2941241046683225
        ],
        "type": "Point"
      },
      "properties": {
        "anchor_kind": "amenity:marketplace",
        "anchor_name": "City Council Stalls",
        "archetype": "interchange",
        "chainage_m": 40364.2,
        "corridor_offset_m": 0.423,
        "id": "line-1-1356-0986-s040364",
        "junction_group": 3,
        "line": "line-1",
        "platform_length_m": 121.0
      },
      "type": "Feature"
    },
    {
      "geometry": {
        "coordinates": [
          36.81128678836317,
          -1.3092412626426233
        ],
        "type": "Point"
      },
      "properties": {
        "anchor_kind": "amenity:university",
        "anchor_name": "Strathmore University",
        "archetype": "standard",
        "chainage_m": 43062.7,
        "corridor_offset_m": 0.33,
        "id": "line-1-1440-0897-s043063",
        "junction_group": null,
        "line": "line-1",
        "platform_length_m": 121.0
      },
      "type": "Feature"
    },
    {
      "geometry": {
        "coordinates": [
          36.79385523574899,
          -1.3259781161141706
        ],
        "type": "Point"
      },
      "properties": {
        "anchor_kind": "tourism:attraction",
        "anchor_name": "Uhuru Gardens",
        "archetype": "standard",
        "chainage_m": 46077.8,
        "corridor_offset_m": 0.224,
        "id": "line-1-1533-0800-s046078",
        "junction_group": null,
        "line": "line-1",
        "platform_length_m": 121.0
      },
      "type": "Feature"
    },
    {
      "geometry": {
        "coordinates": [
          36.75809359688072,
          -1.3599917215563475
        ],
        "type": "Point"
      },
      "properties": {
        "anchor_kind": null,
        "anchor_name": null,
        "archetype": "interchange",
        "chainage_m": 52232.7,
        "corridor_offset_m": 0.132,
        "id": "line-1-1722-0601-s052233",
        "junction_group": 4,
        "line": "line-1",
        "platform_length_m": 121.0
      },
      "type": "Feature"
    },
    {
      "geometry": {
        "coordinates": [
          36.75809359688072,
          -1.3625112478853976
        ],
        "type": "Point"
      },
      "properties": {
        "anchor_kind": "amenity:university",
        "anchor_name": "Maktabat ul Jamea tus saifiyah - Nairobi",
        "archetype": "interchange",
        "chainage_m": 52767.3,
        "corridor_offset_m": 0.026,
        "id": "line-1-1736-0601-s052767",
        "junction_group": 4,
        "line": "line-1",
        "platform_length_m": 121.0
      },
      "type": "Feature"
    },
    {
      "geometry": {
        "coordinates": [
          36.75809359688072,
          -1.361611417053594
        ],
        "type": "Point"
      },
      "properties": {
        "anchor_kind": "amenity:university",
        "anchor_name": "Maktabat ul Jamea tus saifiyah - Nairobi",
        "archetype": "terminal",
        "chainage_m": 53185.2,
        "corridor_offset_m": 0.0,
        "id": "line-1-1731-0601-s053185",
        "junction_group": 4,
        "line": "line-1",
        "platform_length_m": 121.0
      },
      "type": "Feature"
    },
    {
      "geometry": {
        "coordinates": [
          37.097379899309324,
          -1.2840459993521218
        ],
        "type": "Point"
      },
      "properties": {
        "anchor_kind": "place:suburb",
        "anchor_name": "Joska",
        "archetype": "terminal",
        "chainage_m": 0.0,
        "corridor_offset_m": 0.0,
        "id": "line-2-1300-2489-s000000",
        "junction_group": null,
        "line": "line-2",
        "platform_length_m": 121.0
      },
      "type": "Feature"
    },
    {
      "geometry": {
        "coordinates": [
          37.07922951978322,
          -1.282606270021236
        ],
        "type": "Point"
      },
      "properties": {
        "anchor_kind": null,
        "anchor_name": null,
        "archetype": "halt",
        "chainage_m": 3501.7,
        "corridor_offset_m": 2.299,
        "id": "line-2-1292-2388-s003502",
        "junction_group": null,
        "line": "line-2",
        "platform_length_m": 117.0
      },
      "type": "Feature"
    },
    {
      "geometry": {
        "coordinates": [
          37.04975761639429,
          -1.2799067775258253
        ],
        "type": "Point"
      },
      "properties": {
        "anchor_kind": null,
        "anchor_name": null,
        "archetype": "halt",
        "chainage_m": 7009.4,
        "corridor_offset_m": 2.304,
        "id": "line-2-1277-2224-s007009",
        "junction_group": null,
        "line": "line-2",
        "platform_length_m": 117.0
      },
      "type": "Feature"
    },
    {
      "geometry": {
        "coordinates": [
          37.01507421789391,
          -1.2764874203649714
        ],
        "type": "Point"
      },
      "properties": {
        "anchor_kind": null,
        "anchor_name": null,
        "archetype": "halt",
        "chainage_m": 11026.8,
        "corridor_offset_m": 2.182,
        "id": "line-2-1258-2031-s011027",
        "junction_group": null,
        "line": "line-2",
        "platform_length_m": 117.0
      },
      "type": "Feature"
    },
    {
      "geometry": {
        "coordinates": [
          36.979671992481606,
          -1.2759475218658893
        ],
        "type": "Point"
      },
      "properties": {
        "anchor_kind": null,
        "anchor_name": null,
        "archetype": "interchange",
        "chainage_m": 15041.3,
        "corridor_offset_m": 1.879,
        "id": "line-2-1255-1834-s015041",
        "junction_group": 5,
        "line": "line-2",
        "platform_length_m": 121.0
      },
      "type": "Feature"
    },
    {
      "geometry": {
        "coordinates": [
          36.92629909427117,
          -1.276847352697693
        ],
        "type": "Point"
      },
      "properties": {
        "anchor_kind": null,
        "anchor_name": null,
        "archetype": "standard",
        "chainage_m": 21022.7,
        "corridor_offset_m": 1.162,
        "id": "line-2-1260-1537-s021023",
        "junction_group": null,
        "line": "line-2",
        "platform_length_m": 121.0
      },
      "type": "Feature"
    },
    {
      "geometry": {
        "coordinates": [
          36.899522791801964,
          -1.277387251196775
        ],
        "type": "Point"
      },
      "properties": {
        "anchor_kind": "shop:mall",
        "anchor_name": "Stageview Mall Eastlands",
        "archetype": "standard",
        "chainage_m": 24027.6,
        "corridor_offset_m": 0.755,
        "id": "line-2-1263-1388-s024028",
        "junction_group": null,
        "line": "line-2",
        "platform_length_m": 121.0
      },
      "type": "Feature"
    },
    {
      "geometry": {
        "coordinates": [
          36.884966546835486,
          -1.2777471835294965
        ],
        "type": "Point"
      },
      "properties": {
        "anchor_kind": null,
        "anchor_name": null,
        "archetype": "interchange",
        "chainage_m": 25664.2,
        "corridor_offset_m": 0.537,
        "id": "line-2-1265-1307-s025664",
        "junction_group": 6,
        "line": "line-2",
        "platform_length_m": 121.0
      },
      "type": "Feature"
    },
    {
      "geometry": {
        "coordinates": [
          36.87346531624468,
          -1.2779271496958573
        ],
        "type": "Point"
      },
      "properties": {
        "anchor_kind": null,
        "anchor_name": null,
        "archetype": "interchange",
        "chainage_m": 26952.4,
        "corridor_offset_m": 0.46,
        "id": "line-2-1266-1243-s026952",
        "junction_group": 7,
        "line": "line-2",
        "platform_length_m": 121.0
      },
      "type": "Feature"
    },
    {
      "geometry": {
        "coordinates": [
          36.8436339993998,
          -1.2784670481949394
        ],
        "type": "Point"
      },
      "properties": {
        "anchor_kind": null,
        "anchor_name": null,
        "archetype": "interchange",
        "chainage_m": 30297.3,
        "corridor_offset_m": 0.005,
        "id": "line-2-1269-1077-s030297",
        "junction_group": 2,
        "line": "line-2",
        "platform_length_m": 121.0
      },
      "type": "Feature"
    },
    {
      "geometry": {
        "coordinates": [
          36.81146649509115,
          -1.2790069466940215
        ],
        "type": "Point"
      },
      "properties": {
        "anchor_kind": "amenity:hospital",
        "anchor_name": "Student's Clinic",
        "archetype": "interchange",
        "chainage_m": 33902.2,
        "corridor_offset_m": 0.488,
        "id": "line-2-1272-0898-s033902",
        "junction_group": 8,
        "line": "line-2",
        "platform_length_m": 121.0
      },
      "type": "Feature"
    },
    {
      "geometry": {
        "coordinates": [
          36.77354837548711,
          -1.2797268113594644
        ],
        "type": "Point"
      },
      "properties": {
        "anchor_kind": null,
        "anchor_name": null,
        "archetype": "interchange",
        "chainage_m": 38155.3,
        "corridor_offset_m": 0.965,
        "id": "line-2-1276-0687-s038155",
        "junction_group": 9,
        "line": "line-2",
        "platform_length_m": 121.0
      },
      "type": "Feature"
    },
    {
      "geometry": {
        "coordinates": [
          36.75521828923302,
          -1.280086743692186
        ],
        "type": "Point"
      },
      "properties": {
        "anchor_kind": "amenity:bus_station",
        "anchor_name": "Salim rd",
        "archetype": "standard",
        "chainage_m": 40211.9,
        "corridor_offset_m": 1.244,
        "id": "line-2-1278-0585-s040212",
        "junction_group": null,
        "line": "line-2",
        "platform_length_m": 121.0
      },
      "type": "Feature"
    },
    {
      "geometry": {
        "coordinates": [
          36.73688820297893,
          -1.2804466760249074
        ],
        "type": "Point"
      },
      "properties": {
        "anchor_kind": null,
        "anchor_name": null,
        "archetype": "interchange",
        "chainage_m": 42268.4,
        "corridor_offset_m": 1.423,
        "id": "line-2-1280-0483-s042268",
        "junction_group": 10,
        "line": "line-2",
        "platform_length_m": 121.0
      },
      "type": "Feature"
    },
    {
      "geometry": {
        "coordinates": [
          36.7228710781964,
          -1.2894449843429436
        ],
        "type": "Point"
      },
      "properties": {
        "anchor_kind": "amenity:hospital",
        "anchor_name": "Fremo Hospital",
        "archetype": "terminal",
        "chainage_m": 44919.0,
        "corridor_offset_m": 0.0,
        "id": "line-2-1330-0405-s044919",
        "junction_group": null,
        "line": "line-2",
        "platform_length_m": 121.0
      },
      "type": "Feature"
    },
    {
      "geometry": {
        "coordinates": [
          36.824405379505805,
          -1.173006874707555
        ],
        "type": "Point"
      },
      "properties": {
        "anchor_kind": "amenity:marketplace",
        "anchor_name": "Kika Stalls",
        "archetype": "terminal",
        "chainage_m": 0.0,
        "corridor_offset_m": 0.0,
        "id": "line-3-0683-0970-s000000",
        "junction_group": 11,
        "line": "line-3",
        "platform_length_m": 121.0
      },
      "type": "Feature"
    },
    {
      "geometry": {
        "coordinates": [
          36.8330313024489,
          -1.1924432206745132
        ],
        "type": "Point"
      },
      "properties": {
        "anchor_kind": null,
        "anchor_name": null,
        "archetype": "interchange",
        "chainage_m": 2616.2,
        "corridor_offset_m": 0.185,
        "id": "line-3-0791-1018-s002616",
        "junction_group": 12,
        "line": "line-3",
        "platform_length_m": 121.0
      },
      "type": "Feature"
    },
    {
      "geometry": {
        "coordinates": [
          36.84039927829613,
          -1.208280243314257
        ],
        "type": "Point"
      },
      "properties": {
        "anchor_kind": "place:suburb",
        "anchor_name": "Lilac court",
        "archetype": "standard",
        "chainage_m": 4762.7,
        "corridor_offset_m": 0.298,
        "id": "line-3-0879-1059-s004763",
        "junction_group": null,
        "line": "line-3",
        "platform_length_m": 121.0
      },
      "type": "Feature"
    },
    {
      "geometry": {
        "coordinates": [
          36.84830637432731,
          -1.2248371306194437
        ],
        "type": "Point"
      },
      "properties": {
        "anchor_kind": null,
        "anchor_name": null,
        "archetype": "interchange",
        "chainage_m": 7014.1,
        "corridor_offset_m": 0.346,
        "id": "line-3-0971-1103-s007014",
        "junction_group": 13,
        "line": "line-3",
        "platform_length_m": 121.0
      },
      "type": "Feature"
    },
    {
      "geometry": {
        "coordinates": [
          36.85531493671858,
          -1.239594356261023
        ],
        "type": "Point"
      },
      "properties": {
        "anchor_kind": null,
        "anchor_name": null,
        "archetype": "standard",
        "chainage_m": 9024.1,
        "corridor_offset_m": 0.367,
        "id": "line-3-1053-1142-s009024",
        "junction_group": null,
        "line": "line-3",
        "platform_length_m": 121.0
      },
      "type": "Feature"
    },
    {
      "geometry": {
        "coordinates": [
          36.86268291256581,
          -1.2550714465680453
        ],
        "type": "Point"
      },
      "properties": {
        "anchor_kind": null,
        "anchor_name": null,
        "archetype": "interchange",
        "chainage_m": 11130.6,
        "corridor_offset_m": 0.459,
        "id": "line-3-1139-1183-s011131",
        "junction_group": 1,
        "line": "line-3",
        "platform_length_m": 121.0
      },
      "type": "Feature"
    },
    {
      "geometry": {
        "coordinates": [
          36.86430027311764,
          -1.2586707698952597
        ],
        "type": "Point"
      },
      "properties": {
        "anchor_kind": "amenity:hospital",
        "anchor_name": "Total community Development Health Care",
        "archetype": "interchange",
        "chainage_m": 11616.9,
        "corridor_offset_m": 0.461,
        "id": "line-3-1159-1192-s011617",
        "junction_group": 1,
        "line": "line-3",
        "platform_length_m": 121.0
      },
      "type": "Feature"
    },
    {
      "geometry": {
        "coordinates": [
          36.87346531624468,
          -1.2779271496958573
        ],
        "type": "Point"
      },
      "properties": {
        "anchor_kind": null,
        "anchor_name": null,
        "archetype": "interchange",
        "chainage_m": 14249.6,
        "corridor_offset_m": 0.641,
        "id": "line-3-1266-1243-s014250",
        "junction_group": 7,
        "line": "line-3",
        "platform_length_m": 121.0
      },
      "type": "Feature"
    },
    {
      "geometry": {
        "coordinates": [
          36.88011446517999,
          -1.2921444768383545
        ],
        "type": "Point"
      },
      "properties": {
        "anchor_kind": "place:neighbourhood",
        "anchor_name": "Buru Buru Phase 5",
        "archetype": "standard",
        "chainage_m": 16171.3,
        "corridor_offset_m": 0.69,
        "id": "line-3-1345-1280-s016171",
        "junction_group": null,
        "line": "line-3",
        "platform_length_m": 121.0
      },
      "type": "Feature"
    },
    {
      "geometry": {
        "coordinates": [
          36.886763614115296,
          -1.306181837814491
        ],
        "type": "Point"
      },
      "properties": {
        "anchor_kind": null,
        "anchor_name": null,
        "archetype": "standard",
        "chainage_m": 18073.0,
        "corridor_offset_m": 0.728,
        "id": "line-3-1423-1317-s018073",
        "junction_group": null,
        "line": "line-3",
        "platform_length_m": 121.0
      },
      "type": "Feature"
    },
    {
      "geometry": {
        "coordinates": [
          36.89736631106619,
          -1.3281377101104992
        ],
        "type": "Point"
      },
      "properties": {
        "anchor_kind": "amenity:hospital",
        "anchor_name": "Garrison Health Centre",
        "archetype": "standard",
        "chainage_m": 21083.8,
        "corridor_offset_m": 0.794,
        "id": "line-3-1545-1376-s021084",
        "junction_group": null,
        "line": "line-3",
        "platform_length_m": 121.0
      },
      "type": "Feature"
    },
    {
      "geometry": {
        "coordinates": [
          36.91138343584873,
          -1.3580120937263795
        ],
        "type": "Point"
      },
      "properties": {
        "anchor_kind": null,
        "anchor_name": null,
        "archetype": "standard",
        "chainage_m": 25143.7,
        "corridor_offset_m": 0.957,
        "id": "line-3-1711-1454-s025144",
        "junction_group": null,
        "line": "line-3",
        "platform_length_m": 121.0
      },
      "type": "Feature"
    },
    {
      "geometry": {
        "coordinates": [
          36.925580267359244,
          -1.3878864773422597
        ],
        "type": "Point"
      },
      "properties": {
        "anchor_kind": null,
        "anchor_name": null,
        "archetype": "interchange",
        "chainage_m": 29211.8,
        "corridor_offset_m": 1.185,
        "id": "line-3-1877-1533-s029212",
        "junction_group": 14,
        "line": "line-3",
        "platform_length_m": 121.0
      },
      "type": "Feature"
    },
    {
      "geometry": {
        "coordinates": [
          36.92575997408723,
          -1.388426375841342
        ],
        "type": "Point"
      },
      "properties": {
        "anchor_kind": null,
        "anchor_name": null,
        "archetype": "interchange",
        "chainage_m": 29280.1,
        "corridor_offset_m": 1.18,
        "id": "line-3-1880-1534-s029280",
        "junction_group": 14,
        "line": "line-3",
        "platform_length_m": 121.0
      },
      "type": "Feature"
    },
    {
      "geometry": {
        "coordinates": [
          36.94319152670141,
          -1.4310783572688335
        ],
        "type": "Point"
      },
      "properties": {
        "anchor_kind": null,
        "anchor_name": null,
        "archetype": "halt",
        "chainage_m": 35093.2,
        "corridor_offset_m": 1.587,
        "id": "line-3-2117-1631-s035093",
        "junction_group": null,
        "line": "line-3",
        "platform_length_m": 117.0
      },
      "type": "Feature"
    },
    {
      "geometry": {
        "coordinates": [
          36.9672722282509,
          -1.4544739588957276
        ],
        "type": "Point"
      },
      "properties": {
        "anchor_kind": null,
        "anchor_name": null,
        "archetype": "halt",
        "chainage_m": 40102.5,
        "corridor_offset_m": 0.285,
        "id": "line-3-2247-1765-s040103",
        "junction_group": null,
        "line": "line-3",
        "platform_length_m": 117.0
      },
      "type": "Feature"
    },
    {
      "geometry": {
        "coordinates": [
          36.955411584204136,
          -1.4883075981715437
        ],
        "type": "Point"
      },
      "properties": {
        "anchor_kind": "amenity:hospital",
        "anchor_name": "Getrude Childrens Hospital",
        "archetype": "terminal",
        "chainage_m": 45101.3,
        "corridor_offset_m": 0.0,
        "id": "line-3-2435-1699-s045101",
        "junction_group": null,
        "line": "line-3",
        "platform_length_m": 121.0
      },
      "type": "Feature"
    },
    {
      "geometry": {
        "coordinates": [
          36.94894214199681,
          -1.2487726307454199
        ],
        "type": "Point"
      },
      "properties": {
        "anchor_kind": "amenity:hospital",
        "anchor_name": "Emmanuel Community Hospital",
        "archetype": "terminal",
        "chainage_m": 0.0,
        "corridor_offset_m": 0.0,
        "id": "line-4-1104-1663-s000000",
        "junction_group": null,
        "line": "line-4",
        "platform_length_m": 121.0
      },
      "type": "Feature"
    },
    {
      "geometry": {
        "coordinates": [
          36.912821089672576,
          -1.2514721232408308
        ],
        "type": "Point"
      },
      "properties": {
        "anchor_kind": null,
        "anchor_name": null,
        "archetype": "standard",
        "chainage_m": 4144.3,
        "corridor_offset_m": 0.242,
        "id": "line-4-1119-1462-s004144",
        "junction_group": null,
        "line": "line-4",
        "platform_length_m": 121.0
      },
      "type": "Feature"
    },
    {
      "geometry": {
        "coordinates": [
          36.88658390738731,
          -1.2534517510707988
        ],
        "type": "Point"
      },
      "properties": {
        "anchor_kind": "amenity:hospital",
        "anchor_name": "lema dispensing chemist",
        "archetype": "standard",
        "chainage_m": 7155.4,
        "corridor_offset_m": 0.362,
        "id": "line-4-1130-1316-s007155",
        "junction_group": null,
        "line": "line-4",
        "platform_length_m": 121.0
      },
      "type": "Feature"
    },
    {
      "geometry": {
        "coordinates": [
          36.86843352786121,
          -1.2547115142353238
        ],
        "type": "Point"
      },
      "properties": {
        "anchor_kind": null,
        "anchor_name": null,
        "archetype": "interchange",
        "chainage_m": 9233.4,
        "corridor_offset_m": 0.488,
        "id": "line-4-1137-1215-s009233",
        "junction_group": 1,
        "line": "line-4",
        "platform_length_m": 121.0
      },
      "type": "Feature"
    },
    {
      "geometry": {
        "coordinates": [
          36.86268291256581,
          -1.2550714465680453
        ],
        "type": "Point"
      },
      "properties": {
        "anchor_kind": null,
        "anchor_name": null,
        "archetype": "interchange",
        "chainage_m": 9889.9,
        "corridor_offset_m": 0.461,
        "id": "line-4-1139-1183-s009890",
        "junction_group": 1,
        "line": "line-4",
        "platform_length_m": 121.0
      },
      "type": "Feature"
    },
    {
      "geometry": {
        "coordinates": [
          36.860706138558015,
          -1.2552514127344059
        ],
        "type": "Point"
      },
      "properties": {
        "anchor_kind": "amenity:hospital",
        "anchor_name": "SINAI CHEMIST",
        "archetype": "interchange",
        "chainage_m": 10118.2,
        "corridor_offset_m": 0.484,
        "id": "line-4-1140-1172-s010118",
        "junction_group": 1,
        "line": "line-4",
        "platform_length_m": 121.0
      },
      "type": "Feature"
    },
    {
      "geometry": {
        "coordinates": [
          36.83410954281679,
          -1.2572310405643738
        ],
        "type": "Point"
      },
      "properties": {
        "anchor_kind": "amenity:hospital",
        "anchor_name": "Gertrude's Children Hospital",
        "archetype": "standard",
        "chainage_m": 13169.4,
        "corridor_offset_m": 0.709,
        "id": "line-4-1151-1024-s013169",
        "junction_group": null,
        "line": "line-4",
        "platform_length_m": 121.0
      },
      "type": "Feature"
    },
    {
      "geometry": {
        "coordinates": [
          36.81613887001866,
          -1.258490803728899
        ],
        "type": "Point"
      },
      "properties": {
        "anchor_kind": null,
        "anchor_name": null,
        "archetype": "interchange",
        "chainage_m": 15227.4,
        "corridor_offset_m": 0.832,
        "id": "line-4-1158-0924-s015227",
        "junction_group": 15,
        "line": "line-4",
        "platform_length_m": 121.0
      },
      "type": "Feature"
    },
    {
      "geometry": {
        "coordinates": [
          36.800863798140256,
          -1.2597505668934241
        ],
        "type": "Point"
      },
      "properties": {
        "anchor_kind": "amenity:hospital",
        "anchor_name": "Dental Surgeons - Vinayak & Popat",
        "archetype": "interchange",
        "chainage_m": 16985.3,
        "corridor_offset_m": 0.814,
        "id": "line-4-1165-0839-s016985",
        "junction_group": 16,
        "line": "line-4",
        "platform_length_m": 121.0
      },
      "type": "Feature"
    },
    {
      "geometry": {
        "coordinates": [
          36.791698755013215,
          -1.2602904653925062
        ],
        "type": "Point"
      },
      "properties": {
        "anchor_kind": null,
        "anchor_name": null,
        "archetype": "interchange",
        "chainage_m": 18030.2,
        "corridor_offset_m": 0.932,
        "id": "line-4-1168-0788-s018030",
        "junction_group": 16,
        "line": "line-4",
        "platform_length_m": 121.0
      },
      "type": "Feature"
    },
    {
      "geometry": {
        "coordinates": [
          36.756476236328886,
          -1.2629899578879171
        ],
        "type": "Point"
      },
      "properties": {
        "anchor_kind": "amenity:university",
        "anchor_name": "JKUAT Westlands Campus",
        "archetype": "standard",
        "chainage_m": 22074.5,
        "corridor_offset_m": 1.16,
        "id": "line-4-1183-0592-s022074",
        "junction_group": null,
        "line": "line-4",
        "platform_length_m": 121.0
      },
      "type": "Feature"
    },
    {
      "geometry": {
        "coordinates": [
          36.73598966933903,
          -1.264429687218803
        ],
        "type": "Point"
      },
      "properties": {
        "anchor_kind": null,
        "anchor_name": null,
        "archetype": "interchange",
        "chainage_m": 24420.7,
        "corridor_offset_m": 1.214,
        "id": "line-4-1191-0478-s024421",
        "junction_group": 17,
        "line": "line-4",
        "platform_length_m": 121.0
      },
      "type": "Feature"
    },
    {
      "geometry": {
        "coordinates": [
          36.71047131396569,
          -1.2543515819026023
        ],
        "type": "Point"
      },
      "properties": {
        "anchor_kind": "amenity:hospital",
        "anchor_name": "CS Douglas Medical Center",
        "archetype": "terminal",
        "chainage_m": 28060.4,
        "corridor_offset_m": 0.0,
        "id": "line-4-1135-0336-s028060",
        "junction_group": null,
        "line": "line-4",
        "platform_length_m": 121.0
      },
      "type": "Feature"
    },
    {
      "geometry": {
        "coordinates": [
          36.94013651232573,
          -1.156090055069647
        ],
        "type": "Point"
      },
      "properties": {
        "anchor_kind": null,
        "anchor_name": null,
        "archetype": "terminal",
        "chainage_m": 0.0,
        "corridor_offset_m": 0.0,
        "id": "line-5-0589-1614-s000000",
        "junction_group": 18,
        "line": "line-5",
        "platform_length_m": 121.0
      },
      "type": "Feature"
    },
    {
      "geometry": {
        "coordinates": [
          36.91803258478404,
          -1.1733668070402765
        ],
        "type": "Point"
      },
      "properties": {
        "anchor_kind": null,
        "anchor_name": null,
        "archetype": "standard",
        "chainage_m": 3501.3,
        "corridor_offset_m": 0.159,
        "id": "line-5-0685-1491-s003501",
        "junction_group": null,
        "line": "line-5",
        "platform_length_m": 121.0
      },
      "type": "Feature"
    },
    {
      "geometry": {
        "coordinates": [
          36.895209830330415,
          -1.1902836266781844
        ],
        "type": "Point"
      },
      "properties": {
        "anchor_kind": null,
        "anchor_name": null,
        "archetype": "standard",
        "chainage_m": 7019.2,
        "corridor_offset_m": 0.187,
        "id": "line-5-0779-1364-s007019",
        "junction_group": null,
        "line": "line-5",
        "platform_length_m": 121.0
      },
      "type": "Feature"
    },
    {
      "geometry": {
        "coordinates": [
          36.87220736914882,
          -1.2072004463160926
        ],
        "type": "Point"
      },
      "properties": {
        "anchor_kind": "place:suburb",
        "anchor_name": "Marurui",
        "archetype": "standard",
        "chainage_m": 10639.1,
        "corridor_offset_m": 0.226,
        "id": "line-5-0873-1236-s010639",
        "junction_group": null,
        "line": "line-5",
        "platform_length_m": 121.0
      },
      "type": "Feature"
    },
    {
      "geometry": {
        "coordinates": [
          36.84830637432731,
          -1.2248371306194437
        ],
        "type": "Point"
      },
      "properties": {
        "anchor_kind": null,
        "anchor_name": null,
        "archetype": "interchange",
        "chainage_m": 14286.7,
        "corridor_offset_m": 0.249,
        "id": "line-5-0971-1103-s014287",
        "junction_group": 13,
        "line": "line-5",
        "platform_length_m": 121.0
      },
      "type": "Feature"
    },
    {
      "geometry": {
        "coordinates": [
          36.836805143736505,
          -1.2332955404383976
        ],
        "type": "Point"
      },
      "properties": {
        "anchor_kind": null,
        "anchor_name": null,
        "archetype": "interchange",
        "chainage_m": 16067.4,
        "corridor_offset_m": 14.14,
        "id": "line-5-1018-1039-s016067",
        "junction_group": 19,
        "line": "line-5",
        "platform_length_m": 121.0
      },
      "type": "Feature"
    },
    {
      "geometry": {
        "coordinates": [
          36.81937359112233,
          -1.246073138250009
        ],
        "type": "Point"
      },
      "properties": {
        "anchor_kind": null,
        "anchor_name": null,
        "archetype": "interchange",
        "chainage_m": 18718.6,
        "corridor_offset_m": 0.234,
        "id": "line-5-1089-0942-s018719",
        "junction_group": 20,
        "line": "line-5",
        "platform_length_m": 121.0
      },
      "type": "Feature"
    },
    {
      "geometry": {
        "coordinates": [
          36.800863798140256,
          -1.2597505668934241
        ],
        "type": "Point"
      },
      "properties": {
        "anchor_kind": "amenity:hospital",
        "anchor_name": "Dental Surgeons - Vinayak & Popat",
        "archetype": "interchange",
        "chainage_m": 21583.9,
        "corridor_offset_m": 0.305,
        "id": "line-5-1165-0839-s021584",
        "junction_group": 16,
        "line": "line-5",
        "platform_length_m": 121.0
      },
      "type": "Feature"
    },
    {
      "geometry": {
        "coordinates": [
          36.79529288957284,
          -1.26370982255336
        ],
        "type": "Point"
      },
      "properties": {
        "anchor_kind": null,
        "anchor_name": null,
        "archetype": "interchange",
        "chainage_m": 22456.5,
        "corridor_offset_m": 0.249,
        "id": "line-5-1187-0808-s022456",
        "junction_group": 16,
        "line": "line-5",
        "platform_length_m": 121.0
      },
      "type": "Feature"
    },
    {
      "geometry": {
        "coordinates": [
          36.77354837548711,
          -1.2797268113594644
        ],
        "type": "Point"
      },
      "properties": {
        "anchor_kind": null,
        "anchor_name": null,
        "archetype": "interchange",
        "chainage_m": 25812.9,
        "corridor_offset_m": 0.346,
        "id": "line-5-1276-0687-s025813",
        "junction_group": 9,
        "line": "line-5",
        "platform_length_m": 121.0
      },
      "type": "Feature"
    },
    {
      "geometry": {
        "coordinates": [
          36.753960342137155,
          -1.2943040708346831
        ],
        "type": "Point"
      },
      "properties": {
        "anchor_kind": "place:neighbourhood",
        "anchor_name": "Wanye",
        "archetype": "interchange",
        "chainage_m": 28857.3,
        "corridor_offset_m": 14.142,
        "id": "line-5-1357-0578-s028857",
        "junction_group": 21,
        "line": "line-5",
        "platform_length_m": 121.0
      },
      "type": "Feature"
    },
    {
      "geometry": {
        "coordinates": [
          36.71334662161339,
          -1.3203991649569882
        ],
        "type": "Point"
      },
      "properties": {
        "anchor_kind": null,
        "anchor_name": null,
        "archetype": "halt",
        "chainage_m": 35168.1,
        "corridor_offset_m": 0.15,
        "id": "line-5-1502-0352-s035168",
        "junction_group": null,
        "line": "line-5",
        "platform_length_m": 117.0
      },
      "type": "Feature"
    },
    {
      "geometry": {
        "coordinates": [
          36.68441383840841,
          -1.3279577439441386
        ],
        "type": "Point"
      },
      "properties": {
        "anchor_kind": "public_transport:station",
        "anchor_name": "Kcb Community",
        "archetype": "halt",
        "chainage_m": 39562.7,
        "corridor_offset_m": 0.784,
        "id": "line-5-1544-0191-s039563",
        "junction_group": null,
        "line": "line-5",
        "platform_length_m": 117.0
      },
      "type": "Feature"
    },
    {
      "geometry": {
        "coordinates": [
          36.66302873777864,
          -1.3502735485728683
        ],
        "type": "Point"
      },
      "properties": {
        "anchor_kind": "place:suburb",
        "anchor_name": "Shade zone",
        "archetype": "terminal",
        "chainage_m": 43935.5,
        "corridor_offset_m": 0.0,
        "id": "line-5-1668-0072-s043935",
        "junction_group": null,
        "line": "line-5",
        "platform_length_m": 121.0
      },
      "type": "Feature"
    },
    {
      "geometry": {
        "coordinates": [
          36.99512677108799,
          -1.4442158874131663
        ],
        "type": "Point"
      },
      "properties": {
        "anchor_kind": "shop:mall",
        "anchor_name": "Jasu Tower",
        "archetype": "terminal",
        "chainage_m": 0.0,
        "corridor_offset_m": 0.0,
        "id": "line-6-2190-1920-s000000",
        "junction_group": null,
        "line": "line-6",
        "platform_length_m": 121.0
      },
      "type": "Feature"
    },
    {
      "geometry": {
        "coordinates": [
          36.974460497370146,
          -1.4364773422596553
        ],
        "type": "Point"
      },
      "properties": {
        "anchor_kind": "amenity:bus_station",
        "anchor_name": "Namanga Junction",
        "archetype": "halt",
        "chainage_m": 3502.3,
        "corridor_offset_m": 0.575,
        "id": "line-6-2147-1805-s003502",
        "junction_group": null,
        "line": "line-6",
        "platform_length_m": 117.0
      },
      "type": "Feature"
    },
    {
      "geometry": {
        "coordinates": [
          36.95415363710826,
          -1.42028038728719
        ],
        "type": "Point"
      },
      "properties": {
        "anchor_kind": null,
        "anchor_name": null,
        "archetype": "halt",
        "chainage_m": 7011.6,
        "corridor_offset_m": 0.721,
        "id": "line-6-2057-1692-s007012",
        "junction_group": null,
        "line": "line-6",
        "platform_length_m": 117.0
      },
      "type": "Feature"
    },
    {
      "geometry": {
        "coordinates": [
          36.92629909427117,
          -1.3886063420077026
        ],
        "type": "Point"
      },
      "properties": {
        "anchor_kind": null,
        "anchor_name": null,
        "archetype": "interchange",
        "chainage_m": 12588.9,
        "corridor_offset_m": 0.08,
        "id": "line-6-1881-1537-s012589",
        "junction_group": 14,
        "line": "line-6",
        "platform_length_m": 121.0
      },
      "type": "Feature"
    },
    {
      "geometry": {
        "coordinates": [
          36.925580267359244,
          -1.3878864773422597
        ],
        "type": "Point"
      },
      "properties": {
        "anchor_kind": null,
        "anchor_name": null,
        "archetype": "interchange",
        "chainage_m": 12702.1,
        "corridor_offset_m": 0.137,
        "id": "line-6-1877-1533-s012702",
        "junction_group": 14,
        "line": "line-6",
        "platform_length_m": 121.0
      },
      "type": "Feature"
    },
    {
      "geometry": {
        "coordinates": [
          36.91785287805605,
          -1.3805078645214701
        ],
        "type": "Point"
      },
      "properties": {
        "anchor_kind": null,
        "anchor_name": null,
        "archetype": "standard",
        "chainage_m": 14018.9,
        "corridor_offset_m": 0.09,
        "id": "line-6-1836-1490-s014019",
        "junction_group": null,
        "line": "line-6",
        "platform_length_m": 121.0
      },
      "type": "Feature"
    },
    {
      "geometry": {
        "coordinates": [
          36.897725724522154,
          -1.3614314508872332
        ],
        "type": "Point"
      },
      "properties": {
        "anchor_kind": null,
        "anchor_name": null,
        "archetype": "standard",
        "chainage_m": 17523.6,
        "corridor_offset_m": 0.041,
        "id": "line-6-1730-1378-s017524",
        "junction_group": null,
        "line": "line-6",
        "platform_length_m": 121.0
      },
      "type": "Feature"
    },
    {
      "geometry": {
        "coordinates": [
          36.87777827771623,
          -1.3423550372529964
        ],
        "type": "Point"
      },
      "properties": {
        "anchor_kind": null,
        "anchor_name": null,
        "archetype": "standard",
        "chainage_m": 21020.1,
        "corridor_offset_m": 0.104,
        "id": "line-6-1624-1267-s021020",
        "junction_group": null,
        "line": "line-6",
        "platform_length_m": 121.0
      },
      "type": "Feature"
    },
    {
      "geometry": {
        "coordinates": [
          36.85172080215895,
          -1.3175197062952164
        ],
        "type": "Point"
      },
      "properties": {
        "anchor_kind": null,
        "anchor_name": null,
        "archetype": "standard",
        "chainage_m": 25496.8,
        "corridor_offset_m": 0.228,
        "id": "line-6-1486-1122-s025497",
        "junction_group": null,
        "line": "line-6",
        "platform_length_m": 121.0
      },
      "type": "Feature"
    },
    {
      "geometry": {
        "coordinates": [
          36.83446895627275,
          -1.30096281899003
        ],
        "type": "Point"
      },
      "properties": {
        "anchor_kind": null,
        "anchor_name": null,
        "archetype": "standard",
        "chainage_m": 28507.0,
        "corridor_offset_m": 0.309,
        "id": "line-6-1394-1026-s028507",
        "junction_group": null,
        "line": "line-6",
        "platform_length_m": 121.0
      },
      "type": "Feature"
    },
    {
      "geometry": {
        "coordinates": [
          36.827280687153504,
          -1.2941241046683225
        ],
        "type": "Point"
      },
      "properties": {
        "anchor_kind": "amenity:marketplace",
        "anchor_name": "City Council Stalls",
        "archetype": "interchange",
        "chainage_m": 29750.7,
        "corridor_offset_m": 0.315,
        "id": "line-6-1356-0986-s029751",
        "junction_group": 3,
        "line": "line-6",
        "platform_length_m": 121.0
      },
      "type": "Feature"
    },
    {
      "geometry": {
        "coordinates": [
          36.81146649509115,
          -1.2790069466940215
        ],
        "type": "Point"
      },
      "properties": {
        "anchor_kind": "amenity:hospital",
        "anchor_name": "Student's Clinic",
        "archetype": "interchange",
        "chainage_m": 32464.3,
        "corridor_offset_m": 0.412,
        "id": "line-6-1272-0898-s032464",
        "junction_group": 8,
        "line": "line-6",
        "platform_length_m": 121.0
      },
      "type": "Feature"
    },
    {
      "geometry": {
        "coordinates": [
          36.81092737490721,
          -1.2786470143613
        ],
        "type": "Point"
      },
      "properties": {
        "anchor_kind": "amenity:hospital",
        "anchor_name": "Student's Clinic",
        "archetype": "interchange",
        "chainage_m": 32540.9,
        "corridor_offset_m": 0.368,
        "id": "line-6-1270-0895-s032541",
        "junction_group": 8,
        "line": "line-6",
        "platform_length_m": 121.0
      },
      "type": "Feature"
    },
    {
      "geometry": {
        "coordinates": [
          36.79529288957284,
          -1.26370982255336
        ],
        "type": "Point"
      },
      "properties": {
        "anchor_kind": null,
        "anchor_name": null,
        "archetype": "interchange",
        "chainage_m": 35261.3,
        "corridor_offset_m": 0.528,
        "id": "line-6-1187-0808-s035261",
        "junction_group": 16,
        "line": "line-6",
        "platform_length_m": 121.0
      },
      "type": "Feature"
    },
    {
      "geometry": {
        "coordinates": [
          36.791698755013215,
          -1.2602904653925062
        ],
        "type": "Point"
      },
      "properties": {
        "anchor_kind": null,
        "anchor_name": null,
        "archetype": "interchange",
        "chainage_m": 35877.3,
        "corridor_offset_m": 0.523,
        "id": "line-6-1168-0788-s035877",
        "junction_group": 16,
        "line": "line-6",
        "platform_length_m": 121.0
      },
      "type": "Feature"
    },
    {
      "geometry": {
        "coordinates": [
          36.75953125070457,
          -1.2296962171111832
        ],
        "type": "Point"
      },
      "properties": {
        "anchor_kind": null,
        "anchor_name": null,
        "archetype": "interchange",
        "chainage_m": 41474.9,
        "corridor_offset_m": 0.603,
        "id": "line-6-0998-0609-s041475",
        "junction_group": 22,
        "line": "line-6",
        "platform_length_m": 121.0
      },
      "type": "Feature"
    },
    {
      "geometry": {
        "coordinates": [
          36.738864976986726,
          -1.2098999388115035
        ],
        "type": "Point"
      },
      "properties": {
        "anchor_kind": null,
        "anchor_name": null,
        "archetype": "halt",
        "chainage_m": 45025.9,
        "corridor_offset_m": 0.728,
        "id": "line-6-0888-0494-s045026",
        "junction_group": null,
        "line": "line-6",
        "platform_length_m": 117.0
      },
      "type": "Feature"
    },
    {
      "geometry": {
        "coordinates": [
          36.72646521275602,
          -1.1904635928445453
        ],
        "type": "Point"
      },
      "properties": {
        "anchor_kind": null,
        "anchor_name": null,
        "archetype": "halt",
        "chainage_m": 48567.6,
        "corridor_offset_m": 1.196,
        "id": "line-6-0780-0425-s048568",
        "junction_group": null,
        "line": "line-6",
        "platform_length_m": 117.0
      },
      "type": "Feature"
    },
    {
      "geometry": {
        "coordinates": [
          36.696633895911134,
          -1.1681477882158156
        ],
        "type": "Point"
      },
      "properties": {
        "anchor_kind": null,
        "anchor_name": null,
        "archetype": "halt",
        "chainage_m": 52996.8,
        "corridor_offset_m": 0.775,
        "id": "line-6-0656-0259-s052997",
        "junction_group": null,
        "line": "line-6",
        "platform_length_m": 117.0
      },
      "type": "Feature"
    },
    {
      "geometry": {
        "coordinates": [
          36.668060526162115,
          -1.1503311377461038
        ],
        "type": "Point"
      },
      "properties": {
        "anchor_kind": "place:suburb",
        "anchor_name": "Kabuku",
        "archetype": "depot-terminal",
        "chainage_m": 57418.7,
        "corridor_offset_m": 0.0,
        "id": "line-6-0557-0100-s057419",
        "junction_group": null,
        "line": "line-6",
        "platform_length_m": 121.0
      },
      "type": "Feature"
    },
    {
      "geometry": {
        "coordinates": [
          36.687109439328125,
          -1.0974210848360508
        ],
        "type": "Point"
      },
      "properties": {
        "anchor_kind": "shop:mall",
        "anchor_name": "Jomaris Shopping Centre",
        "archetype": "terminal",
        "chainage_m": 0.0,
        "corridor_offset_m": 0.0,
        "id": "line-7-0263-0206-s000000",
        "junction_group": null,
        "line": "line-7",
        "platform_length_m": 121.0
      },
      "type": "Feature"
    },
    {
      "geometry": {
        "coordinates": [
          36.7065177659501,
          -1.115597667638484
        ],
        "type": "Point"
      },
      "properties": {
        "anchor_kind": null,
        "anchor_name": null,
        "archetype": "halt",
        "chainage_m": 3500.5,
        "corridor_offset_m": 0.036,
        "id": "line-7-0364-0314-s003500",
        "junction_group": null,
        "line": "line-7",
        "platform_length_m": 117.0
      },
      "type": "Feature"
    },
    {
      "geometry": {
        "coordinates": [
          36.7237696118363,
          -1.1328744196091136
        ],
        "type": "Point"
      },
      "properties": {
        "anchor_kind": null,
        "anchor_name": null,
        "archetype": "halt",
        "chainage_m": 7000.7,
        "corridor_offset_m": 0.245,
        "id": "line-7-0460-0410-s007001",
        "junction_group": null,
        "line": "line-7",
        "platform_length_m": 117.0
      },
      "type": "Feature"
    },
    {
      "geometry": {
        "coordinates": [
          36.74479529901011,
          -1.148171543749775
        ],
        "type": "Point"
      },
      "properties": {
        "anchor_kind": null,
        "anchor_name": null,
        "archetype": "halt",
        "chainage_m": 10501.8,
        "corridor_offset_m": 0.152,
        "id": "line-7-0545-0527-s010502",
        "junction_group": null,
        "line": "line-7",
        "platform_length_m": 117.0
      },
      "type": "Feature"
    },
    {
      "geometry": {
        "coordinates": [
          36.76546157272795,
          -1.1674279235503726
        ],
        "type": "Point"
      },
      "properties": {
        "anchor_kind": null,
        "anchor_name": null,
        "archetype": "halt",
        "chainage_m": 14028.0,
        "corridor_offset_m": 0.147,
        "id": "line-7-0652-0642-s014028",
        "junction_group": null,
        "line": "line-7",
        "platform_length_m": 117.0
      },
      "type": "Feature"
    },
    {
      "geometry": {
        "coordinates": [
          36.79331611556505,
          -1.1931630853399562
        ],
        "type": "Point"
      },
      "properties": {
        "anchor_kind": null,
        "anchor_name": null,
        "archetype": "interchange",
        "chainage_m": 18769.5,
        "corridor_offset_m": 0.06,
        "id": "line-7-0795-0797-s018770",
        "junction_group": 23,
        "line": "line-7",
        "platform_length_m": 121.0
      },
      "type": "Feature"
    },
    {
      "geometry": {
        "coordinates": [
          36.80679412016364,
          -1.205580750818846
        ],
        "type": "Point"
      },
      "properties": {
        "anchor_kind": null,
        "anchor_name": null,
        "archetype": "standard",
        "chainage_m": 21052.0,
        "corridor_offset_m": 0.055,
        "id": "line-7-0864-0872-s021052",
        "junction_group": null,
        "line": "line-7",
        "platform_length_m": 121.0
      },
      "type": "Feature"
    },
    {
      "geometry": {
        "coordinates": [
          36.82530391314571,
          -1.2226775366231148
        ],
        "type": "Point"
      },
      "properties": {
        "anchor_kind": null,
        "anchor_name": null,
        "archetype": "interchange",
        "chainage_m": 24180.2,
        "corridor_offset_m": 0.058,
        "id": "line-7-0959-0975-s024180",
        "junction_group": 24,
        "line": "line-7",
        "platform_length_m": 121.0
      },
      "type": "Feature"
    },
    {
      "geometry": {
        "coordinates": [
          36.836805143736505,
          -1.2332955404383976
        ],
        "type": "Point"
      },
      "properties": {
        "anchor_kind": null,
        "anchor_name": null,
        "archetype": "interchange",
        "chainage_m": 26122.3,
        "corridor_offset_m": 14.069,
        "id": "line-7-1018-1039-s026122",
        "junction_group": 19,
        "line": "line-7",
        "platform_length_m": 121.0
      },
      "type": "Feature"
    },
    {
      "geometry": {
        "coordinates": [
          36.84812666759933,
          -1.2437335780873195
        ],
        "type": "Point"
      },
      "properties": {
        "anchor_kind": null,
        "anchor_name": null,
        "archetype": "standard",
        "chainage_m": 28064.4,
        "corridor_offset_m": 0.079,
        "id": "line-7-1076-1102-s028064",
        "junction_group": null,
        "line": "line-7",
        "platform_length_m": 121.0
      },
      "type": "Feature"
    },
    {
      "geometry": {
        "coordinates": [
          36.860706138558015,
          -1.2552514127344059
        ],
        "type": "Point"
      },
      "properties": {
        "anchor_kind": "amenity:hospital",
        "anchor_name": "SINAI CHEMIST",
        "archetype": "interchange",
        "chainage_m": 30182.0,
        "corridor_offset_m": 0.035,
        "id": "line-7-1140-1172-s030182",
        "junction_group": 1,
        "line": "line-7",
        "platform_length_m": 121.0
      },
      "type": "Feature"
    },
    {
      "geometry": {
        "coordinates": [
          36.86430027311764,
          -1.2586707698952597
        ],
        "type": "Point"
      },
      "properties": {
        "anchor_kind": "amenity:hospital",
        "anchor_name": "Total community Development Health Care",
        "archetype": "interchange",
        "chainage_m": 30809.7,
        "corridor_offset_m": 0.027,
        "id": "line-7-1159-1192-s030810",
        "junction_group": 1,
        "line": "line-7",
        "platform_length_m": 121.0
      },
      "type": "Feature"
    },
    {
      "geometry": {
        "coordinates": [
          36.884966546835486,
          -1.2777471835294965
        ],
        "type": "Point"
      },
      "properties": {
        "anchor_kind": null,
        "anchor_name": null,
        "archetype": "interchange",
        "chainage_m": 34304.2,
        "corridor_offset_m": 0.055,
        "id": "line-7-1265-1307-s034304",
        "junction_group": 6,
        "line": "line-7",
        "platform_length_m": 121.0
      },
      "type": "Feature"
    },
    {
      "geometry": {
        "coordinates": [
          36.9011401523538,
          -1.2928643415037973
        ],
        "type": "Point"
      },
      "properties": {
        "anchor_kind": null,
        "anchor_name": null,
        "archetype": "standard",
        "chainage_m": 37093.0,
        "corridor_offset_m": 0.052,
        "id": "line-7-1349-1397-s037093",
        "junction_group": null,
        "line": "line-7",
        "platform_length_m": 121.0
      },
      "type": "Feature"
    },
    {
      "geometry": {
        "coordinates": [
          36.91911082515192,
          -1.3092412626426233
        ],
        "type": "Point"
      },
      "properties": {
        "anchor_kind": null,
        "anchor_name": null,
        "archetype": "standard",
        "chainage_m": 40104.6,
        "corridor_offset_m": 0.046,
        "id": "line-7-1440-1497-s040105",
        "junction_group": null,
        "line": "line-7",
        "platform_length_m": 121.0
      },
      "type": "Feature"
    },
    {
      "geometry": {
        "coordinates": [
          36.95181744964451,
          -1.339475578591225
        ],
        "type": "Point"
      },
      "properties": {
        "anchor_kind": null,
        "anchor_name": null,
        "archetype": "interchange",
        "chainage_m": 45675.3,
        "corridor_offset_m": 0.037,
        "id": "line-7-1608-1679-s045675",
        "junction_group": 25,
        "line": "line-7",
        "platform_length_m": 121.0
      },
      "type": "Feature"
    },
    {
      "geometry": {
        "coordinates": [
          36.96655340133897,
          -1.3531530072346398
        ],
        "type": "Point"
      },
      "properties": {
        "anchor_kind": "place:suburb",
        "anchor_name": "Katani",
        "archetype": "terminal",
        "chainage_m": 48179.2,
        "corridor_offset_m": 0.0,
        "id": "line-7-1684-1761-s048179",
        "junction_group": null,
        "line": "line-7",
        "platform_length_m": 121.0
      },
      "type": "Feature"
    },
    {
      "geometry": {
        "coordinates": [
          36.78235400515819,
          -1.3907659360040312
        ],
        "type": "Point"
      },
      "properties": {
        "anchor_kind": "tourism:attraction",
        "anchor_name": "AIC Diguna Ropes Challenge",
        "archetype": "terminal",
        "chainage_m": 0.0,
        "corridor_offset_m": 0.0,
        "id": "line-8-1893-0736-s000000",
        "junction_group": null,
        "line": "line-8",
        "platform_length_m": 121.0
      },
      "type": "Feature"
    },
    {
      "geometry": {
        "coordinates": [
          36.786127846445794,
          -1.3760087103624519
        ],
        "type": "Point"
      },
      "properties": {
        "anchor_kind": null,
        "anchor_name": null,
        "archetype": "interchange",
        "chainage_m": 1814.0,
        "corridor_offset_m": 0.16,
        "id": "line-8-1811-0757-s001814",
        "junction_group": 26,
        "line": "line-8",
        "platform_length_m": 121.0
      },
      "type": "Feature"
    },
    {
      "geometry": {
        "coordinates": [
          36.79691025012467,
          -1.334076593600403
        ],
        "type": "Point"
      },
      "properties": {
        "anchor_kind": null,
        "anchor_name": null,
        "archetype": "standard",
        "chainage_m": 7017.9,
        "corridor_offset_m": 0.69,
        "id": "line-8-1578-0817-s007018",
        "junction_group": null,
        "line": "line-8",
        "platform_length_m": 121.0
      },
      "type": "Feature"
    },
    {
      "geometry": {
        "coordinates": [
          36.80302027887603,
          -1.3096011949753446
        ],
        "type": "Point"
      },
      "properties": {
        "anchor_kind": "amenity:hospital",
        "anchor_name": "Mbagathi County Referral Hospital",
        "archetype": "standard",
        "chainage_m": 10019.6,
        "corridor_offset_m": 0.988,
        "id": "line-8-1442-0851-s010020",
        "junction_group": null,
        "line": "line-8",
        "platform_length_m": 121.0
      },
      "type": "Feature"
    },
    {
      "geometry": {
        "coordinates": [
          36.80697382689162,
          -1.2944840370010438
        ],
        "type": "Point"
      },
      "properties": {
        "anchor_kind": "amenity:hospital",
        "anchor_name": "Frontline Medical Consultants limited",
        "archetype": "standard",
        "chainage_m": 11905.2,
        "corridor_offset_m": 1.247,
        "id": "line-8-1358-0873-s011905",
        "junction_group": null,
        "line": "line-8",
        "platform_length_m": 121.0
      },
      "type": "Feature"
    },
    {
      "geometry": {
        "coordinates": [
          36.81092737490721,
          -1.2790069466940215
        ],
        "type": "Point"
      },
      "properties": {
        "anchor_kind": "amenity:hospital",
        "anchor_name": "Student's Clinic",
        "archetype": "interchange",
        "chainage_m": 13807.5,
        "corridor_offset_m": 1.4,
        "id": "line-8-1272-0895-s013807",
        "junction_group": 8,
        "line": "line-8",
        "platform_length_m": 121.0
      },
      "type": "Feature"
    },
    {
      "geometry": {
        "coordinates": [
          36.81613887001866,
          -1.258490803728899
        ],
        "type": "Point"
      },
      "properties": {
        "anchor_kind": null,
        "anchor_name": null,
        "archetype": "interchange",
        "chainage_m": 16327.7,
        "corridor_offset_m": 1.712,
        "id": "line-8-1158-0924-s016328",
        "junction_group": 15,
        "line": "line-8",
        "platform_length_m": 121.0
      },
      "type": "Feature"
    },
    {
      "geometry": {
        "coordinates": [
          36.81937359112233,
          -1.246073138250009
        ],
        "type": "Point"
      },
      "properties": {
        "anchor_kind": null,
        "anchor_name": null,
        "archetype": "interchange",
        "chainage_m": 17856.9,
        "corridor_offset_m": 1.782,
        "id": "line-8-1089-0942-s017857",
        "junction_group": 20,
        "line": "line-8",
        "platform_length_m": 121.0
      },
      "type": "Feature"
    },
    {
      "geometry": {
        "coordinates": [
          36.82530391314571,
          -1.2226775366231148
        ],
        "type": "Point"
      },
      "properties": {
        "anchor_kind": null,
        "anchor_name": null,
        "archetype": "interchange",
        "chainage_m": 20753.7,
        "corridor_offset_m": 2.091,
        "id": "line-8-0959-0975-s020754",
        "junction_group": 24,
        "line": "line-8",
        "platform_length_m": 121.0
      },
      "type": "Feature"
    },
    {
      "geometry": {
        "coordinates": [
          36.8330313024489,
          -1.1924432206745132
        ],
        "type": "Point"
      },
      "properties": {
        "anchor_kind": null,
        "anchor_name": null,
        "archetype": "interchange",
        "chainage_m": 24469.9,
        "corridor_offset_m": 2.505,
        "id": "line-8-0791-1018-s024470",
        "junction_group": 12,
        "line": "line-8",
        "platform_length_m": 121.0
      },
      "type": "Feature"
    },
    {
      "geometry": {
        "coordinates": [
          36.83824279756036,
          -1.17174711154303
        ],
        "type": "Point"
      },
      "properties": {
        "anchor_kind": null,
        "anchor_name": null,
        "archetype": "interchange",
        "chainage_m": 27021.8,
        "corridor_offset_m": 2.835,
        "id": "line-8-0676-1047-s027022",
        "junction_group": 27,
        "line": "line-8",
        "platform_length_m": 121.0
      },
      "type": "Feature"
    },
    {
      "geometry": {
        "coordinates": [
          36.846329600319514,
          -1.1393532015980996
        ],
        "type": "Point"
      },
      "properties": {
        "anchor_kind": null,
        "anchor_name": null,
        "archetype": "halt",
        "chainage_m": 31029.8,
        "corridor_offset_m": 3.197,
        "id": "line-8-0496-1092-s031030",
        "junction_group": null,
        "line": "line-8",
        "platform_length_m": 117.0
      },
      "type": "Feature"
    },
    {
      "geometry": {
        "coordinates": [
          36.850822268519046,
          -1.1172173631357305
        ],
        "type": "Point"
      },
      "properties": {
        "anchor_kind": null,
        "anchor_name": null,
        "archetype": "halt",
        "chainage_m": 35026.6,
        "corridor_offset_m": 1.901,
        "id": "line-8-0373-1117-s035027",
        "junction_group": null,
        "line": "line-8",
        "platform_length_m": 117.0
      },
      "type": "Feature"
    },
    {
      "geometry": {
        "coordinates": [
          36.86591763366947,
          -1.0936417953424757
        ],
        "type": "Point"
      },
      "properties": {
        "anchor_kind": "amenity:marketplace",
        "anchor_name": "Market",
        "archetype": "terminal",
        "chainage_m": 40353.7,
        "corridor_offset_m": 0.0,
        "id": "line-8-0242-1201-s040354",
        "junction_group": null,
        "line": "line-8",
        "platform_length_m": 121.0
      },
      "type": "Feature"
    },
    {
      "geometry": {
        "coordinates": [
          36.74209969809039,
          -1.2484126984126984
        ],
        "type": "Point"
      },
      "properties": {
        "anchor_kind": "amenity:university",
        "anchor_name": "University of Nairobi Veterinary Laboratory",
        "archetype": "standard",
        "chainage_m": 0.0,
        "corridor_offset_m": 0.0,
        "id": "line-9-1102-0512-s000000",
        "junction_group": null,
        "line": "line-9",
        "platform_length_m": 121.0
      },
      "type": "Feature"
    },
    {
      "geometry": {
        "coordinates": [
          36.75953125070457,
          -1.2296962171111832
        ],
        "type": "Point"
      },
      "properties": {
        "anchor_kind": null,
        "anchor_name": null,
        "archetype": "interchange",
        "chainage_m": 3199.9,
        "corridor_offset_m": 0.171,
        "id": "line-9-0998-0609-s003200",
        "junction_group": 22,
        "line": "line-9",
        "platform_length_m": 121.0
      },
      "type": "Feature"
    },
    {
      "geometry": {
        "coordinates": [
          36.78019752442241,
          -1.2072004463160926
        ],
        "type": "Point"
      },
      "properties": {
        "anchor_kind": "place:town",
        "anchor_name": "Ruaka",
        "archetype": "standard",
        "chainage_m": 7015.8,
        "corridor_offset_m": 0.384,
        "id": "line-9-0873-0724-s007016",
        "junction_group": null,
        "line": "line-9",
        "platform_length_m": 121.0
      },
      "type": "Feature"
    },
    {
      "geometry": {
        "coordinates": [
          36.79331611556505,
          -1.1931630853399562
        ],
        "type": "Point"
      },
      "properties": {
        "anchor_kind": null,
        "anchor_name": null,
        "archetype": "interchange",
        "chainage_m": 9414.8,
        "corridor_offset_m": 0.575,
        "id": "line-9-0795-0797-s009415",
        "junction_group": 23,
        "line": "line-9",
        "platform_length_m": 121.0
      },
      "type": "Feature"
    },
    {
      "geometry": {
        "coordinates": [
          36.824405379505805,
          -1.173006874707555
        ],
        "type": "Point"
      },
      "properties": {
        "anchor_kind": null,
        "anchor_name": null,
        "archetype": "interchange",
        "chainage_m": 14177.6,
        "corridor_offset_m": 0.431,
        "id": "line-9-0683-0970-s014178",
        "junction_group": 11,
        "line": "line-9",
        "platform_length_m": 121.0
      },
      "type": "Feature"
    },
    {
      "geometry": {
        "coordinates": [
          36.83824279756036,
          -1.17174711154303
        ],
        "type": "Point"
      },
      "properties": {
        "anchor_kind": null,
        "anchor_name": null,
        "archetype": "interchange",
        "chainage_m": 15775.6,
        "corridor_offset_m": 1.595,
        "id": "line-9-0676-1047-s015776",
        "junction_group": 27,
        "line": "line-9",
        "platform_length_m": 121.0
      },
      "type": "Feature"
    },
    {
      "geometry": {
        "coordinates": [
          36.8810129988199,
          -1.1622089047259117
        ],
        "type": "Point"
      },
      "properties": {
        "anchor_kind": null,
        "anchor_name": null,
        "archetype": "standard",
        "chainage_m": 21021.5,
        "corridor_offset_m": 4.598,
        "id": "line-9-0623-1285-s021022",
        "junction_group": null,
        "line": "line-9",
        "platform_length_m": 121.0
      },
      "type": "Feature"
    },
    {
      "geometry": {
        "coordinates": [
          36.90976607529689,
          -1.1490713745815788
        ],
        "type": "Point"
      },
      "properties": {
        "anchor_kind": null,
        "anchor_name": null,
        "archetype": "halt",
        "chainage_m": 24884.8,
        "corridor_offset_m": 5.97,
        "id": "line-9-0550-1445-s024885",
        "junction_group": null,
        "line": "line-9",
        "platform_length_m": 117.0
      },
      "type": "Feature"
    },
    {
      "geometry": {
        "coordinates": [
          36.94013651232573,
          -1.156090055069647
        ],
        "type": "Point"
      },
      "properties": {
        "anchor_kind": null,
        "anchor_name": null,
        "archetype": "interchange",
        "chainage_m": 28906.7,
        "corridor_offset_m": 7.579,
        "id": "line-9-0589-1614-s028907",
        "junction_group": 18,
        "line": "line-9",
        "platform_length_m": 121.0
      },
      "type": "Feature"
    },
    {
      "geometry": {
        "coordinates": [
          36.96116219949953,
          -1.1661681603858476
        ],
        "type": "Point"
      },
      "properties": {
        "anchor_kind": null,
        "anchor_name": null,
        "archetype": "interchange",
        "chainage_m": 31769.2,
        "corridor_offset_m": 8.562,
        "id": "line-9-0645-1731-s031769",
        "junction_group": 0,
        "line": "line-9",
        "platform_length_m": 121.0
      },
      "type": "Feature"
    },
    {
      "geometry": {
        "coordinates": [
          36.97499961755409,
          -1.1884839650145773
        ],
        "type": "Point"
      },
      "properties": {
        "anchor_kind": "aeroway:aerodrome",
        "anchor_name": null,
        "archetype": "halt",
        "chainage_m": 35051.2,
        "corridor_offset_m": 7.804,
        "id": "line-9-0769-1808-s035051",
        "junction_group": null,
        "line": "line-9",
        "platform_length_m": 117.0
      },
      "type": "Feature"
    },
    {
      "geometry": {
        "coordinates": [
          36.96835046861879,
          -1.216018788467768
        ],
        "type": "Point"
      },
      "properties": {
        "anchor_kind": null,
        "anchor_name": null,
        "archetype": "standard",
        "chainage_m": 38563.9,
        "corridor_offset_m": 5.898,
        "id": "line-9-0922-1771-s038564",
        "junction_group": null,
        "line": "line-9",
        "platform_length_m": 121.0
      },
      "type": "Feature"
    },
    {
      "geometry": {
        "coordinates": [
          36.966014281155026,
          -1.2458931720836484
        ],
        "type": "Point"
      },
      "properties": {
        "anchor_kind": null,
        "anchor_name": null,
        "archetype": "standard",
        "chainage_m": 42057.9,
        "corridor_offset_m": 3.424,
        "id": "line-9-1088-1758-s042058",
        "junction_group": null,
        "line": "line-9",
        "platform_length_m": 121.0
      },
      "type": "Feature"
    },
    {
      "geometry": {
        "coordinates": [
          36.979671992481606,
          -1.2759475218658893
        ],
        "type": "Point"
      },
      "properties": {
        "anchor_kind": null,
        "anchor_name": null,
        "archetype": "interchange",
        "chainage_m": 46481.2,
        "corridor_offset_m": 2.087,
        "id": "line-9-1255-1834-s046481",
        "junction_group": 5,
        "line": "line-9",
        "platform_length_m": 121.0
      },
      "type": "Feature"
    },
    {
      "geometry": {
        "coordinates": [
          36.97086636281052,
          -1.2944840370010438
        ],
        "type": "Point"
      },
      "properties": {
        "anchor_kind": null,
        "anchor_name": null,
        "archetype": "standard",
        "chainage_m": 49064.3,
        "corridor_offset_m": 1.146,
        "id": "line-9-1358-1785-s049064",
        "junction_group": null,
        "line": "line-9",
        "platform_length_m": 121.0
      },
      "type": "Feature"
    },
    {
      "geometry": {
        "coordinates": [
          36.95181744964451,
          -1.339475578591225
        ],
        "type": "Point"
      },
      "properties": {
        "anchor_kind": null,
        "anchor_name": null,
        "archetype": "interchange",
        "chainage_m": 55223.6,
        "corridor_offset_m": 1.398,
        "id": "line-9-1608-1679-s055224",
        "junction_group": 25,
        "line": "line-9",
        "platform_length_m": 121.0
      },
      "type": "Feature"
    },
    {
      "geometry": {
        "coordinates": [
          36.94678566126103,
          -1.3709696577043515
        ],
        "type": "Point"
      },
      "properties": {
        "anchor_kind": null,
        "anchor_name": null,
        "archetype": "halt",
        "chainage_m": 58967.3,
        "corridor_offset_m": 3.916,
        "id": "line-9-1783-1651-s058967",
        "junction_group": null,
        "line": "line-9",
        "platform_length_m": 117.0
      },
      "type": "Feature"
    },
    {
      "geometry": {
        "coordinates": [
          36.92629909427117,
          -1.3886063420077026
        ],
        "type": "Point"
      },
      "properties": {
        "anchor_kind": null,
        "anchor_name": null,
        "archetype": "interchange",
        "chainage_m": 62716.1,
        "corridor_offset_m": 3.85,
        "id": "line-9-1881-1537-s062716",
        "junction_group": 14,
        "line": "line-9",
        "platform_length_m": 121.0
      },
      "type": "Feature"
    },
    {
      "geometry": {
        "coordinates": [
          36.92575997408723,
          -1.388426375841342
        ],
        "type": "Point"
      },
      "properties": {
        "anchor_kind": null,
        "anchor_name": null,
        "archetype": "interchange",
        "chainage_m": 62784.4,
        "corridor_offset_m": 3.802,
        "id": "line-9-1880-1534-s062784",
        "junction_group": 14,
        "line": "line-9",
        "platform_length_m": 121.0
      },
      "type": "Feature"
    },
    {
      "geometry": {
        "coordinates": [
          36.89754601779417,
          -1.3783482705251413
        ],
        "type": "Point"
      },
      "properties": {
        "anchor_kind": null,
        "anchor_name": null,
        "archetype": "standard",
        "chainage_m": 66446.9,
        "corridor_offset_m": 2.158,
        "id": "line-9-1824-1377-s066447",
        "junction_group": null,
        "line": "line-9",
        "platform_length_m": 121.0
      },
      "type": "Feature"
    },
    {
      "geometry": {
        "coordinates": [
          36.86537851348553,
          -1.3769085411942554
        ],
        "type": "Point"
      },
      "properties": {
        "anchor_kind": null,
        "anchor_name": null,
        "archetype": "standard",
        "chainage_m": 70093.1,
        "corridor_offset_m": 0.591,
        "id": "line-9-1816-1198-s070093",
        "junction_group": null,
        "line": "line-9",
        "platform_length_m": 121.0
      },
      "type": "Feature"
    },
    {
      "geometry": {
        "coordinates": [
          36.8387819177443,
          -1.3851869848468488
        ],
        "type": "Point"
      },
      "properties": {
        "anchor_kind": null,
        "anchor_name": null,
        "archetype": "halt",
        "chainage_m": 73605.9,
        "corridor_offset_m": 2.125,
        "id": "line-9-1862-1050-s073606",
        "junction_group": null,
        "line": "line-9",
        "platform_length_m": 117.0
      },
      "type": "Feature"
    },
    {
      "geometry": {
        "coordinates": [
          36.80948972108336,
          -1.3799679660223878
        ],
        "type": "Point"
      },
      "properties": {
        "anchor_kind": null,
        "anchor_name": null,
        "archetype": "halt",
        "chainage_m": 77106.2,
        "corridor_offset_m": 4.382,
        "id": "line-9-1833-0887-s077106",
        "junction_group": null,
        "line": "line-9",
        "platform_length_m": 117.0
      },
      "type": "Feature"
    },
    {
      "geometry": {
        "coordinates": [
          36.786127846445794,
          -1.3760087103624519
        ],
        "type": "Point"
      },
      "properties": {
        "anchor_kind": null,
        "anchor_name": null,
        "archetype": "interchange",
        "chainage_m": 79900.2,
        "corridor_offset_m": 6.187,
        "id": "line-9-1811-0757-s079900",
        "junction_group": 26,
        "line": "line-9",
        "platform_length_m": 121.0
      },
      "type": "Feature"
    },
    {
      "geometry": {
        "coordinates": [
          36.75809359688072,
          -1.3625112478853976
        ],
        "type": "Point"
      },
      "properties": {
        "anchor_kind": "amenity:university",
        "anchor_name": "Maktabat ul Jamea tus saifiyah - Nairobi",
        "archetype": "interchange",
        "chainage_m": 84818.0,
        "corridor_offset_m": 6.369,
        "id": "line-9-1736-0601-s084818",
        "junction_group": 4,
        "line": "line-9",
        "platform_length_m": 121.0
      },
      "type": "Feature"
    },
    {
      "geometry": {
        "coordinates": [
          36.75809359688072,
          -1.361611417053594
        ],
        "type": "Point"
      },
      "properties": {
        "anchor_kind": "amenity:university",
        "anchor_name": "Maktabat ul Jamea tus saifiyah - Nairobi",
        "archetype": "interchange",
        "chainage_m": 84918.0,
        "corridor_offset_m": 6.283,
        "id": "line-9-1731-0601-s084918",
        "junction_group": 4,
        "line": "line-9",
        "platform_length_m": 121.0
      },
      "type": "Feature"
    },
    {
      "geometry": {
        "coordinates": [
          36.75809359688072,
          -1.3599917215563475
        ],
        "type": "Point"
      },
      "properties": {
        "anchor_kind": null,
        "anchor_name": null,
        "archetype": "interchange",
        "chainage_m": 85098.0,
        "corridor_offset_m": 6.129,
        "id": "line-9-1722-0601-s085098",
        "junction_group": 4,
        "line": "line-9",
        "platform_length_m": 121.0
      },
      "type": "Feature"
    },
    {
      "geometry": {
        "coordinates": [
          36.76186743816833,
          -1.3112208904725913
        ],
        "type": "Point"
      },
      "properties": {
        "anchor_kind": null,
        "anchor_name": null,
        "archetype": "standard",
        "chainage_m": 91141.4,
        "corridor_offset_m": 2.722,
        "id": "line-9-1451-0622-s091141",
        "junction_group": null,
        "line": "line-9",
        "platform_length_m": 121.0
      },
      "type": "Feature"
    },
    {
      "geometry": {
        "coordinates": [
          36.753960342137155,
          -1.2943040708346831
        ],
        "type": "Point"
      },
      "properties": {
        "anchor_kind": "place:neighbourhood",
        "anchor_name": "Wanye",
        "archetype": "interchange",
        "chainage_m": 93517.2,
        "corridor_offset_m": 15.969,
        "id": "line-9-1357-0578-s093517",
        "junction_group": 21,
        "line": "line-9",
        "platform_length_m": 121.0
      },
      "type": "Feature"
    },
    {
      "geometry": {
        "coordinates": [
          36.73688820297893,
          -1.2804466760249074
        ],
        "type": "Point"
      },
      "properties": {
        "anchor_kind": null,
        "anchor_name": null,
        "archetype": "interchange",
        "chainage_m": 96240.1,
        "corridor_offset_m": 2.074,
        "id": "line-9-1280-0483-s096240",
        "junction_group": 10,
        "line": "line-9",
        "platform_length_m": 121.0
      },
      "type": "Feature"
    },
    {
      "geometry": {
        "coordinates": [
          36.73598966933903,
          -1.264429687218803
        ],
        "type": "Point"
      },
      "properties": {
        "anchor_kind": null,
        "anchor_name": null,
        "archetype": "interchange",
        "chainage_m": 98242.9,
        "corridor_offset_m": 0.783,
        "id": "line-9-1191-0478-s098243",
        "junction_group": 17,
        "line": "line-9",
        "platform_length_m": 121.0
      },
      "type": "Feature"
    }
  ],
  "type": "FeatureCollection"
}
