{
  "features": [
    {
      "geometry": {
        "coordinates": [
          30.465619652707172,
          31.06652253536335
        ],
        "type": "Point"
      },
      "properties": {
        "anchor_kind": "place:neighbourhood",
        "anchor_name": "عزب سكنيده",
        "archetype": "terminal",
        "chainage_m": 0.0,
        "corridor_offset_m": 0.0,
        "id": "line-1-0370-0539-s000000",
        "junction_group": null,
        "line": "line-1",
        "platform_length_m": 59.5
      },
      "type": "Feature"
    },
    {
      "geometry": {
        "coordinates": [
          30.4622648529976,
          31.053385005219017
        ],
        "type": "Point"
      },
      "properties": {
        "anchor_kind": null,
        "anchor_name": null,
        "archetype": "standard",
        "chainage_m": 2025.3,
        "corridor_offset_m": 0.612,
        "id": "line-1-0443-0523-s002025",
        "junction_group": null,
        "line": "line-1",
        "platform_length_m": 59.5
      },
      "type": "Feature"
    },
    {
      "geometry": {
        "coordinates": [
          30.464361602816084,
          31.044566663067343
        ],
        "type": "Point"
      },
      "properties": {
        "anchor_kind": "place:neighbourhood",
        "anchor_name": "سكنيده",
        "archetype": "standard",
        "chainage_m": 3557.3,
        "corridor_offset_m": 1.043,
        "id": "line-1-0492-0533-s003557",
        "junction_group": null,
        "line": "line-1",
        "platform_length_m": 59.5
      },
      "type": "Feature"
    },
    {
      "geometry": {
        "coordinates": [
          30.4683454274712,
          31.034308591584782
        ],
        "type": "Point"
      },
      "properties": {
        "anchor_kind": "public_transport:station",
        "anchor_name": "دمنهور",
        "archetype": "interchange-elevated",
        "chainage_m": 5079.0,
        "corridor_offset_m": 15.972,
        "id": "line-1-0549-0552-s005079",
        "junction_group": 0,
        "line": "line-1",
        "platform_length_m": 59.5
      },
      "type": "Feature"
    },
    {
      "geometry": {
        "coordinates": [
          30.472538927108168,
          31.023510621603137
        ],
        "type": "Point"
      },
      "properties": {
        "anchor_kind": "place:neighbourhood",
        "anchor_name": "مساكن الصيانة",
        "archetype": "major",
        "chainage_m": 6444.7,
        "corridor_offset_m": 0.077,
        "id": "line-1-0609-0572-s006445",
        "junction_group": null,
        "line": "line-1",
        "platform_length_m": 59.5
      },
      "type": "Feature"
    },
    {
      "geometry": {
        "coordinates": [
          30.477571126672526,
          31.01235271928877
        ],
        "type": "Point"
      },
      "properties": {
        "anchor_kind": null,
        "anchor_name": null,
        "archetype": "standard",
        "chainage_m": 7916.6,
        "corridor_offset_m": 0.118,
        "id": "line-1-0671-0596-s007917",
        "junction_group": null,
        "line": "line-1",
        "platform_length_m": 59.5
      },
      "type": "Feature"
    },
    {
      "geometry": {
        "coordinates": [
          30.471280877217076,
          31.00155474930713
        ],
        "type": "Point"
      },
      "properties": {
        "anchor_kind": "place:neighbourhood",
        "anchor_name": "عزب قرطسا و طاموس",
        "archetype": "terminal",
        "chainage_m": 9381.7,
        "corridor_offset_m": 0.0,
        "id": "line-1-0731-0566-s009382",
        "junction_group": null,
        "line": "line-1",
        "platform_length_m": 59.5
      },
      "type": "Feature"
    },
    {
      "geometry": {
        "coordinates": [
          30.583247317524084,
          31.01667190728143
        ],
        "type": "Point"
      },
      "properties": {
        "anchor_kind": "railway:station",
        "anchor_name": "شرنوب",
        "archetype": "terminal",
        "chainage_m": 0.0,
        "corridor_offset_m": 0.0,
        "id": "line-2-0647-1100-s000000",
        "junction_group": null,
        "line": "line-2",
        "platform_length_m": 59.5
      },
      "type": "Feature"
    },
    {
      "geometry": {
        "coordinates": [
          30.55515086995641,
          31.014872245617823
        ],
        "type": "Point"
      },
      "properties": {
        "anchor_kind": null,
        "anchor_name": null,
        "archetype": "halt",
        "chainage_m": 3011.4,
        "corridor_offset_m": 35.068,
        "id": "line-2-0657-0966-s003011",
        "junction_group": null,
        "line": "line-2",
        "platform_length_m": 55.5
      },
      "type": "Feature"
    },
    {
      "geometry": {
        "coordinates": [
          30.524538322606553,
          31.014872245617823
        ],
        "type": "Point"
      },
      "properties": {
        "anchor_kind": null,
        "anchor_name": null,
        "archetype": "halt",
        "chainage_m": 6030.8,
        "corridor_offset_m": 81.785,
        "id": "line-2-0657-0820-s006031",
        "junction_group": null,
        "line": "line-2",
        "platform_length_m": 55.5
      },
      "type": "Feature"
    },
    {
      "geometry": {
        "coordinates": [
          30.509441723913472,
          31.02171095993953
        ],
        "type": "Point"
      },
      "properties": {
        "anchor_kind": null,
        "anchor_name": null,
        "archetype": "standard",
        "chainage_m": 8043.3,
        "corridor_offset_m": 96.304,
        "id": "line-2-0619-0748-s008043",
        "junction_group": null,
        "line": "line-2",
        "platform_length_m": 59.5
      },
      "type": "Feature"
    },
    {
      "geometry": {
        "coordinates": [
          30.49245805038376,
          31.028009775762154
        ],
        "type": "Point"
      },
      "properties": {
        "anchor_kind": null,
        "anchor_name": null,
        "archetype": "standard",
        "chainage_m": 10051.9,
        "corridor_offset_m": 72.436,
        "id": "line-2-0584-0667-s010052",
        "junction_group": null,
        "line": "line-2",
        "platform_length_m": 59.5
      },
      "type": "Feature"
    },
    {
      "geometry": {
        "coordinates": [
          30.480716251400253,
          31.03160909908937
        ],
        "type": "Point"
      },
      "properties": {
        "anchor_kind": "place:neighbourhood",
        "anchor_name": "طاموس",
        "archetype": "major",
        "chainage_m": 11486.7,
        "corridor_offset_m": 57.394,
        "id": "line-2-0564-0611-s011487",
        "junction_group": null,
        "line": "line-2",
        "platform_length_m": 59.5
      },
      "type": "Feature"
    },
    {
      "geometry": {
        "coordinates": [
          30.4683454274712,
          31.034308591584782
        ],
        "type": "Point"
      },
      "properties": {
        "anchor_kind": "public_transport:station",
        "anchor_name": "دمنهور",
        "archetype": "interchange-elevated",
        "chainage_m": 13208.3,
        "corridor_offset_m": 50.009,
        "id": "line-2-0549-0552-s013208",
        "junction_group": 0,
        "line": "line-2",
        "platform_length_m": 59.5
      },
      "type": "Feature"
    },
    {
      "geometry": {
        "coordinates": [
          30.459958428197268,
          31.035568354749305
        ],
        "type": "Point"
      },
      "properties": {
        "anchor_kind": "place:neighbourhood",
        "anchor_name": "شبرا",
        "archetype": "major",
        "chainage_m": 14575.4,
        "corridor_offset_m": 38.099,
        "id": "line-2-0542-0512-s014575",
        "junction_group": null,
        "line": "line-2",
        "platform_length_m": 59.5
      },
      "type": "Feature"
    },
    {
      "geometry": {
        "coordinates": [
          30.45094240397779,
          31.03160909908937
        ],
        "type": "Point"
      },
      "properties": {
        "anchor_kind": null,
        "anchor_name": null,
        "archetype": "standard",
        "chainage_m": 15940.5,
        "corridor_offset_m": 12.78,
        "id": "line-2-0564-0469-s015941",
        "junction_group": null,
        "line": "line-2",
        "platform_length_m": 59.5
      },
      "type": "Feature"
    },
    {
      "geometry": {
        "coordinates": [
          30.43186198062959,
          31.03844781341108
        ],
        "type": "Point"
      },
      "properties": {
        "anchor_kind": "amenity:university",
        "anchor_name": "جامعة دمنهور",
        "archetype": "terminal",
        "chainage_m": 18261.6,
        "corridor_offset_m": 0.0,
        "id": "line-2-0526-0378-s018262",
        "junction_group": null,
        "line": "line-2",
        "platform_length_m": 59.5
      },
      "type": "Feature"
    },
    {
      "geometry": {
        "coordinates": [
          30.399991383388645,
          30.99993505380988
        ],
        "type": "Point"
      },
      "properties": {
        "anchor_kind": "railway:station",
        "anchor_name": "فاضل الباشا",
        "archetype": "terminal",
        "chainage_m": 0.0,
        "corridor_offset_m": 0.0,
        "id": "line-3-0740-0226-s000000",
        "junction_group": null,
        "line": "line-3",
        "platform_length_m": 59.5
      },
      "type": "Feature"
    },
    {
      "geometry": {
        "coordinates": [
          30.419700831682388,
          31.01199278695605
        ],
        "type": "Point"
      },
      "properties": {
        "anchor_kind": null,
        "anchor_name": null,
        "archetype": "standard",
        "chainage_m": 2517.1,
        "corridor_offset_m": 16.965,
        "id": "line-3-0673-0320-s002517",
        "junction_group": null,
        "line": "line-3",
        "platform_length_m": 59.5
      },
      "type": "Feature"
    },
    {
      "geometry": {
        "coordinates": [
          30.436684505212103,
          31.0186515351114
        ],
        "type": "Point"
      },
      "properties": {
        "anchor_kind": null,
        "anchor_name": null,
        "archetype": "standard",
        "chainage_m": 4525.6,
        "corridor_offset_m": 15.249,
        "id": "line-3-0636-0401-s004526",
        "junction_group": null,
        "line": "line-3",
        "platform_length_m": 59.5
      },
      "type": "Feature"
    },
    {
      "geometry": {
        "coordinates": [
          30.45094240397779,
          31.025850181765826
        ],
        "type": "Point"
      },
      "properties": {
        "anchor_kind": null,
        "anchor_name": null,
        "archetype": "standard",
        "chainage_m": 6545.0,
        "corridor_offset_m": 29.831,
        "id": "line-3-0596-0469-s006545",
        "junction_group": null,
        "line": "line-3",
        "platform_length_m": 59.5
      },
      "type": "Feature"
    },
    {
      "geometry": {
        "coordinates": [
          30.46079712812466,
          31.026030147932186
        ],
        "type": "Point"
      },
      "properties": {
        "anchor_kind": null,
        "anchor_name": null,
        "archetype": "major",
        "chainage_m": 7758.4,
        "corridor_offset_m": 35.353,
        "id": "line-3-0595-0516-s007758",
        "junction_group": null,
        "line": "line-3",
        "platform_length_m": 59.5
      },
      "type": "Feature"
    },
    {
      "geometry": {
        "coordinates": [
          30.4683454274712,
          31.034308591584782
        ],
        "type": "Point"
      },
      "properties": {
        "anchor_kind": "public_transport:station",
        "anchor_name": "دمنهور",
        "archetype": "interchange-elevated",
        "chainage_m": 8988.3,
        "corridor_offset_m": 56.959,
        "id": "line-3-0549-0552-s008988",
        "junction_group": 0,
        "line": "line-3",
        "platform_length_m": 59.5
      },
      "type": "Feature"
    },
    {
      "geometry": {
        "coordinates": [
          30.477780801654376,
          31.040067508908322
        ],
        "type": "Point"
      },
      "properties": {
        "anchor_kind": "place:neighbourhood",
        "anchor_name": "نقرها",
        "archetype": "standard",
        "chainage_m": 10598.3,
        "corridor_offset_m": 54.165,
        "id": "line-3-0517-0597-s010598",
        "junction_group": null,
        "line": "line-3",
        "platform_length_m": 59.5
      },
      "type": "Feature"
    },
    {
      "geometry": {
        "coordinates": [
          30.490570975547122,
          31.033768693085698
        ],
        "type": "Point"
      },
      "properties": {
        "anchor_kind": null,
        "anchor_name": null,
        "archetype": "standard",
        "chainage_m": 12195.1,
        "corridor_offset_m": 45.067,
        "id": "line-3-0552-0658-s012195",
        "junction_group": null,
        "line": "line-3",
        "platform_length_m": 59.5
      },
      "type": "Feature"
    },
    {
      "geometry": {
        "coordinates": [
          30.50713529911314,
          31.04132727207285
        ],
        "type": "Point"
      },
      "properties": {
        "anchor_kind": null,
        "anchor_name": null,
        "archetype": "standard",
        "chainage_m": 14222.4,
        "corridor_offset_m": 20.364,
        "id": "line-3-0510-0737-s014222",
        "junction_group": null,
        "line": "line-3",
        "platform_length_m": 59.5
      },
      "type": "Feature"
    },
    {
      "geometry": {
        "coordinates": [
          30.519296448060345,
          31.04924578339272
        ],
        "type": "Point"
      },
      "properties": {
        "anchor_kind": null,
        "anchor_name": null,
        "archetype": "standard",
        "chainage_m": 15746.9,
        "corridor_offset_m": 21.234,
        "id": "line-3-0466-0795-s015747",
        "junction_group": null,
        "line": "line-3",
        "platform_length_m": 59.5
      },
      "type": "Feature"
    },
    {
      "geometry": {
        "coordinates": [
          30.53145759700755,
          31.05662439621351
        ],
        "type": "Point"
      },
      "properties": {
        "anchor_kind": null,
        "anchor_name": null,
        "archetype": "halt",
        "chainage_m": 17246.6,
        "corridor_offset_m": 9.429,
        "id": "line-3-0425-0853-s017247",
        "junction_group": null,
        "line": "line-3",
        "platform_length_m": 55.5
      },
      "type": "Feature"
    },
    {
      "geometry": {
        "coordinates": [
          30.551796070246837,
          31.06940199402512
        ],
        "type": "Point"
      },
      "properties": {
        "anchor_kind": "public_transport:station",
        "anchor_name": null,
        "archetype": "depot-terminal",
        "chainage_m": 19774.8,
        "corridor_offset_m": 0.0,
        "id": "line-3-0354-0950-s019775",
        "junction_group": null,
        "line": "line-3",
        "platform_length_m": 59.5
      },
      "type": "Feature"
    }
  ],
  "type": "FeatureCollection"
}
