{
  "features": [
    {
      "geometry": {
        "coordinates": [
          84.08462341875452,
          28.144120940863118
        ],
        "type": "Point"
      },
      "properties": {
        "charger_bus_voltage_v": 650.0,
        "charger_contact_count": 2,
        "charger_efficiency": 0.98,
        "charger_max_current_a": 825.0,
        "charger_max_kw": 500.0,
        "grid_export_kw": 800.0,
        "grid_import_kw": 800.0,
        "line": "line-1",
        "pv_nameplate_kw": 300.0,
        "station": "line-1-0914-1037-s000000",
        "storage_capacity_kwh": 500.0,
        "storage_initial_soc": 0.6,
        "storage_max_charge_kw": 500.0,
        "storage_max_discharge_kw": 500.0,
        "storage_module_kwh": 500.0,
        "tier": "terminal"
      },
      "type": "Feature"
    },
    {
      "geometry": {
        "coordinates": [
          84.05852703552505,
          28.15905813267106
        ],
        "type": "Point"
      },
      "properties": {
        "charger_bus_voltage_v": 650.0,
        "charger_contact_count": 2,
        "charger_efficiency": 0.98,
        "charger_max_current_a": 825.0,
        "charger_max_kw": 500.0,
        "grid_export_kw": 500.0,
        "grid_import_kw": 500.0,
        "line": "line-1",
        "pv_nameplate_kw": 300.0,
        "station": "line-1-0831-0909-s003666",
        "storage_capacity_kwh": 500.0,
        "storage_initial_soc": 0.5,
        "storage_max_charge_kw": 500.0,
        "storage_max_discharge_kw": 500.0,
        "storage_module_kwh": 500.0,
        "tier": "standard"
      },
      "type": "Feature"
    },
    {
      "geometry": {
        "coordinates": [
          84.04017801606682,
          28.18137393729979
        ],
        "type": "Point"
      },
      "properties": {
        "charger_bus_voltage_v": 650.0,
        "charger_contact_count": 2,
        "charger_efficiency": 0.98,
        "charger_max_current_a": 825.0,
        "charger_max_kw": 500.0,
        "grid_export_kw": 500.0,
        "grid_import_kw": 500.0,
        "line": "line-1",
        "pv_nameplate_kw": 300.0,
        "station": "line-1-0707-0819-s007187",
        "storage_capacity_kwh": 500.0,
        "storage_initial_soc": 0.5,
        "storage_max_charge_kw": 500.0,
        "storage_max_discharge_kw": 500.0,
        "storage_module_kwh": 500.0,
        "tier": "standard"
      },
      "type": "Feature"
    },
    {
      "geometry": {
        "coordinates": [
          84.02305226457247,
          28.193431670445957
        ],
        "type": "Point"
      },
      "properties": {
        "charger_bus_voltage_v": 650.0,
        "charger_contact_count": 2,
        "charger_efficiency": 0.98,
        "charger_max_current_a": 825.0,
        "charger_max_kw": 500.0,
        "grid_export_kw": 500.0,
        "grid_import_kw": 500.0,
        "line": "line-1",
        "pv_nameplate_kw": 300.0,
        "station": "line-1-0640-0735-s010694",
        "storage_capacity_kwh": 500.0,
        "storage_initial_soc": 0.5,
        "storage_max_charge_kw": 500.0,
        "storage_max_discharge_kw": 500.0,
        "storage_module_kwh": 500.0,
        "tier": "standard"
      },
      "type": "Feature"
    },
    {
      "geometry": {
        "coordinates": [
          83.99817914930688,
          28.205669369758485
        ],
        "type": "Point"
      },
      "properties": {
        "charger_bus_voltage_v": 650.0,
        "charger_contact_count": 2,
        "charger_efficiency": 0.98,
        "charger_max_current_a": 825.0,
        "charger_max_kw": 500.0,
        "grid_export_kw": 600.0,
        "grid_import_kw": 600.0,
        "line": "line-1",
        "pv_nameplate_kw": 300.0,
        "station": "line-1-0572-0613-s013697",
        "storage_capacity_kwh": 500.0,
        "storage_initial_soc": 0.5,
        "storage_max_charge_kw": 500.0,
        "storage_max_discharge_kw": 500.0,
        "storage_module_kwh": 500.0,
        "tier": "major"
      },
      "type": "Feature"
    },
    {
      "geometry": {
        "coordinates": [
          83.98920851757175,
          28.207648997588453
        ],
        "type": "Point"
      },
      "properties": {
        "charger_bus_voltage_v": 650.0,
        "charger_contact_count": 2,
        "charger_efficiency": 0.98,
        "charger_max_current_a": 825.0,
        "charger_max_kw": 500.0,
        "grid_export_kw": 600.0,
        "grid_import_kw": 600.0,
        "line": "line-1",
        "pv_nameplate_kw": 300.0,
        "station": "line-1-0561-0569-s014899",
        "storage_capacity_kwh": 500.0,
        "storage_initial_soc": 0.5,
        "storage_max_charge_kw": 500.0,
        "storage_max_discharge_kw": 500.0,
        "storage_module_kwh": 500.0,
        "tier": "interchange"
      },
      "type": "Feature"
    },
    {
      "geometry": {
        "coordinates": [
          83.96963623014965,
          28.222046290897314
        ],
        "type": "Point"
      },
      "properties": {
        "charger_bus_voltage_v": 650.0,
        "charger_contact_count": 2,
        "charger_efficiency": 0.98,
        "charger_max_current_a": 825.0,
        "charger_max_kw": 500.0,
        "grid_export_kw": 500.0,
        "grid_import_kw": 500.0,
        "line": "line-1",
        "pv_nameplate_kw": 300.0,
        "station": "line-1-0481-0473-s018319",
        "storage_capacity_kwh": 500.0,
        "storage_initial_soc": 0.5,
        "storage_max_charge_kw": 500.0,
        "storage_max_discharge_kw": 500.0,
        "storage_module_kwh": 500.0,
        "tier": "standard"
      },
      "type": "Feature"
    },
    {
      "geometry": {
        "coordinates": [
          83.89725954228665,
          28.269917291149266
        ],
        "type": "Point"
      },
      "properties": {
        "charger_bus_voltage_v": 650.0,
        "charger_contact_count": 2,
        "charger_efficiency": 0.98,
        "charger_max_current_a": 825.0,
        "charger_max_kw": 500.0,
        "grid_export_kw": 3000.0,
        "grid_import_kw": 3000.0,
        "line": "line-1",
        "pv_nameplate_kw": 5000.0,
        "station": "line-1-0215-0118-s029940",
        "storage_capacity_kwh": 40000.0,
        "storage_initial_soc": 0.6,
        "storage_max_charge_kw": 10000.0,
        "storage_max_discharge_kw": 10000.0,
        "storage_module_kwh": 500.0,
        "tier": "depot-main"
      },
      "type": "Feature"
    },
    {
      "geometry": {
        "coordinates": [
          83.96963623014965,
          28.260918982831228
        ],
        "type": "Point"
      },
      "properties": {
        "charger_bus_voltage_v": 650.0,
        "charger_contact_count": 2,
        "charger_efficiency": 0.98,
        "charger_max_current_a": 825.0,
        "charger_max_kw": 500.0,
        "grid_export_kw": 800.0,
        "grid_import_kw": 800.0,
        "line": "line-2",
        "pv_nameplate_kw": 300.0,
        "station": "line-2-0265-0473-s000000",
        "storage_capacity_kwh": 500.0,
        "storage_initial_soc": 0.6,
        "storage_max_charge_kw": 500.0,
        "storage_max_discharge_kw": 500.0,
        "storage_module_kwh": 500.0,
        "tier": "terminal"
      },
      "type": "Feature"
    },
    {
      "geometry": {
        "coordinates": [
          83.97799522790284,
          28.244002163193322
        ],
        "type": "Point"
      },
      "properties": {
        "charger_bus_voltage_v": 650.0,
        "charger_contact_count": 2,
        "charger_efficiency": 0.98,
        "charger_max_current_a": 825.0,
        "charger_max_kw": 500.0,
        "grid_export_kw": 500.0,
        "grid_import_kw": 500.0,
        "line": "line-2",
        "pv_nameplate_kw": 300.0,
        "station": "line-2-0359-0514-s003014",
        "storage_capacity_kwh": 500.0,
        "storage_initial_soc": 0.5,
        "storage_max_charge_kw": 500.0,
        "storage_max_discharge_kw": 500.0,
        "storage_module_kwh": 500.0,
        "tier": "standard"
      },
      "type": "Feature"
    },
    {
      "geometry": {
        "coordinates": [
          83.98329605574632,
          28.22366598639456
        ],
        "type": "Point"
      },
      "properties": {
        "charger_bus_voltage_v": 650.0,
        "charger_contact_count": 2,
        "charger_efficiency": 0.98,
        "charger_max_current_a": 825.0,
        "charger_max_kw": 500.0,
        "grid_export_kw": 600.0,
        "grid_import_kw": 600.0,
        "line": "line-2",
        "pv_nameplate_kw": 300.0,
        "station": "line-2-0472-0540-s006022",
        "storage_capacity_kwh": 500.0,
        "storage_initial_soc": 0.5,
        "storage_max_charge_kw": 500.0,
        "storage_max_discharge_kw": 500.0,
        "storage_module_kwh": 500.0,
        "tier": "major"
      },
      "type": "Feature"
    },
    {
      "geometry": {
        "coordinates": [
          83.98920851757175,
          28.207648997588453
        ],
        "type": "Point"
      },
      "properties": {
        "charger_bus_voltage_v": 650.0,
        "charger_contact_count": 2,
        "charger_efficiency": 0.98,
        "charger_max_current_a": 825.0,
        "charger_max_kw": 500.0,
        "grid_export_kw": 600.0,
        "grid_import_kw": 600.0,
        "line": "line-2",
        "pv_nameplate_kw": 300.0,
        "station": "line-2-0561-0569-s009213",
        "storage_capacity_kwh": 500.0,
        "storage_initial_soc": 0.5,
        "storage_max_charge_kw": 500.0,
        "storage_max_discharge_kw": 500.0,
        "storage_module_kwh": 500.0,
        "tier": "interchange"
      },
      "type": "Feature"
    },
    {
      "geometry": {
        "coordinates": [
          84.0124506088855,
          28.19847072310406
        ],
        "type": "Point"
      },
      "properties": {
        "charger_bus_voltage_v": 650.0,
        "charger_contact_count": 2,
        "charger_efficiency": 0.98,
        "charger_max_current_a": 825.0,
        "charger_max_kw": 500.0,
        "grid_export_kw": 600.0,
        "grid_import_kw": 600.0,
        "line": "line-2",
        "pv_nameplate_kw": 300.0,
        "station": "line-2-0612-0683-s012043",
        "storage_capacity_kwh": 500.0,
        "storage_initial_soc": 0.5,
        "storage_max_charge_kw": 500.0,
        "storage_max_discharge_kw": 500.0,
        "storage_module_kwh": 500.0,
        "tier": "interchange"
      },
      "type": "Feature"
    },
    {
      "geometry": {
        "coordinates": [
          84.04119740603672,
          28.16967613648634
        ],
        "type": "Point"
      },
      "properties": {
        "charger_bus_voltage_v": 650.0,
        "charger_contact_count": 2,
        "charger_efficiency": 0.98,
        "charger_max_current_a": 825.0,
        "charger_max_kw": 500.0,
        "grid_export_kw": 500.0,
        "grid_import_kw": 500.0,
        "line": "line-2",
        "pv_nameplate_kw": 300.0,
        "station": "line-2-0772-0824-s016976",
        "storage_capacity_kwh": 500.0,
        "storage_initial_soc": 0.5,
        "storage_max_charge_kw": 500.0,
        "storage_max_discharge_kw": 500.0,
        "storage_module_kwh": 500.0,
        "tier": "standard"
      },
      "type": "Feature"
    },
    {
      "geometry": {
        "coordinates": [
          84.06749766726017,
          28.163557286830077
        ],
        "type": "Point"
      },
      "properties": {
        "charger_bus_voltage_v": 650.0,
        "charger_contact_count": 2,
        "charger_efficiency": 0.98,
        "charger_max_current_a": 825.0,
        "charger_max_kw": 500.0,
        "grid_export_kw": 500.0,
        "grid_import_kw": 500.0,
        "line": "line-2",
        "pv_nameplate_kw": 300.0,
        "station": "line-2-0806-0953-s019987",
        "storage_capacity_kwh": 500.0,
        "storage_initial_soc": 0.5,
        "storage_max_charge_kw": 500.0,
        "storage_max_discharge_kw": 500.0,
        "storage_module_kwh": 500.0,
        "tier": "standard"
      },
      "type": "Feature"
    },
    {
      "geometry": {
        "coordinates": [
          84.09644834240537,
          28.147720264190333
        ],
        "type": "Point"
      },
      "properties": {
        "charger_bus_voltage_v": 650.0,
        "charger_contact_count": 2,
        "charger_efficiency": 0.98,
        "charger_max_current_a": 825.0,
        "charger_max_kw": 500.0,
        "grid_export_kw": 800.0,
        "grid_import_kw": 800.0,
        "line": "line-2",
        "pv_nameplate_kw": 300.0,
        "station": "line-2-0894-1095-s023828",
        "storage_capacity_kwh": 500.0,
        "storage_initial_soc": 0.6,
        "storage_max_charge_kw": 500.0,
        "storage_max_discharge_kw": 500.0,
        "storage_module_kwh": 500.0,
        "tier": "terminal"
      },
      "type": "Feature"
    },
    {
      "geometry": {
        "coordinates": [
          83.9164240737208,
          28.239682975200665
        ],
        "type": "Point"
      },
      "properties": {
        "charger_bus_voltage_v": 650.0,
        "charger_contact_count": 2,
        "charger_efficiency": 0.98,
        "charger_max_current_a": 825.0,
        "charger_max_kw": 500.0,
        "grid_export_kw": 800.0,
        "grid_import_kw": 800.0,
        "line": "line-3",
        "pv_nameplate_kw": 300.0,
        "station": "line-3-0383-0212-s000000",
        "storage_capacity_kwh": 500.0,
        "storage_initial_soc": 0.6,
        "storage_max_charge_kw": 500.0,
        "storage_max_discharge_kw": 500.0,
        "storage_module_kwh": 500.0,
        "tier": "terminal"
      },
      "type": "Feature"
    },
    {
      "geometry": {
        "coordinates": [
          83.9525104786553,
          28.222766155562756
        ],
        "type": "Point"
      },
      "properties": {
        "charger_bus_voltage_v": 650.0,
        "charger_contact_count": 2,
        "charger_efficiency": 0.98,
        "charger_max_current_a": 825.0,
        "charger_max_kw": 500.0,
        "grid_export_kw": 500.0,
        "grid_import_kw": 500.0,
        "line": "line-3",
        "pv_nameplate_kw": 300.0,
        "station": "line-3-0477-0389-s004837",
        "storage_capacity_kwh": 500.0,
        "storage_initial_soc": 0.5,
        "storage_max_charge_kw": 500.0,
        "storage_max_discharge_kw": 500.0,
        "storage_module_kwh": 500.0,
        "tier": "standard"
      },
      "type": "Feature"
    },
    {
      "geometry": {
        "coordinates": [
          83.97126725410149,
          28.20656920059029
        ],
        "type": "Point"
      },
      "properties": {
        "charger_bus_voltage_v": 650.0,
        "charger_contact_count": 2,
        "charger_efficiency": 0.98,
        "charger_max_current_a": 825.0,
        "charger_max_kw": 500.0,
        "grid_export_kw": 600.0,
        "grid_import_kw": 600.0,
        "line": "line-3",
        "pv_nameplate_kw": 300.0,
        "station": "line-3-0567-0481-s007854",
        "storage_capacity_kwh": 500.0,
        "storage_initial_soc": 0.5,
        "storage_max_charge_kw": 500.0,
        "storage_max_discharge_kw": 500.0,
        "storage_module_kwh": 500.0,
        "tier": "major"
      },
      "type": "Feature"
    },
    {
      "geometry": {
        "coordinates": [
          83.98920851757175,
          28.207648997588453
        ],
        "type": "Point"
      },
      "properties": {
        "charger_bus_voltage_v": 650.0,
        "charger_contact_count": 2,
        "charger_efficiency": 0.98,
        "charger_max_current_a": 825.0,
        "charger_max_kw": 500.0,
        "grid_export_kw": 600.0,
        "grid_import_kw": 600.0,
        "line": "line-3",
        "pv_nameplate_kw": 300.0,
        "station": "line-3-0561-0569-s010839",
        "storage_capacity_kwh": 500.0,
        "storage_initial_soc": 0.5,
        "storage_max_charge_kw": 500.0,
        "storage_max_discharge_kw": 500.0,
        "storage_module_kwh": 500.0,
        "tier": "interchange"
      },
      "type": "Feature"
    },
    {
      "geometry": {
        "coordinates": [
          84.01265448687948,
          28.197390926105893
        ],
        "type": "Point"
      },
      "properties": {
        "charger_bus_voltage_v": 650.0,
        "charger_contact_count": 2,
        "charger_efficiency": 0.98,
        "charger_max_current_a": 825.0,
        "charger_max_kw": 500.0,
        "grid_export_kw": 600.0,
        "grid_import_kw": 600.0,
        "line": "line-3",
        "pv_nameplate_kw": 300.0,
        "station": "line-3-0618-0684-s013796",
        "storage_capacity_kwh": 500.0,
        "storage_initial_soc": 0.5,
        "storage_max_charge_kw": 500.0,
        "storage_max_discharge_kw": 500.0,
        "storage_module_kwh": 500.0,
        "tier": "interchange"
      },
      "type": "Feature"
    },
    {
      "geometry": {
        "coordinates": [
          84.03222677430159,
          28.173095493647196
        ],
        "type": "Point"
      },
      "properties": {
        "charger_bus_voltage_v": 650.0,
        "charger_contact_count": 2,
        "charger_efficiency": 0.98,
        "charger_max_current_a": 825.0,
        "charger_max_kw": 500.0,
        "grid_export_kw": 500.0,
        "grid_import_kw": 500.0,
        "line": "line-3",
        "pv_nameplate_kw": 300.0,
        "station": "line-3-0753-0780-s017303",
        "storage_capacity_kwh": 500.0,
        "storage_initial_soc": 0.5,
        "storage_max_charge_kw": 500.0,
        "storage_max_discharge_kw": 500.0,
        "storage_module_kwh": 500.0,
        "tier": "standard"
      },
      "type": "Feature"
    },
    {
      "geometry": {
        "coordinates": [
          84.05546886561534,
          28.15185948601663
        ],
        "type": "Point"
      },
      "properties": {
        "charger_bus_voltage_v": 650.0,
        "charger_contact_count": 2,
        "charger_efficiency": 0.98,
        "charger_max_current_a": 825.0,
        "charger_max_kw": 500.0,
        "grid_export_kw": 500.0,
        "grid_import_kw": 500.0,
        "line": "line-3",
        "pv_nameplate_kw": 300.0,
        "station": "line-3-0871-0894-s020812",
        "storage_capacity_kwh": 500.0,
        "storage_initial_soc": 0.5,
        "storage_max_charge_kw": 500.0,
        "storage_max_discharge_kw": 500.0,
        "storage_module_kwh": 500.0,
        "tier": "standard"
      },
      "type": "Feature"
    },
    {
      "geometry": {
        "coordinates": [
          84.0940018064776,
          28.113886624914517
        ],
        "type": "Point"
      },
      "properties": {
        "charger_bus_voltage_v": 650.0,
        "charger_contact_count": 2,
        "charger_efficiency": 0.98,
        "charger_max_current_a": 825.0,
        "charger_max_kw": 500.0,
        "grid_export_kw": 800.0,
        "grid_import_kw": 800.0,
        "line": "line-3",
        "pv_nameplate_kw": 300.0,
        "station": "line-3-1082-1083-s027433",
        "storage_capacity_kwh": 500.0,
        "storage_initial_soc": 0.6,
        "storage_max_charge_kw": 500.0,
        "storage_max_discharge_kw": 500.0,
        "storage_module_kwh": 500.0,
        "tier": "terminal"
      },
      "type": "Feature"
    }
  ],
  "type": "FeatureCollection"
}
