{
  "features": [
    {
      "geometry": {
        "coordinates": [
          32.900174818085965,
          2.250102670697909
        ],
        "type": "Point"
      },
      "properties": {
        "id": "interchange-000",
        "junction_group": 0,
        "line_count": 3,
        "lines": "line-1,line-2,line-3",
        "platform_count": 3,
        "platforms": "line-1-0374-0377-s003627,line-2-0374-0377-s009917,line-3-0374-0377-s007454"
      },
      "type": "Feature"
    }
  ],
  "type": "FeatureCollection"
}
