{
  "features": [
    {
      "geometry": {
        "coordinates": [
          44.31353744181916,
          31.9309217867041
        ],
        "type": "Point"
      },
      "properties": {
        "anchor_kind": "tourism:attraction",
        "anchor_name": "قرية الدعوم آل الحاج علوان الشمالية/ آل حسن وآل حسين",
        "archetype": "terminal",
        "chainage_m": 0.0,
        "corridor_offset_m": 0.0,
        "id": "line-1-0939-0630-s000000",
        "junction_group": null,
        "line": "line-1",
        "platform_length_m": 85.0
      },
      "type": "Feature"
    },
    {
      "geometry": {
        "coordinates": [
          44.32857496500577,
          31.943699384515714
        ],
        "type": "Point"
      },
      "properties": {
        "anchor_kind": null,
        "anchor_name": null,
        "archetype": "standard",
        "chainage_m": 2008.2,
        "corridor_offset_m": 60.358,
        "id": "line-1-0868-0701-s002008",
        "junction_group": null,
        "line": "line-1",
        "platform_length_m": 85.0
      },
      "type": "Feature"
    },
    {
      "geometry": {
        "coordinates": [
          44.338105789560665,
          31.958456610157292
        ],
        "type": "Point"
      },
      "properties": {
        "anchor_kind": null,
        "anchor_name": null,
        "archetype": "standard",
        "chainage_m": 4021.0,
        "corridor_offset_m": 121.638,
        "id": "line-1-0786-0746-s004021",
        "junction_group": null,
        "line": "line-1",
        "platform_length_m": 85.0
      },
      "type": "Feature"
    },
    {
      "geometry": {
        "coordinates": [
          44.342341711585064,
          31.96781485080805
        ],
        "type": "Point"
      },
      "properties": {
        "anchor_kind": null,
        "anchor_name": null,
        "archetype": "interchange-elevated",
        "chainage_m": 5332.1,
        "corridor_offset_m": 146.071,
        "id": "line-1-0734-0766-s005332",
        "junction_group": 0,
        "line": "line-1",
        "platform_length_m": 85.0
      },
      "type": "Feature"
    },
    {
      "geometry": {
        "coordinates": [
          44.342341711585064,
          31.979332685455137
        ],
        "type": "Point"
      },
      "properties": {
        "anchor_kind": null,
        "anchor_name": null,
        "archetype": "standard",
        "chainage_m": 6628.7,
        "corridor_offset_m": 184.755,
        "id": "line-1-0670-0766-s006629",
        "junction_group": null,
        "line": "line-1",
        "platform_length_m": 85.0
      },
      "type": "Feature"
    },
    {
      "geometry": {
        "coordinates": [
          44.348060206318,
          31.988690926105892
        ],
        "type": "Point"
      },
      "properties": {
        "anchor_kind": "amenity:bus_station",
        "anchor_name": "كراج ابو احمد نقليات",
        "archetype": "standard",
        "chainage_m": 8059.2,
        "corridor_offset_m": 179.889,
        "id": "line-1-0618-0793-s008059",
        "junction_group": null,
        "line": "line-1",
        "platform_length_m": 85.0
      },
      "type": "Feature"
    },
    {
      "geometry": {
        "coordinates": [
          44.353778701050935,
          31.994629809595796
        ],
        "type": "Point"
      },
      "properties": {
        "anchor_kind": "amenity:hospital",
        "anchor_name": "مختبر النخبة للتحليلات المرضية المتقدمة",
        "archetype": "major",
        "chainage_m": 9281.5,
        "corridor_offset_m": 147.129,
        "id": "line-1-0585-0820-s009281",
        "junction_group": null,
        "line": "line-1",
        "platform_length_m": 85.0
      },
      "type": "Feature"
    },
    {
      "geometry": {
        "coordinates": [
          44.35843821527778,
          32.00110859158478
        ],
        "type": "Point"
      },
      "properties": {
        "anchor_kind": "shop:mall",
        "anchor_name": "مول جوهرة العرب فرع الروان",
        "archetype": "interchange-elevated",
        "chainage_m": 10492.0,
        "corridor_offset_m": 120.989,
        "id": "line-1-0549-0842-s010492",
        "junction_group": 1,
        "line": "line-1",
        "platform_length_m": 85.0
      },
      "type": "Feature"
    },
    {
      "geometry": {
        "coordinates": [
          44.37368753456561,
          32.0088471367383
        ],
        "type": "Point"
      },
      "properties": {
        "anchor_kind": "shop:mall",
        "anchor_name": "المدينه مول 3",
        "archetype": "standard",
        "chainage_m": 12502.0,
        "corridor_offset_m": 75.246,
        "id": "line-1-0506-0914-s012502",
        "junction_group": null,
        "line": "line-1",
        "platform_length_m": 85.0
      },
      "type": "Feature"
    },
    {
      "geometry": {
        "coordinates": [
          44.380676805905864,
          32.02018500521902
        ],
        "type": "Point"
      },
      "properties": {
        "anchor_kind": "amenity:hospital",
        "anchor_name": "مستشفى ابن بلال الاهلي",
        "archetype": "interchange-elevated",
        "chainage_m": 14513.3,
        "corridor_offset_m": 21.74,
        "id": "line-1-0443-0947-s014513",
        "junction_group": 2,
        "line": "line-1",
        "platform_length_m": 85.0
      },
      "type": "Feature"
    },
    {
      "geometry": {
        "coordinates": [
          44.389995834359546,
          32.03206277219883
        ],
        "type": "Point"
      },
      "properties": {
        "anchor_kind": "amenity:hospital",
        "anchor_name": "مستشفى الفرات الاوسط",
        "archetype": "interchange-elevated",
        "chainage_m": 16524.7,
        "corridor_offset_m": 11.28,
        "id": "line-1-0377-0991-s016525",
        "junction_group": 2,
        "line": "line-1",
        "platform_length_m": 85.0
      },
      "type": "Feature"
    },
    {
      "geometry": {
        "coordinates": [
          44.3906312226632,
          32.0349422308606
        ],
        "type": "Point"
      },
      "properties": {
        "anchor_kind": "amenity:hospital",
        "anchor_name": "مستشفى الفرات الاوسط",
        "archetype": "interchange-elevated",
        "chainage_m": 17032.4,
        "corridor_offset_m": 26.834,
        "id": "line-1-0361-0994-s017032",
        "junction_group": 2,
        "line": "line-1",
        "platform_length_m": 85.0
      },
      "type": "Feature"
    },
    {
      "geometry": {
        "coordinates": [
          44.395926125193704,
          32.046640031674045
        ],
        "type": "Point"
      },
      "properties": {
        "anchor_kind": null,
        "anchor_name": null,
        "archetype": "interchange-elevated",
        "chainage_m": 18562.9,
        "corridor_offset_m": 10.76,
        "id": "line-1-0296-1019-s018563",
        "junction_group": 3,
        "line": "line-1",
        "platform_length_m": 85.0
      },
      "type": "Feature"
    },
    {
      "geometry": {
        "coordinates": [
          44.41223442498763,
          32.04268077601411
        ],
        "type": "Point"
      },
      "properties": {
        "anchor_kind": null,
        "anchor_name": null,
        "archetype": "interchange-elevated",
        "chainage_m": 20568.9,
        "corridor_offset_m": 9.591,
        "id": "line-1-0318-1096-s020569",
        "junction_group": 3,
        "line": "line-1",
        "platform_length_m": 85.0
      },
      "type": "Feature"
    },
    {
      "geometry": {
        "coordinates": [
          44.42748374427547,
          32.06391678364468
        ],
        "type": "Point"
      },
      "properties": {
        "anchor_kind": null,
        "anchor_name": null,
        "archetype": "halt",
        "chainage_m": 23581.9,
        "corridor_offset_m": 3.418,
        "id": "line-1-0200-1168-s023582",
        "junction_group": null,
        "line": "line-1",
        "platform_length_m": 81.0
      },
      "type": "Feature"
    },
    {
      "geometry": {
        "coordinates": [
          44.44463922847428,
          32.07759421228809
        ],
        "type": "Point"
      },
      "properties": {
        "anchor_kind": "amenity:hospital",
        "anchor_name": "مستشفى السجاد العام",
        "archetype": "terminal",
        "chainage_m": 26023.8,
        "corridor_offset_m": 0.0,
        "id": "line-1-0124-1249-s026024",
        "junction_group": null,
        "line": "line-1",
        "platform_length_m": 85.0
      },
      "type": "Feature"
    },
    {
      "geometry": {
        "coordinates": [
          44.42642476376937,
          31.86343447431883
        ],
        "type": "Point"
      },
      "properties": {
        "anchor_kind": "place:neighbourhood",
        "anchor_name": "زكري",
        "archetype": "terminal",
        "chainage_m": 0.0,
        "corridor_offset_m": 0.0,
        "id": "line-2-1314-1163-s000000",
        "junction_group": null,
        "line": "line-2",
        "platform_length_m": 85.0
      },
      "type": "Feature"
    },
    {
      "geometry": {
        "coordinates": [
          44.42621296766815,
          31.89042939927294
        ],
        "type": "Point"
      },
      "properties": {
        "anchor_kind": null,
        "anchor_name": null,
        "archetype": "halt",
        "chainage_m": 3008.3,
        "corridor_offset_m": 119.09,
        "id": "line-2-1164-1162-s003008",
        "junction_group": null,
        "line": "line-2",
        "platform_length_m": 81.0
      },
      "type": "Feature"
    },
    {
      "geometry": {
        "coordinates": [
          44.40482156144494,
          31.91004571140626
        ],
        "type": "Point"
      },
      "properties": {
        "anchor_kind": null,
        "anchor_name": null,
        "archetype": "halt",
        "chainage_m": 6025.0,
        "corridor_offset_m": 229.223,
        "id": "line-2-1055-1061-s006025",
        "junction_group": null,
        "line": "line-2",
        "platform_length_m": 81.0
      },
      "type": "Feature"
    },
    {
      "geometry": {
        "coordinates": [
          44.38978403825833,
          31.92282330921787
        ],
        "type": "Point"
      },
      "properties": {
        "anchor_kind": null,
        "anchor_name": null,
        "archetype": "standard",
        "chainage_m": 8033.2,
        "corridor_offset_m": 311.022,
        "id": "line-2-0984-0990-s008033",
        "junction_group": null,
        "line": "line-2",
        "platform_length_m": 85.0
      },
      "type": "Feature"
    },
    {
      "geometry": {
        "coordinates": [
          44.37559369947659,
          31.935960839362203
        ],
        "type": "Point"
      },
      "properties": {
        "anchor_kind": null,
        "anchor_name": null,
        "archetype": "standard",
        "chainage_m": 10048.2,
        "corridor_offset_m": 368.113,
        "id": "line-2-0911-0923-s010048",
        "junction_group": null,
        "line": "line-2",
        "platform_length_m": 85.0
      },
      "type": "Feature"
    },
    {
      "geometry": {
        "coordinates": [
          44.367757243731454,
          31.95125796350286
        ],
        "type": "Point"
      },
      "properties": {
        "anchor_kind": null,
        "anchor_name": null,
        "archetype": "standard",
        "chainage_m": 12054.7,
        "corridor_offset_m": 315.936,
        "id": "line-2-0826-0886-s012055",
        "junction_group": null,
        "line": "line-2",
        "platform_length_m": 85.0
      },
      "type": "Feature"
    },
    {
      "geometry": {
        "coordinates": [
          44.37453471897049,
          31.967094986142605
        ],
        "type": "Point"
      },
      "properties": {
        "anchor_kind": null,
        "anchor_name": null,
        "archetype": "standard",
        "chainage_m": 14079.8,
        "corridor_offset_m": 276.946,
        "id": "line-2-0738-0918-s014080",
        "junction_group": null,
        "line": "line-2",
        "platform_length_m": 85.0
      },
      "type": "Feature"
    },
    {
      "geometry": {
        "coordinates": [
          44.365003894415594,
          31.97789295612425
        ],
        "type": "Point"
      },
      "properties": {
        "anchor_kind": "amenity:college",
        "anchor_name": "جامعة الفرات الاوسط التقنية",
        "archetype": "standard",
        "chainage_m": 16097.5,
        "corridor_offset_m": 246.202,
        "id": "line-2-0678-0873-s016097",
        "junction_group": null,
        "line": "line-2",
        "platform_length_m": 85.0
      },
      "type": "Feature"
    },
    {
      "geometry": {
        "coordinates": [
          44.364792098314375,
          31.9854515351114
        ],
        "type": "Point"
      },
      "properties": {
        "anchor_kind": "amenity:hospital",
        "anchor_name": "حسينية فاطمة الزهراء",
        "archetype": "standard",
        "chainage_m": 18112.3,
        "corridor_offset_m": 152.995,
        "id": "line-2-0636-0872-s018112",
        "junction_group": null,
        "line": "line-2",
        "platform_length_m": 85.0
      },
      "type": "Feature"
    },
    {
      "geometry": {
        "coordinates": [
          44.35992078798632,
          31.998409099089372
        ],
        "type": "Point"
      },
      "properties": {
        "anchor_kind": "shop:mall",
        "anchor_name": "مول جوهرة العرب فرع الروان",
        "archetype": "interchange-elevated",
        "chainage_m": 19865.7,
        "corridor_offset_m": 134.044,
        "id": "line-2-0564-0849-s019866",
        "junction_group": 1,
        "line": "line-2",
        "platform_length_m": 85.0
      },
      "type": "Feature"
    },
    {
      "geometry": {
        "coordinates": [
          44.35420229325338,
          32.00722744124105
        ],
        "type": "Point"
      },
      "properties": {
        "anchor_kind": "shop:mall",
        "anchor_name": "Najaf City Mall",
        "archetype": "major",
        "chainage_m": 21092.8,
        "corridor_offset_m": 116.172,
        "id": "line-2-0515-0822-s021093",
        "junction_group": null,
        "line": "line-2",
        "platform_length_m": 85.0
      },
      "type": "Feature"
    },
    {
      "geometry": {
        "coordinates": [
          44.34615404140702,
          32.009746967570095
        ],
        "type": "Point"
      },
      "properties": {
        "anchor_kind": "amenity:hospital",
        "anchor_name": "المستشفى التخصصي لامراض الجهاز الهضمي والكبد",
        "archetype": "major",
        "chainage_m": 22298.5,
        "corridor_offset_m": 87.155,
        "id": "line-2-0501-0784-s022298",
        "junction_group": null,
        "line": "line-2",
        "platform_length_m": 85.0
      },
      "type": "Feature"
    },
    {
      "geometry": {
        "coordinates": [
          44.34742481801434,
          32.02216463304899
        ],
        "type": "Point"
      },
      "properties": {
        "anchor_kind": "shop:mall",
        "anchor_name": "مركز القريه للتسوق",
        "archetype": "interchange-elevated",
        "chainage_m": 24308.4,
        "corridor_offset_m": 26.706,
        "id": "line-2-0432-0790-s024308",
        "junction_group": 4,
        "line": "line-2",
        "platform_length_m": 85.0
      },
      "type": "Feature"
    },
    {
      "geometry": {
        "coordinates": [
          44.35060175953264,
          32.02558399020984
        ],
        "type": "Point"
      },
      "properties": {
        "anchor_kind": null,
        "anchor_name": null,
        "archetype": "interchange-elevated",
        "chainage_m": 24972.7,
        "corridor_offset_m": 6.858,
        "id": "line-2-0413-0805-s024973",
        "junction_group": 4,
        "line": "line-2",
        "platform_length_m": 85.0
      },
      "type": "Feature"
    },
    {
      "geometry": {
        "coordinates": [
          44.34551865310336,
          32.03602202785876
        ],
        "type": "Point"
      },
      "properties": {
        "anchor_kind": "tourism:attraction",
        "anchor_name": "جامع المحسن س نبأ",
        "archetype": "standard",
        "chainage_m": 26331.5,
        "corridor_offset_m": 15.561,
        "id": "line-2-0355-0781-s026331",
        "junction_group": null,
        "line": "line-2",
        "platform_length_m": 85.0
      },
      "type": "Feature"
    },
    {
      "geometry": {
        "coordinates": [
          44.338105789560665,
          32.051499118165786
        ],
        "type": "Point"
      },
      "properties": {
        "anchor_kind": "tourism:attraction",
        "anchor_name": "الشيخ نعيم",
        "archetype": "interchange-elevated",
        "chainage_m": 28341.4,
        "corridor_offset_m": 60.52,
        "id": "line-2-0269-0746-s028341",
        "junction_group": 5,
        "line": "line-2",
        "platform_length_m": 85.0
      },
      "type": "Feature"
    },
    {
      "geometry": {
        "coordinates": [
          44.335352440244804,
          32.05581830615844
        ],
        "type": "Point"
      },
      "properties": {
        "anchor_kind": null,
        "anchor_name": null,
        "archetype": "interchange-elevated",
        "chainage_m": 28952.6,
        "corridor_offset_m": 69.039,
        "id": "line-2-0245-0733-s028953",
        "junction_group": 5,
        "line": "line-2",
        "platform_length_m": 85.0
      },
      "type": "Feature"
    },
    {
      "geometry": {
        "coordinates": [
          44.32264467417161,
          32.05131915199942
        ],
        "type": "Point"
      },
      "properties": {
        "anchor_kind": null,
        "anchor_name": null,
        "archetype": "interchange-elevated",
        "chainage_m": 30359.7,
        "corridor_offset_m": 102.388,
        "id": "line-2-0270-0673-s030360",
        "junction_group": 6,
        "line": "line-2",
        "platform_length_m": 85.0
      },
      "type": "Feature"
    },
    {
      "geometry": {
        "coordinates": [
          44.31904414045087,
          32.066436309973724
        ],
        "type": "Point"
      },
      "properties": {
        "anchor_kind": null,
        "anchor_name": null,
        "archetype": "standard",
        "chainage_m": 32370.8,
        "corridor_offset_m": 65.695,
        "id": "line-2-0186-0656-s032371",
        "junction_group": null,
        "line": "line-2",
        "platform_length_m": 85.0
      },
      "type": "Feature"
    },
    {
      "geometry": {
        "coordinates": [
          44.309936908098415,
          32.07759421228809
        ],
        "type": "Point"
      },
      "properties": {
        "anchor_kind": "tourism:attraction",
        "anchor_name": "مطعم عباس بركات الرضا",
        "archetype": "halt",
        "chainage_m": 34525.4,
        "corridor_offset_m": 30.445,
        "id": "line-2-0124-0613-s034525",
        "junction_group": null,
        "line": "line-2",
        "platform_length_m": 81.0
      },
      "type": "Feature"
    },
    {
      "geometry": {
        "coordinates": [
          44.308242539288656,
          32.09487096425872
        ],
        "type": "Point"
      },
      "properties": {
        "anchor_kind": "shop:mall",
        "anchor_name": "مول حمودي",
        "archetype": "depot-terminal",
        "chainage_m": 36699.9,
        "corridor_offset_m": 0.0,
        "id": "line-2-0028-0605-s036700",
        "junction_group": null,
        "line": "line-2",
        "platform_length_m": 85.0
      },
      "type": "Feature"
    },
    {
      "geometry": {
        "coordinates": [
          44.350813555633856,
          32.055638339992086
        ],
        "type": "Point"
      },
      "properties": {
        "anchor_kind": "amenity:marketplace",
        "anchor_name": "سوق هرج الوفاء",
        "archetype": "terminal",
        "chainage_m": 0.0,
        "corridor_offset_m": 5.991,
        "id": "line-3-0246-0806-s000000",
        "junction_group": 7,
        "line": "line-3",
        "platform_length_m": 85.0
      },
      "type": "Feature"
    },
    {
      "geometry": {
        "coordinates": [
          44.36161515679608,
          32.05707806932297
        ],
        "type": "Point"
      },
      "properties": {
        "anchor_kind": "amenity:hospital",
        "anchor_name": "مركز صحي حسين ناجي",
        "archetype": "standard",
        "chainage_m": 2016.8,
        "corridor_offset_m": 10.641,
        "id": "line-3-0238-0857-s002017",
        "junction_group": null,
        "line": "line-3",
        "platform_length_m": 85.0
      },
      "type": "Feature"
    },
    {
      "geometry": {
        "coordinates": [
          44.37262855405951,
          32.0491595580031
        ],
        "type": "Point"
      },
      "properties": {
        "anchor_kind": "amenity:hospital",
        "anchor_name": "مركز صحي السهيلية",
        "archetype": "interchange-elevated",
        "chainage_m": 4018.5,
        "corridor_offset_m": 8.25,
        "id": "line-3-0282-0909-s004018",
        "junction_group": 2,
        "line": "line-3",
        "platform_length_m": 85.0
      },
      "type": "Feature"
    },
    {
      "geometry": {
        "coordinates": [
          44.37347573846439,
          32.046640031674045
        ],
        "type": "Point"
      },
      "properties": {
        "anchor_kind": null,
        "anchor_name": null,
        "archetype": "interchange-elevated",
        "chainage_m": 4331.6,
        "corridor_offset_m": 9.234,
        "id": "line-3-0296-0913-s004332",
        "junction_group": 2,
        "line": "line-3",
        "platform_length_m": 85.0
      },
      "type": "Feature"
    },
    {
      "geometry": {
        "coordinates": [
          44.37813525269123,
          32.03296260303063
        ],
        "type": "Point"
      },
      "properties": {
        "anchor_kind": null,
        "anchor_name": null,
        "archetype": "interchange-elevated",
        "chainage_m": 6033.9,
        "corridor_offset_m": 5.472,
        "id": "line-3-0372-0935-s006034",
        "junction_group": 2,
        "line": "line-3",
        "platform_length_m": 85.0
      },
      "type": "Feature"
    },
    {
      "geometry": {
        "coordinates": [
          44.38004141760221,
          32.02270453154807
        ],
        "type": "Point"
      },
      "properties": {
        "anchor_kind": "amenity:hospital",
        "anchor_name": "مستشفى ابن بلال الاهلي",
        "archetype": "interchange-elevated",
        "chainage_m": 7248.4,
        "corridor_offset_m": 11.545,
        "id": "line-3-0429-0944-s007248",
        "junction_group": 2,
        "line": "line-3",
        "platform_length_m": 85.0
      },
      "type": "Feature"
    },
    {
      "geometry": {
        "coordinates": [
          44.390207630460765,
          32.00866717057193
        ],
        "type": "Point"
      },
      "properties": {
        "anchor_kind": "shop:mall",
        "anchor_name": "جوري مول",
        "archetype": "standard",
        "chainage_m": 9252.9,
        "corridor_offset_m": 9.829,
        "id": "line-3-0507-0992-s009253",
        "junction_group": null,
        "line": "line-3",
        "platform_length_m": 85.0
      },
      "type": "Feature"
    },
    {
      "geometry": {
        "coordinates": [
          44.380253213703426,
          31.99984882842026
        ],
        "type": "Point"
      },
      "properties": {
        "anchor_kind": "tourism:attraction",
        "anchor_name": "مطار النجف",
        "archetype": "standard",
        "chainage_m": 11269.2,
        "corridor_offset_m": 6.455,
        "id": "line-3-0556-0945-s011269",
        "junction_group": null,
        "line": "line-3",
        "platform_length_m": 85.0
      },
      "type": "Feature"
    },
    {
      "geometry": {
        "coordinates": [
          44.38364195132294,
          31.984911636612317
        ],
        "type": "Point"
      },
      "properties": {
        "anchor_kind": null,
        "anchor_name": null,
        "archetype": "standard",
        "chainage_m": 13274.3,
        "corridor_offset_m": 4.74,
        "id": "line-3-0639-0961-s013274",
        "junction_group": null,
        "line": "line-3",
        "platform_length_m": 85.0
      },
      "type": "Feature"
    },
    {
      "geometry": {
        "coordinates": [
          44.387666077246124,
          31.969434546305298
        ],
        "type": "Point"
      },
      "properties": {
        "anchor_kind": null,
        "anchor_name": null,
        "archetype": "standard",
        "chainage_m": 15284.2,
        "corridor_offset_m": 3.154,
        "id": "line-3-0725-0980-s015284",
        "junction_group": null,
        "line": "line-3",
        "platform_length_m": 85.0
      },
      "type": "Feature"
    },
    {
      "geometry": {
        "coordinates": [
          44.40079743552176,
          31.95773674549185
        ],
        "type": "Point"
      },
      "properties": {
        "anchor_kind": null,
        "anchor_name": null,
        "archetype": "standard",
        "chainage_m": 17285.3,
        "corridor_offset_m": 1.761,
        "id": "line-3-0790-1042-s017285",
        "junction_group": null,
        "line": "line-3",
        "platform_length_m": 85.0
      },
      "type": "Feature"
    },
    {
      "geometry": {
        "coordinates": [
          44.40905748346933,
          31.951797862001946
        ],
        "type": "Point"
      },
      "properties": {
        "anchor_kind": "amenity:hospital",
        "anchor_name": "مركز الرضويه الصحي",
        "archetype": "terminal",
        "chainage_m": 18491.0,
        "corridor_offset_m": 0.0,
        "id": "line-3-0823-1081-s018491",
        "junction_group": null,
        "line": "line-3",
        "platform_length_m": 85.0
      },
      "type": "Feature"
    },
    {
      "geometry": {
        "coordinates": [
          44.407363114659574,
          32.0088471367383
        ],
        "type": "Point"
      },
      "properties": {
        "anchor_kind": "shop:mall",
        "anchor_name": "مول القمة",
        "archetype": "terminal",
        "chainage_m": 0.0,
        "corridor_offset_m": 0.0,
        "id": "line-4-0506-1073-s000000",
        "junction_group": null,
        "line": "line-4",
        "platform_length_m": 85.0
      },
      "type": "Feature"
    },
    {
      "geometry": {
        "coordinates": [
          44.39634971739614,
          32.01910520822086
        ],
        "type": "Point"
      },
      "properties": {
        "anchor_kind": "amenity:marketplace",
        "anchor_name": "اسواق البدر",
        "archetype": "standard",
        "chainage_m": 2014.0,
        "corridor_offset_m": 33.197,
        "id": "line-4-0449-1021-s002014",
        "junction_group": null,
        "line": "line-4",
        "platform_length_m": 85.0
      },
      "type": "Feature"
    },
    {
      "geometry": {
        "coordinates": [
          44.38364195132294,
          32.02216463304899
        ],
        "type": "Point"
      },
      "properties": {
        "anchor_kind": "amenity:hospital",
        "anchor_name": "مستشفى الغدير الاهلي",
        "archetype": "interchange-elevated",
        "chainage_m": 4023.9,
        "corridor_offset_m": 36.418,
        "id": "line-4-0432-0961-s004024",
        "junction_group": 2,
        "line": "line-4",
        "platform_length_m": 85.0
      },
      "type": "Feature"
    },
    {
      "geometry": {
        "coordinates": [
          44.37114598135097,
          32.02234459921535
        ],
        "type": "Point"
      },
      "properties": {
        "anchor_kind": "amenity:college",
        "anchor_name": "كليه الصيدلة",
        "archetype": "major",
        "chainage_m": 5228.8,
        "corridor_offset_m": 80.508,
        "id": "line-4-0431-0902-s005229",
        "junction_group": null,
        "line": "line-4",
        "platform_length_m": 85.0
      },
      "type": "Feature"
    },
    {
      "geometry": {
        "coordinates": [
          44.364580302213156,
          32.03170283986611
        ],
        "type": "Point"
      },
      "properties": {
        "anchor_kind": null,
        "anchor_name": null,
        "archetype": "interchange-elevated",
        "chainage_m": 6659.3,
        "corridor_offset_m": 62.57,
        "id": "line-4-0379-0871-s006659",
        "junction_group": 4,
        "line": "line-4",
        "platform_length_m": 85.0
      },
      "type": "Feature"
    },
    {
      "geometry": {
        "coordinates": [
          44.362250545099734,
          32.03602202785876
        ],
        "type": "Point"
      },
      "properties": {
        "anchor_kind": null,
        "anchor_name": null,
        "archetype": "interchange-elevated",
        "chainage_m": 7230.4,
        "corridor_offset_m": 51.518,
        "id": "line-4-0355-0860-s007230",
        "junction_group": 4,
        "line": "line-4",
        "platform_length_m": 85.0
      },
      "type": "Feature"
    },
    {
      "geometry": {
        "coordinates": [
          44.359285399682655,
          32.03746175718965
        ],
        "type": "Point"
      },
      "properties": {
        "anchor_kind": null,
        "anchor_name": null,
        "archetype": "interchange-elevated",
        "chainage_m": 7588.4,
        "corridor_offset_m": 63.455,
        "id": "line-4-0347-0846-s007588",
        "junction_group": 4,
        "line": "line-4",
        "platform_length_m": 85.0
      },
      "type": "Feature"
    },
    {
      "geometry": {
        "coordinates": [
          44.34954277902654,
          32.040881114350505
        ],
        "type": "Point"
      },
      "properties": {
        "anchor_kind": "shop:mall",
        "anchor_name": "الحارس مول",
        "archetype": "standard",
        "chainage_m": 9250.1,
        "corridor_offset_m": 17.923,
        "id": "line-4-0328-0800-s009250",
        "junction_group": null,
        "line": "line-4",
        "platform_length_m": 85.0
      },
      "type": "Feature"
    },
    {
      "geometry": {
        "coordinates": [
          44.331328314321624,
          32.03458229852788
        ],
        "type": "Point"
      },
      "properties": {
        "anchor_kind": "amenity:hospital",
        "anchor_name": "مستشفى النجف الاشرف التعليمي",
        "archetype": "standard",
        "chainage_m": 11276.6,
        "corridor_offset_m": 50.161,
        "id": "line-4-0363-0714-s011277",
        "junction_group": null,
        "line": "line-4",
        "platform_length_m": 85.0
      },
      "type": "Feature"
    },
    {
      "geometry": {
        "coordinates": [
          44.318408752147214,
          32.03872152035417
        ],
        "type": "Point"
      },
      "properties": {
        "anchor_kind": "shop:mall",
        "anchor_name": "مطعم حمزة ابو جواد + كوفي 90",
        "archetype": "standard",
        "chainage_m": 13287.1,
        "corridor_offset_m": 46.459,
        "id": "line-4-0340-0653-s013287",
        "junction_group": null,
        "line": "line-4",
        "platform_length_m": 85.0
      },
      "type": "Feature"
    },
    {
      "geometry": {
        "coordinates": [
          44.305489189972796,
          32.04484037001044
        ],
        "type": "Point"
      },
      "properties": {
        "anchor_kind": null,
        "anchor_name": null,
        "archetype": "interchange-elevated",
        "chainage_m": 15303.1,
        "corridor_offset_m": 16.732,
        "id": "line-4-0306-0592-s015303",
        "junction_group": 8,
        "line": "line-4",
        "platform_length_m": 85.0
      },
      "type": "Feature"
    },
    {
      "geometry": {
        "coordinates": [
          44.3033712289606,
          32.05707806932297
        ],
        "type": "Point"
      },
      "properties": {
        "anchor_kind": "shop:mall",
        "anchor_name": "مول نصر الله",
        "archetype": "standard",
        "chainage_m": 16814.3,
        "corridor_offset_m": 8.308,
        "id": "line-4-0238-0582-s016814",
        "junction_group": null,
        "line": "line-4",
        "platform_length_m": 85.0
      },
      "type": "Feature"
    },
    {
      "geometry": {
        "coordinates": [
          44.290028074583745,
          32.05581830615844
        ],
        "type": "Point"
      },
      "properties": {
        "anchor_kind": null,
        "anchor_name": null,
        "archetype": "halt",
        "chainage_m": 18306.8,
        "corridor_offset_m": 15.332,
        "id": "line-4-0245-0519-s018307",
        "junction_group": null,
        "line": "line-4",
        "platform_length_m": 81.0
      },
      "type": "Feature"
    },
    {
      "geometry": {
        "coordinates": [
          44.26673050344955,
          32.055638339992086
        ],
        "type": "Point"
      },
      "properties": {
        "anchor_kind": null,
        "anchor_name": null,
        "archetype": "halt",
        "chainage_m": 21308.7,
        "corridor_offset_m": 67.095,
        "id": "line-4-0246-0409-s021309",
        "junction_group": null,
        "line": "line-4",
        "platform_length_m": 81.0
      },
      "type": "Feature"
    },
    {
      "geometry": {
        "coordinates": [
          44.23983239859462,
          32.07165532879819
        ],
        "type": "Point"
      },
      "properties": {
        "anchor_kind": null,
        "anchor_name": null,
        "archetype": "halt",
        "chainage_m": 24656.3,
        "corridor_offset_m": 85.104,
        "id": "line-4-0157-0282-s024656",
        "junction_group": null,
        "line": "line-4",
        "platform_length_m": 81.0
      },
      "type": "Feature"
    },
    {
      "geometry": {
        "coordinates": [
          44.21462866254946,
          32.08299319727891
        ],
        "type": "Point"
      },
      "properties": {
        "anchor_kind": "tourism:attraction",
        "anchor_name": null,
        "archetype": "terminal",
        "chainage_m": 28015.1,
        "corridor_offset_m": 0.0,
        "id": "line-4-0094-0163-s028015",
        "junction_group": null,
        "line": "line-4",
        "platform_length_m": 85.0
      },
      "type": "Feature"
    },
    {
      "geometry": {
        "coordinates": [
          44.22161793388971,
          31.956117049994603
        ],
        "type": "Point"
      },
      "properties": {
        "anchor_kind": "tourism:attraction",
        "anchor_name": "بحر النجف شلاكة",
        "archetype": "terminal",
        "chainage_m": 0.0,
        "corridor_offset_m": 0.0,
        "id": "line-5-0799-0196-s000000",
        "junction_group": null,
        "line": "line-5",
        "platform_length_m": 85.0
      },
      "type": "Feature"
    },
    {
      "geometry": {
        "coordinates": [
          44.24957501925074,
          31.94801857250837
        ],
        "type": "Point"
      },
      "properties": {
        "anchor_kind": null,
        "anchor_name": null,
        "archetype": "halt",
        "chainage_m": 3012.8,
        "corridor_offset_m": 41.276,
        "id": "line-5-0844-0328-s003013",
        "junction_group": null,
        "line": "line-5",
        "platform_length_m": 81.0
      },
      "type": "Feature"
    },
    {
      "geometry": {
        "coordinates": [
          44.26927205666419,
          31.949098369506533
        ],
        "type": "Point"
      },
      "properties": {
        "anchor_kind": null,
        "anchor_name": null,
        "archetype": "standard",
        "chainage_m": 5021.9,
        "corridor_offset_m": 35.167,
        "id": "line-5-0838-0421-s005022",
        "junction_group": null,
        "line": "line-5",
        "platform_length_m": 85.0
      },
      "type": "Feature"
    },
    {
      "geometry": {
        "coordinates": [
          44.286003948660564,
          31.953957455998275
        ],
        "type": "Point"
      },
      "properties": {
        "anchor_kind": null,
        "anchor_name": null,
        "archetype": "standard",
        "chainage_m": 7029.6,
        "corridor_offset_m": 23.746,
        "id": "line-5-0811-0500-s007030",
        "junction_group": null,
        "line": "line-5",
        "platform_length_m": 85.0
      },
      "type": "Feature"
    },
    {
      "geometry": {
        "coordinates": [
          44.290239870684964,
          31.9703343771371
        ],
        "type": "Point"
      },
      "properties": {
        "anchor_kind": null,
        "anchor_name": null,
        "archetype": "standard",
        "chainage_m": 9048.4,
        "corridor_offset_m": 9.7,
        "id": "line-5-0720-0520-s009048",
        "junction_group": null,
        "line": "line-5",
        "platform_length_m": 85.0
      },
      "type": "Feature"
    },
    {
      "geometry": {
        "coordinates": [
          44.30908972369354,
          31.97321383579887
        ],
        "type": "Point"
      },
      "properties": {
        "anchor_kind": null,
        "anchor_name": null,
        "archetype": "standard",
        "chainage_m": 11059.6,
        "corridor_offset_m": 0.255,
        "id": "line-5-0704-0609-s011060",
        "junction_group": null,
        "line": "line-5",
        "platform_length_m": 85.0
      },
      "type": "Feature"
    },
    {
      "geometry": {
        "coordinates": [
          44.32878676110699,
          31.971954072634347
        ],
        "type": "Point"
      },
      "properties": {
        "anchor_kind": null,
        "anchor_name": null,
        "archetype": "standard",
        "chainage_m": 13060.4,
        "corridor_offset_m": 17.261,
        "id": "line-5-0711-0702-s013060",
        "junction_group": null,
        "line": "line-5",
        "platform_length_m": 85.0
      },
      "type": "Feature"
    },
    {
      "geometry": {
        "coordinates": [
          44.34742481801434,
          31.96799481697441
        ],
        "type": "Point"
      },
      "properties": {
        "anchor_kind": null,
        "anchor_name": null,
        "archetype": "interchange-elevated",
        "chainage_m": 15085.5,
        "corridor_offset_m": 88.686,
        "id": "line-5-0733-0790-s015085",
        "junction_group": 0,
        "line": "line-5",
        "platform_length_m": 85.0
      },
      "type": "Feature"
    },
    {
      "geometry": {
        "coordinates": [
          44.3628859334034,
          31.95827664399093
        ],
        "type": "Point"
      },
      "properties": {
        "anchor_kind": null,
        "anchor_name": null,
        "archetype": "standard",
        "chainage_m": 17086.6,
        "corridor_offset_m": 134.73,
        "id": "line-5-0787-0863-s017087",
        "junction_group": null,
        "line": "line-5",
        "platform_length_m": 85.0
      },
      "type": "Feature"
    },
    {
      "geometry": {
        "coordinates": [
          44.383430155221724,
          31.958456610157292
        ],
        "type": "Point"
      },
      "properties": {
        "anchor_kind": null,
        "anchor_name": null,
        "archetype": "standard",
        "chainage_m": 19101.1,
        "corridor_offset_m": 110.651,
        "id": "line-5-0786-0960-s019101",
        "junction_group": null,
        "line": "line-5",
        "platform_length_m": 85.0
      },
      "type": "Feature"
    },
    {
      "geometry": {
        "coordinates": [
          44.40037384331932,
          31.96745491847533
        ],
        "type": "Point"
      },
      "properties": {
        "anchor_kind": null,
        "anchor_name": null,
        "archetype": "standard",
        "chainage_m": 21115.3,
        "corridor_offset_m": 65.114,
        "id": "line-5-0736-1040-s021115",
        "junction_group": null,
        "line": "line-5",
        "platform_length_m": 85.0
      },
      "type": "Feature"
    },
    {
      "geometry": {
        "coordinates": [
          44.41625855091081,
          31.97105424180254
        ],
        "type": "Point"
      },
      "properties": {
        "anchor_kind": null,
        "anchor_name": null,
        "archetype": "standard",
        "chainage_m": 22781.0,
        "corridor_offset_m": 35.775,
        "id": "line-5-0716-1115-s022781",
        "junction_group": null,
        "line": "line-5",
        "platform_length_m": 85.0
      },
      "type": "Feature"
    },
    {
      "geometry": {
        "coordinates": [
          44.433837627312066,
          31.97105424180254
        ],
        "type": "Point"
      },
      "properties": {
        "anchor_kind": "shop:mall",
        "anchor_name": "مول أنوار السفير",
        "archetype": "terminal",
        "chainage_m": 24441.0,
        "corridor_offset_m": 0.0,
        "id": "line-5-0716-1198-s024441",
        "junction_group": null,
        "line": "line-5",
        "platform_length_m": 85.0
      },
      "type": "Feature"
    },
    {
      "geometry": {
        "coordinates": [
          44.290239870684964,
          32.03656192635785
        ],
        "type": "Point"
      },
      "properties": {
        "anchor_kind": null,
        "anchor_name": null,
        "archetype": "standard",
        "chainage_m": 1950.5,
        "corridor_offset_m": 73.561,
        "id": "line-6-0352-0520-s001951",
        "junction_group": null,
        "line": "line-6",
        "platform_length_m": 85.0
      },
      "type": "Feature"
    },
    {
      "geometry": {
        "coordinates": [
          44.305489189972796,
          32.04484037001044
        ],
        "type": "Point"
      },
      "properties": {
        "anchor_kind": null,
        "anchor_name": null,
        "archetype": "interchange-elevated",
        "chainage_m": 3888.8,
        "corridor_offset_m": 98.593,
        "id": "line-6-0306-0592-s003889",
        "junction_group": 8,
        "line": "line-6",
        "platform_length_m": 85.0
      },
      "type": "Feature"
    },
    {
      "geometry": {
        "coordinates": [
          44.32031491705819,
          32.04789979483857
        ],
        "type": "Point"
      },
      "properties": {
        "anchor_kind": "amenity:hospital",
        "anchor_name": "مركز صحي الجمعية",
        "archetype": "interchange-elevated",
        "chainage_m": 5429.6,
        "corridor_offset_m": 103.754,
        "id": "line-6-0289-0662-s005430",
        "junction_group": 6,
        "line": "line-6",
        "platform_length_m": 85.0
      },
      "type": "Feature"
    },
    {
      "geometry": {
        "coordinates": [
          44.33196370262529,
          32.05455854299392
        ],
        "type": "Point"
      },
      "properties": {
        "anchor_kind": "amenity:hospital",
        "anchor_name": "عيادة الدكتور احمد المظفر مكتب الرشيد",
        "archetype": "interchange-elevated",
        "chainage_m": 6976.7,
        "corridor_offset_m": 82.237,
        "id": "line-6-0252-0717-s006977",
        "junction_group": 5,
        "line": "line-6",
        "platform_length_m": 85.0
      },
      "type": "Feature"
    },
    {
      "geometry": {
        "coordinates": [
          44.335352440244804,
          32.05581830615844
        ],
        "type": "Point"
      },
      "properties": {
        "anchor_kind": null,
        "anchor_name": null,
        "archetype": "interchange-elevated",
        "chainage_m": 7354.7,
        "corridor_offset_m": 68.326,
        "id": "line-6-0245-0733-s007355",
        "junction_group": 5,
        "line": "line-6",
        "platform_length_m": 85.0
      },
      "type": "Feature"
    },
    {
      "geometry": {
        "coordinates": [
          44.3491191868241,
          32.05851779865385
        ],
        "type": "Point"
      },
      "properties": {
        "anchor_kind": "place:neighbourhood",
        "anchor_name": "الدور الهنديه",
        "archetype": "interchange-elevated",
        "chainage_m": 8986.7,
        "corridor_offset_m": 33.122,
        "id": "line-6-0230-0798-s008987",
        "junction_group": 7,
        "line": "line-6",
        "platform_length_m": 85.0
      },
      "type": "Feature"
    },
    {
      "geometry": {
        "coordinates": [
          44.350813555633856,
          32.055638339992086
        ],
        "type": "Point"
      },
      "properties": {
        "anchor_kind": null,
        "anchor_name": null,
        "archetype": "interchange-elevated",
        "chainage_m": 9372.9,
        "corridor_offset_m": 24.847,
        "id": "line-6-0246-0806-s009373",
        "junction_group": 7,
        "line": "line-6",
        "platform_length_m": 85.0
      },
      "type": "Feature"
    },
    {
      "geometry": {
        "coordinates": [
          44.36119156459363,
          32.04250080984775
        ],
        "type": "Point"
      },
      "properties": {
        "anchor_kind": null,
        "anchor_name": null,
        "archetype": "interchange-elevated",
        "chainage_m": 11431.2,
        "corridor_offset_m": 35.862,
        "id": "line-6-0319-0855-s011431",
        "junction_group": 4,
        "line": "line-6",
        "platform_length_m": 85.0
      },
      "type": "Feature"
    },
    {
      "geometry": {
        "coordinates": [
          44.37347573846439,
          32.046640031674045
        ],
        "type": "Point"
      },
      "properties": {
        "anchor_kind": null,
        "anchor_name": null,
        "archetype": "interchange-elevated",
        "chainage_m": 12781.7,
        "corridor_offset_m": 58.095,
        "id": "line-6-0296-0913-s012782",
        "junction_group": 2,
        "line": "line-6",
        "platform_length_m": 85.0
      },
      "type": "Feature"
    },
    {
      "geometry": {
        "coordinates": [
          44.37580549557781,
          32.046999964006766
        ],
        "type": "Point"
      },
      "properties": {
        "anchor_kind": "amenity:hospital",
        "anchor_name": "مركز صحي السهيلية",
        "archetype": "interchange-elevated",
        "chainage_m": 13018.3,
        "corridor_offset_m": 55.074,
        "id": "line-6-0294-0924-s013018",
        "junction_group": 2,
        "line": "line-6",
        "platform_length_m": 85.0
      },
      "type": "Feature"
    },
    {
      "geometry": {
        "coordinates": [
          44.393172775877844,
          32.050419321167624
        ],
        "type": "Point"
      },
      "properties": {
        "anchor_kind": null,
        "anchor_name": null,
        "archetype": "interchange-elevated",
        "chainage_m": 15042.8,
        "corridor_offset_m": 65.919,
        "id": "line-6-0275-1006-s015043",
        "junction_group": 3,
        "line": "line-6",
        "platform_length_m": 85.0
      },
      "type": "Feature"
    },
    {
      "geometry": {
        "coordinates": [
          44.395926125193704,
          32.046640031674045
        ],
        "type": "Point"
      },
      "properties": {
        "anchor_kind": null,
        "anchor_name": null,
        "archetype": "interchange-elevated",
        "chainage_m": 15570.5,
        "corridor_offset_m": 58.168,
        "id": "line-6-0296-1019-s015570",
        "junction_group": 3,
        "line": "line-6",
        "platform_length_m": 85.0
      },
      "type": "Feature"
    },
    {
      "geometry": {
        "coordinates": [
          44.40630413415348,
          32.04142101284958
        ],
        "type": "Point"
      },
      "properties": {
        "anchor_kind": "amenity:bus_station",
        "anchor_name": "التكسي النهري",
        "archetype": "interchange-elevated",
        "chainage_m": 17047.3,
        "corridor_offset_m": 33.804,
        "id": "line-6-0325-1068-s017047",
        "junction_group": 3,
        "line": "line-6",
        "platform_length_m": 85.0
      },
      "type": "Feature"
    },
    {
      "geometry": {
        "coordinates": [
          44.404609765343714,
          32.03530216319332
        ],
        "type": "Point"
      },
      "properties": {
        "anchor_kind": "amenity:marketplace",
        "anchor_name": "سوق النسوان",
        "archetype": "standard",
        "chainage_m": 18373.0,
        "corridor_offset_m": 0.364,
        "id": "line-6-0359-1060-s018373",
        "junction_group": null,
        "line": "line-6",
        "platform_length_m": 85.0
      },
      "type": "Feature"
    },
    {
      "geometry": {
        "coordinates": [
          44.3906312226632,
          32.0349422308606
        ],
        "type": "Point"
      },
      "properties": {
        "anchor_kind": "amenity:hospital",
        "anchor_name": "مستشفى الفرات الاوسط",
        "archetype": "interchange-elevated",
        "chainage_m": 19709.5,
        "corridor_offset_m": 40.903,
        "id": "line-6-0361-0994-s019710",
        "junction_group": 2,
        "line": "line-6",
        "platform_length_m": 85.0
      },
      "type": "Feature"
    },
    {
      "geometry": {
        "coordinates": [
          44.37855884489367,
          32.03728179102329
        ],
        "type": "Point"
      },
      "properties": {
        "anchor_kind": "shop:mall",
        "anchor_name": "مول السفير2",
        "archetype": "interchange-elevated",
        "chainage_m": 21056.7,
        "corridor_offset_m": 16.259,
        "id": "line-6-0348-0937-s021057",
        "junction_group": 2,
        "line": "line-6",
        "platform_length_m": 85.0
      },
      "type": "Feature"
    },
    {
      "geometry": {
        "coordinates": [
          44.364580302213156,
          32.03170283986611
        ],
        "type": "Point"
      },
      "properties": {
        "anchor_kind": null,
        "anchor_name": null,
        "archetype": "interchange-elevated",
        "chainage_m": 22633.5,
        "corridor_offset_m": 39.129,
        "id": "line-6-0379-0871-s022633",
        "junction_group": 4,
        "line": "line-6",
        "platform_length_m": 85.0
      },
      "type": "Feature"
    },
    {
      "geometry": {
        "coordinates": [
          44.36119156459363,
          32.02936327970342
        ],
        "type": "Point"
      },
      "properties": {
        "anchor_kind": "amenity:hospital",
        "anchor_name": "مركز الحياة",
        "archetype": "interchange-elevated",
        "chainage_m": 23061.2,
        "corridor_offset_m": 42.647,
        "id": "line-6-0392-0855-s023061",
        "junction_group": 4,
        "line": "line-6",
        "platform_length_m": 85.0
      },
      "type": "Feature"
    },
    {
      "geometry": {
        "coordinates": [
          44.35060175953264,
          32.02558399020984
        ],
        "type": "Point"
      },
      "properties": {
        "anchor_kind": null,
        "anchor_name": null,
        "archetype": "interchange-elevated",
        "chainage_m": 24235.1,
        "corridor_offset_m": 18.504,
        "id": "line-6-0413-0805-s024235",
        "junction_group": 4,
        "line": "line-6",
        "platform_length_m": 85.0
      },
      "type": "Feature"
    },
    {
      "geometry": {
        "coordinates": [
          44.34318889598994,
          32.02540402404348
        ],
        "type": "Point"
      },
      "properties": {
        "anchor_kind": "place:neighbourhood",
        "anchor_name": "حي السلام",
        "archetype": "interchange-elevated",
        "chainage_m": 25078.0,
        "corridor_offset_m": 15.928,
        "id": "line-6-0414-0770-s025078",
        "junction_group": 4,
        "line": "line-6",
        "platform_length_m": 85.0
      },
      "type": "Feature"
    },
    {
      "geometry": {
        "coordinates": [
          44.32560981958869,
          32.024144260878955
        ],
        "type": "Point"
      },
      "properties": {
        "anchor_kind": "amenity:hospital",
        "anchor_name": "د. نهلة إدريس",
        "archetype": "standard",
        "chainage_m": 27096.2,
        "corridor_offset_m": 27.196,
        "id": "line-6-0421-0687-s027096",
        "junction_group": null,
        "line": "line-6",
        "platform_length_m": 85.0
      },
      "type": "Feature"
    },
    {
      "geometry": {
        "coordinates": [
          44.308666131491094,
          32.02180470071627
        ],
        "type": "Point"
      },
      "properties": {
        "anchor_kind": null,
        "anchor_name": null,
        "archetype": "standard",
        "chainage_m": 29101.3,
        "corridor_offset_m": 74.242,
        "id": "line-6-0434-0607-s029101",
        "junction_group": null,
        "line": "line-6",
        "platform_length_m": 85.0
      },
      "type": "Feature"
    },
    {
      "geometry": {
        "coordinates": [
          44.28833370577399,
          32.019645106719935
        ],
        "type": "Point"
      },
      "properties": {
        "anchor_kind": "tourism:attraction",
        "anchor_name": "قطعة اياد عبدالباري المشرفاوي",
        "archetype": "standard",
        "chainage_m": 31120.7,
        "corridor_offset_m": 12.788,
        "id": "line-6-0446-0511-s031121",
        "junction_group": null,
        "line": "line-6",
        "platform_length_m": 85.0
      },
      "type": "Feature"
    }
  ],
  "type": "FeatureCollection"
}
