{
  "features": [
    {
      "geometry": {
        "coordinates": [
          85.36262579025725,
          27.6755171627734
        ],
        "type": "Point"
      },
      "properties": {
        "id": "interchange-000",
        "junction_group": 0,
        "line_count": 2,
        "lines": "line-1,line-6",
        "platform_count": 3,
        "platforms": "line-1-0807-0895-s008287,line-6-0793-0908-s035168,line-6-0807-0895-s035603"
      },
      "type": "Feature"
    },
    {
      "geometry": {
        "coordinates": [
          85.34896014490369,
          27.683855595148113
        ],
        "type": "Point"
      },
      "properties": {
        "id": "interchange-001",
        "junction_group": 1,
        "line_count": 2,
        "lines": "line-1,line-5",
        "platform_count": 2,
        "platforms": "line-1-0768-0834-s010275,line-5-0744-0830-s013389"
      },
      "type": "Feature"
    },
    {
      "geometry": {
        "coordinates": [
          85.33759465767893,
          27.708870892272255
        ],
        "type": "Point"
      },
      "properties": {
        "id": "interchange-002",
        "junction_group": 2,
        "line_count": 2,
        "lines": "line-1,line-2",
        "platform_count": 3,
        "platforms": "line-1-0621-0772-s015028,line-2-0597-0785-s021918,line-2-0633-0771-s020706"
      },
      "type": "Feature"
    },
    {
      "geometry": {
        "coordinates": [
          85.31831392042265,
          27.71516970809488
        ],
        "type": "Point"
      },
      "properties": {
        "id": "interchange-003",
        "junction_group": 3,
        "line_count": 2,
        "lines": "line-1,line-3",
        "platform_count": 2,
        "platforms": "line-1-0582-0681-s017804,line-3-0582-0681-s007509"
      },
      "type": "Feature"
    },
    {
      "geometry": {
        "coordinates": [
          85.29903318316639,
          27.743224433806446
        ],
        "type": "Point"
      },
      "properties": {
        "id": "interchange-004",
        "junction_group": 4,
        "line_count": 3,
        "lines": "line-1,line-4,line-6",
        "platform_count": 9,
        "platforms": "line-1-0431-0589-s023103,line-1-0432-0583-s023385,line-4-0382-0592-s004837,line-4-0425-0588-s006056,line-4-0462-0600-s007105,line-6-0382-0567-s009073,line-6-0427-0572-s008048,line-6-0432-0583-s007787,line-6-0462-0600-s007034"
      },
      "type": "Feature"
    },
    {
      "geometry": {
        "coordinates": [
          85.27378556511711,
          27.67039412590433
        ],
        "type": "Point"
      },
      "properties": {
        "id": "interchange-005",
        "junction_group": 5,
        "line_count": 3,
        "lines": "line-2,line-4,line-6",
        "platform_count": 10,
        "platforms": "line-2-0816-0501-s011505,line-2-0817-0475-s010943,line-2-0833-0444-s010174,line-2-0845-0431-s009723,line-4-0820-0452-s017317,line-4-0840-0459-s017787,line-6-0827-0433-s049289,line-6-0833-0444-s049020,line-6-0837-0518-s047308,line-6-0840-0459-s048662"
      },
      "type": "Feature"
    },
    {
      "geometry": {
        "coordinates": [
          85.31582047169478,
          27.690848566183842
        ],
        "type": "Point"
      },
      "properties": {
        "id": "interchange-006",
        "junction_group": 6,
        "line_count": 3,
        "lines": "line-2,line-3,line-5",
        "platform_count": 7,
        "platforms": "line-2-0703-0623-s015866,line-2-0711-0678-s017082,line-3-0705-0662-s010515,line-3-0740-0701-s011731,line-5-0702-0622-s018226,line-5-0725-0672-s017024,line-5-0734-0723-s015818"
      },
      "type": "Feature"
    },
    {
      "geometry": {
        "coordinates": [
          85.37838863861063,
          27.73726055501566
        ],
        "type": "Point"
      },
      "properties": {
        "id": "interchange-007",
        "junction_group": 7,
        "line_count": 2,
        "lines": "line-2,line-6",
        "platform_count": 4,
        "platforms": "line-2-0445-0975-s028918,line-2-0474-0979-s028114,line-6-0444-0975-s025131,line-6-0474-0979-s025764"
      },
      "type": "Feature"
    },
    {
      "geometry": {
        "coordinates": [
          85.32873228371201,
          27.653741256643755
        ],
        "type": "Point"
      },
      "properties": {
        "id": "interchange-008",
        "junction_group": 8,
        "line_count": 2,
        "lines": "line-3,line-6",
        "platform_count": 6,
        "platforms": "line-3-0906-0721-s016972,line-3-0915-0718-s017217,line-3-0942-0748-s020218,line-6-0915-0718-s041797,line-6-0919-0740-s041230,line-6-0943-0749-s040597"
      },
      "type": "Feature"
    },
    {
      "geometry": {
        "coordinates": [
          85.30431001652073,
          27.76807976100493
        ],
        "type": "Point"
      },
      "properties": {
        "id": "interchange-009",
        "junction_group": 9,
        "line_count": 2,
        "lines": "line-4,line-6",
        "platform_count": 4,
        "platforms": "line-4-0274-0621-s002028,line-4-0292-0611-s002511,line-6-0292-0611-s012193,line-6-0294-0605-s012057"
      },
      "type": "Feature"
    },
    {
      "geometry": {
        "coordinates": [
          85.38807974602102,
          27.701717237159414
        ],
        "type": "Point"
      },
      "properties": {
        "id": "interchange-010",
        "junction_group": 10,
        "line_count": 2,
        "lines": "line-5,line-6",
        "platform_count": 4,
        "platforms": "line-5-0647-1030-s007458,line-5-0661-1009-s008029,line-6-0647-1030-s030656,line-6-0672-1030-s031156"
      },
      "type": "Feature"
    },
    {
      "geometry": {
        "coordinates": [
          85.25289471717066,
          27.69621327190488
        ],
        "type": "Point"
      },
      "properties": {
        "id": "interchange-011",
        "junction_group": 11,
        "line_count": 2,
        "lines": "line-5,line-6",
        "platform_count": 3,
        "platforms": "line-5-0693-0359-s026497,line-6-0676-0358-s053305,line-6-0693-0359-s052924"
      },
      "type": "Feature"
    }
  ],
  "type": "FeatureCollection"
}
