{
  "features": [
    {
      "geometry": {
        "coordinates": [
          44.39126111,
          14.58951391
        ],
        "type": "Point"
      },
      "properties": {
        "chainage_m": 0.0,
        "civil_class": "at-grade",
        "investigation_flags": [
          "fine-soil-plasticity-and-shrink-swell-tests",
          "granular-density-and-groundwater-tests"
        ],
        "lat": 14.58951391,
        "line": "line-1",
        "lon": 44.39126111,
        "sample_id": "segment:line-1-civil-001:0000",
        "scope_id": "line-1-civil-001",
        "scope_type": "civil_segment"
      },
      "type": "Feature"
    },
    {
      "geometry": {
        "coordinates": [
          44.39104706,
          14.58606697
        ],
        "type": "Point"
      },
      "properties": {
        "chainage_m": 392.15,
        "civil_class": "at-grade",
        "investigation_flags": [
          "fine-soil-plasticity-and-shrink-swell-tests",
          "granular-density-and-groundwater-tests"
        ],
        "lat": 14.58606697,
        "line": "line-1",
        "lon": 44.39104706,
        "sample_id": "segment:line-1-civil-001:0001",
        "scope_id": "line-1-civil-001",
        "scope_type": "civil_segment"
      },
      "type": "Feature"
    },
    {
      "geometry": {
        "coordinates": [
          44.38847698,
          14.58357342
        ],
        "type": "Point"
      },
      "properties": {
        "chainage_m": 784.3,
        "civil_class": "at-grade",
        "investigation_flags": [
          "fine-soil-plasticity-and-shrink-swell-tests",
          "granular-density-and-groundwater-tests"
        ],
        "lat": 14.58357342,
        "line": "line-1",
        "lon": 44.38847698,
        "sample_id": "segment:line-1-civil-001:0002",
        "scope_id": "line-1-civil-001",
        "scope_type": "civil_segment"
      },
      "type": "Feature"
    },
    {
      "geometry": {
        "coordinates": [
          44.38847698,
          14.58357342
        ],
        "type": "Point"
      },
      "properties": {
        "chainage_m": 784.3,
        "civil_class": "elevated",
        "investigation_flags": [
          "fine-soil-plasticity-and-shrink-swell-tests",
          "granular-density-and-groundwater-tests"
        ],
        "lat": 14.58357342,
        "line": "line-1",
        "lon": 44.38847698,
        "sample_id": "segment:line-1-civil-002:0000",
        "scope_id": "line-1-civil-002",
        "scope_type": "civil_segment"
      },
      "type": "Feature"
    },
    {
      "geometry": {
        "coordinates": [
          44.38850536,
          14.58318758
        ],
        "type": "Point"
      },
      "properties": {
        "chainage_m": 828.424,
        "civil_class": "elevated",
        "investigation_flags": [
          "fine-soil-plasticity-and-shrink-swell-tests",
          "granular-density-and-groundwater-tests"
        ],
        "lat": 14.58318758,
        "line": "line-1",
        "lon": 44.38850536,
        "sample_id": "segment:line-1-civil-002:0001",
        "scope_id": "line-1-civil-002",
        "scope_type": "civil_segment"
      },
      "type": "Feature"
    },
    {
      "geometry": {
        "coordinates": [
          44.38866259,
          14.58285388
        ],
        "type": "Point"
      },
      "properties": {
        "chainage_m": 872.548,
        "civil_class": "elevated",
        "investigation_flags": [
          "fine-soil-plasticity-and-shrink-swell-tests",
          "granular-density-and-groundwater-tests"
        ],
        "lat": 14.58285388,
        "line": "line-1",
        "lon": 44.38866259,
        "sample_id": "segment:line-1-civil-002:0002",
        "scope_id": "line-1-civil-002",
        "scope_type": "civil_segment"
      },
      "type": "Feature"
    },
    {
      "geometry": {
        "coordinates": [
          44.38866259,
          14.58285388
        ],
        "type": "Point"
      },
      "properties": {
        "chainage_m": 872.548,
        "civil_class": "elevated",
        "investigation_flags": [
          "fine-soil-plasticity-and-shrink-swell-tests",
          "granular-density-and-groundwater-tests"
        ],
        "lat": 14.58285388,
        "line": "line-1",
        "lon": 44.38866259,
        "sample_id": "segment:line-1-civil-003:0000",
        "scope_id": "line-1-civil-003",
        "scope_type": "civil_segment"
      },
      "type": "Feature"
    },
    {
      "geometry": {
        "coordinates": [
          44.39051868,
          14.57456705
        ],
        "type": "Point"
      },
      "properties": {
        "chainage_m": 1876.315,
        "civil_class": "elevated",
        "investigation_flags": [
          "fine-soil-plasticity-and-shrink-swell-tests",
          "granular-density-and-groundwater-tests"
        ],
        "lat": 14.57456705,
        "line": "line-1",
        "lon": 44.39051868,
        "sample_id": "segment:line-1-civil-003:0001",
        "scope_id": "line-1-civil-003",
        "scope_type": "civil_segment"
      },
      "type": "Feature"
    },
    {
      "geometry": {
        "coordinates": [
          44.39237477,
          14.56638592
        ],
        "type": "Point"
      },
      "properties": {
        "chainage_m": 2880.081,
        "civil_class": "elevated",
        "investigation_flags": [
          "fine-soil-plasticity-and-shrink-swell-tests",
          "granular-density-and-groundwater-tests"
        ],
        "lat": 14.56638592,
        "line": "line-1",
        "lon": 44.39237477,
        "sample_id": "segment:line-1-civil-003:0002",
        "scope_id": "line-1-civil-003",
        "scope_type": "civil_segment"
      },
      "type": "Feature"
    },
    {
      "geometry": {
        "coordinates": [
          44.39430407,
          14.55812881
        ],
        "type": "Point"
      },
      "properties": {
        "chainage_m": 3883.848,
        "civil_class": "elevated",
        "investigation_flags": [
          "fine-soil-plasticity-and-shrink-swell-tests",
          "granular-density-and-groundwater-tests"
        ],
        "lat": 14.55812881,
        "line": "line-1",
        "lon": 44.39430407,
        "sample_id": "segment:line-1-civil-003:0003",
        "scope_id": "line-1-civil-003",
        "scope_type": "civil_segment"
      },
      "type": "Feature"
    },
    {
      "geometry": {
        "coordinates": [
          44.39460208,
          14.5566318
        ],
        "type": "Point"
      },
      "properties": {
        "chainage_m": 4063.503,
        "civil_class": "elevated",
        "investigation_flags": [
          "fine-soil-plasticity-and-shrink-swell-tests",
          "granular-density-and-groundwater-tests"
        ],
        "lat": 14.5566318,
        "line": "line-1",
        "lon": 44.39460208,
        "sample_id": "segment:line-1-civil-003:0004",
        "scope_id": "line-1-civil-003",
        "scope_type": "civil_segment"
      },
      "type": "Feature"
    },
    {
      "geometry": {
        "coordinates": [
          44.39627256,
          14.54988759
        ],
        "type": "Point"
      },
      "properties": {
        "chainage_m": 4887.615,
        "civil_class": "elevated",
        "investigation_flags": [
          "fine-soil-plasticity-and-shrink-swell-tests",
          "granular-density-and-groundwater-tests"
        ],
        "lat": 14.54988759,
        "line": "line-1",
        "lon": 44.39627256,
        "sample_id": "segment:line-1-civil-003:0005",
        "scope_id": "line-1-civil-003",
        "scope_type": "civil_segment"
      },
      "type": "Feature"
    },
    {
      "geometry": {
        "coordinates": [
          44.39812865,
          14.54160093
        ],
        "type": "Point"
      },
      "properties": {
        "chainage_m": 5891.381,
        "civil_class": "elevated",
        "investigation_flags": [
          "fine-soil-plasticity-and-shrink-swell-tests",
          "granular-density-and-groundwater-tests"
        ],
        "lat": 14.54160093,
        "line": "line-1",
        "lon": 44.39812865,
        "sample_id": "segment:line-1-civil-003:0006",
        "scope_id": "line-1-civil-003",
        "scope_type": "civil_segment"
      },
      "type": "Feature"
    },
    {
      "geometry": {
        "coordinates": [
          44.39998474,
          14.53341998
        ],
        "type": "Point"
      },
      "properties": {
        "chainage_m": 6895.148,
        "civil_class": "elevated",
        "investigation_flags": [
          "fine-soil-plasticity-and-shrink-swell-tests",
          "granular-density-and-groundwater-tests"
        ],
        "lat": 14.53341998,
        "line": "line-1",
        "lon": 44.39998474,
        "sample_id": "segment:line-1-civil-003:0007",
        "scope_id": "line-1-civil-003",
        "scope_type": "civil_segment"
      },
      "type": "Feature"
    },
    {
      "geometry": {
        "coordinates": [
          44.40072696,
          14.53048521
        ],
        "type": "Point"
      },
      "properties": {
        "chainage_m": 7254.457,
        "civil_class": "elevated",
        "investigation_flags": [
          "fine-soil-plasticity-and-shrink-swell-tests",
          "granular-density-and-groundwater-tests"
        ],
        "lat": 14.53048521,
        "line": "line-1",
        "lon": 44.40072696,
        "sample_id": "segment:line-1-civil-003:0008",
        "scope_id": "line-1-civil-003",
        "scope_type": "civil_segment"
      },
      "type": "Feature"
    },
    {
      "geometry": {
        "coordinates": [
          44.40072696,
          14.53048521
        ],
        "type": "Point"
      },
      "properties": {
        "chainage_m": 7254.457,
        "civil_class": "elevated",
        "investigation_flags": [
          "fine-soil-plasticity-and-shrink-swell-tests",
          "granular-density-and-groundwater-tests"
        ],
        "lat": 14.53048521,
        "line": "line-1",
        "lon": 44.40072696,
        "sample_id": "segment:line-1-civil-004:0000",
        "scope_id": "line-1-civil-004",
        "scope_type": "civil_segment"
      },
      "type": "Feature"
    },
    {
      "geometry": {
        "coordinates": [
          44.40072717,
          14.53039534
        ],
        "type": "Point"
      },
      "properties": {
        "chainage_m": 7264.457,
        "civil_class": "elevated",
        "investigation_flags": [
          "fine-soil-plasticity-and-shrink-swell-tests",
          "granular-density-and-groundwater-tests"
        ],
        "lat": 14.53039534,
        "line": "line-1",
        "lon": 44.40072717,
        "sample_id": "segment:line-1-civil-004:0001",
        "scope_id": "line-1-civil-004",
        "scope_type": "civil_segment"
      },
      "type": "Feature"
    },
    {
      "geometry": {
        "coordinates": [
          44.40072717,
          14.53030538
        ],
        "type": "Point"
      },
      "properties": {
        "chainage_m": 7274.457,
        "civil_class": "elevated",
        "investigation_flags": [
          "fine-soil-plasticity-and-shrink-swell-tests",
          "granular-density-and-groundwater-tests"
        ],
        "lat": 14.53030538,
        "line": "line-1",
        "lon": 44.40072717,
        "sample_id": "segment:line-1-civil-004:0002",
        "scope_id": "line-1-civil-004",
        "scope_type": "civil_segment"
      },
      "type": "Feature"
    },
    {
      "geometry": {
        "coordinates": [
          44.40072717,
          14.53030538
        ],
        "type": "Point"
      },
      "properties": {
        "chainage_m": 7274.457,
        "civil_class": "elevated",
        "investigation_flags": [
          "fine-soil-plasticity-and-shrink-swell-tests",
          "granular-density-and-groundwater-tests"
        ],
        "lat": 14.53030538,
        "line": "line-1",
        "lon": 44.40072717,
        "sample_id": "segment:line-1-civil-005:0000",
        "scope_id": "line-1-civil-005",
        "scope_type": "civil_segment"
      },
      "type": "Feature"
    },
    {
      "geometry": {
        "coordinates": [
          44.40072717,
          14.53021522
        ],
        "type": "Point"
      },
      "properties": {
        "chainage_m": 7284.479,
        "civil_class": "elevated",
        "investigation_flags": [
          "fine-soil-plasticity-and-shrink-swell-tests",
          "granular-density-and-groundwater-tests"
        ],
        "lat": 14.53021522,
        "line": "line-1",
        "lon": 44.40072717,
        "sample_id": "segment:line-1-civil-005:0001",
        "scope_id": "line-1-civil-005",
        "scope_type": "civil_segment"
      },
      "type": "Feature"
    },
    {
      "geometry": {
        "coordinates": [
          44.40072717,
          14.53012507
        ],
        "type": "Point"
      },
      "properties": {
        "chainage_m": 7294.5,
        "civil_class": "elevated",
        "investigation_flags": [
          "fine-soil-plasticity-and-shrink-swell-tests",
          "granular-density-and-groundwater-tests"
        ],
        "lat": 14.53012507,
        "line": "line-1",
        "lon": 44.40072717,
        "sample_id": "segment:line-1-civil-005:0002",
        "scope_id": "line-1-civil-005",
        "scope_type": "civil_segment"
      },
      "type": "Feature"
    },
    {
      "geometry": {
        "coordinates": [
          44.42132977,
          14.54164291
        ],
        "type": "Point"
      },
      "properties": {
        "chainage_m": 0.0,
        "civil_class": "elevated",
        "investigation_flags": [
          "fine-soil-plasticity-and-shrink-swell-tests",
          "granular-density-and-groundwater-tests"
        ],
        "lat": 14.54164291,
        "line": "line-2",
        "lon": 44.42132977,
        "sample_id": "segment:line-2-civil-006:0000",
        "scope_id": "line-2-civil-006",
        "scope_type": "civil_segment"
      },
      "type": "Feature"
    },
    {
      "geometry": {
        "coordinates": [
          44.41520468,
          14.53624669
        ],
        "type": "Point"
      },
      "properties": {
        "chainage_m": 1001.831,
        "civil_class": "elevated",
        "investigation_flags": [
          "fine-soil-plasticity-and-shrink-swell-tests",
          "granular-density-and-groundwater-tests"
        ],
        "lat": 14.53624669,
        "line": "line-2",
        "lon": 44.41520468,
        "sample_id": "segment:line-2-civil-006:0001",
        "scope_id": "line-2-civil-006",
        "scope_type": "civil_segment"
      },
      "type": "Feature"
    },
    {
      "geometry": {
        "coordinates": [
          44.40902964,
          14.53097648
        ],
        "type": "Point"
      },
      "properties": {
        "chainage_m": 2003.663,
        "civil_class": "elevated",
        "investigation_flags": [
          "fine-soil-plasticity-and-shrink-swell-tests",
          "granular-density-and-groundwater-tests"
        ],
        "lat": 14.53097648,
        "line": "line-2",
        "lon": 44.40902964,
        "sample_id": "segment:line-2-civil-006:0002",
        "scope_id": "line-2-civil-006",
        "scope_type": "civil_segment"
      },
      "type": "Feature"
    },
    {
      "geometry": {
        "coordinates": [
          44.40282984,
          14.52550507
        ],
        "type": "Point"
      },
      "properties": {
        "chainage_m": 3005.494,
        "civil_class": "elevated",
        "investigation_flags": [
          "fine-soil-plasticity-and-shrink-swell-tests",
          "granular-density-and-groundwater-tests"
        ],
        "lat": 14.52550507,
        "line": "line-2",
        "lon": 44.40282984,
        "sample_id": "segment:line-2-civil-006:0003",
        "scope_id": "line-2-civil-006",
        "scope_type": "civil_segment"
      },
      "type": "Feature"
    },
    {
      "geometry": {
        "coordinates": [
          44.39914754,
          14.52229465
        ],
        "type": "Point"
      },
      "properties": {
        "chainage_m": 3596.884,
        "civil_class": "elevated",
        "investigation_flags": [
          "fine-soil-plasticity-and-shrink-swell-tests",
          "granular-density-and-groundwater-tests"
        ],
        "lat": 14.52229465,
        "line": "line-2",
        "lon": 44.39914754,
        "sample_id": "segment:line-2-civil-006:0004",
        "scope_id": "line-2-civil-006",
        "scope_type": "civil_segment"
      },
      "type": "Feature"
    },
    {
      "geometry": {
        "coordinates": [
          44.39655325,
          14.51995919
        ],
        "type": "Point"
      },
      "properties": {
        "chainage_m": 4007.326,
        "civil_class": "elevated",
        "investigation_flags": [
          "fine-soil-plasticity-and-shrink-swell-tests",
          "granular-density-and-groundwater-tests"
        ],
        "lat": 14.51995919,
        "line": "line-2",
        "lon": 44.39655325,
        "sample_id": "segment:line-2-civil-006:0005",
        "scope_id": "line-2-civil-006",
        "scope_type": "civil_segment"
      },
      "type": "Feature"
    },
    {
      "geometry": {
        "coordinates": [
          44.39029957,
          14.5146155
        ],
        "type": "Point"
      },
      "properties": {
        "chainage_m": 5009.157,
        "civil_class": "elevated",
        "investigation_flags": [
          "fine-soil-plasticity-and-shrink-swell-tests"
        ],
        "lat": 14.5146155,
        "line": "line-2",
        "lon": 44.39029957,
        "sample_id": "segment:line-2-civil-006:0006",
        "scope_id": "line-2-civil-006",
        "scope_type": "civil_segment"
      },
      "type": "Feature"
    },
    {
      "geometry": {
        "coordinates": [
          44.38427261,
          14.509249
        ],
        "type": "Point"
      },
      "properties": {
        "chainage_m": 6010.989,
        "civil_class": "elevated",
        "investigation_flags": [
          "fine-soil-plasticity-and-shrink-swell-tests"
        ],
        "lat": 14.509249,
        "line": "line-2",
        "lon": 44.38427261,
        "sample_id": "segment:line-2-civil-006:0007",
        "scope_id": "line-2-civil-006",
        "scope_type": "civil_segment"
      },
      "type": "Feature"
    },
    {
      "geometry": {
        "coordinates": [
          44.3780426,
          14.50385001
        ],
        "type": "Point"
      },
      "properties": {
        "chainage_m": 7012.82,
        "civil_class": "elevated",
        "investigation_flags": [
          "fine-soil-plasticity-and-shrink-swell-tests",
          "granular-density-and-groundwater-tests"
        ],
        "lat": 14.50385001,
        "line": "line-2",
        "lon": 44.3780426,
        "sample_id": "segment:line-2-civil-006:0008",
        "scope_id": "line-2-civil-006",
        "scope_type": "civil_segment"
      },
      "type": "Feature"
    },
    {
      "geometry": {
        "coordinates": [
          44.3769664,
          14.50294745
        ],
        "type": "Point"
      },
      "properties": {
        "chainage_m": 7193.768,
        "civil_class": "elevated",
        "investigation_flags": [
          "fine-soil-plasticity-and-shrink-swell-tests",
          "granular-density-and-groundwater-tests"
        ],
        "lat": 14.50294745,
        "line": "line-2",
        "lon": 44.3769664,
        "sample_id": "segment:line-2-civil-006:0009",
        "scope_id": "line-2-civil-006",
        "scope_type": "civil_segment"
      },
      "type": "Feature"
    },
    {
      "geometry": {
        "coordinates": [
          44.3769664,
          14.50294745
        ],
        "type": "Point"
      },
      "properties": {
        "chainage_m": 7193.768,
        "civil_class": "elevated",
        "investigation_flags": [
          "fine-soil-plasticity-and-shrink-swell-tests",
          "granular-density-and-groundwater-tests"
        ],
        "lat": 14.50294745,
        "line": "line-2",
        "lon": 44.3769664,
        "sample_id": "segment:line-2-civil-007:0000",
        "scope_id": "line-2-civil-007",
        "scope_type": "civil_segment"
      },
      "type": "Feature"
    },
    {
      "geometry": {
        "coordinates": [
          44.3768736,
          14.50285747
        ],
        "type": "Point"
      },
      "properties": {
        "chainage_m": 7207.91,
        "civil_class": "elevated",
        "investigation_flags": [
          "fine-soil-plasticity-and-shrink-swell-tests",
          "granular-density-and-groundwater-tests"
        ],
        "lat": 14.50285747,
        "line": "line-2",
        "lon": 44.3768736,
        "sample_id": "segment:line-2-civil-007:0001",
        "scope_id": "line-2-civil-007",
        "scope_type": "civil_segment"
      },
      "type": "Feature"
    },
    {
      "geometry": {
        "coordinates": [
          44.3767808,
          14.50276748
        ],
        "type": "Point"
      },
      "properties": {
        "chainage_m": 7222.052,
        "civil_class": "elevated",
        "investigation_flags": [
          "fine-soil-plasticity-and-shrink-swell-tests",
          "granular-density-and-groundwater-tests"
        ],
        "lat": 14.50276748,
        "line": "line-2",
        "lon": 44.3767808,
        "sample_id": "segment:line-2-civil-007:0002",
        "scope_id": "line-2-civil-007",
        "scope_type": "civil_segment"
      },
      "type": "Feature"
    },
    {
      "geometry": {
        "coordinates": [
          44.3767808,
          14.50276748
        ],
        "type": "Point"
      },
      "properties": {
        "chainage_m": 7222.052,
        "civil_class": "elevated",
        "investigation_flags": [
          "fine-soil-plasticity-and-shrink-swell-tests",
          "granular-density-and-groundwater-tests"
        ],
        "lat": 14.50276748,
        "line": "line-2",
        "lon": 44.3767808,
        "sample_id": "segment:line-2-civil-008:0000",
        "scope_id": "line-2-civil-008",
        "scope_type": "civil_segment"
      },
      "type": "Feature"
    },
    {
      "geometry": {
        "coordinates": [
          44.376688,
          14.50267751
        ],
        "type": "Point"
      },
      "properties": {
        "chainage_m": 7236.194,
        "civil_class": "elevated",
        "investigation_flags": [
          "fine-soil-plasticity-and-shrink-swell-tests",
          "granular-density-and-groundwater-tests"
        ],
        "lat": 14.50267751,
        "line": "line-2",
        "lon": 44.376688,
        "sample_id": "segment:line-2-civil-008:0001",
        "scope_id": "line-2-civil-008",
        "scope_type": "civil_segment"
      },
      "type": "Feature"
    },
    {
      "geometry": {
        "coordinates": [
          44.376598,
          14.50258639
        ],
        "type": "Point"
      },
      "properties": {
        "chainage_m": 7250.336,
        "civil_class": "elevated",
        "investigation_flags": [
          "fine-soil-plasticity-and-shrink-swell-tests",
          "granular-density-and-groundwater-tests"
        ],
        "lat": 14.50258639,
        "line": "line-2",
        "lon": 44.376598,
        "sample_id": "segment:line-2-civil-008:0002",
        "scope_id": "line-2-civil-008",
        "scope_type": "civil_segment"
      },
      "type": "Feature"
    },
    {
      "geometry": {
        "coordinates": [
          44.376598,
          14.50258639
        ],
        "type": "Point"
      },
      "properties": {
        "chainage_m": 7250.336,
        "civil_class": "elevated",
        "investigation_flags": [
          "fine-soil-plasticity-and-shrink-swell-tests",
          "granular-density-and-groundwater-tests"
        ],
        "lat": 14.50258639,
        "line": "line-2",
        "lon": 44.376598,
        "sample_id": "segment:line-2-civil-009:0000",
        "scope_id": "line-2-civil-009",
        "scope_type": "civil_segment"
      },
      "type": "Feature"
    },
    {
      "geometry": {
        "coordinates": [
          44.376598,
          14.50249664
        ],
        "type": "Point"
      },
      "properties": {
        "chainage_m": 7260.318,
        "civil_class": "elevated",
        "investigation_flags": [
          "fine-soil-plasticity-and-shrink-swell-tests",
          "granular-density-and-groundwater-tests"
        ],
        "lat": 14.50249664,
        "line": "line-2",
        "lon": 44.376598,
        "sample_id": "segment:line-2-civil-009:0001",
        "scope_id": "line-2-civil-009",
        "scope_type": "civil_segment"
      },
      "type": "Feature"
    },
    {
      "geometry": {
        "coordinates": [
          44.37659553,
          14.50240789
        ],
        "type": "Point"
      },
      "properties": {
        "chainage_m": 7270.3,
        "civil_class": "elevated",
        "investigation_flags": [
          "fine-soil-plasticity-and-shrink-swell-tests",
          "granular-density-and-groundwater-tests"
        ],
        "lat": 14.50240789,
        "line": "line-2",
        "lon": 44.37659553,
        "sample_id": "segment:line-2-civil-009:0002",
        "scope_id": "line-2-civil-009",
        "scope_type": "civil_segment"
      },
      "type": "Feature"
    },
    {
      "geometry": {
        "coordinates": [
          44.37659553,
          14.50240789
        ],
        "type": "Point"
      },
      "properties": {
        "chainage_m": 7270.3,
        "civil_class": "at-grade",
        "investigation_flags": [
          "fine-soil-plasticity-and-shrink-swell-tests",
          "granular-density-and-groundwater-tests"
        ],
        "lat": 14.50240789,
        "line": "line-2",
        "lon": 44.37659553,
        "sample_id": "segment:line-2-civil-010:0000",
        "scope_id": "line-2-civil-010",
        "scope_type": "civil_segment"
      },
      "type": "Feature"
    },
    {
      "geometry": {
        "coordinates": [
          44.37168994,
          14.4959315
        ],
        "type": "Point"
      },
      "properties": {
        "chainage_m": 8272.943,
        "civil_class": "at-grade",
        "investigation_flags": [
          "fine-soil-plasticity-and-shrink-swell-tests",
          "granular-density-and-groundwater-tests"
        ],
        "lat": 14.4959315,
        "line": "line-2",
        "lon": 44.37168994,
        "sample_id": "segment:line-2-civil-010:0001",
        "scope_id": "line-2-civil-010",
        "scope_type": "civil_segment"
      },
      "type": "Feature"
    },
    {
      "geometry": {
        "coordinates": [
          44.37105192,
          14.49559308
        ],
        "type": "Point"
      },
      "properties": {
        "chainage_m": 8357.4,
        "civil_class": "at-grade",
        "investigation_flags": [
          "fine-soil-plasticity-and-shrink-swell-tests",
          "granular-density-and-groundwater-tests"
        ],
        "lat": 14.49559308,
        "line": "line-2",
        "lon": 44.37105192,
        "sample_id": "segment:line-2-civil-010:0002",
        "scope_id": "line-2-civil-010",
        "scope_type": "civil_segment"
      },
      "type": "Feature"
    },
    {
      "geometry": {
        "coordinates": [
          44.36694039,
          14.48908703
        ],
        "type": "Point"
      },
      "properties": {
        "chainage_m": 9275.587,
        "civil_class": "at-grade",
        "investigation_flags": [
          "fine-soil-plasticity-and-shrink-swell-tests",
          "granular-density-and-groundwater-tests"
        ],
        "lat": 14.48908703,
        "line": "line-2",
        "lon": 44.36694039,
        "sample_id": "segment:line-2-civil-010:0003",
        "scope_id": "line-2-civil-010",
        "scope_type": "civil_segment"
      },
      "type": "Feature"
    },
    {
      "geometry": {
        "coordinates": [
          44.36583268,
          14.48801299
        ],
        "type": "Point"
      },
      "properties": {
        "chainage_m": 9444.5,
        "civil_class": "at-grade",
        "investigation_flags": [
          "fine-soil-plasticity-and-shrink-swell-tests",
          "granular-density-and-groundwater-tests"
        ],
        "lat": 14.48801299,
        "line": "line-2",
        "lon": 44.36583268,
        "sample_id": "segment:line-2-civil-010:0004",
        "scope_id": "line-2-civil-010",
        "scope_type": "civil_segment"
      },
      "type": "Feature"
    },
    {
      "geometry": {
        "coordinates": [
          44.41817442,
          14.55028128
        ],
        "type": "Point"
      },
      "properties": {
        "chainage_m": 0.0,
        "civil_class": "elevated",
        "investigation_flags": [
          "fine-soil-plasticity-and-shrink-swell-tests",
          "granular-density-and-groundwater-tests"
        ],
        "lat": 14.55028128,
        "line": "line-3",
        "lon": 44.41817442,
        "sample_id": "segment:line-3-civil-011:0000",
        "scope_id": "line-3-civil-011",
        "scope_type": "civil_segment"
      },
      "type": "Feature"
    },
    {
      "geometry": {
        "coordinates": [
          44.40965838,
          14.55208095
        ],
        "type": "Point"
      },
      "properties": {
        "chainage_m": 1000.469,
        "civil_class": "elevated",
        "investigation_flags": [
          "fine-soil-plasticity-and-shrink-swell-tests",
          "granular-density-and-groundwater-tests"
        ],
        "lat": 14.55208095,
        "line": "line-3",
        "lon": 44.40965838,
        "sample_id": "segment:line-3-civil-011:0001",
        "scope_id": "line-3-civil-011",
        "scope_type": "civil_segment"
      },
      "type": "Feature"
    },
    {
      "geometry": {
        "coordinates": [
          44.40156253,
          14.55370064
        ],
        "type": "Point"
      },
      "properties": {
        "chainage_m": 1947.4,
        "civil_class": "elevated",
        "investigation_flags": [
          "fine-soil-plasticity-and-shrink-swell-tests",
          "granular-density-and-groundwater-tests"
        ],
        "lat": 14.55370064,
        "line": "line-3",
        "lon": 44.40156253,
        "sample_id": "segment:line-3-civil-011:0002",
        "scope_id": "line-3-civil-011",
        "scope_type": "civil_segment"
      },
      "type": "Feature"
    },
    {
      "geometry": {
        "coordinates": [
          44.40112949,
          14.55385045
        ],
        "type": "Point"
      },
      "properties": {
        "chainage_m": 2000.938,
        "civil_class": "elevated",
        "investigation_flags": [
          "fine-soil-plasticity-and-shrink-swell-tests",
          "granular-density-and-groundwater-tests"
        ],
        "lat": 14.55385045,
        "line": "line-3",
        "lon": 44.40112949,
        "sample_id": "segment:line-3-civil-011:0003",
        "scope_id": "line-3-civil-011",
        "scope_type": "civil_segment"
      },
      "type": "Feature"
    },
    {
      "geometry": {
        "coordinates": [
          44.39254982,
          14.5555003
        ],
        "type": "Point"
      },
      "properties": {
        "chainage_m": 3001.407,
        "civil_class": "elevated",
        "investigation_flags": [
          "fine-soil-plasticity-and-shrink-swell-tests",
          "granular-density-and-groundwater-tests"
        ],
        "lat": 14.5555003,
        "line": "line-3",
        "lon": 44.39254982,
        "sample_id": "segment:line-3-civil-011:0004",
        "scope_id": "line-3-civil-011",
        "scope_type": "civil_segment"
      },
      "type": "Feature"
    },
    {
      "geometry": {
        "coordinates": [
          44.38495041,
          14.55712
        ],
        "type": "Point"
      },
      "properties": {
        "chainage_m": 3894.8,
        "civil_class": "elevated",
        "investigation_flags": [
          "fine-soil-plasticity-and-shrink-swell-tests",
          "granular-density-and-groundwater-tests"
        ],
        "lat": 14.55712,
        "line": "line-3",
        "lon": 44.38495041,
        "sample_id": "segment:line-3-civil-011:0005",
        "scope_id": "line-3-civil-011",
        "scope_type": "civil_segment"
      },
      "type": "Feature"
    },
    {
      "geometry": {
        "coordinates": [
          44.39126111,
          14.58951391
        ],
        "type": "Point"
      },
      "properties": {
        "chainage_m": 0.0,
        "civil_class": "station",
        "investigation_flags": [
          "fine-soil-plasticity-and-shrink-swell-tests",
          "granular-density-and-groundwater-tests"
        ],
        "lat": 14.58951391,
        "line": "line-1",
        "lon": 44.39126111,
        "sample_id": "station:line-1-0115-0301-s000000",
        "scope_id": "line-1-0115-0301-s000000",
        "scope_type": "station"
      },
      "type": "Feature"
    },
    {
      "geometry": {
        "coordinates": [
          44.39497329,
          14.55514037
        ],
        "type": "Point"
      },
      "properties": {
        "chainage_m": 4245.9,
        "civil_class": "station",
        "investigation_flags": [
          "fine-soil-plasticity-and-shrink-swell-tests",
          "granular-density-and-groundwater-tests"
        ],
        "lat": 14.55514037,
        "line": "line-1",
        "lon": 44.39497329,
        "sample_id": "station:line-1-0306-0321-s004246",
        "scope_id": "line-1-0306-0321-s004246",
        "scope_type": "station"
      },
      "type": "Feature"
    },
    {
      "geometry": {
        "coordinates": [
          44.40072717,
          14.53012507
        ],
        "type": "Point"
      },
      "properties": {
        "chainage_m": 7294.5,
        "civil_class": "station",
        "investigation_flags": [
          "fine-soil-plasticity-and-shrink-swell-tests",
          "granular-density-and-groundwater-tests"
        ],
        "lat": 14.53012507,
        "line": "line-1",
        "lon": 44.40072717,
        "sample_id": "station:line-1-0445-0352-s007294",
        "scope_id": "line-1-0445-0352-s007294",
        "scope_type": "station"
      },
      "type": "Feature"
    },
    {
      "geometry": {
        "coordinates": [
          44.42132977,
          14.54164291
        ],
        "type": "Point"
      },
      "properties": {
        "chainage_m": 0.0,
        "civil_class": "station",
        "investigation_flags": [
          "fine-soil-plasticity-and-shrink-swell-tests",
          "granular-density-and-groundwater-tests"
        ],
        "lat": 14.54164291,
        "line": "line-2",
        "lon": 44.42132977,
        "sample_id": "station:line-2-0381-0463-s000000",
        "scope_id": "line-2-0381-0463-s000000",
        "scope_type": "station"
      },
      "type": "Feature"
    },
    {
      "geometry": {
        "coordinates": [
          44.40685227,
          14.52904528
        ],
        "type": "Point"
      },
      "properties": {
        "chainage_m": 2362.5,
        "civil_class": "station",
        "investigation_flags": [
          "fine-soil-plasticity-and-shrink-swell-tests",
          "granular-density-and-groundwater-tests"
        ],
        "lat": 14.52904528,
        "line": "line-2",
        "lon": 44.40685227,
        "sample_id": "station:line-2-0451-0385-s002362",
        "scope_id": "line-2-0451-0385-s002362",
        "scope_type": "station"
      },
      "type": "Feature"
    },
    {
      "geometry": {
        "coordinates": [
          44.39218916,
          14.51608771
        ],
        "type": "Point"
      },
      "properties": {
        "chainage_m": 4714.7,
        "civil_class": "station",
        "investigation_flags": [
          "fine-soil-plasticity-and-shrink-swell-tests",
          "granular-density-and-groundwater-tests"
        ],
        "lat": 14.51608771,
        "line": "line-2",
        "lon": 44.39218916,
        "sample_id": "station:line-2-0523-0306-s004715",
        "scope_id": "line-2-0523-0306-s004715",
        "scope_type": "station"
      },
      "type": "Feature"
    },
    {
      "geometry": {
        "coordinates": [
          44.36583268,
          14.48801299
        ],
        "type": "Point"
      },
      "properties": {
        "chainage_m": 9444.5,
        "civil_class": "station",
        "investigation_flags": [
          "fine-soil-plasticity-and-shrink-swell-tests",
          "granular-density-and-groundwater-tests"
        ],
        "lat": 14.48801299,
        "line": "line-2",
        "lon": 44.36583268,
        "sample_id": "station:line-2-0679-0164-s009445",
        "scope_id": "line-2-0679-0164-s009445",
        "scope_type": "station"
      },
      "type": "Feature"
    },
    {
      "geometry": {
        "coordinates": [
          44.38495041,
          14.55712
        ],
        "type": "Point"
      },
      "properties": {
        "chainage_m": 3894.8,
        "civil_class": "station",
        "investigation_flags": [
          "fine-soil-plasticity-and-shrink-swell-tests",
          "granular-density-and-groundwater-tests"
        ],
        "lat": 14.55712,
        "line": "line-3",
        "lon": 44.38495041,
        "sample_id": "station:line-3-0295-0267-s003895",
        "scope_id": "line-3-0295-0267-s003895",
        "scope_type": "station"
      },
      "type": "Feature"
    },
    {
      "geometry": {
        "coordinates": [
          44.39497329,
          14.55514037
        ],
        "type": "Point"
      },
      "properties": {
        "chainage_m": 2723.7,
        "civil_class": "station",
        "investigation_flags": [
          "fine-soil-plasticity-and-shrink-swell-tests",
          "granular-density-and-groundwater-tests"
        ],
        "lat": 14.55514037,
        "line": "line-3",
        "lon": 44.39497329,
        "sample_id": "station:line-3-0306-0321-s002724",
        "scope_id": "line-3-0306-0321-s002724",
        "scope_type": "station"
      },
      "type": "Feature"
    },
    {
      "geometry": {
        "coordinates": [
          44.41817442,
          14.55028128
        ],
        "type": "Point"
      },
      "properties": {
        "chainage_m": 0.0,
        "civil_class": "station",
        "investigation_flags": [
          "fine-soil-plasticity-and-shrink-swell-tests",
          "granular-density-and-groundwater-tests"
        ],
        "lat": 14.55028128,
        "line": "line-3",
        "lon": 44.41817442,
        "sample_id": "station:line-3-0333-0446-s000000",
        "scope_id": "line-3-0333-0446-s000000",
        "scope_type": "station"
      },
      "type": "Feature"
    }
  ],
  "type": "FeatureCollection"
}
