{
  "features": [
    {
      "geometry": {
        "coordinates": [
          28.203332832901165,
          -15.43167584494115
        ],
        "type": "Point"
      },
      "properties": {
        "archetype": "main-heavy",
        "fleet_stalls": 10,
        "line": "line-1",
        "station": "line-1-1009-0554-s033608"
      },
      "type": "Feature"
    },
    {
      "geometry": {
        "coordinates": [
          28.392294947530164,
          -15.379305690530181
        ],
        "type": "Point"
      },
      "properties": {
        "archetype": "main-heavy",
        "fleet_stalls": 6,
        "line": "line-2",
        "station": "line-2-0718-1568-s000000"
      },
      "type": "Feature"
    },
    {
      "geometry": {
        "coordinates": [
          28.398630955318517,
          -15.471988266205953
        ],
        "type": "Point"
      },
      "properties": {
        "archetype": "main-heavy",
        "fleet_stalls": 8,
        "line": "line-3",
        "station": "line-3-1233-1602-s000000"
      },
      "type": "Feature"
    },
    {
      "geometry": {
        "coordinates": [
          28.368814448079224,
          -15.422857502789476
        ],
        "type": "Point"
      },
      "properties": {
        "archetype": "main-heavy",
        "fleet_stalls": 7,
        "line": "line-4",
        "station": "line-4-0960-1442-s000000"
      },
      "type": "Feature"
    },
    {
      "geometry": {
        "coordinates": [
          28.30824966774942,
          -15.35195083324335
        ],
        "type": "Point"
      },
      "properties": {
        "archetype": "main-heavy",
        "fleet_stalls": 7,
        "line": "line-5",
        "station": "line-5-0566-1117-s000000"
      },
      "type": "Feature"
    },
    {
      "geometry": {
        "coordinates": [
          28.415402740640616,
          -15.303719900658676
        ],
        "type": "Point"
      },
      "properties": {
        "archetype": "main-heavy",
        "fleet_stalls": 8,
        "line": "line-6",
        "station": "line-6-0298-1692-s000000"
      },
      "type": "Feature"
    },
    {
      "geometry": {
        "coordinates": [
          28.27041997418957,
          -15.323696145124716
        ],
        "type": "Point"
      },
      "properties": {
        "archetype": "main-heavy",
        "fleet_stalls": 7,
        "line": "line-7",
        "station": "line-7-0409-0914-s000000"
      },
      "type": "Feature"
    },
    {
      "geometry": {
        "coordinates": [
          28.269674561508587,
          -15.294001727675196
        ],
        "type": "Point"
      },
      "properties": {
        "archetype": "main-heavy",
        "fleet_stalls": 5,
        "line": "line-8",
        "station": "line-8-0244-0910-s000000"
      },
      "type": "Feature"
    }
  ],
  "type": "FeatureCollection"
}
