{
  "features": [
    {
      "geometry": {
        "coordinates": [
          28.4496917239658,
          -15.331074757945506
        ],
        "type": "Point"
      },
      "properties": {
        "anchor_kind": "aeroway:aerodrome",
        "anchor_name": "Kenneth Kaunda International Airport",
        "archetype": "terminal",
        "chainage_m": 0.0,
        "corridor_offset_m": 0.0,
        "id": "line-1-0450-1876-s000000",
        "junction_group": null,
        "line": "line-1",
        "platform_length_m": 121.0
      },
      "type": "Feature"
    },
    {
      "geometry": {
        "coordinates": [
          28.418384391364544,
          -15.335393945938163
        ],
        "type": "Point"
      },
      "properties": {
        "anchor_kind": null,
        "anchor_name": null,
        "archetype": "halt",
        "chainage_m": 3491.8,
        "corridor_offset_m": 162.445,
        "id": "line-1-0474-1708-s003492",
        "junction_group": null,
        "line": "line-1",
        "platform_length_m": 117.0
      },
      "type": "Feature"
    },
    {
      "geometry": {
        "coordinates": [
          28.404035197255638,
          -15.36166900622683
        ],
        "type": "Point"
      },
      "properties": {
        "anchor_kind": null,
        "anchor_name": null,
        "archetype": "halt",
        "chainage_m": 7008.5,
        "corridor_offset_m": 319.342,
        "id": "line-1-0620-1631-s007008",
        "junction_group": null,
        "line": "line-1",
        "platform_length_m": 117.0
      },
      "type": "Feature"
    },
    {
      "geometry": {
        "coordinates": [
          28.379250225612978,
          -15.36652809271857
        ],
        "type": "Point"
      },
      "properties": {
        "anchor_kind": "shop:mall",
        "anchor_name": null,
        "archetype": "standard",
        "chainage_m": 10023.4,
        "corridor_offset_m": 377.088,
        "id": "line-1-0647-1498-s010023",
        "junction_group": null,
        "line": "line-1",
        "platform_length_m": 121.0
      },
      "type": "Feature"
    },
    {
      "geometry": {
        "coordinates": [
          28.36564644418505,
          -15.37156714537667
        ],
        "type": "Point"
      },
      "properties": {
        "anchor_kind": null,
        "anchor_name": null,
        "archetype": "interchange",
        "chainage_m": 11738.8,
        "corridor_offset_m": 346.35,
        "id": "line-1-0675-1425-s011739",
        "junction_group": 0,
        "line": "line-1",
        "platform_length_m": 121.0
      },
      "type": "Feature"
    },
    {
      "geometry": {
        "coordinates": [
          28.355397019821545,
          -15.375346434870245
        ],
        "type": "Point"
      },
      "properties": {
        "anchor_kind": "place:suburb",
        "anchor_name": "Kaunda Square",
        "archetype": "standard",
        "chainage_m": 13036.2,
        "corridor_offset_m": 328.439,
        "id": "line-1-0696-1370-s013036",
        "junction_group": null,
        "line": "line-1",
        "platform_length_m": 121.0
      },
      "type": "Feature"
    },
    {
      "geometry": {
        "coordinates": [
          28.331543814030113,
          -15.384164777021919
        ],
        "type": "Point"
      },
      "properties": {
        "anchor_kind": null,
        "anchor_name": null,
        "archetype": "standard",
        "chainage_m": 16037.2,
        "corridor_offset_m": 277.843,
        "id": "line-1-0745-1242-s016037",
        "junction_group": null,
        "line": "line-1",
        "platform_length_m": 121.0
      },
      "type": "Feature"
    },
    {
      "geometry": {
        "coordinates": [
          28.30769060823868,
          -15.392983119173595
        ],
        "type": "Point"
      },
      "properties": {
        "anchor_kind": null,
        "anchor_name": null,
        "archetype": "interchange",
        "chainage_m": 19050.0,
        "corridor_offset_m": 224.202,
        "id": "line-1-0794-1114-s019050",
        "junction_group": 1,
        "line": "line-1",
        "platform_length_m": 121.0
      },
      "type": "Feature"
    },
    {
      "geometry": {
        "coordinates": [
          28.280110339042338,
          -15.403241190656157
        ],
        "type": "Point"
      },
      "properties": {
        "anchor_kind": null,
        "anchor_name": null,
        "archetype": "major",
        "chainage_m": 22529.1,
        "corridor_offset_m": 165.83,
        "id": "line-1-0851-0966-s022529",
        "junction_group": null,
        "line": "line-1",
        "platform_length_m": 121.0
      },
      "type": "Feature"
    },
    {
      "geometry": {
        "coordinates": [
          28.259984196655818,
          -15.410619803476946
        ],
        "type": "Point"
      },
      "properties": {
        "anchor_kind": null,
        "anchor_name": null,
        "archetype": "standard",
        "chainage_m": 25063.9,
        "corridor_offset_m": 129.744,
        "id": "line-1-0892-0858-s025064",
        "junction_group": null,
        "line": "line-1",
        "platform_length_m": 121.0
      },
      "type": "Feature"
    },
    {
      "geometry": {
        "coordinates": [
          28.24843030010059,
          -15.414938991469604
        ],
        "type": "Point"
      },
      "properties": {
        "anchor_kind": null,
        "anchor_name": null,
        "archetype": "interchange",
        "chainage_m": 26526.2,
        "corridor_offset_m": 101.344,
        "id": "line-1-0916-0796-s026526",
        "junction_group": 2,
        "line": "line-1",
        "platform_length_m": 121.0
      },
      "type": "Feature"
    },
    {
      "geometry": {
        "coordinates": [
          28.203332832901165,
          -15.43167584494115
        ],
        "type": "Point"
      },
      "properties": {
        "anchor_kind": "amenity:university",
        "anchor_name": "Zambian Open University Lusaka West Offices",
        "archetype": "depot-terminal",
        "chainage_m": 32206.9,
        "corridor_offset_m": 0.0,
        "id": "line-1-1009-0554-s032207",
        "junction_group": null,
        "line": "line-1",
        "platform_length_m": 121.0
      },
      "type": "Feature"
    },
    {
      "geometry": {
        "coordinates": [
          28.392294947530164,
          -15.379305690530181
        ],
        "type": "Point"
      },
      "properties": {
        "anchor_kind": "place:suburb",
        "anchor_name": "Avondale",
        "archetype": "terminal",
        "chainage_m": 0.0,
        "corridor_offset_m": 0.0,
        "id": "line-2-0718-1568-s000000",
        "junction_group": null,
        "line": "line-2",
        "platform_length_m": 121.0
      },
      "type": "Feature"
    },
    {
      "geometry": {
        "coordinates": [
          28.36695091637677,
          -15.393163085339957
        ],
        "type": "Point"
      },
      "properties": {
        "anchor_kind": null,
        "anchor_name": null,
        "archetype": "interchange",
        "chainage_m": 3590.3,
        "corridor_offset_m": 80.114,
        "id": "line-2-0795-1432-s003590",
        "junction_group": 3,
        "line": "line-2",
        "platform_length_m": 121.0
      },
      "type": "Feature"
    },
    {
      "geometry": {
        "coordinates": [
          28.349806424714178,
          -15.403601122988878
        ],
        "type": "Point"
      },
      "properties": {
        "anchor_kind": "amenity:marketplace",
        "anchor_name": "Helen Kaunda Market",
        "archetype": "standard",
        "chainage_m": 6016.2,
        "corridor_offset_m": 72.282,
        "id": "line-2-0853-1340-s006016",
        "junction_group": null,
        "line": "line-2",
        "platform_length_m": 121.0
      },
      "type": "Feature"
    },
    {
      "geometry": {
        "coordinates": [
          28.328562163306184,
          -15.41655868696685
        ],
        "type": "Point"
      },
      "properties": {
        "anchor_kind": null,
        "anchor_name": null,
        "archetype": "standard",
        "chainage_m": 9021.6,
        "corridor_offset_m": 45.871,
        "id": "line-2-0925-1226-s009022",
        "junction_group": null,
        "line": "line-2",
        "platform_length_m": 121.0
      },
      "type": "Feature"
    },
    {
      "geometry": {
        "coordinates": [
          28.307504255068434,
          -15.429336284778461
        ],
        "type": "Point"
      },
      "properties": {
        "anchor_kind": "amenity:university",
        "anchor_name": "UNZA Ridgeway Campus",
        "archetype": "major",
        "chainage_m": 12022.0,
        "corridor_offset_m": 15.629,
        "id": "line-2-0996-1113-s012022",
        "junction_group": null,
        "line": "line-2",
        "platform_length_m": 121.0
      },
      "type": "Feature"
    },
    {
      "geometry": {
        "coordinates": [
          28.28625999366044,
          -15.442113882590073
        ],
        "type": "Point"
      },
      "properties": {
        "anchor_kind": "place:suburb",
        "anchor_name": "Frank",
        "archetype": "standard",
        "chainage_m": 15042.5,
        "corridor_offset_m": 46.275,
        "id": "line-2-1067-0999-s015043",
        "junction_group": null,
        "line": "line-2",
        "platform_length_m": 121.0
      },
      "type": "Feature"
    },
    {
      "geometry": {
        "coordinates": [
          28.243585117674208,
          -15.4736079617032
        ],
        "type": "Point"
      },
      "properties": {
        "anchor_kind": null,
        "anchor_name": null,
        "archetype": "terminal",
        "chainage_m": 21714.6,
        "corridor_offset_m": 6.003,
        "id": "line-2-1242-0770-s021715",
        "junction_group": 4,
        "line": "line-2",
        "platform_length_m": 121.0
      },
      "type": "Feature"
    },
    {
      "geometry": {
        "coordinates": [
          28.398630955318517,
          -15.471988266205953
        ],
        "type": "Point"
      },
      "properties": {
        "anchor_kind": "place:suburb",
        "anchor_name": "New Kasama",
        "archetype": "terminal",
        "chainage_m": 0.0,
        "corridor_offset_m": 0.0,
        "id": "line-3-1233-1602-s000000",
        "junction_group": null,
        "line": "line-3",
        "platform_length_m": 121.0
      },
      "type": "Feature"
    },
    {
      "geometry": {
        "coordinates": [
          28.37496410269733,
          -15.457231040564373
        ],
        "type": "Point"
      },
      "properties": {
        "anchor_kind": null,
        "anchor_name": null,
        "archetype": "interchange",
        "chainage_m": 3389.3,
        "corridor_offset_m": 86.65,
        "id": "line-3-1151-1475-s003389",
        "junction_group": 5,
        "line": "line-3",
        "platform_length_m": 121.0
      },
      "type": "Feature"
    },
    {
      "geometry": {
        "coordinates": [
          28.360801261758667,
          -15.450752258575388
        ],
        "type": "Point"
      },
      "properties": {
        "anchor_kind": null,
        "anchor_name": null,
        "archetype": "standard",
        "chainage_m": 5254.4,
        "corridor_offset_m": 69.979,
        "id": "line-3-1115-1399-s005254",
        "junction_group": null,
        "line": "line-3",
        "platform_length_m": 121.0
      },
      "type": "Feature"
    },
    {
      "geometry": {
        "coordinates": [
          28.33787982181846,
          -15.440494187092826
        ],
        "type": "Point"
      },
      "properties": {
        "anchor_kind": null,
        "anchor_name": null,
        "archetype": "standard",
        "chainage_m": 8256.9,
        "corridor_offset_m": 55.754,
        "id": "line-3-1058-1276-s008257",
        "junction_group": null,
        "line": "line-3",
        "platform_length_m": 121.0
      },
      "type": "Feature"
    },
    {
      "geometry": {
        "coordinates": [
          28.314585675537767,
          -15.430236115610265
        ],
        "type": "Point"
      },
      "properties": {
        "anchor_kind": "amenity:hospital",
        "anchor_name": "wards",
        "archetype": "major",
        "chainage_m": 11276.0,
        "corridor_offset_m": 66.024,
        "id": "line-3-1001-1151-s011276",
        "junction_group": null,
        "line": "line-3",
        "platform_length_m": 121.0
      },
      "type": "Feature"
    },
    {
      "geometry": {
        "coordinates": [
          28.291477882427316,
          -15.419798077961342
        ],
        "type": "Point"
      },
      "properties": {
        "anchor_kind": "amenity:college",
        "anchor_name": "National Institute of Public Administration",
        "archetype": "major",
        "chainage_m": 14283.3,
        "corridor_offset_m": 54.983,
        "id": "line-3-0943-1027-s014283",
        "junction_group": null,
        "line": "line-3",
        "platform_length_m": 121.0
      },
      "type": "Feature"
    },
    {
      "geometry": {
        "coordinates": [
          28.268370089316868,
          -15.409540006478782
        ],
        "type": "Point"
      },
      "properties": {
        "anchor_kind": null,
        "anchor_name": null,
        "archetype": "standard",
        "chainage_m": 17294.1,
        "corridor_offset_m": 35.783,
        "id": "line-3-0886-0903-s017294",
        "junction_group": null,
        "line": "line-3",
        "platform_length_m": 121.0
      },
      "type": "Feature"
    },
    {
      "geometry": {
        "coordinates": [
          28.257002545931886,
          -15.404500953820682
        ],
        "type": "Point"
      },
      "properties": {
        "anchor_kind": null,
        "anchor_name": null,
        "archetype": "interchange",
        "chainage_m": 18769.5,
        "corridor_offset_m": 31.511,
        "id": "line-3-0858-0842-s018769",
        "junction_group": 6,
        "line": "line-3",
        "platform_length_m": 121.0
      },
      "type": "Feature"
    },
    {
      "geometry": {
        "coordinates": [
          28.20743260264657,
          -15.382365115358313
        ],
        "type": "Point"
      },
      "properties": {
        "anchor_kind": "amenity:hospital",
        "anchor_name": "Royal Palm Hospital",
        "archetype": "terminal",
        "chainage_m": 25249.0,
        "corridor_offset_m": 0.0,
        "id": "line-3-0735-0576-s025249",
        "junction_group": null,
        "line": "line-3",
        "platform_length_m": 121.0
      },
      "type": "Feature"
    },
    {
      "geometry": {
        "coordinates": [
          28.370677979781682,
          -15.428256487780297
        ],
        "type": "Point"
      },
      "properties": {
        "anchor_kind": null,
        "anchor_name": null,
        "archetype": "terminal",
        "chainage_m": 0.0,
        "corridor_offset_m": 5.993,
        "id": "line-4-0990-1452-s000000",
        "junction_group": 7,
        "line": "line-4",
        "platform_length_m": 121.0
      },
      "type": "Feature"
    },
    {
      "geometry": {
        "coordinates": [
          28.353347134948844,
          -15.415478889968686
        ],
        "type": "Point"
      },
      "properties": {
        "anchor_kind": "amenity:hospital",
        "anchor_name": "MKP TMS Hospital",
        "archetype": "standard",
        "chainage_m": 3009.4,
        "corridor_offset_m": 4.169,
        "id": "line-4-0919-1359-s003009",
        "junction_group": null,
        "line": "line-4",
        "platform_length_m": 121.0
      },
      "type": "Feature"
    },
    {
      "geometry": {
        "coordinates": [
          28.330052988668147,
          -15.405400784652485
        ],
        "type": "Point"
      },
      "properties": {
        "anchor_kind": null,
        "anchor_name": null,
        "archetype": "standard",
        "chainage_m": 6031.9,
        "corridor_offset_m": 7.165,
        "id": "line-4-0863-1234-s006032",
        "junction_group": null,
        "line": "line-4",
        "platform_length_m": 121.0
      },
      "type": "Feature"
    },
    {
      "geometry": {
        "coordinates": [
          28.306758842387453,
          -15.395322679336285
        ],
        "type": "Point"
      },
      "properties": {
        "anchor_kind": null,
        "anchor_name": null,
        "archetype": "interchange",
        "chainage_m": 9042.6,
        "corridor_offset_m": 4.505,
        "id": "line-4-0807-1109-s009043",
        "junction_group": 1,
        "line": "line-4",
        "platform_length_m": 121.0
      },
      "type": "Feature"
    },
    {
      "geometry": {
        "coordinates": [
          28.283278342936512,
          -15.385244574020085
        ],
        "type": "Point"
      },
      "properties": {
        "anchor_kind": "amenity:marketplace",
        "anchor_name": "Chaisa Market",
        "archetype": "standard",
        "chainage_m": 12061.7,
        "corridor_offset_m": 1.709,
        "id": "line-4-0751-0983-s012062",
        "junction_group": null,
        "line": "line-4",
        "platform_length_m": 121.0
      },
      "type": "Feature"
    },
    {
      "geometry": {
        "coordinates": [
          28.264270319571466,
          -15.37696613036749
        ],
        "type": "Point"
      },
      "properties": {
        "anchor_kind": null,
        "anchor_name": null,
        "archetype": "interchange",
        "chainage_m": 14517.9,
        "corridor_offset_m": 5.753,
        "id": "line-4-0705-0881-s014518",
        "junction_group": 8,
        "line": "line-4",
        "platform_length_m": 121.0
      },
      "type": "Feature"
    },
    {
      "geometry": {
        "coordinates": [
          28.24898935961133,
          -15.370307382212145
        ],
        "type": "Point"
      },
      "properties": {
        "anchor_kind": null,
        "anchor_name": null,
        "archetype": "standard",
        "chainage_m": 16523.0,
        "corridor_offset_m": 0.592,
        "id": "line-4-0668-0799-s016523",
        "junction_group": null,
        "line": "line-4",
        "platform_length_m": 121.0
      },
      "type": "Feature"
    },
    {
      "geometry": {
        "coordinates": [
          28.233522046480946,
          -15.363648634056798
        ],
        "type": "Point"
      },
      "properties": {
        "anchor_kind": "amenity:college",
        "anchor_name": "Eden University",
        "archetype": "terminal",
        "chainage_m": 18536.4,
        "corridor_offset_m": 0.0,
        "id": "line-4-0631-0716-s018536",
        "junction_group": null,
        "line": "line-4",
        "platform_length_m": 121.0
      },
      "type": "Feature"
    },
    {
      "geometry": {
        "coordinates": [
          28.30824966774942,
          -15.35195083324335
        ],
        "type": "Point"
      },
      "properties": {
        "anchor_kind": "place:suburb",
        "anchor_name": "Kabanana",
        "archetype": "terminal",
        "chainage_m": 0.0,
        "corridor_offset_m": 0.0,
        "id": "line-5-0566-1117-s000000",
        "junction_group": null,
        "line": "line-5",
        "platform_length_m": 121.0
      },
      "type": "Feature"
    },
    {
      "geometry": {
        "coordinates": [
          28.305827076536225,
          -15.378045927365655
        ],
        "type": "Point"
      },
      "properties": {
        "anchor_kind": "place:suburb",
        "anchor_name": "Olympia Extension",
        "archetype": "standard",
        "chainage_m": 3007.7,
        "corridor_offset_m": 6.352,
        "id": "line-5-0711-1104-s003008",
        "junction_group": null,
        "line": "line-5",
        "platform_length_m": 121.0
      },
      "type": "Feature"
    },
    {
      "geometry": {
        "coordinates": [
          28.303404485323032,
          -15.40414102148796
        ],
        "type": "Point"
      },
      "properties": {
        "anchor_kind": "place:suburb",
        "anchor_name": "Rhodes Park",
        "archetype": "standard",
        "chainage_m": 6015.4,
        "corridor_offset_m": 15.325,
        "id": "line-5-0856-1091-s006015",
        "junction_group": null,
        "line": "line-5",
        "platform_length_m": 121.0
      },
      "type": "Feature"
    },
    {
      "geometry": {
        "coordinates": [
          28.30098189410984,
          -15.430236115610265
        ],
        "type": "Point"
      },
      "properties": {
        "anchor_kind": "amenity:university",
        "anchor_name": "Zambia Institute of Diplomacy and International Studies",
        "archetype": "standard",
        "chainage_m": 9023.1,
        "corridor_offset_m": 20.707,
        "id": "line-5-1001-1078-s009023",
        "junction_group": null,
        "line": "line-5",
        "platform_length_m": 121.0
      },
      "type": "Feature"
    },
    {
      "geometry": {
        "coordinates": [
          28.29930471557763,
          -15.449672461577224
        ],
        "type": "Point"
      },
      "properties": {
        "anchor_kind": "place:suburb",
        "anchor_name": "Kamwala South",
        "archetype": "standard",
        "chainage_m": 11257.6,
        "corridor_offset_m": 28.152,
        "id": "line-5-1109-1069-s011258",
        "junction_group": null,
        "line": "line-5",
        "platform_length_m": 121.0
      },
      "type": "Feature"
    },
    {
      "geometry": {
        "coordinates": [
          28.297441183875176,
          -15.469108807544181
        ],
        "type": "Point"
      },
      "properties": {
        "anchor_kind": "place:suburb",
        "anchor_name": "Jack",
        "archetype": "standard",
        "chainage_m": 13500.5,
        "corridor_offset_m": 31.075,
        "id": "line-5-1217-1059-s013500",
        "junction_group": null,
        "line": "line-5",
        "platform_length_m": 121.0
      },
      "type": "Feature"
    },
    {
      "geometry": {
        "coordinates": [
          28.296323064853702,
          -15.480806608357629
        ],
        "type": "Point"
      },
      "properties": {
        "anchor_kind": null,
        "anchor_name": null,
        "archetype": "interchange",
        "chainage_m": 14850.2,
        "corridor_offset_m": 33.032,
        "id": "line-5-1282-1053-s014850",
        "junction_group": 9,
        "line": "line-5",
        "platform_length_m": 121.0
      },
      "type": "Feature"
    },
    {
      "geometry": {
        "coordinates": [
          28.28886893804388,
          -15.520579131123348
        ],
        "type": "Point"
      },
      "properties": {
        "anchor_kind": "place:suburb",
        "anchor_name": "Lilayi",
        "archetype": "terminal",
        "chainage_m": 20289.5,
        "corridor_offset_m": 0.0,
        "id": "line-5-1503-1013-s020290",
        "junction_group": null,
        "line": "line-5",
        "platform_length_m": 121.0
      },
      "type": "Feature"
    },
    {
      "geometry": {
        "coordinates": [
          28.415402740640616,
          -15.303719900658676
        ],
        "type": "Point"
      },
      "properties": {
        "anchor_kind": "shop:mall",
        "anchor_name": "Access Lane Business Park",
        "archetype": "terminal",
        "chainage_m": 0.0,
        "corridor_offset_m": 0.0,
        "id": "line-6-0298-1692-s000000",
        "junction_group": null,
        "line": "line-6",
        "platform_length_m": 121.0
      },
      "type": "Feature"
    },
    {
      "geometry": {
        "coordinates": [
          28.392667653870657,
          -15.32441600979016
        ],
        "type": "Point"
      },
      "properties": {
        "anchor_kind": null,
        "anchor_name": null,
        "archetype": "halt",
        "chainage_m": 3506.7,
        "corridor_offset_m": 227.429,
        "id": "line-6-0413-1570-s003507",
        "junction_group": null,
        "line": "line-6",
        "platform_length_m": 117.0
      },
      "type": "Feature"
    },
    {
      "geometry": {
        "coordinates": [
          28.364528325163576,
          -15.333774250440918
        ],
        "type": "Point"
      },
      "properties": {
        "anchor_kind": null,
        "anchor_name": null,
        "archetype": "halt",
        "chainage_m": 7017.7,
        "corridor_offset_m": 276.154,
        "id": "line-6-0465-1419-s007018",
        "junction_group": null,
        "line": "line-6",
        "platform_length_m": 117.0
      },
      "type": "Feature"
    },
    {
      "geometry": {
        "coordinates": [
          28.340675119372147,
          -15.344572220422561
        ],
        "type": "Point"
      },
      "properties": {
        "anchor_kind": null,
        "anchor_name": null,
        "archetype": "interchange",
        "chainage_m": 10191.9,
        "corridor_offset_m": 221.885,
        "id": "line-6-0525-1291-s010192",
        "junction_group": 10,
        "line": "line-6",
        "platform_length_m": 121.0
      },
      "type": "Feature"
    },
    {
      "geometry": {
        "coordinates": [
          28.31160402481384,
          -15.357709750566894
        ],
        "type": "Point"
      },
      "properties": {
        "anchor_kind": null,
        "anchor_name": null,
        "archetype": "standard",
        "chainage_m": 14022.1,
        "corridor_offset_m": 162.038,
        "id": "line-6-0598-1135-s014022",
        "junction_group": null,
        "line": "line-6",
        "platform_length_m": 121.0
      },
      "type": "Feature"
    },
    {
      "geometry": {
        "coordinates": [
          28.288682584873634,
          -15.368147788215815
        ],
        "type": "Point"
      },
      "properties": {
        "anchor_kind": null,
        "anchor_name": null,
        "archetype": "standard",
        "chainage_m": 17032.8,
        "corridor_offset_m": 139.237,
        "id": "line-6-0656-1012-s017033",
        "junction_group": null,
        "line": "line-6",
        "platform_length_m": 121.0
      },
      "type": "Feature"
    },
    {
      "geometry": {
        "coordinates": [
          28.265947498103674,
          -15.378405859698377
        ],
        "type": "Point"
      },
      "properties": {
        "anchor_kind": "amenity:marketplace",
        "anchor_name": "Matero East Market",
        "archetype": "interchange",
        "chainage_m": 20038.8,
        "corridor_offset_m": 94.72,
        "id": "line-6-0713-0890-s020039",
        "junction_group": 8,
        "line": "line-6",
        "platform_length_m": 121.0
      },
      "type": "Feature"
    },
    {
      "geometry": {
        "coordinates": [
          28.246753121568382,
          -15.387224201850053
        ],
        "type": "Point"
      },
      "properties": {
        "anchor_kind": "amenity:marketplace",
        "anchor_name": "Railside/kambalala Market",
        "archetype": "standard",
        "chainage_m": 22575.0,
        "corridor_offset_m": 83.183,
        "id": "line-6-0762-0787-s022575",
        "junction_group": null,
        "line": "line-6",
        "platform_length_m": 121.0
      },
      "type": "Feature"
    },
    {
      "geometry": {
        "coordinates": [
          28.227745098203336,
          -15.395862577835366
        ],
        "type": "Point"
      },
      "properties": {
        "anchor_kind": null,
        "anchor_name": null,
        "archetype": "interchange",
        "chainage_m": 25094.7,
        "corridor_offset_m": 41.174,
        "id": "line-6-0810-0685-s025095",
        "junction_group": 11,
        "line": "line-6",
        "platform_length_m": 121.0
      },
      "type": "Feature"
    },
    {
      "geometry": {
        "coordinates": [
          28.20855072166804,
          -15.404500953820682
        ],
        "type": "Point"
      },
      "properties": {
        "anchor_kind": "amenity:marketplace",
        "anchor_name": "Mwanza Market",
        "archetype": "terminal",
        "chainage_m": 27622.6,
        "corridor_offset_m": 0.0,
        "id": "line-6-0858-0582-s027623",
        "junction_group": null,
        "line": "line-6",
        "platform_length_m": 121.0
      },
      "type": "Feature"
    },
    {
      "geometry": {
        "coordinates": [
          28.26911550199785,
          -15.327475434618291
        ],
        "type": "Point"
      },
      "properties": {
        "anchor_kind": null,
        "anchor_name": null,
        "archetype": "terminal",
        "chainage_m": 0.0,
        "corridor_offset_m": 6.003,
        "id": "line-7-0430-0907-s000000",
        "junction_group": 12,
        "line": "line-7",
        "platform_length_m": 121.0
      },
      "type": "Feature"
    },
    {
      "geometry": {
        "coordinates": [
          28.254020895207958,
          -15.35644998740237
        ],
        "type": "Point"
      },
      "properties": {
        "anchor_kind": null,
        "anchor_name": null,
        "archetype": "standard",
        "chainage_m": 5278.1,
        "corridor_offset_m": 7.08,
        "id": "line-7-0591-0826-s005278",
        "junction_group": null,
        "line": "line-7",
        "platform_length_m": 121.0
      },
      "type": "Feature"
    },
    {
      "geometry": {
        "coordinates": [
          28.24097617329077,
          -15.37696613036749
        ],
        "type": "Point"
      },
      "properties": {
        "anchor_kind": "amenity:marketplace",
        "anchor_name": "Lilanda Main Market",
        "archetype": "standard",
        "chainage_m": 8302.1,
        "corridor_offset_m": 61.435,
        "id": "line-7-0705-0756-s008302",
        "junction_group": null,
        "line": "line-7",
        "platform_length_m": 121.0
      },
      "type": "Feature"
    },
    {
      "geometry": {
        "coordinates": [
          28.225695213330635,
          -15.401261562826189
        ],
        "type": "Point"
      },
      "properties": {
        "anchor_kind": null,
        "anchor_name": null,
        "archetype": "interchange",
        "chainage_m": 11798.5,
        "corridor_offset_m": 60.645,
        "id": "line-7-0840-0674-s011799",
        "junction_group": 11,
        "line": "line-7",
        "platform_length_m": 121.0
      },
      "type": "Feature"
    },
    {
      "geometry": {
        "coordinates": [
          28.210227900200252,
          -15.425736961451246
        ],
        "type": "Point"
      },
      "properties": {
        "anchor_kind": null,
        "anchor_name": null,
        "archetype": "standard",
        "chainage_m": 15311.6,
        "corridor_offset_m": 48.219,
        "id": "line-7-0976-0591-s015312",
        "junction_group": null,
        "line": "line-7",
        "platform_length_m": 121.0
      },
      "type": "Feature"
    },
    {
      "geometry": {
        "coordinates": [
          28.188610932451766,
          -15.459750566893424
        ],
        "type": "Point"
      },
      "properties": {
        "anchor_kind": null,
        "anchor_name": null,
        "archetype": "halt",
        "chainage_m": 20333.7,
        "corridor_offset_m": 153.021,
        "id": "line-7-1165-0475-s020334",
        "junction_group": null,
        "line": "line-7",
        "platform_length_m": 117.0
      },
      "type": "Feature"
    },
    {
      "geometry": {
        "coordinates": [
          28.171466440789175,
          -15.496283698664651
        ],
        "type": "Point"
      },
      "properties": {
        "anchor_kind": "aeroway:aerodrome",
        "anchor_name": "Cholongolo Airfield",
        "archetype": "terminal",
        "chainage_m": 25355.9,
        "corridor_offset_m": 0.0,
        "id": "line-7-1368-0383-s025356",
        "junction_group": null,
        "line": "line-7",
        "platform_length_m": 121.0
      },
      "type": "Feature"
    },
    {
      "geometry": {
        "coordinates": [
          28.269674561508587,
          -15.294001727675196
        ],
        "type": "Point"
      },
      "properties": {
        "anchor_kind": "amenity:university",
        "anchor_name": "Dmi St Eugine School",
        "archetype": "standard",
        "chainage_m": 0.0,
        "corridor_offset_m": 0.0,
        "id": "line-8-0244-0910-s000000",
        "junction_group": null,
        "line": "line-8",
        "platform_length_m": 121.0
      },
      "type": "Feature"
    },
    {
      "geometry": {
        "coordinates": [
          28.297813890215664,
          -15.295621423172443
        ],
        "type": "Point"
      },
      "properties": {
        "anchor_kind": null,
        "anchor_name": null,
        "archetype": "halt",
        "chainage_m": 3500.3,
        "corridor_offset_m": 115.029,
        "id": "line-8-0253-1061-s003500",
        "junction_group": null,
        "line": "line-8",
        "platform_length_m": 117.0
      },
      "type": "Feature"
    },
    {
      "geometry": {
        "coordinates": [
          28.3257668657525,
          -15.306599359320447
        ],
        "type": "Point"
      },
      "properties": {
        "anchor_kind": "public_transport:station",
        "anchor_name": "Ngwerere Siding",
        "archetype": "standard",
        "chainage_m": 7079.4,
        "corridor_offset_m": 203.902,
        "id": "line-8-0314-1211-s007079",
        "junction_group": null,
        "line": "line-8",
        "platform_length_m": 121.0
      },
      "type": "Feature"
    },
    {
      "geometry": {
        "coordinates": [
          28.3404887662019,
          -15.344572220422561
        ],
        "type": "Point"
      },
      "properties": {
        "anchor_kind": null,
        "anchor_name": null,
        "archetype": "interchange",
        "chainage_m": 12167.2,
        "corridor_offset_m": 3.245,
        "id": "line-8-0525-1290-s012167",
        "junction_group": 10,
        "line": "line-8",
        "platform_length_m": 121.0
      },
      "type": "Feature"
    },
    {
      "geometry": {
        "coordinates": [
          28.351669956416632,
          -15.355730122736926
        ],
        "type": "Point"
      },
      "properties": {
        "anchor_kind": null,
        "anchor_name": null,
        "archetype": "standard",
        "chainage_m": 14091.7,
        "corridor_offset_m": 83.008,
        "id": "line-8-0587-1350-s014092",
        "junction_group": null,
        "line": "line-8",
        "platform_length_m": 121.0
      },
      "type": "Feature"
    },
    {
      "geometry": {
        "coordinates": [
          28.36564644418505,
          -15.37156714537667
        ],
        "type": "Point"
      },
      "properties": {
        "anchor_kind": null,
        "anchor_name": null,
        "archetype": "interchange",
        "chainage_m": 16683.9,
        "corridor_offset_m": 180.477,
        "id": "line-8-0675-1425-s016684",
        "junction_group": 0,
        "line": "line-8",
        "platform_length_m": 121.0
      },
      "type": "Feature"
    },
    {
      "geometry": {
        "coordinates": [
          28.36695091637677,
          -15.393163085339957
        ],
        "type": "Point"
      },
      "properties": {
        "anchor_kind": null,
        "anchor_name": null,
        "archetype": "interchange",
        "chainage_m": 19141.9,
        "corridor_offset_m": 76.793,
        "id": "line-8-0795-1432-s019142",
        "junction_group": 3,
        "line": "line-8",
        "platform_length_m": 121.0
      },
      "type": "Feature"
    },
    {
      "geometry": {
        "coordinates": [
          28.370677979781682,
          -15.428256487780297
        ],
        "type": "Point"
      },
      "properties": {
        "anchor_kind": null,
        "anchor_name": null,
        "archetype": "interchange",
        "chainage_m": 23207.6,
        "corridor_offset_m": 65.73,
        "id": "line-8-0990-1452-s023208",
        "junction_group": 7,
        "line": "line-8",
        "platform_length_m": 121.0
      },
      "type": "Feature"
    },
    {
      "geometry": {
        "coordinates": [
          28.387263411933535,
          -15.440674153259188
        ],
        "type": "Point"
      },
      "properties": {
        "anchor_kind": null,
        "anchor_name": null,
        "archetype": "halt",
        "chainage_m": 25680.2,
        "corridor_offset_m": 84.95,
        "id": "line-8-1059-1541-s025680",
        "junction_group": null,
        "line": "line-8",
        "platform_length_m": 117.0
      },
      "type": "Feature"
    },
    {
      "geometry": {
        "coordinates": [
          28.37496410269733,
          -15.457231040564373
        ],
        "type": "Point"
      },
      "properties": {
        "anchor_kind": null,
        "anchor_name": null,
        "archetype": "interchange",
        "chainage_m": 28496.5,
        "corridor_offset_m": 166.019,
        "id": "line-8-1151-1475-s028497",
        "junction_group": 5,
        "line": "line-8",
        "platform_length_m": 121.0
      },
      "type": "Feature"
    },
    {
      "geometry": {
        "coordinates": [
          28.341420532053128,
          -15.464789619551524
        ],
        "type": "Point"
      },
      "properties": {
        "anchor_kind": "amenity:marketplace",
        "anchor_name": "Munyaule market",
        "archetype": "standard",
        "chainage_m": 32691.3,
        "corridor_offset_m": 143.767,
        "id": "line-8-1193-1295-s032691",
        "junction_group": null,
        "line": "line-8",
        "platform_length_m": 121.0
      },
      "type": "Feature"
    },
    {
      "geometry": {
        "coordinates": [
          28.296323064853702,
          -15.480806608357629
        ],
        "type": "Point"
      },
      "properties": {
        "anchor_kind": null,
        "anchor_name": null,
        "archetype": "interchange",
        "chainage_m": 38585.0,
        "corridor_offset_m": 185.193,
        "id": "line-8-1282-1053-s038585",
        "junction_group": 9,
        "line": "line-8",
        "platform_length_m": 121.0
      },
      "type": "Feature"
    },
    {
      "geometry": {
        "coordinates": [
          28.254020895207958,
          -15.484945830183925
        ],
        "type": "Point"
      },
      "properties": {
        "anchor_kind": "shop:mall",
        "anchor_name": null,
        "archetype": "standard",
        "chainage_m": 43327.2,
        "corridor_offset_m": 67.094,
        "id": "line-8-1305-0826-s043327",
        "junction_group": null,
        "line": "line-8",
        "platform_length_m": 121.0
      },
      "type": "Feature"
    },
    {
      "geometry": {
        "coordinates": [
          28.243585117674208,
          -15.4736079617032
        ],
        "type": "Point"
      },
      "properties": {
        "anchor_kind": null,
        "anchor_name": null,
        "archetype": "interchange",
        "chainage_m": 45430.9,
        "corridor_offset_m": 68.446,
        "id": "line-8-1242-0770-s045431",
        "junction_group": 4,
        "line": "line-8",
        "platform_length_m": 121.0
      },
      "type": "Feature"
    },
    {
      "geometry": {
        "coordinates": [
          28.245448649376662,
          -15.44895259691178
        ],
        "type": "Point"
      },
      "properties": {
        "anchor_kind": "shop:mall",
        "anchor_name": "Sana",
        "archetype": "standard",
        "chainage_m": 48253.7,
        "corridor_offset_m": 39.082,
        "id": "line-8-1105-0780-s048254",
        "junction_group": null,
        "line": "line-8",
        "platform_length_m": 121.0
      },
      "type": "Feature"
    },
    {
      "geometry": {
        "coordinates": [
          28.246566768398136,
          -15.43167584494115
        ],
        "type": "Point"
      },
      "properties": {
        "anchor_kind": "amenity:marketplace",
        "anchor_name": "Mbasela Market",
        "archetype": "standard",
        "chainage_m": 50223.4,
        "corridor_offset_m": 118.715,
        "id": "line-8-1009-0786-s050223",
        "junction_group": null,
        "line": "line-8",
        "platform_length_m": 121.0
      },
      "type": "Feature"
    },
    {
      "geometry": {
        "coordinates": [
          28.24843030010059,
          -15.414938991469604
        ],
        "type": "Point"
      },
      "properties": {
        "anchor_kind": null,
        "anchor_name": null,
        "archetype": "interchange",
        "chainage_m": 52178.0,
        "corridor_offset_m": 165.64,
        "id": "line-8-0916-0796-s052178",
        "junction_group": 2,
        "line": "line-8",
        "platform_length_m": 121.0
      },
      "type": "Feature"
    },
    {
      "geometry": {
        "coordinates": [
          28.259052430804587,
          -15.40198142749163
        ],
        "type": "Point"
      },
      "properties": {
        "anchor_kind": null,
        "anchor_name": null,
        "archetype": "interchange",
        "chainage_m": 54265.9,
        "corridor_offset_m": 52.95,
        "id": "line-8-0844-0853-s054266",
        "junction_group": 6,
        "line": "line-8",
        "platform_length_m": 121.0
      },
      "type": "Feature"
    },
    {
      "geometry": {
        "coordinates": [
          28.264270319571466,
          -15.37696613036749
        ],
        "type": "Point"
      },
      "properties": {
        "anchor_kind": null,
        "anchor_name": null,
        "archetype": "interchange",
        "chainage_m": 57593.9,
        "corridor_offset_m": 7.251,
        "id": "line-8-0705-0881-s057594",
        "junction_group": 8,
        "line": "line-8",
        "platform_length_m": 121.0
      },
      "type": "Feature"
    },
    {
      "geometry": {
        "coordinates": [
          28.26911550199785,
          -15.327475434618291
        ],
        "type": "Point"
      },
      "properties": {
        "anchor_kind": null,
        "anchor_name": null,
        "archetype": "interchange",
        "chainage_m": 63720.6,
        "corridor_offset_m": 54.588,
        "id": "line-8-0430-0907-s063721",
        "junction_group": 12,
        "line": "line-8",
        "platform_length_m": 121.0
      },
      "type": "Feature"
    }
  ],
  "type": "FeatureCollection"
}
