{
  "features": [
    {
      "geometry": {
        "coordinates": [
          6.828404699761643,
          6.149550314940791
        ],
        "type": "Point"
      },
      "properties": {
        "id": "interchange-000",
        "junction_group": 0,
        "line_count": 2,
        "lines": "line-1,line-5",
        "platform_count": 2,
        "platforms": "line-1-0884-1046-s015021,line-5-0907-1057-s055746"
      },
      "type": "Feature"
    },
    {
      "geometry": {
        "coordinates": [
          6.845481595320079,
          6.154319418349351
        ],
        "type": "Point"
      },
      "properties": {
        "id": "interchange-001",
        "junction_group": 1,
        "line_count": 2,
        "lines": "line-1,line-5",
        "platform_count": 2,
        "platforms": "line-1-0869-1146-s017655,line-5-0869-1146-s053380"
      },
      "type": "Feature"
    },
    {
      "geometry": {
        "coordinates": [
          6.77708365914158,
          6.162687845085124
        ],
        "type": "Point"
      },
      "properties": {
        "id": "interchange-002",
        "junction_group": 2,
        "line_count": 2,
        "lines": "line-2,line-4",
        "platform_count": 2,
        "platforms": "line-2-0818-0759-s013790,line-4-0827-0776-s016882"
      },
      "type": "Feature"
    },
    {
      "geometry": {
        "coordinates": [
          6.772565961903897,
          6.140012108123673
        ],
        "type": "Point"
      },
      "properties": {
        "id": "interchange-003",
        "junction_group": 3,
        "line_count": 2,
        "lines": "line-2,line-5",
        "platform_count": 2,
        "platforms": "line-2-0938-0753-s016795,line-5-0959-0732-s063595"
      },
      "type": "Feature"
    },
    {
      "geometry": {
        "coordinates": [
          6.792835363510296,
          6.13422319643907
        ],
        "type": "Point"
      },
      "properties": {
        "id": "interchange-004",
        "junction_group": 4,
        "line_count": 3,
        "lines": "line-2,line-3,line-5",
        "platform_count": 3,
        "platforms": "line-2-0976-0842-s019022,line-3-0983-0861-s010494,line-5-0983-0861-s060592"
      },
      "type": "Feature"
    },
    {
      "geometry": {
        "coordinates": [
          6.805816213573235,
          6.154229435266171
        ],
        "type": "Point"
      },
      "properties": {
        "id": "interchange-005",
        "junction_group": 5,
        "line_count": 2,
        "lines": "line-3,line-4",
        "platform_count": 2,
        "platforms": "line-3-0877-0923-s013887,line-4-0862-0930-s012725"
      },
      "type": "Feature"
    },
    {
      "geometry": {
        "coordinates": [
          6.8461140729333545,
          6.2145630925386035
        ],
        "type": "Point"
      },
      "properties": {
        "id": "interchange-006",
        "junction_group": 6,
        "line_count": 2,
        "lines": "line-3,line-5",
        "platform_count": 4,
        "platforms": "line-3-0537-1178-s025156,line-3-0546-1121-s023891,line-5-0517-1121-s029265,line-5-0537-1178-s030570"
      },
      "type": "Feature"
    },
    {
      "geometry": {
        "coordinates": [
          6.820724614457584,
          6.137222632545082
        ],
        "type": "Point"
      },
      "properties": {
        "id": "interchange-007",
        "junction_group": 7,
        "line_count": 2,
        "lines": "line-4,line-5",
        "platform_count": 2,
        "platforms": "line-4-0964-1009-s009894,line-5-0964-1009-s057330"
      },
      "type": "Feature"
    }
  ],
  "type": "FeatureCollection"
}
