{
  "features": [
    {
      "geometry": {
        "coordinates": [
          37.25645728345671,
          -1.4782647050354534
        ],
        "type": "Point"
      },
      "properties": {
        "id": "interchange-000",
        "junction_group": 0,
        "line_count": 2,
        "lines": "line-1,line-5",
        "platform_count": 2,
        "platforms": "line-1-0156-0337-s003118,line-5-0156-0337-s000000"
      },
      "type": "Feature"
    },
    {
      "geometry": {
        "coordinates": [
          37.256097832888074,
          -1.4930219306770327
        ],
        "type": "Point"
      },
      "properties": {
        "id": "interchange-001",
        "junction_group": 1,
        "line_count": 2,
        "lines": "line-1,line-3",
        "platform_count": 2,
        "platforms": "line-1-0238-0335-s004774,line-3-0238-0335-s001011"
      },
      "type": "Feature"
    },
    {
      "geometry": {
        "coordinates": [
          37.25573838231944,
          -1.511018547313105
        ],
        "type": "Point"
      },
      "properties": {
        "id": "interchange-002",
        "junction_group": 2,
        "line_count": 2,
        "lines": "line-1,line-4",
        "platform_count": 2,
        "platforms": "line-1-0338-0333-s006791,line-4-0338-0333-s000000"
      },
      "type": "Feature"
    },
    {
      "geometry": {
        "coordinates": [
          37.25537893175081,
          -1.5255958067883237
        ],
        "type": "Point"
      },
      "properties": {
        "id": "interchange-003",
        "junction_group": 3,
        "line_count": 2,
        "lines": "line-1,line-2",
        "platform_count": 2,
        "platforms": "line-1-0419-0331-s008427,line-2-0419-0331-s001879"
      },
      "type": "Feature"
    },
    {
      "geometry": {
        "coordinates": [
          37.25537893175081,
          -1.5322545549436706
        ],
        "type": "Point"
      },
      "properties": {
        "id": "interchange-004",
        "junction_group": 4,
        "line_count": 2,
        "lines": "line-1,line-7",
        "platform_count": 2,
        "platforms": "line-1-0456-0331-s009167,line-7-0456-0331-s001796"
      },
      "type": "Feature"
    },
    {
      "geometry": {
        "coordinates": [
          37.242977887132994,
          -1.5239761112910772
        ],
        "type": "Point"
      },
      "properties": {
        "id": "interchange-005",
        "junction_group": 5,
        "line_count": 2,
        "lines": "line-2,line-7",
        "platform_count": 2,
        "platforms": "line-2-0410-0262-s003334,line-7-0410-0262-s000000"
      },
      "type": "Feature"
    },
    {
      "geometry": {
        "coordinates": [
          37.224196594921956,
          -1.5209166864629449
        ],
        "type": "Point"
      },
      "properties": {
        "id": "interchange-006",
        "junction_group": 6,
        "line_count": 2,
        "lines": "line-2,line-3",
        "platform_count": 2,
        "platforms": "line-2-0396-0154-s005610,line-3-0390-0161-s006207"
      },
      "type": "Feature"
    },
    {
      "geometry": {
        "coordinates": [
          37.26400574539799,
          -1.4859132671057842
        ],
        "type": "Point"
      },
      "properties": {
        "id": "interchange-007",
        "junction_group": 7,
        "line_count": 3,
        "lines": "line-3,line-5,line-6",
        "platform_count": 4,
        "platforms": "line-3-0208-0369-s000000,line-5-0189-0389-s001700,line-6-0189-0389-s000557,line-6-0208-0369-s000000"
      },
      "type": "Feature"
    },
    {
      "geometry": {
        "coordinates": [
          37.24136035957415,
          -1.505799528488644
        ],
        "type": "Point"
      },
      "properties": {
        "id": "interchange-008",
        "junction_group": 8,
        "line_count": 2,
        "lines": "line-3,line-8",
        "platform_count": 2,
        "platforms": "line-3-0309-0253-s003450,line-8-0309-0253-s000000"
      },
      "type": "Feature"
    }
  ],
  "type": "FeatureCollection"
}
