{
  "features": [
    {
      "geometry": {
        "coordinates": [
          37.24926827208406,
          -1.4537893064103948
        ],
        "type": "Point"
      },
      "properties": {
        "anchor_kind": "place:town",
        "anchor_name": "Mutituni",
        "archetype": "terminal",
        "chainage_m": 0.0,
        "corridor_offset_m": 0.0,
        "id": "line-1-0020-0297-s000000",
        "junction_group": null,
        "line": "line-1",
        "platform_length_m": 49.0
      },
      "type": "Feature"
    },
    {
      "geometry": {
        "coordinates": [
          37.25591810760376,
          -1.5023801713277902
        ],
        "type": "Point"
      },
      "properties": {
        "anchor_kind": "amenity:college",
        "anchor_name": "Machakos Teachers Training College",
        "archetype": "standard",
        "chainage_m": 5822.5,
        "corridor_offset_m": 0.666,
        "id": "line-1-0290-0334-s005822",
        "junction_group": null,
        "line": "line-1",
        "platform_length_m": 49.0
      },
      "type": "Feature"
    },
    {
      "geometry": {
        "coordinates": [
          37.25555865703513,
          -1.5237961451247164
        ],
        "type": "Point"
      },
      "properties": {
        "anchor_kind": null,
        "anchor_name": null,
        "archetype": "interchange",
        "chainage_m": 8219.1,
        "corridor_offset_m": 1.241,
        "id": "line-1-0409-0332-s008219",
        "junction_group": 0,
        "line": "line-1",
        "platform_length_m": 49.0
      },
      "type": "Feature"
    },
    {
      "geometry": {
        "coordinates": [
          37.25501948118218,
          -1.5452121189216426
        ],
        "type": "Point"
      },
      "properties": {
        "anchor_kind": "place:neighbourhood",
        "anchor_name": "Katoloni",
        "archetype": "depot-terminal",
        "chainage_m": 10623.9,
        "corridor_offset_m": 0.0,
        "id": "line-1-0528-0329-s010624",
        "junction_group": null,
        "line": "line-1",
        "platform_length_m": 49.0
      },
      "type": "Feature"
    },
    {
      "geometry": {
        "coordinates": [
          37.27137448205495,
          -1.5277554007846523
        ],
        "type": "Point"
      },
      "properties": {
        "anchor_kind": "place:neighbourhood",
        "anchor_name": "Five Fields",
        "archetype": "terminal",
        "chainage_m": 0.0,
        "corridor_offset_m": 0.0,
        "id": "line-2-0431-0420-s000000",
        "junction_group": null,
        "line": "line-2",
        "platform_length_m": 49.0
      },
      "type": "Feature"
    },
    {
      "geometry": {
        "coordinates": [
          37.2519641513488,
          -1.5252358744556023
        ],
        "type": "Point"
      },
      "properties": {
        "anchor_kind": null,
        "anchor_name": null,
        "archetype": "interchange",
        "chainage_m": 2276.0,
        "corridor_offset_m": 1.061,
        "id": "line-2-0417-0312-s002276",
        "junction_group": 0,
        "line": "line-2",
        "platform_length_m": 49.0
      },
      "type": "Feature"
    },
    {
      "geometry": {
        "coordinates": [
          37.23255382064266,
          -1.5225363819601914
        ],
        "type": "Point"
      },
      "properties": {
        "anchor_kind": "place:town",
        "anchor_name": "Kiandani",
        "archetype": "standard",
        "chainage_m": 4560.2,
        "corridor_offset_m": 0.461,
        "id": "line-2-0402-0204-s004560",
        "junction_group": null,
        "line": "line-2",
        "platform_length_m": 49.0
      },
      "type": "Feature"
    },
    {
      "geometry": {
        "coordinates": [
          37.214221841642406,
          -1.5245160097901593
        ],
        "type": "Point"
      },
      "properties": {
        "anchor_kind": "amenity:marketplace",
        "anchor_name": "Kimangu Shopping Centre",
        "archetype": "terminal",
        "chainage_m": 6830.8,
        "corridor_offset_m": 0.0,
        "id": "line-2-0413-0102-s006831",
        "junction_group": null,
        "line": "line-2",
        "platform_length_m": 49.0
      },
      "type": "Feature"
    },
    {
      "geometry": {
        "coordinates": [
          37.26220849255483,
          -1.487622945686211
        ],
        "type": "Point"
      },
      "properties": {
        "anchor_kind": "place:town",
        "anchor_name": "Kwa Musyoka",
        "archetype": "terminal",
        "chainage_m": 0.0,
        "corridor_offset_m": 0.0,
        "id": "line-3-0208-0369-s000000",
        "junction_group": null,
        "line": "line-3",
        "platform_length_m": 49.0
      },
      "type": "Feature"
    },
    {
      "geometry": {
        "coordinates": [
          37.22482563341706,
          -1.5203767879638628
        ],
        "type": "Point"
      },
      "properties": {
        "anchor_kind": "amenity:marketplace",
        "anchor_name": "Kanaani Market",
        "archetype": "terminal",
        "chainage_m": 6206.7,
        "corridor_offset_m": 0.0,
        "id": "line-3-0390-0161-s006207",
        "junction_group": null,
        "line": "line-3",
        "platform_length_m": 49.0
      },
      "type": "Feature"
    }
  ],
  "type": "FeatureCollection"
}
