{
  "features": [
    {
      "geometry": {
        "coordinates": [
          -9.532455993351618,
          30.373838775510205
        ],
        "type": "Point"
      },
      "properties": {
        "id": "interchange-000",
        "junction_group": 0,
        "line_count": 2,
        "lines": "line-1,line-3",
        "platform_count": 2,
        "platforms": "line-1-0860-0871-s007472,line-3-0840-0861-s006955"
      },
      "type": "Feature"
    },
    {
      "geometry": {
        "coordinates": [
          -9.592255335426731,
          30.423329471259404
        ],
        "type": "Point"
      },
      "properties": {
        "id": "interchange-001",
        "junction_group": 1,
        "line_count": 2,
        "lines": "line-1,line-2",
        "platform_count": 2,
        "platforms": "line-1-0575-0579-s019225,line-2-0575-0579-s014269"
      },
      "type": "Feature"
    },
    {
      "geometry": {
        "coordinates": [
          -9.552666920812545,
          30.40542283770651
        ],
        "type": "Point"
      },
      "properties": {
        "id": "interchange-002",
        "junction_group": 2,
        "line_count": 2,
        "lines": "line-2,line-3",
        "platform_count": 2,
        "platforms": "line-2-0664-0760-s020311,line-3-0685-0778-s012178"
      },
      "type": "Feature"
    }
  ],
  "type": "FeatureCollection"
}
