{
  "features": [
    {
      "geometry": {
        "coordinates": [
          -9.488075296968347,
          30.33010699708455
        ],
        "type": "Point"
      },
      "properties": {
        "anchor_kind": "place:suburb",
        "anchor_name": "Zone industrielle ⵎⵉⵏⵟⴰⵇⴰ ⵚⵉⵏⴰⵄⵉⵢⴰ المنطقة الصناعية",
        "archetype": "terminal",
        "chainage_m": 0.0,
        "corridor_offset_m": 0.0,
        "id": "line-1-1093-1079-s000000",
        "junction_group": null,
        "line": "line-1",
        "platform_length_m": 59.5
      },
      "type": "Feature"
    },
    {
      "geometry": {
        "coordinates": [
          -9.50474410312169,
          30.351163038548755
        ],
        "type": "Point"
      },
      "properties": {
        "anchor_kind": "place:suburb",
        "anchor_name": "Assais ⴰⵙⵙⴰⵢⵙ أسايس",
        "archetype": "halt",
        "chainage_m": 3002.7,
        "corridor_offset_m": 26.622,
        "id": "line-1-0976-0999-s003003",
        "junction_group": null,
        "line": "line-1",
        "platform_length_m": 55.5
      },
      "type": "Feature"
    },
    {
      "geometry": {
        "coordinates": [
          -9.522037989505781,
          30.358721617535906
        ],
        "type": "Point"
      },
      "properties": {
        "anchor_kind": "amenity:marketplace",
        "anchor_name": "سوق الجملة للخضر والفواكه",
        "archetype": "standard",
        "chainage_m": 5022.4,
        "corridor_offset_m": 4.302,
        "id": "line-1-0934-0916-s005022",
        "junction_group": null,
        "line": "line-1",
        "platform_length_m": 59.5
      },
      "type": "Feature"
    },
    {
      "geometry": {
        "coordinates": [
          -9.532872713505453,
          30.362680873195842
        ],
        "type": "Point"
      },
      "properties": {
        "anchor_kind": "place:neighbourhood",
        "anchor_name": "Jdid ⴰⵎⴰⵢⵏⵓ الجديد",
        "archetype": "major",
        "chainage_m": 6244.7,
        "corridor_offset_m": 24.793,
        "id": "line-1-0912-0864-s006245",
        "junction_group": null,
        "line": "line-1",
        "platform_length_m": 59.5
      },
      "type": "Feature"
    },
    {
      "geometry": {
        "coordinates": [
          -9.531414192967036,
          30.372039113846597
        ],
        "type": "Point"
      },
      "properties": {
        "anchor_kind": "amenity:hospital",
        "anchor_name": "Centre de Santé Tabarine",
        "archetype": "interchange-elevated",
        "chainage_m": 7472.3,
        "corridor_offset_m": 30.404,
        "id": "line-1-0860-0871-s007472",
        "junction_group": 0,
        "line": "line-1",
        "platform_length_m": 59.5
      },
      "type": "Feature"
    },
    {
      "geometry": {
        "coordinates": [
          -9.531414192967036,
          30.383556948493684
        ],
        "type": "Point"
      },
      "properties": {
        "anchor_kind": null,
        "anchor_name": null,
        "archetype": "standard",
        "chainage_m": 9479.7,
        "corridor_offset_m": 38.49,
        "id": "line-1-0796-0871-s009480",
        "junction_group": null,
        "line": "line-1",
        "platform_length_m": 59.5
      },
      "type": "Feature"
    },
    {
      "geometry": {
        "coordinates": [
          -9.550374959966462,
          30.38787613648634
        ],
        "type": "Point"
      },
      "properties": {
        "anchor_kind": null,
        "anchor_name": null,
        "archetype": "standard",
        "chainage_m": 11498.5,
        "corridor_offset_m": 54.932,
        "id": "line-1-0772-0780-s011499",
        "junction_group": null,
        "line": "line-1",
        "platform_length_m": 59.5
      },
      "type": "Feature"
    },
    {
      "geometry": {
        "coordinates": [
          -9.569544087042804,
          30.391475459813556
        ],
        "type": "Point"
      },
      "properties": {
        "anchor_kind": "place:suburb",
        "anchor_name": "Bensergao ⴱⵏⵙⵔⴽⴰⵡ بنسركاو",
        "archetype": "standard",
        "chainage_m": 13504.2,
        "corridor_offset_m": 45.32,
        "id": "line-1-0752-0688-s013504",
        "junction_group": null,
        "line": "line-1",
        "platform_length_m": 59.5
      },
      "type": "Feature"
    },
    {
      "geometry": {
        "coordinates": [
          -9.577878490119474,
          30.4022734297952
        ],
        "type": "Point"
      },
      "properties": {
        "anchor_kind": "amenity:university",
        "anchor_name": null,
        "archetype": "major",
        "chainage_m": 15122.4,
        "corridor_offset_m": 28.437,
        "id": "line-1-0692-0648-s015122",
        "junction_group": null,
        "line": "line-1",
        "platform_length_m": 59.5
      },
      "type": "Feature"
    },
    {
      "geometry": {
        "coordinates": [
          -9.581003891273227,
          30.410551873447794
        ],
        "type": "Point"
      },
      "properties": {
        "anchor_kind": "amenity:marketplace",
        "anchor_name": "Vegetables",
        "archetype": "major",
        "chainage_m": 16329.5,
        "corridor_offset_m": 53.665,
        "id": "line-1-0646-0633-s016330",
        "junction_group": null,
        "line": "line-1",
        "platform_length_m": 59.5
      },
      "type": "Feature"
    },
    {
      "geometry": {
        "coordinates": [
          -9.579962090888642,
          30.41721062160314
        ],
        "type": "Point"
      },
      "properties": {
        "anchor_kind": "place:suburb",
        "anchor_name": "Quartier Industriel ⵃⴰⵢ ⵚⵉⵏⴰⵄⵉ الحي الصناعي",
        "archetype": "major",
        "chainage_m": 17530.4,
        "corridor_offset_m": 71.034,
        "id": "line-1-0609-0638-s017530",
        "junction_group": null,
        "line": "line-1",
        "platform_length_m": 59.5
      },
      "type": "Feature"
    },
    {
      "geometry": {
        "coordinates": [
          -9.592255335426731,
          30.423329471259404
        ],
        "type": "Point"
      },
      "properties": {
        "anchor_kind": null,
        "anchor_name": null,
        "archetype": "interchange",
        "chainage_m": 19225.2,
        "corridor_offset_m": 114.523,
        "id": "line-1-0575-0579-s019225",
        "junction_group": 1,
        "line": "line-1",
        "platform_length_m": 59.5
      },
      "type": "Feature"
    },
    {
      "geometry": {
        "coordinates": [
          -9.59496401642665,
          30.431427948745636
        ],
        "type": "Point"
      },
      "properties": {
        "anchor_kind": "place:suburb",
        "anchor_name": "Cité Suisse ⵙⵉⵜⵉ ⵙⵡⵉⵙ سيتي سويس",
        "archetype": "major",
        "chainage_m": 20600.6,
        "corridor_offset_m": 125.478,
        "id": "line-1-0530-0566-s020601",
        "junction_group": null,
        "line": "line-1",
        "platform_length_m": 59.5
      },
      "type": "Feature"
    },
    {
      "geometry": {
        "coordinates": [
          -9.607257260964738,
          30.428548490083866
        ],
        "type": "Point"
      },
      "properties": {
        "anchor_kind": null,
        "anchor_name": null,
        "archetype": "standard",
        "chainage_m": 21962.8,
        "corridor_offset_m": 103.415,
        "id": "line-1-0546-0507-s021963",
        "junction_group": null,
        "line": "line-1",
        "platform_length_m": 59.5
      },
      "type": "Feature"
    },
    {
      "geometry": {
        "coordinates": [
          -9.625801307810331,
          30.426388896087538
        ],
        "type": "Point"
      },
      "properties": {
        "anchor_kind": null,
        "anchor_name": null,
        "archetype": "standard",
        "chainage_m": 23974.8,
        "corridor_offset_m": 78.824,
        "id": "line-1-0558-0418-s023975",
        "junction_group": null,
        "line": "line-1",
        "platform_length_m": 59.5
      },
      "type": "Feature"
    },
    {
      "geometry": {
        "coordinates": [
          -9.641636673656006,
          30.43466733974013
        ],
        "type": "Point"
      },
      "properties": {
        "anchor_kind": null,
        "anchor_name": null,
        "archetype": "standard",
        "chainage_m": 25981.3,
        "corridor_offset_m": 46.707,
        "id": "line-1-0512-0342-s025981",
        "junction_group": null,
        "line": "line-1",
        "platform_length_m": 59.5
      },
      "type": "Feature"
    },
    {
      "geometry": {
        "coordinates": [
          -9.64913763642501,
          30.443665648058165
        ],
        "type": "Point"
      },
      "properties": {
        "anchor_kind": null,
        "anchor_name": null,
        "archetype": "standard",
        "chainage_m": 27279.5,
        "corridor_offset_m": 35.717,
        "id": "line-1-0462-0306-s027280",
        "junction_group": null,
        "line": "line-1",
        "platform_length_m": 59.5
      },
      "type": "Feature"
    },
    {
      "geometry": {
        "coordinates": [
          -9.658722199963181,
          30.448524734549906
        ],
        "type": "Point"
      },
      "properties": {
        "anchor_kind": "amenity:hospital",
        "anchor_name": null,
        "archetype": "depot-terminal",
        "chainage_m": 28576.3,
        "corridor_offset_m": 0.0,
        "id": "line-1-0435-0260-s028576",
        "junction_group": null,
        "line": "line-1",
        "platform_length_m": 59.5
      },
      "type": "Feature"
    },
    {
      "geometry": {
        "coordinates": [
          -9.683517049116276,
          30.5021546521254
        ],
        "type": "Point"
      },
      "properties": {
        "anchor_kind": "tourism:attraction",
        "anchor_name": "Banana point",
        "archetype": "terminal",
        "chainage_m": 0.0,
        "corridor_offset_m": 0.0,
        "id": "line-2-0137-0141-s000000",
        "junction_group": null,
        "line": "line-2",
        "platform_length_m": 59.5
      },
      "type": "Feature"
    },
    {
      "geometry": {
        "coordinates": [
          -9.668098403424436,
          30.480918644494835
        ],
        "type": "Point"
      },
      "properties": {
        "anchor_kind": null,
        "anchor_name": null,
        "archetype": "halt",
        "chainage_m": 3019.9,
        "corridor_offset_m": 7.551,
        "id": "line-2-0255-0215-s003020",
        "junction_group": null,
        "line": "line-2",
        "platform_length_m": 55.5
      },
      "type": "Feature"
    },
    {
      "geometry": {
        "coordinates": [
          -9.659138920117014,
          30.465981452686897
        ],
        "type": "Point"
      },
      "properties": {
        "anchor_kind": null,
        "anchor_name": null,
        "archetype": "standard",
        "chainage_m": 5036.1,
        "corridor_offset_m": 4.321,
        "id": "line-2-0338-0258-s005036",
        "junction_group": null,
        "line": "line-2",
        "platform_length_m": 59.5
      },
      "type": "Feature"
    },
    {
      "geometry": {
        "coordinates": [
          -9.643511914348256,
          30.45500351653889
        ],
        "type": "Point"
      },
      "properties": {
        "anchor_kind": "amenity:marketplace",
        "anchor_name": "سوق القرب تدارت",
        "archetype": "standard",
        "chainage_m": 7041.5,
        "corridor_offset_m": 50.469,
        "id": "line-2-0399-0333-s007041",
        "junction_group": null,
        "line": "line-2",
        "platform_length_m": 59.5
      },
      "type": "Feature"
    },
    {
      "geometry": {
        "coordinates": [
          -9.630801949656334,
          30.441686020228197
        ],
        "type": "Point"
      },
      "properties": {
        "anchor_kind": null,
        "anchor_name": null,
        "archetype": "standard",
        "chainage_m": 9043.4,
        "corridor_offset_m": 100.567,
        "id": "line-2-0473-0394-s009043",
        "junction_group": null,
        "line": "line-2",
        "platform_length_m": 59.5
      },
      "type": "Feature"
    },
    {
      "geometry": {
        "coordinates": [
          -9.61621674427216,
          30.428728456250226
        ],
        "type": "Point"
      },
      "properties": {
        "anchor_kind": "place:suburb",
        "anchor_name": "Marina d'Agadir ⵎⴰⵔⵉⵏⴰ ⴰⴳⴰⴷⵉⵔ مارينا أگادير",
        "archetype": "standard",
        "chainage_m": 11063.3,
        "corridor_offset_m": 152.672,
        "id": "line-2-0545-0464-s011063",
        "junction_group": null,
        "line": "line-2",
        "platform_length_m": 59.5
      },
      "type": "Feature"
    },
    {
      "geometry": {
        "coordinates": [
          -9.603506779580238,
          30.422969538926683
        ],
        "type": "Point"
      },
      "properties": {
        "anchor_kind": "place:suburb",
        "anchor_name": "Quartier administratif الحي الإداري",
        "archetype": "major",
        "chainage_m": 12765.8,
        "corridor_offset_m": 134.222,
        "id": "line-2-0577-0525-s012766",
        "junction_group": null,
        "line": "line-2",
        "platform_length_m": 59.5
      },
      "type": "Feature"
    },
    {
      "geometry": {
        "coordinates": [
          -9.592255335426731,
          30.423329471259404
        ],
        "type": "Point"
      },
      "properties": {
        "anchor_kind": null,
        "anchor_name": null,
        "archetype": "interchange",
        "chainage_m": 14268.9,
        "corridor_offset_m": 88.964,
        "id": "line-2-0575-0579-s014269",
        "junction_group": 1,
        "line": "line-2",
        "platform_length_m": 59.5
      },
      "type": "Feature"
    },
    {
      "geometry": {
        "coordinates": [
          -9.575794889350307,
          30.425848997588453
        ],
        "type": "Point"
      },
      "properties": {
        "anchor_kind": "leisure:stadium",
        "anchor_name": "Stade Najah Ihchach",
        "archetype": "major",
        "chainage_m": 16391.9,
        "corridor_offset_m": 31.226,
        "id": "line-2-0561-0658-s016392",
        "junction_group": null,
        "line": "line-2",
        "platform_length_m": 59.5
      },
      "type": "Feature"
    },
    {
      "geometry": {
        "coordinates": [
          -9.570377527350471,
          30.419370215599468
        ],
        "type": "Point"
      },
      "properties": {
        "anchor_kind": "amenity:hospital",
        "anchor_name": "Centre De Sante Amsernat",
        "archetype": "major",
        "chainage_m": 17612.2,
        "corridor_offset_m": 4.013,
        "id": "line-2-0597-0684-s017612",
        "junction_group": null,
        "line": "line-2",
        "platform_length_m": 59.5
      },
      "type": "Feature"
    },
    {
      "geometry": {
        "coordinates": [
          -9.567043766119802,
          30.413431332109564
        ],
        "type": "Point"
      },
      "properties": {
        "anchor_kind": "place:suburb",
        "anchor_name": "El Massira ⵍⵎⴰⵙⵙⵉⵔⴰ المسيرة",
        "archetype": "major",
        "chainage_m": 18829.0,
        "corridor_offset_m": 12.841,
        "id": "line-2-0630-0700-s018829",
        "junction_group": null,
        "line": "line-2",
        "platform_length_m": 59.5
      },
      "type": "Feature"
    },
    {
      "geometry": {
        "coordinates": [
          -9.554542161504797,
          30.4073124824533
        ],
        "type": "Point"
      },
      "properties": {
        "anchor_kind": "tourism:attraction",
        "anchor_name": null,
        "archetype": "interchange-elevated",
        "chainage_m": 20310.7,
        "corridor_offset_m": 54.056,
        "id": "line-2-0664-0760-s020311",
        "junction_group": 2,
        "line": "line-2",
        "platform_length_m": 59.5
      },
      "type": "Feature"
    },
    {
      "geometry": {
        "coordinates": [
          -9.543915797582041,
          30.40425305762517
        ],
        "type": "Point"
      },
      "properties": {
        "anchor_kind": "amenity:university",
        "anchor_name": "Faculté des Sciences ⵜⴰⵖⵉⵡⴰⵏⵜ ⵏ ⵜⵎⴰⵙⵙⴰⵏⵉⵏ كلية العلوم",
        "archetype": "major",
        "chainage_m": 21523.2,
        "corridor_offset_m": 53.481,
        "id": "line-2-0681-0811-s021523",
        "junction_group": null,
        "line": "line-2",
        "platform_length_m": 59.5
      },
      "type": "Feature"
    },
    {
      "geometry": {
        "coordinates": [
          -9.525580110813365,
          30.399034038800707
        ],
        "type": "Point"
      },
      "properties": {
        "anchor_kind": "amenity:hospital",
        "anchor_name": "Clinique de L'Universite",
        "archetype": "standard",
        "chainage_m": 23540.0,
        "corridor_offset_m": 19.437,
        "id": "line-2-0710-0899-s023540",
        "junction_group": null,
        "line": "line-2",
        "platform_length_m": 59.5
      },
      "type": "Feature"
    },
    {
      "geometry": {
        "coordinates": [
          -9.514537026736777,
          30.38463674549185
        ],
        "type": "Point"
      },
      "properties": {
        "anchor_kind": "place:neighbourhood",
        "anchor_name": "Tassila-3 ⵟⴰⵙⵙⵉⵍⴰ-3 3-تاسيلا",
        "archetype": "terminal",
        "chainage_m": 25864.8,
        "corridor_offset_m": 0.0,
        "id": "line-2-0790-0952-s025865",
        "junction_group": null,
        "line": "line-2",
        "platform_length_m": 59.5
      },
      "type": "Feature"
    },
    {
      "geometry": {
        "coordinates": [
          -9.51953766858278,
          30.335865914408092
        ],
        "type": "Point"
      },
      "properties": {
        "anchor_kind": "place:suburb",
        "anchor_name": "El khattarate ⵍⵅⴰⵜⴰⵔⴰⵜ الخطارات",
        "archetype": "terminal",
        "chainage_m": 0.0,
        "corridor_offset_m": 0.0,
        "id": "line-3-1061-0928-s000000",
        "junction_group": null,
        "line": "line-3",
        "platform_length_m": 59.5
      },
      "type": "Feature"
    },
    {
      "geometry": {
        "coordinates": [
          -9.533289433659286,
          30.346663884389734
        ],
        "type": "Point"
      },
      "properties": {
        "anchor_kind": "place:suburb",
        "anchor_name": "Jerf ⵊⴰⵔⴼ جرف",
        "archetype": "standard",
        "chainage_m": 2509.9,
        "corridor_offset_m": 12.821,
        "id": "line-3-1001-0862-s002510",
        "junction_group": null,
        "line": "line-3",
        "platform_length_m": 59.5
      },
      "type": "Feature"
    },
    {
      "geometry": {
        "coordinates": [
          -9.540582036351372,
          30.35998138070043
        ],
        "type": "Point"
      },
      "properties": {
        "anchor_kind": "leisure:stadium",
        "anchor_name": "Stade municipale ملعب بلدي",
        "archetype": "standard",
        "chainage_m": 4532.4,
        "corridor_offset_m": 15.702,
        "id": "line-3-0927-0827-s004532",
        "junction_group": null,
        "line": "line-3",
        "platform_length_m": 59.5
      },
      "type": "Feature"
    },
    {
      "geometry": {
        "coordinates": [
          -9.538706795659122,
          30.36807985818666
        ],
        "type": "Point"
      },
      "properties": {
        "anchor_kind": "amenity:hospital",
        "anchor_name": "Centre de santé Irhalne المركز الصحي إرحالن",
        "archetype": "major",
        "chainage_m": 5741.0,
        "corridor_offset_m": 2.091,
        "id": "line-3-0882-0836-s005741",
        "junction_group": null,
        "line": "line-3",
        "platform_length_m": 59.5
      },
      "type": "Feature"
    },
    {
      "geometry": {
        "coordinates": [
          -9.533497793736203,
          30.375638437173812
        ],
        "type": "Point"
      },
      "properties": {
        "anchor_kind": "place:neighbourhood",
        "anchor_name": "Sbaai ⵙⴱⴰⵄⵉ السباعي",
        "archetype": "interchange-elevated",
        "chainage_m": 6954.9,
        "corridor_offset_m": 8.279,
        "id": "line-3-0840-0861-s006955",
        "junction_group": 0,
        "line": "line-3",
        "platform_length_m": 59.5
      },
      "type": "Feature"
    },
    {
      "geometry": {
        "coordinates": [
          -9.530580752659368,
          30.388955933484507
        ],
        "type": "Point"
      },
      "properties": {
        "anchor_kind": "amenity:bus_station",
        "anchor_name": "CTM",
        "archetype": "standard",
        "chainage_m": 8970.3,
        "corridor_offset_m": 26.417,
        "id": "line-3-0766-0875-s008970",
        "junction_group": null,
        "line": "line-3",
        "platform_length_m": 59.5
      },
      "type": "Feature"
    },
    {
      "geometry": {
        "coordinates": [
          -9.545165958043542,
          30.396154580138933
        ],
        "type": "Point"
      },
      "properties": {
        "anchor_kind": null,
        "anchor_name": null,
        "archetype": "standard",
        "chainage_m": 10972.0,
        "corridor_offset_m": 39.842,
        "id": "line-3-0726-0805-s010972",
        "junction_group": null,
        "line": "line-3",
        "platform_length_m": 59.5
      },
      "type": "Feature"
    },
    {
      "geometry": {
        "coordinates": [
          -9.550791680120295,
          30.403533192959724
        ],
        "type": "Point"
      },
      "properties": {
        "anchor_kind": "amenity:college",
        "anchor_name": "Lycée ibn Maja",
        "archetype": "interchange-elevated",
        "chainage_m": 12177.7,
        "corridor_offset_m": 32.731,
        "id": "line-3-0685-0778-s012178",
        "junction_group": 2,
        "line": "line-3",
        "platform_length_m": 59.5
      },
      "type": "Feature"
    },
    {
      "geometry": {
        "coordinates": [
          -9.54599939835121,
          30.4123515351114
        ],
        "type": "Point"
      },
      "properties": {
        "anchor_kind": "amenity:university",
        "anchor_name": "ملحق جامعي",
        "archetype": "major",
        "chainage_m": 13381.4,
        "corridor_offset_m": 52.302,
        "id": "line-3-0636-0801-s013381",
        "junction_group": null,
        "line": "line-3",
        "platform_length_m": 59.5
      },
      "type": "Feature"
    },
    {
      "geometry": {
        "coordinates": [
          -9.556834122350882,
          30.425489065255732
        ],
        "type": "Point"
      },
      "properties": {
        "anchor_kind": "place:neighbourhood",
        "anchor_name": "Lirak ⵍⵉⵔⴰⴽ ليراك",
        "archetype": "standard",
        "chainage_m": 15390.1,
        "corridor_offset_m": 43.693,
        "id": "line-3-0563-0749-s015390",
        "junction_group": null,
        "line": "line-3",
        "platform_length_m": 59.5
      },
      "type": "Feature"
    },
    {
      "geometry": {
        "coordinates": [
          -9.565168525427552,
          30.438266663067346
        ],
        "type": "Point"
      },
      "properties": {
        "anchor_kind": null,
        "anchor_name": null,
        "archetype": "standard",
        "chainage_m": 17411.8,
        "corridor_offset_m": 108.01,
        "id": "line-3-0492-0709-s017412",
        "junction_group": null,
        "line": "line-3",
        "platform_length_m": 59.5
      },
      "type": "Feature"
    },
    {
      "geometry": {
        "coordinates": [
          -9.568710646735138,
          30.451584159378037
        ],
        "type": "Point"
      },
      "properties": {
        "anchor_kind": null,
        "anchor_name": null,
        "archetype": "standard",
        "chainage_m": 19437.1,
        "corridor_offset_m": 93.389,
        "id": "line-3-0418-0692-s019437",
        "junction_group": null,
        "line": "line-3",
        "platform_length_m": 59.5
      },
      "type": "Feature"
    },
    {
      "geometry": {
        "coordinates": [
          -9.581212251350143,
          30.465261588021452
        ],
        "type": "Point"
      },
      "properties": {
        "anchor_kind": null,
        "anchor_name": null,
        "archetype": "standard",
        "chainage_m": 21454.2,
        "corridor_offset_m": 49.41,
        "id": "line-3-0342-0632-s021454",
        "junction_group": null,
        "line": "line-3",
        "platform_length_m": 59.5
      },
      "type": "Feature"
    },
    {
      "geometry": {
        "coordinates": [
          -9.590796814888314,
          30.480018813663033
        ],
        "type": "Point"
      },
      "properties": {
        "anchor_kind": null,
        "anchor_name": null,
        "archetype": "standard",
        "chainage_m": 23475.3,
        "corridor_offset_m": 12.119,
        "id": "line-3-0260-0586-s023475",
        "junction_group": null,
        "line": "line-3",
        "platform_length_m": 59.5
      },
      "type": "Feature"
    },
    {
      "geometry": {
        "coordinates": [
          -9.59621417688815,
          30.49423614080553
        ],
        "type": "Point"
      },
      "properties": {
        "anchor_kind": null,
        "anchor_name": null,
        "archetype": "standard",
        "chainage_m": 25270.7,
        "corridor_offset_m": 5.928,
        "id": "line-3-0181-0560-s025271",
        "junction_group": null,
        "line": "line-3",
        "platform_length_m": 59.5
      },
      "type": "Feature"
    },
    {
      "geometry": {
        "coordinates": [
          -9.592046975349815,
          30.508093535615306
        ],
        "type": "Point"
      },
      "properties": {
        "anchor_kind": "tourism:attraction",
        "anchor_name": "Jardin Botanique",
        "archetype": "terminal",
        "chainage_m": 27049.5,
        "corridor_offset_m": 0.0,
        "id": "line-3-0104-0580-s027049",
        "junction_group": null,
        "line": "line-3",
        "platform_length_m": 59.5
      },
      "type": "Feature"
    }
  ],
  "type": "FeatureCollection"
}
