{
  "features": [
    {
      "geometry": {
        "coordinates": [
          28.92803686293189,
          -2.4677789871504157
        ],
        "type": "Point"
      },
      "properties": {
        "anchor_kind": "amenity:hospital",
        "anchor_name": "Shagasha Health Centre",
        "archetype": "terminal",
        "chainage_m": 0.0,
        "corridor_offset_m": 0.0,
        "id": "line-1-0325-0925-s000000",
        "junction_group": null,
        "line": "line-1",
        "platform_length_m": 59.5
      },
      "type": "Feature"
    },
    {
      "geometry": {
        "coordinates": [
          28.918145963459978,
          -2.4717382428103516
        ],
        "type": "Point"
      },
      "properties": {
        "anchor_kind": "place:town",
        "anchor_name": null,
        "archetype": "major",
        "chainage_m": 1334.0,
        "corridor_offset_m": 1.474,
        "id": "line-1-0347-0870-s001334",
        "junction_group": null,
        "line": "line-1",
        "platform_length_m": 59.5
      },
      "type": "Feature"
    },
    {
      "geometry": {
        "coordinates": [
          28.91580811449389,
          -2.481096483461109
        ],
        "type": "Point"
      },
      "properties": {
        "anchor_kind": "amenity:hospital",
        "anchor_name": "Gihundwe District Hospital",
        "archetype": "major",
        "chainage_m": 2538.2,
        "corridor_offset_m": 1.653,
        "id": "line-1-0399-0857-s002538",
        "junction_group": null,
        "line": "line-1",
        "platform_length_m": 59.5
      },
      "type": "Feature"
    },
    {
      "geometry": {
        "coordinates": [
          28.91023324388245,
          -2.485055739121045
        ],
        "type": "Point"
      },
      "properties": {
        "anchor_kind": null,
        "anchor_name": null,
        "archetype": "major",
        "chainage_m": 3745.3,
        "corridor_offset_m": 2.261,
        "id": "line-1-0421-0826-s003745",
        "junction_group": null,
        "line": "line-1",
        "platform_length_m": 59.5
      },
      "type": "Feature"
    },
    {
      "geometry": {
        "coordinates": [
          28.898903668123715,
          -2.4783969909656984
        ],
        "type": "Point"
      },
      "properties": {
        "anchor_kind": null,
        "anchor_name": null,
        "archetype": "interchange-elevated",
        "chainage_m": 5758.7,
        "corridor_offset_m": 3.772,
        "id": "line-1-0384-0763-s005759",
        "junction_group": 0,
        "line": "line-1",
        "platform_length_m": 59.5
      },
      "type": "Feature"
    },
    {
      "geometry": {
        "coordinates": [
          28.889911941331068,
          -2.4891949609473416
        ],
        "type": "Point"
      },
      "properties": {
        "anchor_kind": null,
        "anchor_name": null,
        "archetype": "standard",
        "chainage_m": 7768.1,
        "corridor_offset_m": 4.997,
        "id": "line-1-0444-0713-s007768",
        "junction_group": null,
        "line": "line-1",
        "platform_length_m": 59.5
      },
      "type": "Feature"
    },
    {
      "geometry": {
        "coordinates": [
          28.8764243511421,
          -2.4972934384335743
        ],
        "type": "Point"
      },
      "properties": {
        "anchor_kind": "amenity:marketplace",
        "anchor_name": "Marché Nguba",
        "archetype": "interchange-elevated",
        "chainage_m": 9774.6,
        "corridor_offset_m": 6.905,
        "id": "line-1-0489-0638-s009775",
        "junction_group": 1,
        "line": "line-1",
        "platform_length_m": 59.5
      },
      "type": "Feature"
    },
    {
      "geometry": {
        "coordinates": [
          28.865454444455068,
          -2.507191577583414
        ],
        "type": "Point"
      },
      "properties": {
        "anchor_kind": null,
        "anchor_name": null,
        "archetype": "interchange-elevated",
        "chainage_m": 11948.8,
        "corridor_offset_m": 9.019,
        "id": "line-1-0544-0577-s011949",
        "junction_group": 1,
        "line": "line-1",
        "platform_length_m": 59.5
      },
      "type": "Feature"
    },
    {
      "geometry": {
        "coordinates": [
          28.856822386734127,
          -2.5134903934060393
        ],
        "type": "Point"
      },
      "properties": {
        "anchor_kind": "amenity:hospital",
        "anchor_name": "Polyclinique Salama",
        "archetype": "major",
        "chainage_m": 13787.0,
        "corridor_offset_m": 3.742,
        "id": "line-1-0579-0529-s013787",
        "junction_group": null,
        "line": "line-1",
        "platform_length_m": 59.5
      },
      "type": "Feature"
    },
    {
      "geometry": {
        "coordinates": [
          28.855203875911453,
          -2.52104897239319
        ],
        "type": "Point"
      },
      "properties": {
        "anchor_kind": "amenity:marketplace",
        "anchor_name": "Marché Central de Kadutu",
        "archetype": "major",
        "chainage_m": 14987.3,
        "corridor_offset_m": 3.042,
        "id": "line-1-0621-0520-s014987",
        "junction_group": null,
        "line": "line-1",
        "platform_length_m": 59.5
      },
      "type": "Feature"
    },
    {
      "geometry": {
        "coordinates": [
          28.84908950169245,
          -2.527347788215815
        ],
        "type": "Point"
      },
      "properties": {
        "anchor_kind": "amenity:marketplace",
        "anchor_name": "Petit Marché de Nyamiera",
        "archetype": "major",
        "chainage_m": 16211.0,
        "corridor_offset_m": 2.189,
        "id": "line-1-0656-0486-s016211",
        "junction_group": null,
        "line": "line-1",
        "platform_length_m": 59.5
      },
      "type": "Feature"
    },
    {
      "geometry": {
        "coordinates": [
          28.8336237316091,
          -2.524828261886765
        ],
        "type": "Point"
      },
      "properties": {
        "anchor_kind": "amenity:hospital",
        "anchor_name": "Hôpital General de Référence Dr RAU CORIRI",
        "archetype": "terminal",
        "chainage_m": 18280.9,
        "corridor_offset_m": 0.0,
        "id": "line-1-0642-0400-s018281",
        "junction_group": null,
        "line": "line-1",
        "platform_length_m": 59.5
      },
      "type": "Feature"
    },
    {
      "geometry": {
        "coordinates": [
          28.832544724393983,
          -2.464899528488644
        ],
        "type": "Point"
      },
      "properties": {
        "anchor_kind": "amenity:college",
        "anchor_name": "Collège Umoja",
        "archetype": "terminal",
        "chainage_m": 0.0,
        "corridor_offset_m": 0.0,
        "id": "line-2-0309-0394-s000000",
        "junction_group": null,
        "line": "line-2",
        "platform_length_m": 59.5
      },
      "type": "Feature"
    },
    {
      "geometry": {
        "coordinates": [
          28.83847926407713,
          -2.475877464636648
        ],
        "type": "Point"
      },
      "properties": {
        "anchor_kind": null,
        "anchor_name": null,
        "archetype": "standard",
        "chainage_m": 2011.4,
        "corridor_offset_m": 29.315,
        "id": "line-2-0370-0427-s002011",
        "junction_group": null,
        "line": "line-2",
        "platform_length_m": 59.5
      },
      "type": "Feature"
    },
    {
      "geometry": {
        "coordinates": [
          28.844953307367835,
          -2.48379597595652
        ],
        "type": "Point"
      },
      "properties": {
        "anchor_kind": "amenity:marketplace",
        "anchor_name": "Nkafu Brasserie",
        "archetype": "major",
        "chainage_m": 3213.0,
        "corridor_offset_m": 7.107,
        "id": "line-2-0414-0463-s003213",
        "junction_group": null,
        "line": "line-2",
        "platform_length_m": 59.5
      },
      "type": "Feature"
    },
    {
      "geometry": {
        "coordinates": [
          28.85268619240951,
          -2.4909946226109487
        ],
        "type": "Point"
      },
      "properties": {
        "anchor_kind": "amenity:marketplace",
        "anchor_name": "Marché de Mwanzi",
        "archetype": "major",
        "chainage_m": 4432.7,
        "corridor_offset_m": 9.563,
        "id": "line-2-0454-0506-s004433",
        "junction_group": null,
        "line": "line-2",
        "platform_length_m": 59.5
      },
      "type": "Feature"
    },
    {
      "geometry": {
        "coordinates": [
          28.86743262434945,
          -2.4967535399344922
        ],
        "type": "Point"
      },
      "properties": {
        "anchor_kind": null,
        "anchor_name": null,
        "archetype": "interchange-elevated",
        "chainage_m": 6437.2,
        "corridor_offset_m": 36.138,
        "id": "line-2-0486-0588-s006437",
        "junction_group": 1,
        "line": "line-2",
        "platform_length_m": 59.5
      },
      "type": "Feature"
    },
    {
      "geometry": {
        "coordinates": [
          28.865454444455068,
          -2.507191577583414
        ],
        "type": "Point"
      },
      "properties": {
        "anchor_kind": null,
        "anchor_name": null,
        "archetype": "interchange-elevated",
        "chainage_m": 8539.7,
        "corridor_offset_m": 9.71,
        "id": "line-2-0544-0577-s008540",
        "junction_group": 1,
        "line": "line-2",
        "platform_length_m": 59.5
      },
      "type": "Feature"
    },
    {
      "geometry": {
        "coordinates": [
          28.87354699856845,
          -2.512950494906957
        ],
        "type": "Point"
      },
      "properties": {
        "anchor_kind": null,
        "anchor_name": null,
        "archetype": "standard",
        "chainage_m": 10022.8,
        "corridor_offset_m": 14.0,
        "id": "line-2-0576-0622-s010023",
        "junction_group": null,
        "line": "line-2",
        "platform_length_m": 59.5
      },
      "type": "Feature"
    },
    {
      "geometry": {
        "coordinates": [
          28.8859555815423,
          -2.520149141561386
        ],
        "type": "Point"
      },
      "properties": {
        "anchor_kind": null,
        "anchor_name": null,
        "archetype": "standard",
        "chainage_m": 12033.6,
        "corridor_offset_m": 54.375,
        "id": "line-2-0616-0691-s012034",
        "junction_group": null,
        "line": "line-2",
        "platform_length_m": 59.5
      },
      "type": "Feature"
    },
    {
      "geometry": {
        "coordinates": [
          28.899443171731274,
          -2.528967483713062
        ],
        "type": "Point"
      },
      "properties": {
        "anchor_kind": null,
        "anchor_name": null,
        "archetype": "standard",
        "chainage_m": 14050.6,
        "corridor_offset_m": 97.857,
        "id": "line-2-0665-0766-s014051",
        "junction_group": null,
        "line": "line-2",
        "platform_length_m": 59.5
      },
      "type": "Feature"
    },
    {
      "geometry": {
        "coordinates": [
          28.914189603671215,
          -2.5370659611992945
        ],
        "type": "Point"
      },
      "properties": {
        "anchor_kind": "amenity:hospital",
        "anchor_name": "Nyakarenzo Health Centre",
        "archetype": "standard",
        "chainage_m": 16063.4,
        "corridor_offset_m": 156.206,
        "id": "line-2-0710-0848-s016063",
        "junction_group": null,
        "line": "line-2",
        "platform_length_m": 59.5
      },
      "type": "Feature"
    },
    {
      "geometry": {
        "coordinates": [
          28.922821661392152,
          -2.5381457581974587
        ],
        "type": "Point"
      },
      "properties": {
        "anchor_kind": null,
        "anchor_name": null,
        "archetype": "standard",
        "chainage_m": 17568.5,
        "corridor_offset_m": 127.917,
        "id": "line-2-0716-0896-s017569",
        "junction_group": null,
        "line": "line-2",
        "platform_length_m": 59.5
      },
      "type": "Feature"
    },
    {
      "geometry": {
        "coordinates": [
          28.933791568079183,
          -2.5410252168592304
        ],
        "type": "Point"
      },
      "properties": {
        "anchor_kind": null,
        "anchor_name": null,
        "archetype": "halt",
        "chainage_m": 19077.0,
        "corridor_offset_m": 97.087,
        "id": "line-2-0732-0957-s019077",
        "junction_group": null,
        "line": "line-2",
        "platform_length_m": 55.5
      },
      "type": "Feature"
    },
    {
      "geometry": {
        "coordinates": [
          28.94332279847939,
          -2.5579420364971384
        ],
        "type": "Point"
      },
      "properties": {
        "anchor_kind": null,
        "anchor_name": null,
        "archetype": "halt",
        "chainage_m": 22210.7,
        "corridor_offset_m": 40.949,
        "id": "line-2-0826-1010-s022211",
        "junction_group": null,
        "line": "line-2",
        "platform_length_m": 55.5
      },
      "type": "Feature"
    },
    {
      "geometry": {
        "coordinates": [
          28.952314525272033,
          -2.5638809199870423
        ],
        "type": "Point"
      },
      "properties": {
        "anchor_kind": "amenity:hospital",
        "anchor_name": null,
        "archetype": "depot-terminal",
        "chainage_m": 23646.1,
        "corridor_offset_m": 0.0,
        "id": "line-2-0859-1060-s023646",
        "junction_group": null,
        "line": "line-2",
        "platform_length_m": 59.5
      },
      "type": "Feature"
    },
    {
      "geometry": {
        "coordinates": [
          28.86491494084751,
          -2.5467841341827735
        ],
        "type": "Point"
      },
      "properties": {
        "anchor_kind": "amenity:marketplace",
        "anchor_name": "Marché de Kamagene",
        "archetype": "terminal",
        "chainage_m": 0.0,
        "corridor_offset_m": 0.0,
        "id": "line-3-0764-0574-s000000",
        "junction_group": null,
        "line": "line-3",
        "platform_length_m": 59.5
      },
      "type": "Feature"
    },
    {
      "geometry": {
        "coordinates": [
          28.869590638779687,
          -2.534006536371162
        ],
        "type": "Point"
      },
      "properties": {
        "anchor_kind": null,
        "anchor_name": null,
        "archetype": "standard",
        "chainage_m": 2014.8,
        "corridor_offset_m": 37.335,
        "id": "line-3-0693-0600-s002015",
        "junction_group": null,
        "line": "line-3",
        "platform_length_m": 59.5
      },
      "type": "Feature"
    },
    {
      "geometry": {
        "coordinates": [
          28.866893120741892,
          -2.517089716733254
        ],
        "type": "Point"
      },
      "properties": {
        "anchor_kind": "amenity:college",
        "anchor_name": "Collège George Simamu",
        "archetype": "standard",
        "chainage_m": 4019.1,
        "corridor_offset_m": 14.691,
        "id": "line-3-0599-0585-s004019",
        "junction_group": null,
        "line": "line-3",
        "platform_length_m": 59.5
      },
      "type": "Feature"
    },
    {
      "geometry": {
        "coordinates": [
          28.865454444455068,
          -2.507191577583414
        ],
        "type": "Point"
      },
      "properties": {
        "anchor_kind": null,
        "anchor_name": null,
        "archetype": "interchange-elevated",
        "chainage_m": 5469.0,
        "corridor_offset_m": 32.359,
        "id": "line-3-0544-0577-s005469",
        "junction_group": 1,
        "line": "line-3",
        "platform_length_m": 59.5
      },
      "type": "Feature"
    },
    {
      "geometry": {
        "coordinates": [
          28.872467991353332,
          -2.4980133030990173
        ],
        "type": "Point"
      },
      "properties": {
        "anchor_kind": null,
        "anchor_name": null,
        "archetype": "interchange-elevated",
        "chainage_m": 7240.4,
        "corridor_offset_m": 27.777,
        "id": "line-3-0493-0616-s007240",
        "junction_group": 1,
        "line": "line-3",
        "platform_length_m": 59.5
      },
      "type": "Feature"
    },
    {
      "geometry": {
        "coordinates": [
          28.88217905628939,
          -2.4852357052874057
        ],
        "type": "Point"
      },
      "properties": {
        "anchor_kind": null,
        "anchor_name": null,
        "archetype": "standard",
        "chainage_m": 9246.3,
        "corridor_offset_m": 11.613,
        "id": "line-3-0422-0670-s009246",
        "junction_group": null,
        "line": "line-3",
        "platform_length_m": 59.5
      },
      "type": "Feature"
    },
    {
      "geometry": {
        "coordinates": [
          28.895846481014214,
          -2.4744377353057625
        ],
        "type": "Point"
      },
      "properties": {
        "anchor_kind": null,
        "anchor_name": null,
        "archetype": "interchange-elevated",
        "chainage_m": 11263.4,
        "corridor_offset_m": 38.352,
        "id": "line-3-0362-0746-s011263",
        "junction_group": 0,
        "line": "line-3",
        "platform_length_m": 59.5
      },
      "type": "Feature"
    },
    {
      "geometry": {
        "coordinates": [
          28.90537771141442,
          -2.4650794946550048
        ],
        "type": "Point"
      },
      "properties": {
        "anchor_kind": "aeroway:aerodrome",
        "anchor_name": "Kamembe Airport",
        "archetype": "standard",
        "chainage_m": 13268.5,
        "corridor_offset_m": 32.185,
        "id": "line-3-0310-0799-s013268",
        "junction_group": null,
        "line": "line-3",
        "platform_length_m": 59.5
      },
      "type": "Feature"
    },
    {
      "geometry": {
        "coordinates": [
          28.909334071203183,
          -2.449422438181622
        ],
        "type": "Point"
      },
      "properties": {
        "anchor_kind": "amenity:hospital",
        "anchor_name": "Kamatita Health Centre",
        "archetype": "standard",
        "chainage_m": 15270.7,
        "corridor_offset_m": 24.999,
        "id": "line-3-0223-0821-s015271",
        "junction_group": null,
        "line": "line-3",
        "platform_length_m": 59.5
      },
      "type": "Feature"
    },
    {
      "geometry": {
        "coordinates": [
          28.91580811449389,
          -2.4339453478745994
        ],
        "type": "Point"
      },
      "properties": {
        "anchor_kind": "place:town",
        "anchor_name": null,
        "archetype": "standard",
        "chainage_m": 17587.5,
        "corridor_offset_m": 4.173,
        "id": "line-3-0137-0857-s017588",
        "junction_group": null,
        "line": "line-3",
        "platform_length_m": 59.5
      },
      "type": "Feature"
    },
    {
      "geometry": {
        "coordinates": [
          28.928396532003596,
          -2.4280064643846955
        ],
        "type": "Point"
      },
      "properties": {
        "anchor_kind": "amenity:university",
        "anchor_name": "GS St. Bonaventure Nkanka",
        "archetype": "terminal",
        "chainage_m": 19448.4,
        "corridor_offset_m": 0.0,
        "id": "line-3-0104-0927-s019448",
        "junction_group": null,
        "line": "line-3",
        "platform_length_m": 59.5
      },
      "type": "Feature"
    }
  ],
  "type": "FeatureCollection"
}
