{
  "features": [
    {
      "geometry": {
        "coordinates": [
          47.110159899650476,
          31.89376994973271
        ],
        "type": "Point"
      },
      "properties": {
        "accessible_route_accepted": false,
        "coverage_requires_recheck": true,
        "entrance": "entrance-1",
        "level": "street",
        "station": "line-1-0313-0285-s000000",
        "surveyed": false
      },
      "type": "Feature"
    },
    {
      "geometry": {
        "coordinates": [
          47.11059391337585,
          31.893387390880786
        ],
        "type": "Point"
      },
      "properties": {
        "accessible_route_accepted": false,
        "coverage_requires_recheck": true,
        "entrance": "entrance-2",
        "level": "street",
        "station": "line-1-0313-0285-s000000",
        "surveyed": false
      },
      "type": "Feature"
    },
    {
      "geometry": {
        "coordinates": [
          47.12469093973399,
          31.872586918768455
        ],
        "type": "Point"
      },
      "properties": {
        "accessible_route_accepted": false,
        "coverage_requires_recheck": true,
        "entrance": "entrance-1",
        "level": "street",
        "station": "line-1-0431-0353-s003005",
        "surveyed": false
      },
      "type": "Feature"
    },
    {
      "geometry": {
        "coordinates": [
          47.12497571480537,
          31.872257241650495
        ],
        "type": "Point"
      },
      "properties": {
        "accessible_route_accepted": false,
        "coverage_requires_recheck": true,
        "entrance": "entrance-2",
        "level": "street",
        "station": "line-1-0431-0353-s003005",
        "surveyed": false
      },
      "type": "Feature"
    },
    {
      "geometry": {
        "coordinates": [
          47.13819689932125,
          31.852728287082027
        ],
        "type": "Point"
      },
      "properties": {
        "accessible_route_accepted": false,
        "coverage_requires_recheck": true,
        "entrance": "entrance-1",
        "level": "street",
        "station": "line-1-0541-0417-s005853",
        "surveyed": false
      },
      "type": "Feature"
    },
    {
      "geometry": {
        "coordinates": [
          47.13851152791551,
          31.85235513173507
        ],
        "type": "Point"
      },
      "properties": {
        "accessible_route_accepted": false,
        "coverage_requires_recheck": true,
        "entrance": "entrance-2",
        "level": "street",
        "station": "line-1-0541-0417-s005853",
        "surveyed": false
      },
      "type": "Feature"
    },
    {
      "geometry": {
        "coordinates": [
          47.146548416949656,
          31.84032437064439
        ],
        "type": "Point"
      },
      "properties": {
        "accessible_route_accepted": false,
        "coverage_requires_recheck": true,
        "entrance": "entrance-1",
        "level": "street",
        "station": "line-1-0610-0457-s007623",
        "surveyed": false
      },
      "type": "Feature"
    },
    {
      "geometry": {
        "coordinates": [
          47.14697141110935,
          31.83993793871414
        ],
        "type": "Point"
      },
      "properties": {
        "accessible_route_accepted": false,
        "coverage_requires_recheck": true,
        "entrance": "entrance-2",
        "level": "street",
        "station": "line-1-0610-0457-s007623",
        "surveyed": false
      },
      "type": "Feature"
    },
    {
      "geometry": {
        "coordinates": [
          47.15324319192119,
          31.830654677425546
        ],
        "type": "Point"
      },
      "properties": {
        "accessible_route_accepted": false,
        "coverage_requires_recheck": true,
        "entrance": "entrance-1",
        "level": "street",
        "station": "line-1-0664-0488-s009006",
        "surveyed": false
      },
      "type": "Feature"
    },
    {
      "geometry": {
        "coordinates": [
          47.15352782058457,
          31.83021961377785
        ],
        "type": "Point"
      },
      "properties": {
        "accessible_route_accepted": false,
        "coverage_requires_recheck": true,
        "entrance": "entrance-2",
        "level": "street",
        "station": "line-1-0664-0488-s009006",
        "surveyed": false
      },
      "type": "Feature"
    },
    {
      "geometry": {
        "coordinates": [
          47.167625211954814,
          31.809418483781354
        ],
        "type": "Point"
      },
      "properties": {
        "accessible_route_accepted": false,
        "coverage_requires_recheck": true,
        "entrance": "entrance-1",
        "level": "street",
        "station": "line-1-0782-0556-s012023",
        "surveyed": false
      },
      "type": "Feature"
    },
    {
      "geometry": {
        "coordinates": [
          47.1679205713507,
          31.808987191694957
        ],
        "type": "Point"
      },
      "properties": {
        "accessible_route_accepted": false,
        "coverage_requires_recheck": true,
        "entrance": "entrance-2",
        "level": "street",
        "station": "line-1-0782-0556-s012023",
        "surveyed": false
      },
      "type": "Feature"
    },
    {
      "geometry": {
        "coordinates": [
          47.19011681539792,
          31.775952924935332
        ],
        "type": "Point"
      },
      "properties": {
        "accessible_route_accepted": false,
        "coverage_requires_recheck": true,
        "entrance": "entrance-1",
        "level": "street",
        "station": "line-1-0968-0662-s016844",
        "surveyed": false
      },
      "type": "Feature"
    },
    {
      "geometry": {
        "coordinates": [
          47.19032831247777,
          31.77563346589589
        ],
        "type": "Point"
      },
      "properties": {
        "accessible_route_accepted": false,
        "coverage_requires_recheck": true,
        "entrance": "entrance-2",
        "level": "street",
        "station": "line-1-0968-0662-s016844",
        "surveyed": false
      },
      "type": "Feature"
    },
    {
      "geometry": {
        "coordinates": [
          47.208232475661646,
          31.746430474995943
        ],
        "type": "Point"
      },
      "properties": {
        "accessible_route_accepted": false,
        "coverage_requires_recheck": true,
        "entrance": "entrance-1",
        "level": "street",
        "station": "line-1-1131-0749-s021680",
        "surveyed": false
      },
      "type": "Feature"
    },
    {
      "geometry": {
        "coordinates": [
          47.20883200638399,
          31.74636828276284
        ],
        "type": "Point"
      },
      "properties": {
        "accessible_route_accepted": false,
        "coverage_requires_recheck": true,
        "entrance": "entrance-2",
        "level": "street",
        "station": "line-1-1131-0749-s021680",
        "surveyed": false
      },
      "type": "Feature"
    },
    {
      "geometry": {
        "coordinates": [
          47.11692780745144,
          31.82212466314042
        ],
        "type": "Point"
      },
      "properties": {
        "accessible_route_accepted": false,
        "coverage_requires_recheck": true,
        "entrance": "entrance-1",
        "level": "street",
        "station": "line-2-0709-0317-s000000",
        "surveyed": false
      },
      "type": "Feature"
    },
    {
      "geometry": {
        "coordinates": [
          47.11736181993092,
          31.822507219434137
        ],
        "type": "Point"
      },
      "properties": {
        "accessible_route_accepted": false,
        "coverage_requires_recheck": true,
        "entrance": "entrance-2",
        "level": "street",
        "station": "line-2-0709-0317-s000000",
        "surveyed": false
      },
      "type": "Feature"
    },
    {
      "geometry": {
        "coordinates": [
          47.131671117959854,
          31.843128385989694
        ],
        "type": "Point"
      },
      "properties": {
        "accessible_route_accepted": false,
        "coverage_requires_recheck": true,
        "entrance": "entrance-1",
        "level": "street",
        "station": "line-2-0592-0386-s003017",
        "surveyed": false
      },
      "type": "Feature"
    },
    {
      "geometry": {
        "coordinates": [
          47.13196647486395,
          31.843559675955785
        ],
        "type": "Point"
      },
      "properties": {
        "accessible_route_accepted": false,
        "coverage_requires_recheck": true,
        "entrance": "entrance-2",
        "level": "street",
        "station": "line-2-0592-0386-s003017",
        "surveyed": false
      },
      "type": "Feature"
    },
    {
      "geometry": {
        "coordinates": [
          47.13808853375582,
          31.85235488414225
        ],
        "type": "Point"
      },
      "properties": {
        "accessible_route_accepted": false,
        "coverage_requires_recheck": true,
        "entrance": "entrance-1",
        "level": "street",
        "station": "line-2-0541-0417-s004352",
        "surveyed": false
      },
      "type": "Feature"
    },
    {
      "geometry": {
        "coordinates": [
          47.13851152791551,
          31.852741313076393
        ],
        "type": "Point"
      },
      "properties": {
        "accessible_route_accepted": false,
        "coverage_requires_recheck": true,
        "entrance": "entrance-2",
        "level": "street",
        "station": "line-2-0541-0417-s004352",
        "surveyed": false
      },
      "type": "Feature"
    },
    {
      "geometry": {
        "coordinates": [
          47.146125422789964,
          31.86387282864623
        ],
        "type": "Point"
      },
      "properties": {
        "accessible_route_accepted": false,
        "coverage_requires_recheck": true,
        "entrance": "entrance-1",
        "level": "street",
        "station": "line-2-0477-0455-s006018",
        "surveyed": false
      },
      "type": "Feature"
    },
    {
      "geometry": {
        "coordinates": [
          47.146548416949656,
          31.864259257580372
        ],
        "type": "Point"
      },
      "properties": {
        "accessible_route_accepted": false,
        "coverage_requires_recheck": true,
        "entrance": "entrance-2",
        "level": "street",
        "station": "line-2-0477-0455-s006018",
        "surveyed": false
      },
      "type": "Feature"
    },
    {
      "geometry": {
        "coordinates": [
          47.155431294303185,
          31.877116636321006
        ],
        "type": "Point"
      },
      "properties": {
        "accessible_route_accepted": false,
        "coverage_requires_recheck": true,
        "entrance": "entrance-1",
        "level": "street",
        "station": "line-2-0404-0499-s007924",
        "surveyed": false
      },
      "type": "Feature"
    },
    {
      "geometry": {
        "coordinates": [
          47.155716323188265,
          31.877446221234234
        ],
        "type": "Point"
      },
      "properties": {
        "accessible_route_accepted": false,
        "coverage_requires_recheck": true,
        "entrance": "entrance-2",
        "level": "street",
        "station": "line-2-0404-0499-s007924",
        "surveyed": false
      },
      "type": "Feature"
    },
    {
      "geometry": {
        "coordinates": [
          47.16473716581641,
          31.89050793371707
        ],
        "type": "Point"
      },
      "properties": {
        "accessible_route_accepted": false,
        "coverage_requires_recheck": true,
        "entrance": "entrance-1",
        "level": "street",
        "station": "line-2-0329-0543-s009847",
        "surveyed": false
      },
      "type": "Feature"
    },
    {
      "geometry": {
        "coordinates": [
          47.165171178295886,
          31.89089049001079
        ],
        "type": "Point"
      },
      "properties": {
        "accessible_route_accepted": false,
        "coverage_requires_recheck": true,
        "entrance": "entrance-2",
        "level": "street",
        "station": "line-2-0329-0543-s009847",
        "surveyed": false
      },
      "type": "Feature"
    },
    {
      "geometry": {
        "coordinates": [
          47.1895855204872,
          31.829872583954216
        ],
        "type": "Point"
      },
      "properties": {
        "accessible_route_accepted": false,
        "coverage_requires_recheck": true,
        "entrance": "entrance-1",
        "level": "street",
        "station": "line-3-0667-0658-s000000",
        "surveyed": false
      },
      "type": "Feature"
    },
    {
      "geometry": {
        "coordinates": [
          47.18898641917921,
          31.829934624908528
        ],
        "type": "Point"
      },
      "properties": {
        "accessible_route_accepted": false,
        "coverage_requires_recheck": true,
        "entrance": "entrance-2",
        "level": "street",
        "station": "line-3-0667-0658-s000000",
        "surveyed": false
      },
      "type": "Feature"
    },
    {
      "geometry": {
        "coordinates": [
          47.161214908433855,
          31.836649017231224
        ],
        "type": "Point"
      },
      "properties": {
        "accessible_route_accepted": false,
        "coverage_requires_recheck": true,
        "entrance": "entrance-1",
        "level": "street",
        "station": "line-3-0629-0524-s003007",
        "surveyed": false
      },
      "type": "Feature"
    },
    {
      "geometry": {
        "coordinates": [
          47.160646092635204,
          31.83677309913985
        ],
        "type": "Point"
      },
      "properties": {
        "accessible_route_accepted": false,
        "coverage_requires_recheck": true,
        "entrance": "entrance-2",
        "level": "street",
        "station": "line-3-0629-0524-s003007",
        "surveyed": false
      },
      "type": "Feature"
    },
    {
      "geometry": {
        "coordinates": [
          47.147075322553455,
          31.840130655436777
        ],
        "type": "Point"
      },
      "properties": {
        "accessible_route_accepted": false,
        "coverage_requires_recheck": true,
        "entrance": "entrance-1",
        "level": "street",
        "station": "line-3-0610-0457-s004516",
        "surveyed": false
      },
      "type": "Feature"
    },
    {
      "geometry": {
        "coordinates": [
          47.14647601137724,
          31.84019226646848
        ],
        "type": "Point"
      },
      "properties": {
        "accessible_route_accepted": false,
        "coverage_requires_recheck": true,
        "entrance": "entrance-2",
        "level": "street",
        "station": "line-3-0610-0457-s004516",
        "surveyed": false
      },
      "type": "Feature"
    },
    {
      "geometry": {
        "coordinates": [
          47.13245170319877,
          31.843667359374855
        ],
        "type": "Point"
      },
      "properties": {
        "accessible_route_accepted": false,
        "coverage_requires_recheck": true,
        "entrance": "entrance-1",
        "level": "street",
        "station": "line-3-0590-0388-s006073",
        "surveyed": false
      },
      "type": "Feature"
    },
    {
      "geometry": {
        "coordinates": [
          47.131852884255764,
          31.843729978763992
        ],
        "type": "Point"
      },
      "properties": {
        "accessible_route_accepted": false,
        "coverage_requires_recheck": true,
        "entrance": "entrance-2",
        "level": "street",
        "station": "line-3-0590-0388-s006073",
        "surveyed": false
      },
      "type": "Feature"
    },
    {
      "geometry": {
        "coordinates": [
          47.08975889879992,
          31.852908253248387
        ],
        "type": "Point"
      },
      "properties": {
        "accessible_route_accepted": false,
        "coverage_requires_recheck": true,
        "entrance": "entrance-1",
        "level": "street",
        "station": "line-3-0539-0186-s010547",
        "surveyed": false
      },
      "type": "Feature"
    },
    {
      "geometry": {
        "coordinates": [
          47.0891295119826,
          31.852908253248387
        ],
        "type": "Point"
      },
      "properties": {
        "accessible_route_accepted": false,
        "coverage_requires_recheck": true,
        "entrance": "entrance-2",
        "level": "street",
        "station": "line-3-0539-0186-s010547",
        "surveyed": false
      },
      "type": "Feature"
    }
  ],
  "type": "FeatureCollection"
}
