{
  "features": [
    {
      "geometry": {
        "coordinates": [
          28.00350294507741,
          7.680046460065507
        ],
        "type": "Point"
      },
      "properties": {
        "archetype": "main-heavy",
        "fleet_stalls": 3,
        "line": "line-1",
        "station": "line-1-0486-0395-s006627"
      },
      "type": "Feature"
    },
    {
      "geometry": {
        "coordinates": [
          27.984466764968364,
          7.754012554439766
        ],
        "type": "Point"
      },
      "properties": {
        "archetype": "main-heavy",
        "fleet_stalls": 3,
        "line": "line-2",
        "station": "line-2-0075-0290-s000000"
      },
      "type": "Feature"
    },
    {
      "geometry": {
        "coordinates": [
          27.998970521241922,
          7.701282467696073
        ],
        "type": "Point"
      },
      "properties": {
        "archetype": "main-heavy",
        "fleet_stalls": 2,
        "line": "line-3",
        "station": "line-3-0368-0370-s000000"
      },
      "type": "Feature"
    }
  ],
  "type": "FeatureCollection"
}
