{
  "features": [
    {
      "geometry": {
        "coordinates": [
          6.7455501324225615,
          6.184553734297952
        ],
        "type": "Point"
      },
      "properties": {
        "id": "interchange-000",
        "junction_group": 0,
        "line_count": 2,
        "lines": "line-1,line-2",
        "platform_count": 2,
        "platforms": "line-1-0701-0593-s002950,line-2-0701-0593-s008747"
      },
      "type": "Feature"
    },
    {
      "geometry": {
        "coordinates": [
          6.813134883098279,
          6.166737083828241
        ],
        "type": "Point"
      },
      "properties": {
        "id": "interchange-001",
        "junction_group": 1,
        "line_count": 2,
        "lines": "line-1,line-3",
        "platform_count": 2,
        "platforms": "line-1-0800-0967-s018972,line-3-0800-0967-s013876"
      },
      "type": "Feature"
    },
    {
      "geometry": {
        "coordinates": [
          6.846204426878108,
          6.158098707842926
        ],
        "type": "Point"
      },
      "properties": {
        "id": "interchange-002",
        "junction_group": 2,
        "line_count": 2,
        "lines": "line-1,line-5",
        "platform_count": 2,
        "platforms": "line-1-0848-1150-s023029,line-5-0848-1150-s058724"
      },
      "type": "Feature"
    },
    {
      "geometry": {
        "coordinates": [
          6.7643437529313175,
          6.133443343051507
        ],
        "type": "Point"
      },
      "properties": {
        "id": "interchange-003",
        "junction_group": 3,
        "line_count": 2,
        "lines": "line-2,line-5",
        "platform_count": 2,
        "platforms": "line-2-0985-0697-s016170,line-5-0985-0697-s069252"
      },
      "type": "Feature"
    },
    {
      "geometry": {
        "coordinates": [
          6.787233418935571,
          6.133083410718785
        ],
        "type": "Point"
      },
      "properties": {
        "id": "interchange-004",
        "junction_group": 4,
        "line_count": 3,
        "lines": "line-2,line-3,line-5",
        "platform_count": 6,
        "platforms": "line-2-0984-0816-s021283,line-2-0993-0824-s021553,line-3-0984-0831-s008776,line-3-0993-0824-s008503,line-5-0984-0816-s066847,line-5-0984-0831-s066547"
      },
      "type": "Feature"
    },
    {
      "geometry": {
        "coordinates": [
          6.801208162390799,
          6.150540128855775
        ],
        "type": "Point"
      },
      "properties": {
        "id": "interchange-005",
        "junction_group": 5,
        "line_count": 2,
        "lines": "line-3,line-4",
        "platform_count": 2,
        "platforms": "line-3-0890-0901-s011388,line-4-0890-0901-s011923"
      },
      "type": "Feature"
    },
    {
      "geometry": {
        "coordinates": [
          6.849637876778747,
          6.215867847244718
        ],
        "type": "Point"
      },
      "properties": {
        "id": "interchange-006",
        "junction_group": 6,
        "line_count": 2,
        "lines": "line-3,line-5",
        "platform_count": 2,
        "platforms": "line-3-0527-1169-s021507,line-5-0527-1169-s035565"
      },
      "type": "Feature"
    },
    {
      "geometry": {
        "coordinates": [
          6.823796648579208,
          6.139382226541411
        ],
        "type": "Point"
      },
      "properties": {
        "id": "interchange-007",
        "junction_group": 7,
        "line_count": 2,
        "lines": "line-4,line-5",
        "platform_count": 2,
        "platforms": "line-4-0952-1026-s008828,line-5-0952-1026-s062312"
      },
      "type": "Feature"
    }
  ],
  "type": "FeatureCollection"
}
