{
  "features": [
    {
      "geometry": {
        "coordinates": [
          73.94047038315487,
          31.721946967570098
        ],
        "type": "Point"
      },
      "properties": {
        "anchor_kind": "amenity:college",
        "anchor_name": "Punjab College Sheikhupura",
        "archetype": "terminal",
        "chainage_m": 0.0,
        "corridor_offset_m": 0.0,
        "id": "line-1-0501-0372-s000000",
        "junction_group": null,
        "line": "line-1",
        "platform_length_m": 59.5
      },
      "type": "Feature"
    },
    {
      "geometry": {
        "coordinates": [
          73.95990038382668,
          31.71744781341108
        ],
        "type": "Point"
      },
      "properties": {
        "anchor_kind": null,
        "anchor_name": null,
        "archetype": "standard",
        "chainage_m": 2047.1,
        "corridor_offset_m": 29.921,
        "id": "line-1-0526-0464-s002047",
        "junction_group": null,
        "line": "line-1",
        "platform_length_m": 59.5
      },
      "type": "Feature"
    },
    {
      "geometry": {
        "coordinates": [
          73.97890799317953,
          31.71312862541842
        ],
        "type": "Point"
      },
      "properties": {
        "anchor_kind": "amenity:hospital",
        "anchor_name": "DHQ Hospital Sheikhupura",
        "archetype": "interchange",
        "chainage_m": 4069.4,
        "corridor_offset_m": 42.276,
        "id": "line-1-0550-0554-s004069",
        "junction_group": 0,
        "line": "line-1",
        "platform_length_m": 59.5
      },
      "type": "Feature"
    },
    {
      "geometry": {
        "coordinates": [
          73.992424515386,
          31.71006920059029
        ],
        "type": "Point"
      },
      "properties": {
        "anchor_kind": "amenity:hospital",
        "anchor_name": "Shakir Hospital",
        "archetype": "interchange",
        "chainage_m": 5501.9,
        "corridor_offset_m": 29.639,
        "id": "line-1-0567-0618-s005502",
        "junction_group": 1,
        "line": "line-1",
        "platform_length_m": 59.5
      },
      "type": "Feature"
    },
    {
      "geometry": {
        "coordinates": [
          74.01734560320419,
          31.704310283266746
        ],
        "type": "Point"
      },
      "properties": {
        "anchor_kind": "amenity:hospital",
        "anchor_name": "Akhtar Memorial Hospital",
        "archetype": "depot-terminal",
        "chainage_m": 8138.7,
        "corridor_offset_m": 0.0,
        "id": "line-1-0599-0736-s008139",
        "junction_group": 2,
        "line": "line-1",
        "platform_length_m": 59.5
      },
      "type": "Feature"
    },
    {
      "geometry": {
        "coordinates": [
          73.95271973140449,
          31.719067508908324
        ],
        "type": "Point"
      },
      "properties": {
        "anchor_kind": "amenity:hospital",
        "anchor_name": "Sairah Surgical Hospital",
        "archetype": "terminal",
        "chainage_m": 0.0,
        "corridor_offset_m": 6.003,
        "id": "line-2-0517-0430-s000000",
        "junction_group": null,
        "line": "line-2",
        "platform_length_m": 59.5
      },
      "type": "Feature"
    },
    {
      "geometry": {
        "coordinates": [
          73.97869679752006,
          31.71294865925206
        ],
        "type": "Point"
      },
      "properties": {
        "anchor_kind": "amenity:hospital",
        "anchor_name": "DHQ Hospital Sheikhupura",
        "archetype": "interchange",
        "chainage_m": 2800.2,
        "corridor_offset_m": 52.551,
        "id": "line-2-0551-0553-s002800",
        "junction_group": 0,
        "line": "line-2",
        "platform_length_m": 59.5
      },
      "type": "Feature"
    },
    {
      "geometry": {
        "coordinates": [
          73.99559245027815,
          31.708989403592124
        ],
        "type": "Point"
      },
      "properties": {
        "anchor_kind": "amenity:hospital",
        "anchor_name": "New Social Security Hospital",
        "archetype": "interchange",
        "chainage_m": 4617.6,
        "corridor_offset_m": 31.071,
        "id": "line-2-0573-0633-s004618",
        "junction_group": 1,
        "line": "line-2",
        "platform_length_m": 59.5
      },
      "type": "Feature"
    },
    {
      "geometry": {
        "coordinates": [
          74.01650082056629,
          31.703950350934026
        ],
        "type": "Point"
      },
      "properties": {
        "anchor_kind": "amenity:hospital",
        "anchor_name": "Sultan Hospital",
        "archetype": "terminal",
        "chainage_m": 6876.5,
        "corridor_offset_m": 0.0,
        "id": "line-2-0601-0732-s006876",
        "junction_group": 2,
        "line": "line-2",
        "platform_length_m": 59.5
      },
      "type": "Feature"
    }
  ],
  "type": "FeatureCollection"
}
