{
  "features": [
    {
      "geometry": {
        "coordinates": [
          33.80623711854774,
          31.12950810207681
        ],
        "type": "Point"
      },
      "properties": {
        "id": "interchange-000",
        "junction_group": 0,
        "line_count": 2,
        "lines": "line-1,line-2",
        "platform_count": 4,
        "platforms": "line-1-0381-0389-s008785,line-1-0385-0442-s010251,line-2-0381-0389-s003032,line-2-0400-0431-s002002"
      },
      "type": "Feature"
    }
  ],
  "type": "FeatureCollection"
}
