{
  "features": [
    {
      "geometry": {
        "coordinates": [
          32.87428349674986,
          2.253881960191484
        ],
        "type": "Point"
      },
      "properties": {
        "anchor_kind": "amenity:hospital",
        "anchor_name": "Ober Health Centre III",
        "archetype": "terminal",
        "chainage_m": 0.0,
        "corridor_offset_m": 0.0,
        "id": "line-1-0353-0233-s000000",
        "junction_group": null,
        "line": "line-1",
        "platform_length_m": 49.0
      },
      "type": "Feature"
    },
    {
      "geometry": {
        "coordinates": [
          32.88848776331619,
          2.256581452686895
        ],
        "type": "Point"
      },
      "properties": {
        "anchor_kind": null,
        "anchor_name": null,
        "archetype": "interchange",
        "chainage_m": 1704.3,
        "corridor_offset_m": 0.386,
        "id": "line-1-0338-0312-s001704",
        "junction_group": 0,
        "line": "line-1",
        "platform_length_m": 49.0
      },
      "type": "Feature"
    },
    {
      "geometry": {
        "coordinates": [
          32.91078306780006,
          2.260900640679552
        ],
        "type": "Point"
      },
      "properties": {
        "anchor_kind": null,
        "anchor_name": null,
        "archetype": "interchange",
        "chainage_m": 4383.1,
        "corridor_offset_m": 0.903,
        "id": "line-1-0314-0436-s004383",
        "junction_group": 1,
        "line": "line-1",
        "platform_length_m": 49.0
      },
      "type": "Feature"
    },
    {
      "geometry": {
        "coordinates": [
          32.928763152061244,
          2.264319997840406
        ],
        "type": "Point"
      },
      "properties": {
        "anchor_kind": null,
        "anchor_name": null,
        "archetype": "interchange",
        "chainage_m": 6540.5,
        "corridor_offset_m": 1.345,
        "id": "line-1-0295-0536-s006540",
        "junction_group": 2,
        "line": "line-1",
        "platform_length_m": 49.0
      },
      "type": "Feature"
    },
    {
      "geometry": {
        "coordinates": [
          32.94764224053549,
          2.2736782384911636
        ],
        "type": "Point"
      },
      "properties": {
        "anchor_kind": null,
        "anchor_name": null,
        "archetype": "interchange-elevated",
        "chainage_m": 9083.0,
        "corridor_offset_m": 1.152,
        "id": "line-1-0243-0641-s009083",
        "junction_group": 3,
        "line": "line-1",
        "platform_length_m": 49.0
      },
      "type": "Feature"
    },
    {
      "geometry": {
        "coordinates": [
          32.95609288013824,
          2.2821366483101175
        ],
        "type": "Point"
      },
      "properties": {
        "anchor_kind": "planning:residential",
        "anchor_name": "Residential planning stop; site release open",
        "archetype": "halt",
        "chainage_m": 10412.3,
        "corridor_offset_m": 0.521,
        "id": "line-1-0196-0688-s010412",
        "junction_group": null,
        "line": "line-1",
        "platform_length_m": 45.0
      },
      "type": "Feature"
    },
    {
      "geometry": {
        "coordinates": [
          32.965082922268834,
          2.2911349566281536
        ],
        "type": "Point"
      },
      "properties": {
        "anchor_kind": "amenity:hospital",
        "anchor_name": "ONGICA HEALTH CENTRE 3",
        "archetype": "terminal",
        "chainage_m": 11826.6,
        "corridor_offset_m": 0.0,
        "id": "line-1-0146-0738-s011827",
        "junction_group": 4,
        "line": "line-1",
        "platform_length_m": 49.0
      },
      "type": "Feature"
    },
    {
      "geometry": {
        "coordinates": [
          32.96742033322278,
          2.2353454450563293
        ],
        "type": "Point"
      },
      "properties": {
        "anchor_kind": "amenity:hospital",
        "anchor_name": "ABONYOTINGERE HC II",
        "archetype": "terminal",
        "chainage_m": 0.0,
        "corridor_offset_m": 0.0,
        "id": "line-2-0456-0751-s000000",
        "junction_group": null,
        "line": "line-2",
        "platform_length_m": 49.0
      },
      "type": "Feature"
    },
    {
      "geometry": {
        "coordinates": [
          32.95555347761041,
          2.243803854875283
        ],
        "type": "Point"
      },
      "properties": {
        "anchor_kind": "planning:residential",
        "anchor_name": "Residential planning stop; site release open",
        "archetype": "halt",
        "chainage_m": 2397.4,
        "corridor_offset_m": 0.911,
        "id": "line-2-0409-0685-s002397",
        "junction_group": null,
        "line": "line-2",
        "platform_length_m": 45.0
      },
      "type": "Feature"
    },
    {
      "geometry": {
        "coordinates": [
          32.940989609358844,
          2.251182467696073
        ],
        "type": "Point"
      },
      "properties": {
        "anchor_kind": null,
        "anchor_name": null,
        "archetype": "interchange-elevated",
        "chainage_m": 4532.8,
        "corridor_offset_m": 1.173,
        "id": "line-2-0368-0604-s004533",
        "junction_group": 6,
        "line": "line-2",
        "platform_length_m": 49.0
      },
      "type": "Feature"
    },
    {
      "geometry": {
        "coordinates": [
          32.91923370740282,
          2.246503347370694
        ],
        "type": "Point"
      },
      "properties": {
        "anchor_kind": "planning:residential",
        "anchor_name": "Residential planning stop; site release open",
        "archetype": "standard",
        "chainage_m": 7201.3,
        "corridor_offset_m": 0.847,
        "id": "line-2-0394-0483-s007201",
        "junction_group": null,
        "line": "line-2",
        "platform_length_m": 49.0
      },
      "type": "Feature"
    },
    {
      "geometry": {
        "coordinates": [
          32.906288046734765,
          2.243443922542562
        ],
        "type": "Point"
      },
      "properties": {
        "anchor_kind": "planning:residential",
        "anchor_name": "Residential planning stop; site release open",
        "archetype": "major",
        "chainage_m": 8793.9,
        "corridor_offset_m": 0.572,
        "id": "line-2-0411-0411-s008794",
        "junction_group": null,
        "line": "line-2",
        "platform_length_m": 49.0
      },
      "type": "Feature"
    },
    {
      "geometry": {
        "coordinates": [
          32.88884736500142,
          2.239304700716265
        ],
        "type": "Point"
      },
      "properties": {
        "anchor_kind": null,
        "anchor_name": null,
        "archetype": "interchange",
        "chainage_m": 10947.8,
        "corridor_offset_m": 0.346,
        "id": "line-2-0434-0314-s010948",
        "junction_group": 7,
        "line": "line-2",
        "platform_length_m": 49.0
      },
      "type": "Feature"
    },
    {
      "geometry": {
        "coordinates": [
          32.882014932982166,
          2.237685005219019
        ],
        "type": "Point"
      },
      "properties": {
        "anchor_kind": null,
        "anchor_name": null,
        "archetype": "interchange",
        "chainage_m": 11782.4,
        "corridor_offset_m": 0.185,
        "id": "line-2-0443-0276-s011782",
        "junction_group": 8,
        "line": "line-2",
        "platform_length_m": 49.0
      },
      "type": "Feature"
    },
    {
      "geometry": {
        "coordinates": [
          32.86942887399934,
          2.234805546557247
        ],
        "type": "Point"
      },
      "properties": {
        "anchor_kind": "amenity:college",
        "anchor_name": "Kica Rwot Tailoring School",
        "archetype": "terminal",
        "chainage_m": 13314.9,
        "corridor_offset_m": 0.0,
        "id": "line-2-0459-0206-s013315",
        "junction_group": 9,
        "line": "line-2",
        "platform_length_m": 49.0
      },
      "type": "Feature"
    },
    {
      "geometry": {
        "coordinates": [
          32.85396600153472,
          2.266839524169456
        ],
        "type": "Point"
      },
      "properties": {
        "anchor_kind": "amenity:hospital",
        "anchor_name": "Amuca Health Centre III",
        "archetype": "terminal",
        "chainage_m": 0.0,
        "corridor_offset_m": 0.0,
        "id": "line-3-0281-0120-s000000",
        "junction_group": null,
        "line": "line-3",
        "platform_length_m": 49.0
      },
      "type": "Feature"
    },
    {
      "geometry": {
        "coordinates": [
          32.86817026810105,
          2.2580211820177807
        ],
        "type": "Point"
      },
      "properties": {
        "anchor_kind": null,
        "anchor_name": null,
        "archetype": "interchange",
        "chainage_m": 2147.9,
        "corridor_offset_m": 0.419,
        "id": "line-3-0330-0199-s002148",
        "junction_group": 10,
        "line": "line-3",
        "platform_length_m": 49.0
      },
      "type": "Feature"
    },
    {
      "geometry": {
        "coordinates": [
          32.879138119500375,
          2.24794307670158
        ],
        "type": "Point"
      },
      "properties": {
        "anchor_kind": "planning:residential",
        "anchor_name": "Residential planning stop; site release open",
        "archetype": "standard",
        "chainage_m": 3995.9,
        "corridor_offset_m": 0.58,
        "id": "line-3-0386-0260-s003996",
        "junction_group": null,
        "line": "line-3",
        "platform_length_m": 49.0
      },
      "type": "Feature"
    },
    {
      "geometry": {
        "coordinates": [
          32.88866756415881,
          2.239484666882626
        ],
        "type": "Point"
      },
      "properties": {
        "anchor_kind": "planning:residential",
        "anchor_name": "Residential planning stop; site release open",
        "archetype": "interchange",
        "chainage_m": 5597.5,
        "corridor_offset_m": 0.63,
        "id": "line-3-0433-0313-s005598",
        "junction_group": 7,
        "line": "line-3",
        "platform_length_m": 49.0
      },
      "type": "Feature"
    },
    {
      "geometry": {
        "coordinates": [
          32.898197008817235,
          2.2308462908973112
        ],
        "type": "Point"
      },
      "properties": {
        "anchor_kind": "planning:residential",
        "anchor_name": "Residential planning stop; site release open",
        "archetype": "standard",
        "chainage_m": 7207.5,
        "corridor_offset_m": 0.779,
        "id": "line-3-0481-0366-s007207",
        "junction_group": null,
        "line": "line-3",
        "platform_length_m": 49.0
      },
      "type": "Feature"
    },
    {
      "geometry": {
        "coordinates": [
          32.907546652633044,
          2.2222079149119964
        ],
        "type": "Point"
      },
      "properties": {
        "anchor_kind": "planning:residential",
        "anchor_name": "Residential planning stop; site release open",
        "archetype": "standard",
        "chainage_m": 8797.4,
        "corridor_offset_m": 0.811,
        "id": "line-3-0529-0418-s008797",
        "junction_group": null,
        "line": "line-3",
        "platform_length_m": 49.0
      },
      "type": "Feature"
    },
    {
      "geometry": {
        "coordinates": [
          32.91923370740282,
          2.2115899110967137
        ],
        "type": "Point"
      },
      "properties": {
        "anchor_kind": null,
        "anchor_name": null,
        "archetype": "interchange",
        "chainage_m": 10762.0,
        "corridor_offset_m": 1.022,
        "id": "line-3-0588-0483-s010762",
        "junction_group": 11,
        "line": "line-3",
        "platform_length_m": 49.0
      },
      "type": "Feature"
    },
    {
      "geometry": {
        "coordinates": [
          32.927684347005574,
          2.193953226793363
        ],
        "type": "Point"
      },
      "properties": {
        "anchor_kind": null,
        "anchor_name": null,
        "archetype": "interchange-elevated",
        "chainage_m": 13174.7,
        "corridor_offset_m": 0.123,
        "id": "line-3-0686-0530-s013175",
        "junction_group": 5,
        "line": "line-3",
        "platform_length_m": 49.0
      },
      "type": "Feature"
    },
    {
      "geometry": {
        "coordinates": [
          32.92948235543169,
          2.190353903466148
        ],
        "type": "Point"
      },
      "properties": {
        "anchor_kind": "amenity:hospital",
        "anchor_name": "Bororboro Health Centre III",
        "archetype": "depot-terminal",
        "chainage_m": 13669.3,
        "corridor_offset_m": 0.0,
        "id": "line-3-0706-0540-s013669",
        "junction_group": 5,
        "line": "line-3",
        "platform_length_m": 49.0
      },
      "type": "Feature"
    },
    {
      "geometry": {
        "coordinates": [
          32.88848776331619,
          2.256581452686895
        ],
        "type": "Point"
      },
      "properties": {
        "anchor_kind": null,
        "anchor_name": null,
        "archetype": "terminal",
        "chainage_m": 0.0,
        "corridor_offset_m": 0.0,
        "id": "line-4-0338-0312-s000000",
        "junction_group": 0,
        "line": "line-4",
        "platform_length_m": 49.0
      },
      "type": "Feature"
    },
    {
      "geometry": {
        "coordinates": [
          32.89298278438149,
          2.2698989489975885
        ],
        "type": "Point"
      },
      "properties": {
        "anchor_kind": "planning:residential-priority",
        "anchor_name": "Residential planning stop; site release open",
        "archetype": "standard",
        "chainage_m": 1687.1,
        "corridor_offset_m": 1.068,
        "id": "line-4-0264-0337-s001687",
        "junction_group": null,
        "line": "line-4",
        "platform_length_m": 49.0
      },
      "type": "Feature"
    },
    {
      "geometry": {
        "coordinates": [
          32.90664764841999,
          2.269539016664867
        ],
        "type": "Point"
      },
      "properties": {
        "anchor_kind": null,
        "anchor_name": null,
        "archetype": "terminal",
        "chainage_m": 3223.7,
        "corridor_offset_m": 0.0,
        "id": "line-4-0266-0413-s003224",
        "junction_group": null,
        "line": "line-4",
        "platform_length_m": 49.0
      },
      "type": "Feature"
    },
    {
      "geometry": {
        "coordinates": [
          32.882014932982166,
          2.237685005219019
        ],
        "type": "Point"
      },
      "properties": {
        "anchor_kind": null,
        "anchor_name": null,
        "archetype": "terminal",
        "chainage_m": 0.0,
        "corridor_offset_m": 0.0,
        "id": "line-5-0443-0276-s000000",
        "junction_group": 8,
        "line": "line-5",
        "platform_length_m": 49.0
      },
      "type": "Feature"
    },
    {
      "geometry": {
        "coordinates": [
          32.88417254309351,
          2.225087373573768
        ],
        "type": "Point"
      },
      "properties": {
        "anchor_kind": "planning:residential-priority",
        "anchor_name": "Residential planning stop; site release open",
        "archetype": "standard",
        "chainage_m": 1499.4,
        "corridor_offset_m": 0.612,
        "id": "line-5-0513-0288-s001499",
        "junction_group": null,
        "line": "line-5",
        "platform_length_m": 49.0
      },
      "type": "Feature"
    },
    {
      "geometry": {
        "coordinates": [
          32.8976576062894,
          2.2119498434294353
        ],
        "type": "Point"
      },
      "properties": {
        "anchor_kind": null,
        "anchor_name": null,
        "archetype": "terminal",
        "chainage_m": 3604.2,
        "corridor_offset_m": 0.0,
        "id": "line-5-0586-0363-s003604",
        "junction_group": 12,
        "line": "line-5",
        "platform_length_m": 49.0
      },
      "type": "Feature"
    },
    {
      "geometry": {
        "coordinates": [
          32.91078306780006,
          2.260900640679552
        ],
        "type": "Point"
      },
      "properties": {
        "anchor_kind": "public_transport:station",
        "anchor_name": "Railway Line",
        "archetype": "terminal",
        "chainage_m": 0.0,
        "corridor_offset_m": 0.0,
        "id": "line-6-0314-0436-s000000",
        "junction_group": 1,
        "line": "line-6",
        "platform_length_m": 49.0
      },
      "type": "Feature"
    },
    {
      "geometry": {
        "coordinates": [
          32.90664764841999,
          2.2835763776410034
        ],
        "type": "Point"
      },
      "properties": {
        "anchor_kind": "planning:residential-priority",
        "anchor_name": "Residential planning stop; site release open",
        "archetype": "halt",
        "chainage_m": 2710.5,
        "corridor_offset_m": 1.631,
        "id": "line-6-0188-0413-s002711",
        "junction_group": null,
        "line": "line-6",
        "platform_length_m": 45.0
      },
      "type": "Feature"
    },
    {
      "geometry": {
        "coordinates": [
          32.895140394492834,
          2.2835763776410034
        ],
        "type": "Point"
      },
      "properties": {
        "anchor_kind": "planning:residential",
        "anchor_name": "Residential planning stop; site release open",
        "archetype": "halt",
        "chainage_m": 3990.5,
        "corridor_offset_m": 0.48,
        "id": "line-6-0188-0349-s003991",
        "junction_group": null,
        "line": "line-6",
        "platform_length_m": 45.0
      },
      "type": "Feature"
    },
    {
      "geometry": {
        "coordinates": [
          32.8794977211856,
          2.2790772234819854
        ],
        "type": "Point"
      },
      "properties": {
        "anchor_kind": "planning:residential-priority",
        "anchor_name": "Residential planning stop; site release open",
        "archetype": "halt",
        "chainage_m": 5937.6,
        "corridor_offset_m": 0.666,
        "id": "line-6-0213-0262-s005938",
        "junction_group": null,
        "line": "line-6",
        "platform_length_m": 45.0
      },
      "type": "Feature"
    },
    {
      "geometry": {
        "coordinates": [
          32.86817026810105,
          2.2580211820177807
        ],
        "type": "Point"
      },
      "properties": {
        "anchor_kind": null,
        "anchor_name": null,
        "archetype": "terminal",
        "chainage_m": 8799.6,
        "corridor_offset_m": 0.0,
        "id": "line-6-0330-0199-s008800",
        "junction_group": 10,
        "line": "line-6",
        "platform_length_m": 49.0
      },
      "type": "Feature"
    },
    {
      "geometry": {
        "coordinates": [
          32.869788475684565,
          2.234805546557247
        ],
        "type": "Point"
      },
      "properties": {
        "anchor_kind": "amenity:college",
        "anchor_name": "Kica Rwot Tailoring School",
        "archetype": "terminal",
        "chainage_m": 0.0,
        "corridor_offset_m": 0.0,
        "id": "line-7-0459-0208-s000000",
        "junction_group": 9,
        "line": "line-7",
        "platform_length_m": 49.0
      },
      "type": "Feature"
    },
    {
      "geometry": {
        "coordinates": [
          32.870867280740235,
          2.2164489975884534
        ],
        "type": "Point"
      },
      "properties": {
        "anchor_kind": "planning:residential-priority",
        "anchor_name": "Residential planning stop; site release open",
        "archetype": "halt",
        "chainage_m": 2089.7,
        "corridor_offset_m": 1.827,
        "id": "line-7-0561-0214-s002090",
        "junction_group": null,
        "line": "line-7",
        "platform_length_m": 45.0
      },
      "type": "Feature"
    },
    {
      "geometry": {
        "coordinates": [
          32.88417254309351,
          2.2070907569376956
        ],
        "type": "Point"
      },
      "properties": {
        "anchor_kind": "planning:residential",
        "anchor_name": "Residential planning stop; site release open",
        "archetype": "halt",
        "chainage_m": 4000.5,
        "corridor_offset_m": 1.622,
        "id": "line-7-0613-0288-s004000",
        "junction_group": null,
        "line": "line-7",
        "platform_length_m": 45.0
      },
      "type": "Feature"
    },
    {
      "geometry": {
        "coordinates": [
          32.89855661050245,
          2.2070907569376956
        ],
        "type": "Point"
      },
      "properties": {
        "anchor_kind": "planning:residential",
        "anchor_name": "Residential planning stop; site release open",
        "archetype": "interchange",
        "chainage_m": 5600.5,
        "corridor_offset_m": 0.424,
        "id": "line-7-0613-0368-s005600",
        "junction_group": 12,
        "line": "line-7",
        "platform_length_m": 49.0
      },
      "type": "Feature"
    },
    {
      "geometry": {
        "coordinates": [
          32.91096286864267,
          2.202771568945038
        ],
        "type": "Point"
      },
      "properties": {
        "anchor_kind": "planning:residential",
        "anchor_name": "Residential planning stop; site release open",
        "archetype": "halt",
        "chainage_m": 7195.9,
        "corridor_offset_m": 0.158,
        "id": "line-7-0637-0437-s007196",
        "junction_group": null,
        "line": "line-7",
        "platform_length_m": 45.0
      },
      "type": "Feature"
    },
    {
      "geometry": {
        "coordinates": [
          32.91923370740282,
          2.2115899110967137
        ],
        "type": "Point"
      },
      "properties": {
        "anchor_kind": null,
        "anchor_name": null,
        "archetype": "terminal",
        "chainage_m": 8557.0,
        "corridor_offset_m": 0.0,
        "id": "line-7-0588-0483-s008557",
        "junction_group": 11,
        "line": "line-7",
        "platform_length_m": 49.0
      },
      "type": "Feature"
    },
    {
      "geometry": {
        "coordinates": [
          32.928763152061244,
          2.264319997840406
        ],
        "type": "Point"
      },
      "properties": {
        "anchor_kind": null,
        "anchor_name": null,
        "archetype": "terminal",
        "chainage_m": 0.0,
        "corridor_offset_m": 0.0,
        "id": "line-8-0295-0536-s000000",
        "junction_group": 2,
        "line": "line-8",
        "platform_length_m": 49.0
      },
      "type": "Feature"
    },
    {
      "geometry": {
        "coordinates": [
          32.924627732681174,
          2.2837563438073643
        ],
        "type": "Point"
      },
      "properties": {
        "anchor_kind": "planning:residential-priority",
        "anchor_name": "Residential planning stop; site release open",
        "archetype": "halt",
        "chainage_m": 2350.5,
        "corridor_offset_m": 0.502,
        "id": "line-8-0187-0513-s002351",
        "junction_group": null,
        "line": "line-8",
        "platform_length_m": 45.0
      },
      "type": "Feature"
    },
    {
      "geometry": {
        "coordinates": [
          32.92444793183856,
          2.306252114602455
        ],
        "type": "Point"
      },
      "properties": {
        "anchor_kind": "planning:residential-priority",
        "anchor_name": "Residential planning stop; site release open",
        "archetype": "standard",
        "chainage_m": 4858.8,
        "corridor_offset_m": 1.543,
        "id": "line-8-0062-0512-s004859",
        "junction_group": null,
        "line": "line-8",
        "platform_length_m": 49.0
      },
      "type": "Feature"
    },
    {
      "geometry": {
        "coordinates": [
          32.91096286864267,
          2.310751268761473
        ],
        "type": "Point"
      },
      "properties": {
        "anchor_kind": null,
        "anchor_name": null,
        "archetype": "terminal",
        "chainage_m": 6565.9,
        "corridor_offset_m": 0.0,
        "id": "line-8-0037-0437-s006566",
        "junction_group": null,
        "line": "line-8",
        "platform_length_m": 49.0
      },
      "type": "Feature"
    },
    {
      "geometry": {
        "coordinates": [
          32.94764224053549,
          2.2736782384911636
        ],
        "type": "Point"
      },
      "properties": {
        "anchor_kind": null,
        "anchor_name": null,
        "archetype": "terminal",
        "chainage_m": 0.0,
        "corridor_offset_m": 0.0,
        "id": "line-9-0243-0641-s000000",
        "junction_group": 3,
        "line": "line-9",
        "platform_length_m": 49.0
      },
      "type": "Feature"
    },
    {
      "geometry": {
        "coordinates": [
          32.95573327845302,
          2.2657597271712917
        ],
        "type": "Point"
      },
      "properties": {
        "anchor_kind": "planning:residential-priority",
        "anchor_name": "Residential planning stop; site release open",
        "archetype": "halt",
        "chainage_m": 1264.5,
        "corridor_offset_m": 0.009,
        "id": "line-9-0287-0686-s001265",
        "junction_group": null,
        "line": "line-9",
        "platform_length_m": 45.0
      },
      "type": "Feature"
    },
    {
      "geometry": {
        "coordinates": [
          32.940989609358844,
          2.251182467696073
        ],
        "type": "Point"
      },
      "properties": {
        "anchor_kind": null,
        "anchor_name": null,
        "archetype": "terminal",
        "chainage_m": 3575.5,
        "corridor_offset_m": 0.0,
        "id": "line-9-0368-0604-s003576",
        "junction_group": 6,
        "line": "line-9",
        "platform_length_m": 49.0
      },
      "type": "Feature"
    },
    {
      "geometry": {
        "coordinates": [
          32.927684347005574,
          2.193953226793363
        ],
        "type": "Point"
      },
      "properties": {
        "anchor_kind": "amenity:hospital",
        "anchor_name": "BOROBORO HCIII",
        "archetype": "terminal",
        "chainage_m": 0.0,
        "corridor_offset_m": 0.0,
        "id": "line-10-0686-0530-s000000",
        "junction_group": 5,
        "line": "line-10",
        "platform_length_m": 49.0
      },
      "type": "Feature"
    },
    {
      "geometry": {
        "coordinates": [
          32.91096286864267,
          2.189094140301623
        ],
        "type": "Point"
      },
      "properties": {
        "anchor_kind": null,
        "anchor_name": null,
        "archetype": "terminal",
        "chainage_m": 2083.7,
        "corridor_offset_m": 0.0,
        "id": "line-10-0713-0437-s002084",
        "junction_group": null,
        "line": "line-10",
        "platform_length_m": 49.0
      },
      "type": "Feature"
    },
    {
      "geometry": {
        "coordinates": [
          32.965082922268834,
          2.2911349566281536
        ],
        "type": "Point"
      },
      "properties": {
        "anchor_kind": "amenity:hospital",
        "anchor_name": "ONGICA HEALTH CENTRE 3",
        "archetype": "terminal",
        "chainage_m": 0.0,
        "corridor_offset_m": 0.0,
        "id": "line-11-0146-0738-s000000",
        "junction_group": 4,
        "line": "line-11",
        "platform_length_m": 49.0
      },
      "type": "Feature"
    },
    {
      "geometry": {
        "coordinates": [
          32.95573327845302,
          2.305892182269733
        ],
        "type": "Point"
      },
      "properties": {
        "anchor_kind": null,
        "anchor_name": null,
        "archetype": "terminal",
        "chainage_m": 2070.8,
        "corridor_offset_m": 0.0,
        "id": "line-11-0064-0686-s002071",
        "junction_group": null,
        "line": "line-11",
        "platform_length_m": 49.0
      },
      "type": "Feature"
    }
  ],
  "type": "FeatureCollection"
}
