{
  "features": [
    {
      "geometry": {
        "coordinates": [
          90.32195480995257,
          22.749799456502178
        ],
        "type": "Point"
      },
      "properties": {
        "charger_bus_voltage_v": 650.0,
        "charger_contact_count": 2,
        "charger_efficiency": 0.98,
        "charger_max_current_a": 825.0,
        "charger_max_kw": 500.0,
        "grid_export_kw": 800.0,
        "grid_import_kw": 800.0,
        "line": "line-1",
        "pv_nameplate_kw": 300.0,
        "station": "line-1-0279-0389-s000000",
        "storage_capacity_kwh": 500.0,
        "storage_initial_soc": 0.6,
        "storage_max_charge_kw": 500.0,
        "storage_max_discharge_kw": 500.0,
        "storage_module_kwh": 500.0,
        "tier": "terminal"
      },
      "type": "Feature"
    },
    {
      "geometry": {
        "coordinates": [
          90.32857628245164,
          22.736301994025123
        ],
        "type": "Point"
      },
      "properties": {
        "charger_bus_voltage_v": 650.0,
        "charger_contact_count": 2,
        "charger_efficiency": 0.98,
        "charger_max_current_a": 825.0,
        "charger_max_kw": 500.0,
        "grid_export_kw": 500.0,
        "grid_import_kw": 500.0,
        "line": "line-1",
        "pv_nameplate_kw": 300.0,
        "station": "line-1-0354-0423-s002008",
        "storage_capacity_kwh": 500.0,
        "storage_initial_soc": 0.5,
        "storage_max_charge_kw": 500.0,
        "storage_max_discharge_kw": 500.0,
        "storage_module_kwh": 500.0,
        "tier": "standard"
      },
      "type": "Feature"
    },
    {
      "geometry": {
        "coordinates": [
          90.34045598311174,
          22.72550402404348
        ],
        "type": "Point"
      },
      "properties": {
        "charger_bus_voltage_v": 650.0,
        "charger_contact_count": 2,
        "charger_efficiency": 0.98,
        "charger_max_current_a": 825.0,
        "charger_max_kw": 500.0,
        "grid_export_kw": 500.0,
        "grid_import_kw": 500.0,
        "line": "line-1",
        "pv_nameplate_kw": 300.0,
        "station": "line-1-0414-0484-s004014",
        "storage_capacity_kwh": 500.0,
        "storage_initial_soc": 0.5,
        "storage_max_charge_kw": 500.0,
        "storage_max_discharge_kw": 500.0,
        "storage_module_kwh": 500.0,
        "tier": "standard"
      },
      "type": "Feature"
    },
    {
      "geometry": {
        "coordinates": [
          90.34844069994885,
          22.71542591872728
        ],
        "type": "Point"
      },
      "properties": {
        "charger_bus_voltage_v": 650.0,
        "charger_contact_count": 2,
        "charger_efficiency": 0.98,
        "charger_max_current_a": 825.0,
        "charger_max_kw": 500.0,
        "grid_export_kw": 600.0,
        "grid_import_kw": 600.0,
        "line": "line-1",
        "pv_nameplate_kw": 300.0,
        "station": "line-1-0470-0525-s005565",
        "storage_capacity_kwh": 500.0,
        "storage_initial_soc": 0.5,
        "storage_max_charge_kw": 500.0,
        "storage_max_discharge_kw": 500.0,
        "storage_module_kwh": 500.0,
        "tier": "major"
      },
      "type": "Feature"
    },
    {
      "geometry": {
        "coordinates": [
          90.35233568377183,
          22.700128794586618
        ],
        "type": "Point"
      },
      "properties": {
        "charger_bus_voltage_v": 650.0,
        "charger_contact_count": 2,
        "charger_efficiency": 0.98,
        "charger_max_current_a": 825.0,
        "charger_max_kw": 500.0,
        "grid_export_kw": 600.0,
        "grid_import_kw": 600.0,
        "line": "line-1",
        "pv_nameplate_kw": 300.0,
        "station": "line-1-0555-0545-s007525",
        "storage_capacity_kwh": 500.0,
        "storage_initial_soc": 0.5,
        "storage_max_charge_kw": 500.0,
        "storage_max_discharge_kw": 500.0,
        "storage_module_kwh": 500.0,
        "tier": "interchange"
      },
      "type": "Feature"
    },
    {
      "geometry": {
        "coordinates": [
          90.35642541678597,
          22.68753116294137
        ],
        "type": "Point"
      },
      "properties": {
        "charger_bus_voltage_v": 650.0,
        "charger_contact_count": 2,
        "charger_efficiency": 0.98,
        "charger_max_current_a": 825.0,
        "charger_max_kw": 500.0,
        "grid_export_kw": 600.0,
        "grid_import_kw": 600.0,
        "line": "line-1",
        "pv_nameplate_kw": 300.0,
        "station": "line-1-0625-0566-s009203",
        "storage_capacity_kwh": 500.0,
        "storage_initial_soc": 0.5,
        "storage_max_charge_kw": 500.0,
        "storage_max_discharge_kw": 500.0,
        "storage_module_kwh": 500.0,
        "tier": "major"
      },
      "type": "Feature"
    },
    {
      "geometry": {
        "coordinates": [
          90.36577337796112,
          22.673133869632508
        ],
        "type": "Point"
      },
      "properties": {
        "charger_bus_voltage_v": 650.0,
        "charger_contact_count": 2,
        "charger_efficiency": 0.98,
        "charger_max_current_a": 825.0,
        "charger_max_kw": 500.0,
        "grid_export_kw": 500.0,
        "grid_import_kw": 500.0,
        "line": "line-1",
        "pv_nameplate_kw": 300.0,
        "station": "line-1-0705-0614-s011217",
        "storage_capacity_kwh": 500.0,
        "storage_initial_soc": 0.5,
        "storage_max_charge_kw": 500.0,
        "storage_max_discharge_kw": 500.0,
        "storage_module_kwh": 500.0,
        "tier": "standard"
      },
      "type": "Feature"
    },
    {
      "geometry": {
        "coordinates": [
          90.36304688928503,
          22.657296846992764
        ],
        "type": "Point"
      },
      "properties": {
        "charger_bus_voltage_v": 650.0,
        "charger_contact_count": 2,
        "charger_efficiency": 0.98,
        "charger_max_current_a": 825.0,
        "charger_max_kw": 500.0,
        "grid_export_kw": 500.0,
        "grid_import_kw": 500.0,
        "line": "line-1",
        "pv_nameplate_kw": 300.0,
        "station": "line-1-0793-0600-s013220",
        "storage_capacity_kwh": 500.0,
        "storage_initial_soc": 0.5,
        "storage_max_charge_kw": 500.0,
        "storage_max_discharge_kw": 500.0,
        "storage_module_kwh": 500.0,
        "tier": "standard"
      },
      "type": "Feature"
    },
    {
      "geometry": {
        "coordinates": [
          90.36032040060894,
          22.641819756685745
        ],
        "type": "Point"
      },
      "properties": {
        "charger_bus_voltage_v": 650.0,
        "charger_contact_count": 2,
        "charger_efficiency": 0.98,
        "charger_max_current_a": 825.0,
        "charger_max_kw": 500.0,
        "grid_export_kw": 800.0,
        "grid_import_kw": 800.0,
        "line": "line-1",
        "pv_nameplate_kw": 300.0,
        "station": "line-1-0879-0586-s015329",
        "storage_capacity_kwh": 500.0,
        "storage_initial_soc": 0.6,
        "storage_max_charge_kw": 500.0,
        "storage_max_discharge_kw": 500.0,
        "storage_module_kwh": 500.0,
        "tier": "terminal"
      },
      "type": "Feature"
    },
    {
      "geometry": {
        "coordinates": [
          90.38700103979637,
          22.719925072886298
        ],
        "type": "Point"
      },
      "properties": {
        "charger_bus_voltage_v": 650.0,
        "charger_contact_count": 2,
        "charger_efficiency": 0.98,
        "charger_max_current_a": 825.0,
        "charger_max_kw": 500.0,
        "grid_export_kw": 800.0,
        "grid_import_kw": 800.0,
        "line": "line-2",
        "pv_nameplate_kw": 300.0,
        "station": "line-2-0445-0723-s000000",
        "storage_capacity_kwh": 500.0,
        "storage_initial_soc": 0.6,
        "storage_max_charge_kw": 500.0,
        "storage_max_discharge_kw": 500.0,
        "storage_module_kwh": 500.0,
        "tier": "terminal"
      },
      "type": "Feature"
    },
    {
      "geometry": {
        "coordinates": [
          90.37590033590088,
          22.72028500521902
        ],
        "type": "Point"
      },
      "properties": {
        "charger_bus_voltage_v": 650.0,
        "charger_contact_count": 2,
        "charger_efficiency": 0.98,
        "charger_max_current_a": 825.0,
        "charger_max_kw": 500.0,
        "grid_export_kw": 500.0,
        "grid_import_kw": 500.0,
        "line": "line-2",
        "pv_nameplate_kw": 300.0,
        "station": "line-2-0443-0666-s002017",
        "storage_capacity_kwh": 500.0,
        "storage_initial_soc": 0.5,
        "storage_max_charge_kw": 500.0,
        "storage_max_discharge_kw": 500.0,
        "storage_module_kwh": 500.0,
        "tier": "standard"
      },
      "type": "Feature"
    },
    {
      "geometry": {
        "coordinates": [
          90.36713662229917,
          22.713446290897313
        ],
        "type": "Point"
      },
      "properties": {
        "charger_bus_voltage_v": 650.0,
        "charger_contact_count": 2,
        "charger_efficiency": 0.98,
        "charger_max_current_a": 825.0,
        "charger_max_kw": 500.0,
        "grid_export_kw": 500.0,
        "grid_import_kw": 500.0,
        "line": "line-2",
        "pv_nameplate_kw": 300.0,
        "station": "line-2-0481-0621-s004034",
        "storage_capacity_kwh": 500.0,
        "storage_initial_soc": 0.5,
        "storage_max_charge_kw": 500.0,
        "storage_max_discharge_kw": 500.0,
        "storage_module_kwh": 500.0,
        "tier": "standard"
      },
      "type": "Feature"
    },
    {
      "geometry": {
        "coordinates": [
          90.35915190546206,
          22.711646629233705
        ],
        "type": "Point"
      },
      "properties": {
        "charger_bus_voltage_v": 650.0,
        "charger_contact_count": 2,
        "charger_efficiency": 0.98,
        "charger_max_current_a": 825.0,
        "charger_max_kw": 500.0,
        "grid_export_kw": 600.0,
        "grid_import_kw": 600.0,
        "line": "line-2",
        "pv_nameplate_kw": 300.0,
        "station": "line-2-0491-0580-s005248",
        "storage_capacity_kwh": 500.0,
        "storage_initial_soc": 0.5,
        "storage_max_charge_kw": 500.0,
        "storage_max_discharge_kw": 500.0,
        "storage_module_kwh": 500.0,
        "tier": "major"
      },
      "type": "Feature"
    },
    {
      "geometry": {
        "coordinates": [
          90.35233568377183,
          22.700128794586618
        ],
        "type": "Point"
      },
      "properties": {
        "charger_bus_voltage_v": 650.0,
        "charger_contact_count": 2,
        "charger_efficiency": 0.98,
        "charger_max_current_a": 825.0,
        "charger_max_kw": 500.0,
        "grid_export_kw": 600.0,
        "grid_import_kw": 600.0,
        "line": "line-2",
        "pv_nameplate_kw": 300.0,
        "station": "line-2-0555-0545-s007638",
        "storage_capacity_kwh": 500.0,
        "storage_initial_soc": 0.5,
        "storage_max_charge_kw": 500.0,
        "storage_max_discharge_kw": 500.0,
        "storage_module_kwh": 500.0,
        "tier": "interchange"
      },
      "type": "Feature"
    },
    {
      "geometry": {
        "coordinates": [
          90.34123497987633,
          22.686271399776842
        ],
        "type": "Point"
      },
      "properties": {
        "charger_bus_voltage_v": 650.0,
        "charger_contact_count": 2,
        "charger_efficiency": 0.98,
        "charger_max_current_a": 825.0,
        "charger_max_kw": 500.0,
        "grid_export_kw": 500.0,
        "grid_import_kw": 500.0,
        "line": "line-2",
        "pv_nameplate_kw": 300.0,
        "station": "line-2-0632-0488-s009678",
        "storage_capacity_kwh": 500.0,
        "storage_initial_soc": 0.5,
        "storage_max_charge_kw": 500.0,
        "storage_max_discharge_kw": 500.0,
        "storage_module_kwh": 500.0,
        "tier": "standard"
      },
      "type": "Feature"
    },
    {
      "geometry": {
        "coordinates": [
          90.33500300575956,
          22.67079430946982
        ],
        "type": "Point"
      },
      "properties": {
        "charger_bus_voltage_v": 650.0,
        "charger_contact_count": 2,
        "charger_efficiency": 0.98,
        "charger_max_current_a": 825.0,
        "charger_max_kw": 500.0,
        "grid_export_kw": 500.0,
        "grid_import_kw": 500.0,
        "line": "line-2",
        "pv_nameplate_kw": 300.0,
        "station": "line-2-0718-0456-s011680",
        "storage_capacity_kwh": 500.0,
        "storage_initial_soc": 0.5,
        "storage_max_charge_kw": 500.0,
        "storage_max_discharge_kw": 500.0,
        "storage_module_kwh": 500.0,
        "tier": "standard"
      },
      "type": "Feature"
    },
    {
      "geometry": {
        "coordinates": [
          90.33402925980381,
          22.654957286830076
        ],
        "type": "Point"
      },
      "properties": {
        "charger_bus_voltage_v": 650.0,
        "charger_contact_count": 2,
        "charger_efficiency": 0.98,
        "charger_max_current_a": 825.0,
        "charger_max_kw": 500.0,
        "grid_export_kw": 500.0,
        "grid_import_kw": 500.0,
        "line": "line-2",
        "pv_nameplate_kw": 300.0,
        "station": "line-2-0806-0451-s013697",
        "storage_capacity_kwh": 500.0,
        "storage_initial_soc": 0.5,
        "storage_max_charge_kw": 500.0,
        "storage_max_discharge_kw": 500.0,
        "storage_module_kwh": 500.0,
        "tier": "standard"
      },
      "type": "Feature"
    },
    {
      "geometry": {
        "coordinates": [
          90.34084548149404,
          22.641999722852105
        ],
        "type": "Point"
      },
      "properties": {
        "charger_bus_voltage_v": 650.0,
        "charger_contact_count": 2,
        "charger_efficiency": 0.98,
        "charger_max_current_a": 825.0,
        "charger_max_kw": 500.0,
        "grid_export_kw": 500.0,
        "grid_import_kw": 500.0,
        "line": "line-2",
        "pv_nameplate_kw": 300.0,
        "station": "line-2-0878-0486-s015708",
        "storage_capacity_kwh": 500.0,
        "storage_initial_soc": 0.5,
        "storage_max_charge_kw": 500.0,
        "storage_max_discharge_kw": 500.0,
        "storage_module_kwh": 500.0,
        "tier": "standard"
      },
      "type": "Feature"
    },
    {
      "geometry": {
        "coordinates": [
          90.33636625009761,
          22.624003106216033
        ],
        "type": "Point"
      },
      "properties": {
        "charger_bus_voltage_v": 650.0,
        "charger_contact_count": 2,
        "charger_efficiency": 0.98,
        "charger_max_current_a": 825.0,
        "charger_max_kw": 500.0,
        "grid_export_kw": 500.0,
        "grid_import_kw": 500.0,
        "line": "line-2",
        "pv_nameplate_kw": 300.0,
        "station": "line-2-0978-0463-s018048",
        "storage_capacity_kwh": 500.0,
        "storage_initial_soc": 0.5,
        "storage_max_charge_kw": 500.0,
        "storage_max_discharge_kw": 500.0,
        "storage_module_kwh": 500.0,
        "tier": "standard"
      },
      "type": "Feature"
    },
    {
      "geometry": {
        "coordinates": [
          90.33383451061266,
          22.604926692581795
        ],
        "type": "Point"
      },
      "properties": {
        "charger_bus_voltage_v": 650.0,
        "charger_contact_count": 2,
        "charger_efficiency": 0.98,
        "charger_max_current_a": 825.0,
        "charger_max_kw": 500.0,
        "grid_export_kw": 800.0,
        "grid_import_kw": 800.0,
        "line": "line-2",
        "pv_nameplate_kw": 300.0,
        "station": "line-2-1084-0450-s020325",
        "storage_capacity_kwh": 500.0,
        "storage_initial_soc": 0.6,
        "storage_max_charge_kw": 500.0,
        "storage_max_discharge_kw": 500.0,
        "storage_module_kwh": 500.0,
        "tier": "terminal"
      },
      "type": "Feature"
    },
    {
      "geometry": {
        "coordinates": [
          90.25651908172648,
          22.785972655940682
        ],
        "type": "Point"
      },
      "properties": {
        "charger_bus_voltage_v": 650.0,
        "charger_contact_count": 2,
        "charger_efficiency": 0.98,
        "charger_max_current_a": 825.0,
        "charger_max_kw": 500.0,
        "grid_export_kw": 800.0,
        "grid_import_kw": 800.0,
        "line": "line-3",
        "pv_nameplate_kw": 300.0,
        "station": "line-3-0078-0053-s000000",
        "storage_capacity_kwh": 500.0,
        "storage_initial_soc": 0.6,
        "storage_max_charge_kw": 500.0,
        "storage_max_discharge_kw": 500.0,
        "storage_module_kwh": 500.0,
        "tier": "terminal"
      },
      "type": "Feature"
    },
    {
      "geometry": {
        "coordinates": [
          90.31669658179155,
          22.73558212935968
        ],
        "type": "Point"
      },
      "properties": {
        "charger_bus_voltage_v": 650.0,
        "charger_contact_count": 2,
        "charger_efficiency": 0.98,
        "charger_max_current_a": 825.0,
        "charger_max_kw": 500.0,
        "grid_export_kw": 500.0,
        "grid_import_kw": 500.0,
        "line": "line-3",
        "pv_nameplate_kw": 300.0,
        "station": "line-3-0358-0362-s010017",
        "storage_capacity_kwh": 500.0,
        "storage_initial_soc": 0.5,
        "storage_max_charge_kw": 500.0,
        "storage_max_discharge_kw": 500.0,
        "storage_module_kwh": 500.0,
        "tier": "standard"
      },
      "type": "Feature"
    },
    {
      "geometry": {
        "coordinates": [
          90.32137056237913,
          22.719205208220856
        ],
        "type": "Point"
      },
      "properties": {
        "charger_bus_voltage_v": 650.0,
        "charger_contact_count": 2,
        "charger_efficiency": 0.98,
        "charger_max_current_a": 825.0,
        "charger_max_kw": 500.0,
        "grid_export_kw": 500.0,
        "grid_import_kw": 500.0,
        "line": "line-3",
        "pv_nameplate_kw": 300.0,
        "station": "line-3-0449-0386-s012036",
        "storage_capacity_kwh": 500.0,
        "storage_initial_soc": 0.5,
        "storage_max_charge_kw": 500.0,
        "storage_max_discharge_kw": 500.0,
        "storage_module_kwh": 500.0,
        "tier": "standard"
      },
      "type": "Feature"
    },
    {
      "geometry": {
        "coordinates": [
          90.33344501223037,
          22.706607576575603
        ],
        "type": "Point"
      },
      "properties": {
        "charger_bus_voltage_v": 650.0,
        "charger_contact_count": 2,
        "charger_efficiency": 0.98,
        "charger_max_current_a": 825.0,
        "charger_max_kw": 500.0,
        "grid_export_kw": 500.0,
        "grid_import_kw": 500.0,
        "line": "line-3",
        "pv_nameplate_kw": 300.0,
        "station": "line-3-0519-0448-s014044",
        "storage_capacity_kwh": 500.0,
        "storage_initial_soc": 0.5,
        "storage_max_charge_kw": 500.0,
        "storage_max_discharge_kw": 500.0,
        "storage_module_kwh": 500.0,
        "tier": "standard"
      },
      "type": "Feature"
    },
    {
      "geometry": {
        "coordinates": [
          90.35233568377183,
          22.700128794586618
        ],
        "type": "Point"
      },
      "properties": {
        "charger_bus_voltage_v": 650.0,
        "charger_contact_count": 2,
        "charger_efficiency": 0.98,
        "charger_max_current_a": 825.0,
        "charger_max_kw": 500.0,
        "grid_export_kw": 600.0,
        "grid_import_kw": 600.0,
        "line": "line-3",
        "pv_nameplate_kw": 300.0,
        "station": "line-3-0555-0545-s016442",
        "storage_capacity_kwh": 500.0,
        "storage_initial_soc": 0.5,
        "storage_max_charge_kw": 500.0,
        "storage_max_discharge_kw": 500.0,
        "storage_module_kwh": 500.0,
        "tier": "interchange"
      },
      "type": "Feature"
    },
    {
      "geometry": {
        "coordinates": [
          90.36616287634342,
          22.699588896087537
        ],
        "type": "Point"
      },
      "properties": {
        "charger_bus_voltage_v": 650.0,
        "charger_contact_count": 2,
        "charger_efficiency": 0.98,
        "charger_max_current_a": 825.0,
        "charger_max_kw": 500.0,
        "grid_export_kw": 600.0,
        "grid_import_kw": 600.0,
        "line": "line-3",
        "pv_nameplate_kw": 300.0,
        "station": "line-3-0558-0616-s018059",
        "storage_capacity_kwh": 500.0,
        "storage_initial_soc": 0.5,
        "storage_max_charge_kw": 500.0,
        "storage_max_discharge_kw": 500.0,
        "storage_module_kwh": 500.0,
        "tier": "major"
      },
      "type": "Feature"
    },
    {
      "geometry": {
        "coordinates": [
          90.37648458347432,
          22.696349505093043
        ],
        "type": "Point"
      },
      "properties": {
        "charger_bus_voltage_v": 650.0,
        "charger_contact_count": 2,
        "charger_efficiency": 0.98,
        "charger_max_current_a": 825.0,
        "charger_max_kw": 500.0,
        "grid_export_kw": 600.0,
        "grid_import_kw": 600.0,
        "line": "line-3",
        "pv_nameplate_kw": 300.0,
        "station": "line-3-0576-0669-s019268",
        "storage_capacity_kwh": 500.0,
        "storage_initial_soc": 0.5,
        "storage_max_charge_kw": 500.0,
        "storage_max_discharge_kw": 500.0,
        "storage_module_kwh": 500.0,
        "tier": "major"
      },
      "type": "Feature"
    },
    {
      "geometry": {
        "coordinates": [
          90.39167502038396,
          22.68807106144045
        ],
        "type": "Point"
      },
      "properties": {
        "charger_bus_voltage_v": 650.0,
        "charger_contact_count": 2,
        "charger_efficiency": 0.98,
        "charger_max_current_a": 825.0,
        "charger_max_kw": 500.0,
        "grid_export_kw": 500.0,
        "grid_import_kw": 500.0,
        "line": "line-3",
        "pv_nameplate_kw": 300.0,
        "station": "line-3-0622-0747-s021296",
        "storage_capacity_kwh": 500.0,
        "storage_initial_soc": 0.5,
        "storage_max_charge_kw": 500.0,
        "storage_max_discharge_kw": 500.0,
        "storage_module_kwh": 500.0,
        "tier": "standard"
      },
      "type": "Feature"
    },
    {
      "geometry": {
        "coordinates": [
          90.41368167898379,
          22.663055764316308
        ],
        "type": "Point"
      },
      "properties": {
        "charger_bus_voltage_v": 650.0,
        "charger_contact_count": 2,
        "charger_efficiency": 0.98,
        "charger_max_current_a": 825.0,
        "charger_max_kw": 500.0,
        "grid_export_kw": 3000.0,
        "grid_import_kw": 3000.0,
        "line": "line-3",
        "pv_nameplate_kw": 5000.0,
        "station": "line-3-0761-0860-s025578",
        "storage_capacity_kwh": 40000.0,
        "storage_initial_soc": 0.6,
        "storage_max_charge_kw": 10000.0,
        "storage_max_discharge_kw": 10000.0,
        "storage_module_kwh": 500.0,
        "tier": "depot-main"
      },
      "type": "Feature"
    }
  ],
  "type": "FeatureCollection"
}
