{
  "features": [
    {
      "geometry": {
        "coordinates": [
          73.05736410328274,
          31.37804232804233
        ],
        "type": "Point"
      },
      "properties": {
        "charger_bus_voltage_v": 650.0,
        "charger_contact_count": 8,
        "charger_efficiency": 0.98,
        "charger_max_current_a": 3300.0,
        "charger_max_kw": 2000.0,
        "grid_export_kw": 3200.0,
        "grid_import_kw": 3200.0,
        "line": "line-1",
        "pv_nameplate_kw": 300.0,
        "station": "line-1-0955-0272-s000000",
        "storage_capacity_kwh": 2000.0,
        "storage_initial_soc": 0.6,
        "storage_max_charge_kw": 2000.0,
        "storage_max_discharge_kw": 2000.0,
        "storage_module_kwh": 500.0,
        "tier": "terminal"
      },
      "type": "Feature"
    },
    {
      "geometry": {
        "coordinates": [
          73.0670475849378,
          31.392799553683908
        ],
        "type": "Point"
      },
      "properties": {
        "charger_bus_voltage_v": 650.0,
        "charger_contact_count": 8,
        "charger_efficiency": 0.98,
        "charger_max_current_a": 3300.0,
        "charger_max_kw": 2000.0,
        "grid_export_kw": 2400.0,
        "grid_import_kw": 2400.0,
        "line": "line-1",
        "pv_nameplate_kw": 300.0,
        "station": "line-1-0873-0318-s003011",
        "storage_capacity_kwh": 2000.0,
        "storage_initial_soc": 0.5,
        "storage_max_charge_kw": 2000.0,
        "storage_max_discharge_kw": 2000.0,
        "storage_module_kwh": 500.0,
        "tier": "interchange"
      },
      "type": "Feature"
    },
    {
      "geometry": {
        "coordinates": [
          73.0849409749526,
          31.40575711766188
        ],
        "type": "Point"
      },
      "properties": {
        "charger_bus_voltage_v": 650.0,
        "charger_contact_count": 8,
        "charger_efficiency": 0.98,
        "charger_max_current_a": 3300.0,
        "charger_max_kw": 2000.0,
        "grid_export_kw": 2000.0,
        "grid_import_kw": 2000.0,
        "line": "line-1",
        "pv_nameplate_kw": 300.0,
        "station": "line-1-0801-0403-s005307",
        "storage_capacity_kwh": 2000.0,
        "storage_initial_soc": 0.5,
        "storage_max_charge_kw": 2000.0,
        "storage_max_discharge_kw": 2000.0,
        "storage_module_kwh": 500.0,
        "tier": "standard"
      },
      "type": "Feature"
    },
    {
      "geometry": {
        "coordinates": [
          73.10304487543816,
          31.404317388330995
        ],
        "type": "Point"
      },
      "properties": {
        "charger_bus_voltage_v": 650.0,
        "charger_contact_count": 8,
        "charger_efficiency": 0.98,
        "charger_max_current_a": 3300.0,
        "charger_max_kw": 2000.0,
        "grid_export_kw": 2400.0,
        "grid_import_kw": 2400.0,
        "line": "line-1",
        "pv_nameplate_kw": 300.0,
        "station": "line-1-0809-0489-s007631",
        "storage_capacity_kwh": 2000.0,
        "storage_initial_soc": 0.5,
        "storage_max_charge_kw": 2000.0,
        "storage_max_discharge_kw": 2000.0,
        "storage_module_kwh": 500.0,
        "tier": "interchange"
      },
      "type": "Feature"
    },
    {
      "geometry": {
        "coordinates": [
          73.11188631521017,
          31.41133606881906
        ],
        "type": "Point"
      },
      "properties": {
        "charger_bus_voltage_v": 650.0,
        "charger_contact_count": 8,
        "charger_efficiency": 0.98,
        "charger_max_current_a": 3300.0,
        "charger_max_kw": 2000.0,
        "grid_export_kw": 2400.0,
        "grid_import_kw": 2400.0,
        "line": "line-1",
        "pv_nameplate_kw": 300.0,
        "station": "line-1-0770-0531-s009244",
        "storage_capacity_kwh": 2000.0,
        "storage_initial_soc": 0.5,
        "storage_max_charge_kw": 2000.0,
        "storage_max_discharge_kw": 2000.0,
        "storage_module_kwh": 500.0,
        "tier": "interchange"
      },
      "type": "Feature"
    },
    {
      "geometry": {
        "coordinates": [
          73.12178030733601,
          31.4253734297952
        ],
        "type": "Point"
      },
      "properties": {
        "charger_bus_voltage_v": 650.0,
        "charger_contact_count": 8,
        "charger_efficiency": 0.98,
        "charger_max_current_a": 3300.0,
        "charger_max_kw": 2000.0,
        "grid_export_kw": 2400.0,
        "grid_import_kw": 2400.0,
        "line": "line-1",
        "pv_nameplate_kw": 300.0,
        "station": "line-1-0692-0578-s011472",
        "storage_capacity_kwh": 2000.0,
        "storage_initial_soc": 0.5,
        "storage_max_charge_kw": 2000.0,
        "storage_max_discharge_kw": 2000.0,
        "storage_module_kwh": 500.0,
        "tier": "major"
      },
      "type": "Feature"
    },
    {
      "geometry": {
        "coordinates": [
          73.14430492770758,
          31.433831839614154
        ],
        "type": "Point"
      },
      "properties": {
        "charger_bus_voltage_v": 650.0,
        "charger_contact_count": 8,
        "charger_efficiency": 0.98,
        "charger_max_current_a": 3300.0,
        "charger_max_kw": 2000.0,
        "grid_export_kw": 2000.0,
        "grid_import_kw": 2000.0,
        "line": "line-1",
        "pv_nameplate_kw": 300.0,
        "station": "line-1-0645-0685-s014660",
        "storage_capacity_kwh": 2000.0,
        "storage_initial_soc": 0.5,
        "storage_max_charge_kw": 2000.0,
        "storage_max_discharge_kw": 2000.0,
        "storage_module_kwh": 500.0,
        "tier": "standard"
      },
      "type": "Feature"
    },
    {
      "geometry": {
        "coordinates": [
          73.17061873655287,
          31.431672245617825
        ],
        "type": "Point"
      },
      "properties": {
        "charger_bus_voltage_v": 650.0,
        "charger_contact_count": 8,
        "charger_efficiency": 0.98,
        "charger_max_current_a": 3300.0,
        "charger_max_kw": 2000.0,
        "grid_export_kw": 2000.0,
        "grid_import_kw": 2000.0,
        "line": "line-1",
        "pv_nameplate_kw": 300.0,
        "station": "line-1-0657-0810-s018276",
        "storage_capacity_kwh": 2000.0,
        "storage_initial_soc": 0.5,
        "storage_max_charge_kw": 2000.0,
        "storage_max_discharge_kw": 2000.0,
        "storage_module_kwh": 500.0,
        "tier": "standard"
      },
      "type": "Feature"
    },
    {
      "geometry": {
        "coordinates": [
          73.17861813444183,
          31.45542777957744
        ],
        "type": "Point"
      },
      "properties": {
        "charger_bus_voltage_v": 650.0,
        "charger_contact_count": 8,
        "charger_efficiency": 0.98,
        "charger_max_current_a": 3300.0,
        "charger_max_kw": 2000.0,
        "grid_export_kw": 2000.0,
        "grid_import_kw": 2000.0,
        "line": "line-1",
        "pv_nameplate_kw": 300.0,
        "station": "line-1-0525-0848-s021297",
        "storage_capacity_kwh": 2000.0,
        "storage_initial_soc": 0.5,
        "storage_max_charge_kw": 2000.0,
        "storage_max_discharge_kw": 2000.0,
        "storage_module_kwh": 500.0,
        "tier": "standard"
      },
      "type": "Feature"
    },
    {
      "geometry": {
        "coordinates": [
          73.19103825221681,
          31.464426087895475
        ],
        "type": "Point"
      },
      "properties": {
        "charger_bus_voltage_v": 650.0,
        "charger_contact_count": 8,
        "charger_efficiency": 0.98,
        "charger_max_current_a": 3300.0,
        "charger_max_kw": 2000.0,
        "grid_export_kw": 2000.0,
        "grid_import_kw": 2000.0,
        "line": "line-1",
        "pv_nameplate_kw": 300.0,
        "station": "line-1-0475-0907-s022892",
        "storage_capacity_kwh": 2000.0,
        "storage_initial_soc": 0.5,
        "storage_max_charge_kw": 2000.0,
        "storage_max_discharge_kw": 2000.0,
        "storage_module_kwh": 500.0,
        "tier": "standard"
      },
      "type": "Feature"
    },
    {
      "geometry": {
        "coordinates": [
          73.27250580440183,
          31.496460065507684
        ],
        "type": "Point"
      },
      "properties": {
        "charger_bus_voltage_v": 650.0,
        "charger_contact_count": 8,
        "charger_efficiency": 0.98,
        "charger_max_current_a": 3300.0,
        "charger_max_kw": 2000.0,
        "grid_export_kw": 12000.0,
        "grid_import_kw": 12000.0,
        "line": "line-1",
        "pv_nameplate_kw": 5000.0,
        "station": "line-1-0297-1294-s032259",
        "storage_capacity_kwh": 40000.0,
        "storage_initial_soc": 0.6,
        "storage_max_charge_kw": 10000.0,
        "storage_max_discharge_kw": 10000.0,
        "storage_module_kwh": 500.0,
        "tier": "depot-main"
      },
      "type": "Feature"
    },
    {
      "geometry": {
        "coordinates": [
          73.17967068679565,
          31.46082676456826
        ],
        "type": "Point"
      },
      "properties": {
        "charger_bus_voltage_v": 650.0,
        "charger_contact_count": 8,
        "charger_efficiency": 0.98,
        "charger_max_current_a": 3300.0,
        "charger_max_kw": 2000.0,
        "grid_export_kw": 3200.0,
        "grid_import_kw": 3200.0,
        "line": "line-2",
        "pv_nameplate_kw": 300.0,
        "station": "line-2-0495-0853-s000000",
        "storage_capacity_kwh": 2000.0,
        "storage_initial_soc": 0.6,
        "storage_max_charge_kw": 2000.0,
        "storage_max_discharge_kw": 2000.0,
        "storage_module_kwh": 500.0,
        "tier": "terminal"
      },
      "type": "Feature"
    },
    {
      "geometry": {
        "coordinates": [
          73.16177729678085,
          31.45506784724472
        ],
        "type": "Point"
      },
      "properties": {
        "charger_bus_voltage_v": 650.0,
        "charger_contact_count": 8,
        "charger_efficiency": 0.98,
        "charger_max_current_a": 3300.0,
        "charger_max_kw": 2000.0,
        "grid_export_kw": 2000.0,
        "grid_import_kw": 2000.0,
        "line": "line-2",
        "pv_nameplate_kw": 300.0,
        "station": "line-2-0527-0768-s003027",
        "storage_capacity_kwh": 2000.0,
        "storage_initial_soc": 0.5,
        "storage_max_charge_kw": 2000.0,
        "storage_max_discharge_kw": 2000.0,
        "storage_module_kwh": 500.0,
        "tier": "standard"
      },
      "type": "Feature"
    },
    {
      "geometry": {
        "coordinates": [
          73.13441093558174,
          31.44031062160314
        ],
        "type": "Point"
      },
      "properties": {
        "charger_bus_voltage_v": 650.0,
        "charger_contact_count": 8,
        "charger_efficiency": 0.98,
        "charger_max_current_a": 3300.0,
        "charger_max_kw": 2000.0,
        "grid_export_kw": 2400.0,
        "grid_import_kw": 2400.0,
        "line": "line-2",
        "pv_nameplate_kw": 300.0,
        "station": "line-2-0609-0638-s006307",
        "storage_capacity_kwh": 2000.0,
        "storage_initial_soc": 0.5,
        "storage_max_charge_kw": 2000.0,
        "storage_max_discharge_kw": 2000.0,
        "storage_module_kwh": 500.0,
        "tier": "interchange"
      },
      "type": "Feature"
    },
    {
      "geometry": {
        "coordinates": [
          73.11714907697923,
          31.444989741928516
        ],
        "type": "Point"
      },
      "properties": {
        "charger_bus_voltage_v": 650.0,
        "charger_contact_count": 8,
        "charger_efficiency": 0.98,
        "charger_max_current_a": 3300.0,
        "charger_max_kw": 2000.0,
        "grid_export_kw": 2000.0,
        "grid_import_kw": 2000.0,
        "line": "line-2",
        "pv_nameplate_kw": 300.0,
        "station": "line-2-0583-0556-s009033",
        "storage_capacity_kwh": 2000.0,
        "storage_initial_soc": 0.5,
        "storage_max_charge_kw": 2000.0,
        "storage_max_discharge_kw": 2000.0,
        "storage_module_kwh": 500.0,
        "tier": "standard"
      },
      "type": "Feature"
    },
    {
      "geometry": {
        "coordinates": [
          73.10051874978902,
          31.43059244861966
        ],
        "type": "Point"
      },
      "properties": {
        "charger_bus_voltage_v": 650.0,
        "charger_contact_count": 8,
        "charger_efficiency": 0.98,
        "charger_max_current_a": 3300.0,
        "charger_max_kw": 2000.0,
        "grid_export_kw": 2000.0,
        "grid_import_kw": 2000.0,
        "line": "line-2",
        "pv_nameplate_kw": 300.0,
        "station": "line-2-0663-0477-s012038",
        "storage_capacity_kwh": 2000.0,
        "storage_initial_soc": 0.5,
        "storage_max_charge_kw": 2000.0,
        "storage_max_discharge_kw": 2000.0,
        "storage_module_kwh": 500.0,
        "tier": "standard"
      },
      "type": "Feature"
    },
    {
      "geometry": {
        "coordinates": [
          73.07946770271278,
          31.419074613972573
        ],
        "type": "Point"
      },
      "properties": {
        "charger_bus_voltage_v": 650.0,
        "charger_contact_count": 8,
        "charger_efficiency": 0.98,
        "charger_max_current_a": 3300.0,
        "charger_max_kw": 2000.0,
        "grid_export_kw": 2400.0,
        "grid_import_kw": 2400.0,
        "line": "line-2",
        "pv_nameplate_kw": 300.0,
        "station": "line-2-0727-0377-s015058",
        "storage_capacity_kwh": 2000.0,
        "storage_initial_soc": 0.5,
        "storage_max_charge_kw": 2000.0,
        "storage_max_discharge_kw": 2000.0,
        "storage_module_kwh": 500.0,
        "tier": "major"
      },
      "type": "Feature"
    },
    {
      "geometry": {
        "coordinates": [
          73.06662656399628,
          31.41565525681172
        ],
        "type": "Point"
      },
      "properties": {
        "charger_bus_voltage_v": 650.0,
        "charger_contact_count": 8,
        "charger_efficiency": 0.98,
        "charger_max_current_a": 3300.0,
        "charger_max_kw": 2000.0,
        "grid_export_kw": 2400.0,
        "grid_import_kw": 2400.0,
        "line": "line-2",
        "pv_nameplate_kw": 300.0,
        "station": "line-2-0746-0316-s016660",
        "storage_capacity_kwh": 2000.0,
        "storage_initial_soc": 0.5,
        "storage_max_charge_kw": 2000.0,
        "storage_max_discharge_kw": 2000.0,
        "storage_module_kwh": 500.0,
        "tier": "interchange"
      },
      "type": "Feature"
    },
    {
      "geometry": {
        "coordinates": [
          73.01947221854552,
          31.40773674549185
        ],
        "type": "Point"
      },
      "properties": {
        "charger_bus_voltage_v": 650.0,
        "charger_contact_count": 8,
        "charger_efficiency": 0.98,
        "charger_max_current_a": 3300.0,
        "charger_max_kw": 2000.0,
        "grid_export_kw": 3200.0,
        "grid_import_kw": 3200.0,
        "line": "line-2",
        "pv_nameplate_kw": 300.0,
        "station": "line-2-0790-0092-s022907",
        "storage_capacity_kwh": 2000.0,
        "storage_initial_soc": 0.6,
        "storage_max_charge_kw": 2000.0,
        "storage_max_discharge_kw": 2000.0,
        "storage_module_kwh": 500.0,
        "tier": "terminal"
      },
      "type": "Feature"
    },
    {
      "geometry": {
        "coordinates": [
          73.20261632810875,
          31.387040636360364
        ],
        "type": "Point"
      },
      "properties": {
        "charger_bus_voltage_v": 650.0,
        "charger_contact_count": 8,
        "charger_efficiency": 0.98,
        "charger_max_current_a": 3300.0,
        "charger_max_kw": 2000.0,
        "grid_export_kw": 3200.0,
        "grid_import_kw": 3200.0,
        "line": "line-3",
        "pv_nameplate_kw": 300.0,
        "station": "line-3-0905-0962-s000000",
        "storage_capacity_kwh": 2000.0,
        "storage_initial_soc": 0.6,
        "storage_max_charge_kw": 2000.0,
        "storage_max_discharge_kw": 2000.0,
        "storage_module_kwh": 500.0,
        "tier": "terminal"
      },
      "type": "Feature"
    },
    {
      "geometry": {
        "coordinates": [
          73.17461843549735,
          31.394599215347515
        ],
        "type": "Point"
      },
      "properties": {
        "charger_bus_voltage_v": 650.0,
        "charger_contact_count": 8,
        "charger_efficiency": 0.98,
        "charger_max_current_a": 3300.0,
        "charger_max_kw": 2000.0,
        "grid_export_kw": 2000.0,
        "grid_import_kw": 2000.0,
        "line": "line-3",
        "pv_nameplate_kw": 300.0,
        "station": "line-3-0863-0829-s003008",
        "storage_capacity_kwh": 2000.0,
        "storage_initial_soc": 0.5,
        "storage_max_charge_kw": 2000.0,
        "storage_max_discharge_kw": 2000.0,
        "storage_module_kwh": 500.0,
        "tier": "standard"
      },
      "type": "Feature"
    },
    {
      "geometry": {
        "coordinates": [
          73.14577850100291,
          31.40035813267106
        ],
        "type": "Point"
      },
      "properties": {
        "charger_bus_voltage_v": 650.0,
        "charger_contact_count": 8,
        "charger_efficiency": 0.98,
        "charger_max_current_a": 3300.0,
        "charger_max_kw": 2000.0,
        "grid_export_kw": 2000.0,
        "grid_import_kw": 2000.0,
        "line": "line-3",
        "pv_nameplate_kw": 300.0,
        "station": "line-3-0831-0692-s006013",
        "storage_capacity_kwh": 2000.0,
        "storage_initial_soc": 0.5,
        "storage_max_charge_kw": 2000.0,
        "storage_max_discharge_kw": 2000.0,
        "storage_module_kwh": 500.0,
        "tier": "standard"
      },
      "type": "Feature"
    },
    {
      "geometry": {
        "coordinates": [
          73.13735808217243,
          31.407016880826404
        ],
        "type": "Point"
      },
      "properties": {
        "charger_bus_voltage_v": 650.0,
        "charger_contact_count": 8,
        "charger_efficiency": 0.98,
        "charger_max_current_a": 3300.0,
        "charger_max_kw": 2000.0,
        "grid_export_kw": 2400.0,
        "grid_import_kw": 2400.0,
        "line": "line-3",
        "pv_nameplate_kw": 300.0,
        "station": "line-3-0794-0652-s009034",
        "storage_capacity_kwh": 2000.0,
        "storage_initial_soc": 0.5,
        "storage_max_charge_kw": 2000.0,
        "storage_max_discharge_kw": 2000.0,
        "storage_module_kwh": 500.0,
        "tier": "major"
      },
      "type": "Feature"
    },
    {
      "geometry": {
        "coordinates": [
          73.11293886756398,
          31.41331569664903
        ],
        "type": "Point"
      },
      "properties": {
        "charger_bus_voltage_v": 650.0,
        "charger_contact_count": 8,
        "charger_efficiency": 0.98,
        "charger_max_current_a": 3300.0,
        "charger_max_kw": 2000.0,
        "grid_export_kw": 2400.0,
        "grid_import_kw": 2400.0,
        "line": "line-3",
        "pv_nameplate_kw": 300.0,
        "station": "line-3-0759-0536-s012036",
        "storage_capacity_kwh": 2000.0,
        "storage_initial_soc": 0.5,
        "storage_max_charge_kw": 2000.0,
        "storage_max_discharge_kw": 2000.0,
        "storage_module_kwh": 500.0,
        "tier": "interchange"
      },
      "type": "Feature"
    },
    {
      "geometry": {
        "coordinates": [
          73.08936169483862,
          31.414755425979916
        ],
        "type": "Point"
      },
      "properties": {
        "charger_bus_voltage_v": 650.0,
        "charger_contact_count": 8,
        "charger_efficiency": 0.98,
        "charger_max_current_a": 3300.0,
        "charger_max_kw": 2000.0,
        "grid_export_kw": 2000.0,
        "grid_import_kw": 2000.0,
        "line": "line-3",
        "pv_nameplate_kw": 300.0,
        "station": "line-3-0751-0424-s015062",
        "storage_capacity_kwh": 2000.0,
        "storage_initial_soc": 0.5,
        "storage_max_charge_kw": 2000.0,
        "storage_max_discharge_kw": 2000.0,
        "storage_module_kwh": 500.0,
        "tier": "standard"
      },
      "type": "Feature"
    },
    {
      "geometry": {
        "coordinates": [
          73.06367941740561,
          31.426453226793363
        ],
        "type": "Point"
      },
      "properties": {
        "charger_bus_voltage_v": 650.0,
        "charger_contact_count": 8,
        "charger_efficiency": 0.98,
        "charger_max_current_a": 3300.0,
        "charger_max_kw": 2000.0,
        "grid_export_kw": 2400.0,
        "grid_import_kw": 2400.0,
        "line": "line-3",
        "pv_nameplate_kw": 300.0,
        "station": "line-3-0686-0302-s018497",
        "storage_capacity_kwh": 2000.0,
        "storage_initial_soc": 0.5,
        "storage_max_charge_kw": 2000.0,
        "storage_max_discharge_kw": 2000.0,
        "storage_module_kwh": 500.0,
        "tier": "interchange"
      },
      "type": "Feature"
    },
    {
      "geometry": {
        "coordinates": [
          73.02557702219762,
          31.441930317100386
        ],
        "type": "Point"
      },
      "properties": {
        "charger_bus_voltage_v": 650.0,
        "charger_contact_count": 8,
        "charger_efficiency": 0.98,
        "charger_max_current_a": 3300.0,
        "charger_max_kw": 2000.0,
        "grid_export_kw": 3200.0,
        "grid_import_kw": 3200.0,
        "line": "line-3",
        "pv_nameplate_kw": 300.0,
        "station": "line-3-0600-0121-s023068",
        "storage_capacity_kwh": 2000.0,
        "storage_initial_soc": 0.6,
        "storage_max_charge_kw": 2000.0,
        "storage_max_discharge_kw": 2000.0,
        "storage_module_kwh": 500.0,
        "tier": "terminal"
      },
      "type": "Feature"
    },
    {
      "geometry": {
        "coordinates": [
          73.07778361894668,
          31.49753986250585
        ],
        "type": "Point"
      },
      "properties": {
        "charger_bus_voltage_v": 650.0,
        "charger_contact_count": 8,
        "charger_efficiency": 0.98,
        "charger_max_current_a": 3300.0,
        "charger_max_kw": 2000.0,
        "grid_export_kw": 3200.0,
        "grid_import_kw": 3200.0,
        "line": "line-4",
        "pv_nameplate_kw": 300.0,
        "station": "line-4-0291-0369-s000000",
        "storage_capacity_kwh": 2000.0,
        "storage_initial_soc": 0.6,
        "storage_max_charge_kw": 2000.0,
        "storage_max_discharge_kw": 2000.0,
        "storage_module_kwh": 500.0,
        "tier": "terminal"
      },
      "type": "Feature"
    },
    {
      "geometry": {
        "coordinates": [
          73.08009923412507,
          31.466765648058164
        ],
        "type": "Point"
      },
      "properties": {
        "charger_bus_voltage_v": 650.0,
        "charger_contact_count": 8,
        "charger_efficiency": 0.98,
        "charger_max_current_a": 3300.0,
        "charger_max_kw": 2000.0,
        "grid_export_kw": 2000.0,
        "grid_import_kw": 2000.0,
        "line": "line-4",
        "pv_nameplate_kw": 300.0,
        "station": "line-4-0462-0380-s003911",
        "storage_capacity_kwh": 2000.0,
        "storage_initial_soc": 0.5,
        "storage_max_charge_kw": 2000.0,
        "storage_max_discharge_kw": 2000.0,
        "storage_module_kwh": 500.0,
        "tier": "standard"
      },
      "type": "Feature"
    },
    {
      "geometry": {
        "coordinates": [
          73.09820313461063,
          31.451108591584784
        ],
        "type": "Point"
      },
      "properties": {
        "charger_bus_voltage_v": 650.0,
        "charger_contact_count": 8,
        "charger_efficiency": 0.98,
        "charger_max_current_a": 3300.0,
        "charger_max_kw": 2000.0,
        "grid_export_kw": 2400.0,
        "grid_import_kw": 2400.0,
        "line": "line-4",
        "pv_nameplate_kw": 300.0,
        "station": "line-4-0549-0466-s006920",
        "storage_capacity_kwh": 2000.0,
        "storage_initial_soc": 0.5,
        "storage_max_charge_kw": 2000.0,
        "storage_max_discharge_kw": 2000.0,
        "storage_module_kwh": 500.0,
        "tier": "interchange"
      },
      "type": "Feature"
    },
    {
      "geometry": {
        "coordinates": [
          73.10704457438264,
          31.43779109527409
        ],
        "type": "Point"
      },
      "properties": {
        "charger_bus_voltage_v": 650.0,
        "charger_contact_count": 8,
        "charger_efficiency": 0.98,
        "charger_max_current_a": 3300.0,
        "charger_max_kw": 2000.0,
        "grid_export_kw": 2000.0,
        "grid_import_kw": 2000.0,
        "line": "line-4",
        "pv_nameplate_kw": 300.0,
        "station": "line-4-0623-0508-s008965",
        "storage_capacity_kwh": 2000.0,
        "storage_initial_soc": 0.5,
        "storage_max_charge_kw": 2000.0,
        "storage_max_discharge_kw": 2000.0,
        "storage_module_kwh": 500.0,
        "tier": "standard"
      },
      "type": "Feature"
    },
    {
      "geometry": {
        "coordinates": [
          73.10978121050256,
          31.422134038800706
        ],
        "type": "Point"
      },
      "properties": {
        "charger_bus_voltage_v": 650.0,
        "charger_contact_count": 8,
        "charger_efficiency": 0.98,
        "charger_max_current_a": 3300.0,
        "charger_max_kw": 2000.0,
        "grid_export_kw": 2400.0,
        "grid_import_kw": 2400.0,
        "line": "line-4",
        "pv_nameplate_kw": 300.0,
        "station": "line-4-0710-0521-s011018",
        "storage_capacity_kwh": 2000.0,
        "storage_initial_soc": 0.5,
        "storage_max_charge_kw": 2000.0,
        "storage_max_discharge_kw": 2000.0,
        "storage_module_kwh": 500.0,
        "tier": "interchange"
      },
      "type": "Feature"
    },
    {
      "geometry": {
        "coordinates": [
          73.11357039897628,
          31.40809667782457
        ],
        "type": "Point"
      },
      "properties": {
        "charger_bus_voltage_v": 650.0,
        "charger_contact_count": 8,
        "charger_efficiency": 0.98,
        "charger_max_current_a": 3300.0,
        "charger_max_kw": 2000.0,
        "grid_export_kw": 2400.0,
        "grid_import_kw": 2400.0,
        "line": "line-4",
        "pv_nameplate_kw": 300.0,
        "station": "line-4-0788-0539-s012966",
        "storage_capacity_kwh": 2000.0,
        "storage_initial_soc": 0.5,
        "storage_max_charge_kw": 2000.0,
        "storage_max_discharge_kw": 2000.0,
        "storage_module_kwh": 500.0,
        "tier": "interchange"
      },
      "type": "Feature"
    },
    {
      "geometry": {
        "coordinates": [
          73.12367490157287,
          31.38848036569125
        ],
        "type": "Point"
      },
      "properties": {
        "charger_bus_voltage_v": 650.0,
        "charger_contact_count": 8,
        "charger_efficiency": 0.98,
        "charger_max_current_a": 3300.0,
        "charger_max_kw": 2000.0,
        "grid_export_kw": 2000.0,
        "grid_import_kw": 2000.0,
        "line": "line-4",
        "pv_nameplate_kw": 300.0,
        "station": "line-4-0897-0587-s015979",
        "storage_capacity_kwh": 2000.0,
        "storage_initial_soc": 0.5,
        "storage_max_charge_kw": 2000.0,
        "storage_max_discharge_kw": 2000.0,
        "storage_module_kwh": 500.0,
        "tier": "standard"
      },
      "type": "Feature"
    },
    {
      "geometry": {
        "coordinates": [
          73.15504096171645,
          31.338989669942052
        ],
        "type": "Point"
      },
      "properties": {
        "charger_bus_voltage_v": 650.0,
        "charger_contact_count": 8,
        "charger_efficiency": 0.98,
        "charger_max_current_a": 3300.0,
        "charger_max_kw": 2000.0,
        "grid_export_kw": 3200.0,
        "grid_import_kw": 3200.0,
        "line": "line-4",
        "pv_nameplate_kw": 300.0,
        "station": "line-4-1172-0736-s022796",
        "storage_capacity_kwh": 2000.0,
        "storage_initial_soc": 0.6,
        "storage_max_charge_kw": 2000.0,
        "storage_max_discharge_kw": 2000.0,
        "storage_module_kwh": 500.0,
        "tier": "terminal"
      },
      "type": "Feature"
    },
    {
      "geometry": {
        "coordinates": [
          73.12956919475421,
          31.47738365187345
        ],
        "type": "Point"
      },
      "properties": {
        "charger_bus_voltage_v": 650.0,
        "charger_contact_count": 8,
        "charger_efficiency": 0.98,
        "charger_max_current_a": 3300.0,
        "charger_max_kw": 2000.0,
        "grid_export_kw": 3200.0,
        "grid_import_kw": 3200.0,
        "line": "line-5",
        "pv_nameplate_kw": 300.0,
        "station": "line-5-0403-0615-s000000",
        "storage_capacity_kwh": 2000.0,
        "storage_initial_soc": 0.6,
        "storage_max_charge_kw": 2000.0,
        "storage_max_discharge_kw": 2000.0,
        "storage_module_kwh": 500.0,
        "tier": "terminal"
      },
      "type": "Feature"
    },
    {
      "geometry": {
        "coordinates": [
          73.12325388063134,
          31.456147644242883
        ],
        "type": "Point"
      },
      "properties": {
        "charger_bus_voltage_v": 650.0,
        "charger_contact_count": 8,
        "charger_efficiency": 0.98,
        "charger_max_current_a": 3300.0,
        "charger_max_kw": 2000.0,
        "grid_export_kw": 2000.0,
        "grid_import_kw": 2000.0,
        "line": "line-5",
        "pv_nameplate_kw": 300.0,
        "station": "line-5-0521-0585-s003072",
        "storage_capacity_kwh": 2000.0,
        "storage_initial_soc": 0.5,
        "storage_max_charge_kw": 2000.0,
        "storage_max_discharge_kw": 2000.0,
        "storage_module_kwh": 500.0,
        "tier": "standard"
      },
      "type": "Feature"
    },
    {
      "geometry": {
        "coordinates": [
          73.09694007178605,
          31.446969369758484
        ],
        "type": "Point"
      },
      "properties": {
        "charger_bus_voltage_v": 650.0,
        "charger_contact_count": 8,
        "charger_efficiency": 0.98,
        "charger_max_current_a": 3300.0,
        "charger_max_kw": 2000.0,
        "grid_export_kw": 2400.0,
        "grid_import_kw": 2400.0,
        "line": "line-5",
        "pv_nameplate_kw": 300.0,
        "station": "line-5-0572-0460-s006087",
        "storage_capacity_kwh": 2000.0,
        "storage_initial_soc": 0.5,
        "storage_max_charge_kw": 2000.0,
        "storage_max_discharge_kw": 2000.0,
        "storage_module_kwh": 500.0,
        "tier": "interchange"
      },
      "type": "Feature"
    },
    {
      "geometry": {
        "coordinates": [
          73.08241484930345,
          31.42771298995789
        ],
        "type": "Point"
      },
      "properties": {
        "charger_bus_voltage_v": 650.0,
        "charger_contact_count": 8,
        "charger_efficiency": 0.98,
        "charger_max_current_a": 3300.0,
        "charger_max_kw": 2000.0,
        "grid_export_kw": 2000.0,
        "grid_import_kw": 2000.0,
        "line": "line-5",
        "pv_nameplate_kw": 300.0,
        "station": "line-5-0679-0391-s009104",
        "storage_capacity_kwh": 2000.0,
        "storage_initial_soc": 0.5,
        "storage_max_charge_kw": 2000.0,
        "storage_max_discharge_kw": 2000.0,
        "storage_module_kwh": 500.0,
        "tier": "standard"
      },
      "type": "Feature"
    },
    {
      "geometry": {
        "coordinates": [
          73.07252085717762,
          31.406117049994602
        ],
        "type": "Point"
      },
      "properties": {
        "charger_bus_voltage_v": 650.0,
        "charger_contact_count": 8,
        "charger_efficiency": 0.98,
        "charger_max_current_a": 3300.0,
        "charger_max_kw": 2000.0,
        "grid_export_kw": 2000.0,
        "grid_import_kw": 2000.0,
        "line": "line-5",
        "pv_nameplate_kw": 300.0,
        "station": "line-5-0799-0344-s012107",
        "storage_capacity_kwh": 2000.0,
        "storage_initial_soc": 0.5,
        "storage_max_charge_kw": 2000.0,
        "storage_max_discharge_kw": 2000.0,
        "storage_module_kwh": 500.0,
        "tier": "standard"
      },
      "type": "Feature"
    },
    {
      "geometry": {
        "coordinates": [
          73.07588902470982,
          31.396038944678402
        ],
        "type": "Point"
      },
      "properties": {
        "charger_bus_voltage_v": 650.0,
        "charger_contact_count": 8,
        "charger_efficiency": 0.98,
        "charger_max_current_a": 3300.0,
        "charger_max_kw": 2000.0,
        "grid_export_kw": 2400.0,
        "grid_import_kw": 2400.0,
        "line": "line-5",
        "pv_nameplate_kw": 300.0,
        "station": "line-5-0855-0360-s013359",
        "storage_capacity_kwh": 2000.0,
        "storage_initial_soc": 0.5,
        "storage_max_charge_kw": 2000.0,
        "storage_max_discharge_kw": 2000.0,
        "storage_module_kwh": 500.0,
        "tier": "interchange"
      },
      "type": "Feature"
    },
    {
      "geometry": {
        "coordinates": [
          73.07294187811915,
          31.382001583702266
        ],
        "type": "Point"
      },
      "properties": {
        "charger_bus_voltage_v": 650.0,
        "charger_contact_count": 8,
        "charger_efficiency": 0.98,
        "charger_max_current_a": 3300.0,
        "charger_max_kw": 2000.0,
        "grid_export_kw": 2000.0,
        "grid_import_kw": 2000.0,
        "line": "line-5",
        "pv_nameplate_kw": 300.0,
        "station": "line-5-0933-0346-s015118",
        "storage_capacity_kwh": 2000.0,
        "storage_initial_soc": 0.5,
        "storage_max_charge_kw": 2000.0,
        "storage_max_discharge_kw": 2000.0,
        "storage_module_kwh": 500.0,
        "tier": "standard"
      },
      "type": "Feature"
    },
    {
      "geometry": {
        "coordinates": [
          73.02726110596372,
          31.316853831479683
        ],
        "type": "Point"
      },
      "properties": {
        "charger_bus_voltage_v": 650.0,
        "charger_contact_count": 8,
        "charger_efficiency": 0.98,
        "charger_max_current_a": 3300.0,
        "charger_max_kw": 2000.0,
        "grid_export_kw": 3200.0,
        "grid_import_kw": 3200.0,
        "line": "line-5",
        "pv_nameplate_kw": 300.0,
        "station": "line-5-1295-0129-s024748",
        "storage_capacity_kwh": 2000.0,
        "storage_initial_soc": 0.6,
        "storage_max_charge_kw": 2000.0,
        "storage_max_discharge_kw": 2000.0,
        "storage_module_kwh": 500.0,
        "tier": "terminal"
      },
      "type": "Feature"
    },
    {
      "geometry": {
        "coordinates": [
          73.07188932576534,
          31.43833099377317
        ],
        "type": "Point"
      },
      "properties": {
        "charger_bus_voltage_v": 650.0,
        "charger_contact_count": 8,
        "charger_efficiency": 0.98,
        "charger_max_current_a": 3300.0,
        "charger_max_kw": 2000.0,
        "grid_export_kw": 2000.0,
        "grid_import_kw": 2000.0,
        "line": "line-6",
        "pv_nameplate_kw": 300.0,
        "station": "line-6-0620-0341-s000000",
        "storage_capacity_kwh": 2000.0,
        "storage_initial_soc": 0.5,
        "storage_max_charge_kw": 2000.0,
        "storage_max_discharge_kw": 2000.0,
        "storage_module_kwh": 500.0,
        "tier": "standard"
      },
      "type": "Feature"
    },
    {
      "geometry": {
        "coordinates": [
          73.08178331789117,
          31.443909944930354
        ],
        "type": "Point"
      },
      "properties": {
        "charger_bus_voltage_v": 650.0,
        "charger_contact_count": 8,
        "charger_efficiency": 0.98,
        "charger_max_current_a": 3300.0,
        "charger_max_kw": 2000.0,
        "grid_export_kw": 2000.0,
        "grid_import_kw": 2000.0,
        "line": "line-6",
        "pv_nameplate_kw": 300.0,
        "station": "line-6-0589-0388-s002000",
        "storage_capacity_kwh": 2000.0,
        "storage_initial_soc": 0.5,
        "storage_max_charge_kw": 2000.0,
        "storage_max_discharge_kw": 2000.0,
        "storage_module_kwh": 500.0,
        "tier": "standard"
      },
      "type": "Feature"
    },
    {
      "geometry": {
        "coordinates": [
          73.09146679954623,
          31.45776733974013
        ],
        "type": "Point"
      },
      "properties": {
        "charger_bus_voltage_v": 650.0,
        "charger_contact_count": 8,
        "charger_efficiency": 0.98,
        "charger_max_current_a": 3300.0,
        "charger_max_kw": 2000.0,
        "grid_export_kw": 2000.0,
        "grid_import_kw": 2000.0,
        "line": "line-6",
        "pv_nameplate_kw": 300.0,
        "station": "line-6-0512-0434-s004015",
        "storage_capacity_kwh": 2000.0,
        "storage_initial_soc": 0.5,
        "storage_max_charge_kw": 2000.0,
        "storage_max_discharge_kw": 2000.0,
        "storage_module_kwh": 500.0,
        "tier": "standard"
      },
      "type": "Feature"
    },
    {
      "geometry": {
        "coordinates": [
          73.11441244085933,
          31.489081452686897
        ],
        "type": "Point"
      },
      "properties": {
        "charger_bus_voltage_v": 650.0,
        "charger_contact_count": 8,
        "charger_efficiency": 0.98,
        "charger_max_current_a": 3300.0,
        "charger_max_kw": 2000.0,
        "grid_export_kw": 2000.0,
        "grid_import_kw": 2000.0,
        "line": "line-6",
        "pv_nameplate_kw": 300.0,
        "station": "line-6-0338-0543-s010031",
        "storage_capacity_kwh": 2000.0,
        "storage_initial_soc": 0.5,
        "storage_max_charge_kw": 2000.0,
        "storage_max_discharge_kw": 2000.0,
        "storage_module_kwh": 500.0,
        "tier": "standard"
      },
      "type": "Feature"
    },
    {
      "geometry": {
        "coordinates": [
          73.12956919475421,
          31.47738365187345
        ],
        "type": "Point"
      },
      "properties": {
        "charger_bus_voltage_v": 650.0,
        "charger_contact_count": 8,
        "charger_efficiency": 0.98,
        "charger_max_current_a": 3300.0,
        "charger_max_kw": 2000.0,
        "grid_export_kw": 2400.0,
        "grid_import_kw": 2400.0,
        "line": "line-6",
        "pv_nameplate_kw": 300.0,
        "station": "line-6-0403-0615-s012009",
        "storage_capacity_kwh": 2000.0,
        "storage_initial_soc": 0.5,
        "storage_max_charge_kw": 2000.0,
        "storage_max_discharge_kw": 2000.0,
        "storage_module_kwh": 500.0,
        "tier": "interchange"
      },
      "type": "Feature"
    },
    {
      "geometry": {
        "coordinates": [
          73.17967068679565,
          31.46082676456826
        ],
        "type": "Point"
      },
      "properties": {
        "charger_bus_voltage_v": 650.0,
        "charger_contact_count": 8,
        "charger_efficiency": 0.98,
        "charger_max_current_a": 3300.0,
        "charger_max_kw": 2000.0,
        "grid_export_kw": 2400.0,
        "grid_import_kw": 2400.0,
        "line": "line-6",
        "pv_nameplate_kw": 300.0,
        "station": "line-6-0495-0853-s022657",
        "storage_capacity_kwh": 2000.0,
        "storage_initial_soc": 0.5,
        "storage_max_charge_kw": 2000.0,
        "storage_max_discharge_kw": 2000.0,
        "storage_module_kwh": 500.0,
        "tier": "interchange"
      },
      "type": "Feature"
    },
    {
      "geometry": {
        "coordinates": [
          73.1575670873656,
          31.446609437425764
        ],
        "type": "Point"
      },
      "properties": {
        "charger_bus_voltage_v": 650.0,
        "charger_contact_count": 8,
        "charger_efficiency": 0.98,
        "charger_max_current_a": 3300.0,
        "charger_max_kw": 2000.0,
        "grid_export_kw": 2000.0,
        "grid_import_kw": 2000.0,
        "line": "line-6",
        "pv_nameplate_kw": 300.0,
        "station": "line-6-0574-0748-s025494",
        "storage_capacity_kwh": 2000.0,
        "storage_initial_soc": 0.5,
        "storage_max_charge_kw": 2000.0,
        "storage_max_discharge_kw": 2000.0,
        "storage_module_kwh": 500.0,
        "tier": "standard"
      },
      "type": "Feature"
    },
    {
      "geometry": {
        "coordinates": [
          73.13314787275718,
          31.43563150127776
        ],
        "type": "Point"
      },
      "properties": {
        "charger_bus_voltage_v": 650.0,
        "charger_contact_count": 8,
        "charger_efficiency": 0.98,
        "charger_max_current_a": 3300.0,
        "charger_max_kw": 2000.0,
        "grid_export_kw": 2400.0,
        "grid_import_kw": 2400.0,
        "line": "line-6",
        "pv_nameplate_kw": 300.0,
        "station": "line-6-0635-0632-s028510",
        "storage_capacity_kwh": 2000.0,
        "storage_initial_soc": 0.5,
        "storage_max_charge_kw": 2000.0,
        "storage_max_discharge_kw": 2000.0,
        "storage_module_kwh": 500.0,
        "tier": "interchange"
      },
      "type": "Feature"
    },
    {
      "geometry": {
        "coordinates": [
          73.10557100108731,
          31.418894647806212
        ],
        "type": "Point"
      },
      "properties": {
        "charger_bus_voltage_v": 650.0,
        "charger_contact_count": 8,
        "charger_efficiency": 0.98,
        "charger_max_current_a": 3300.0,
        "charger_max_kw": 2000.0,
        "grid_export_kw": 2400.0,
        "grid_import_kw": 2400.0,
        "line": "line-6",
        "pv_nameplate_kw": 300.0,
        "station": "line-6-0728-0501-s032050",
        "storage_capacity_kwh": 2000.0,
        "storage_initial_soc": 0.5,
        "storage_max_charge_kw": 2000.0,
        "storage_max_discharge_kw": 2000.0,
        "storage_module_kwh": 500.0,
        "tier": "interchange"
      },
      "type": "Feature"
    },
    {
      "geometry": {
        "coordinates": [
          73.09862415555214,
          31.40773674549185
        ],
        "type": "Point"
      },
      "properties": {
        "charger_bus_voltage_v": 650.0,
        "charger_contact_count": 8,
        "charger_efficiency": 0.98,
        "charger_max_current_a": 3300.0,
        "charger_max_kw": 2000.0,
        "grid_export_kw": 2400.0,
        "grid_import_kw": 2400.0,
        "line": "line-6",
        "pv_nameplate_kw": 300.0,
        "station": "line-6-0790-0468-s033723",
        "storage_capacity_kwh": 2000.0,
        "storage_initial_soc": 0.5,
        "storage_max_charge_kw": 2000.0,
        "storage_max_discharge_kw": 2000.0,
        "storage_module_kwh": 500.0,
        "tier": "interchange"
      },
      "type": "Feature"
    },
    {
      "geometry": {
        "coordinates": [
          73.08641454824793,
          31.396578843177483
        ],
        "type": "Point"
      },
      "properties": {
        "charger_bus_voltage_v": 650.0,
        "charger_contact_count": 8,
        "charger_efficiency": 0.98,
        "charger_max_current_a": 3300.0,
        "charger_max_kw": 2000.0,
        "grid_export_kw": 2000.0,
        "grid_import_kw": 2000.0,
        "line": "line-6",
        "pv_nameplate_kw": 300.0,
        "station": "line-6-0852-0410-s035611",
        "storage_capacity_kwh": 2000.0,
        "storage_initial_soc": 0.5,
        "storage_max_charge_kw": 2000.0,
        "storage_max_discharge_kw": 2000.0,
        "storage_module_kwh": 500.0,
        "tier": "standard"
      },
      "type": "Feature"
    },
    {
      "geometry": {
        "coordinates": [
          73.07125779435304,
          31.395139113846597
        ],
        "type": "Point"
      },
      "properties": {
        "charger_bus_voltage_v": 650.0,
        "charger_contact_count": 8,
        "charger_efficiency": 0.98,
        "charger_max_current_a": 3300.0,
        "charger_max_kw": 2000.0,
        "grid_export_kw": 2400.0,
        "grid_import_kw": 2400.0,
        "line": "line-6",
        "pv_nameplate_kw": 300.0,
        "station": "line-6-0860-0338-s037495",
        "storage_capacity_kwh": 2000.0,
        "storage_initial_soc": 0.5,
        "storage_max_charge_kw": 2000.0,
        "storage_max_discharge_kw": 2000.0,
        "storage_module_kwh": 500.0,
        "tier": "interchange"
      },
      "type": "Feature"
    },
    {
      "geometry": {
        "coordinates": [
          73.06515299070094,
          31.414215527480835
        ],
        "type": "Point"
      },
      "properties": {
        "charger_bus_voltage_v": 650.0,
        "charger_contact_count": 8,
        "charger_efficiency": 0.98,
        "charger_max_current_a": 3300.0,
        "charger_max_kw": 2000.0,
        "grid_export_kw": 2400.0,
        "grid_import_kw": 2400.0,
        "line": "line-6",
        "pv_nameplate_kw": 300.0,
        "station": "line-6-0754-0309-s040589",
        "storage_capacity_kwh": 2000.0,
        "storage_initial_soc": 0.5,
        "storage_max_charge_kw": 2000.0,
        "storage_max_discharge_kw": 2000.0,
        "storage_module_kwh": 500.0,
        "tier": "interchange"
      },
      "type": "Feature"
    },
    {
      "geometry": {
        "coordinates": [
          73.06367941740561,
          31.426453226793363
        ],
        "type": "Point"
      },
      "properties": {
        "charger_bus_voltage_v": 650.0,
        "charger_contact_count": 8,
        "charger_efficiency": 0.98,
        "charger_max_current_a": 3300.0,
        "charger_max_kw": 2000.0,
        "grid_export_kw": 2400.0,
        "grid_import_kw": 2400.0,
        "line": "line-6",
        "pv_nameplate_kw": 300.0,
        "station": "line-6-0686-0302-s042262",
        "storage_capacity_kwh": 2000.0,
        "storage_initial_soc": 0.5,
        "storage_max_charge_kw": 2000.0,
        "storage_max_discharge_kw": 2000.0,
        "storage_module_kwh": 500.0,
        "tier": "interchange"
      },
      "type": "Feature"
    }
  ],
  "type": "FeatureCollection"
}
