{
  "features": [
    {
      "geometry": {
        "coordinates": [
          34.98289370055842,
          1.0101437533743656
        ],
        "type": "Point"
      },
      "properties": {
        "archetype": "main-heavy",
        "fleet_stalls": 4,
        "line": "line-1",
        "station": "line-1-0406-0246-s000000"
      },
      "type": "Feature"
    },
    {
      "geometry": {
        "coordinates": [
          35.040214960104606,
          1.044337324982903
        ],
        "type": "Point"
      },
      "properties": {
        "archetype": "main-heavy",
        "fleet_stalls": 5,
        "line": "line-2",
        "station": "line-2-0216-0565-s013431"
      },
      "type": "Feature"
    },
    {
      "geometry": {
        "coordinates": [
          35.01811303244259,
          0.9880079149119965
        ],
        "type": "Point"
      },
      "properties": {
        "archetype": "main-heavy",
        "fleet_stalls": 4,
        "line": "line-3",
        "station": "line-3-0529-0442-s000000"
      },
      "type": "Feature"
    },
    {
      "geometry": {
        "coordinates": [
          35.00589408056441,
          1.0286802685095202
        ],
        "type": "Point"
      },
      "properties": {
        "archetype": "main-heavy",
        "fleet_stalls": 2,
        "line": "line-4",
        "station": "line-4-0303-0374-s000000"
      },
      "type": "Feature"
    },
    {
      "geometry": {
        "coordinates": [
          35.00212058071968,
          1.0414578663211316
        ],
        "type": "Point"
      },
      "properties": {
        "archetype": "main-heavy",
        "fleet_stalls": 2,
        "line": "line-5",
        "station": "line-5-0232-0353-s000000"
      },
      "type": "Feature"
    },
    {
      "geometry": {
        "coordinates": [
          35.02098807994334,
          1.0276004715113558
        ],
        "type": "Point"
      },
      "properties": {
        "archetype": "main-heavy",
        "fleet_stalls": 2,
        "line": "line-6",
        "station": "line-6-0309-0458-s000000"
      },
      "type": "Feature"
    },
    {
      "geometry": {
        "coordinates": [
          34.99780800946856,
          1.0558551596299894
        ],
        "type": "Point"
      },
      "properties": {
        "archetype": "main-heavy",
        "fleet_stalls": 2,
        "line": "line-7",
        "station": "line-7-0152-0329-s000000"
      },
      "type": "Feature"
    },
    {
      "geometry": {
        "coordinates": [
          35.0121832469723,
          1.0081641255443976
        ],
        "type": "Point"
      },
      "properties": {
        "archetype": "main-heavy",
        "fleet_stalls": 2,
        "line": "line-8",
        "station": "line-8-0417-0409-s000000"
      },
      "type": "Feature"
    },
    {
      "geometry": {
        "coordinates": [
          35.0518948405764,
          0.9685715689450383
        ],
        "type": "Point"
      },
      "properties": {
        "archetype": "main-heavy",
        "fleet_stalls": 2,
        "line": "line-9",
        "station": "line-9-0637-0630-s000000"
      },
      "type": "Feature"
    },
    {
      "geometry": {
        "coordinates": [
          35.03392579369672,
          0.9840486592520605
        ],
        "type": "Point"
      },
      "properties": {
        "archetype": "main-heavy",
        "fleet_stalls": 2,
        "line": "line-10",
        "station": "line-10-0551-0530-s000000"
      },
      "type": "Feature"
    },
    {
      "geometry": {
        "coordinates": [
          34.98289370055842,
          1.0101437533743656
        ],
        "type": "Point"
      },
      "properties": {
        "archetype": "main-heavy",
        "fleet_stalls": 3,
        "line": "line-11",
        "station": "line-11-0406-0246-s000000"
      },
      "type": "Feature"
    },
    {
      "geometry": {
        "coordinates": [
          34.98828441462232,
          1.0074442608789547
        ],
        "type": "Point"
      },
      "properties": {
        "archetype": "main-heavy",
        "fleet_stalls": 2,
        "line": "line-12",
        "station": "line-12-0421-0276-s000000"
      },
      "type": "Feature"
    },
    {
      "geometry": {
        "coordinates": [
          35.03428517463431,
          1.0391183061584421
        ],
        "type": "Point"
      },
      "properties": {
        "archetype": "main-heavy",
        "fleet_stalls": 3,
        "line": "line-13",
        "station": "line-13-0245-0532-s000000"
      },
      "type": "Feature"
    }
  ],
  "type": "FeatureCollection"
}
