{
  "features": [
    {
      "geometry": {
        "coordinates": [
          40.618613460441615,
          21.3673217867041
        ],
        "type": "Point"
      },
      "properties": {
        "anchor_kind": "place:neighbourhood",
        "anchor_name": "ضاحية الاسكان",
        "archetype": "terminal",
        "chainage_m": 0.0,
        "corridor_offset_m": 0.0,
        "id": "line-1-0939-1100-s000000",
        "junction_group": null,
        "line": "line-1",
        "platform_length_m": 59.5
      },
      "type": "Feature"
    },
    {
      "geometry": {
        "coordinates": [
          40.59429351858279,
          21.375420264190332
        ],
        "type": "Point"
      },
      "properties": {
        "anchor_kind": null,
        "anchor_name": null,
        "archetype": "halt",
        "chainage_m": 3493.3,
        "corridor_offset_m": 28.429,
        "id": "line-1-0894-0974-s003493",
        "junction_group": null,
        "line": "line-1",
        "platform_length_m": 55.5
      },
      "type": "Feature"
    },
    {
      "geometry": {
        "coordinates": [
          40.56727136096186,
          21.38729803117014
        ],
        "type": "Point"
      },
      "properties": {
        "anchor_kind": "place:neighbourhood",
        "anchor_name": "وادي جليل",
        "archetype": "standard",
        "chainage_m": 7007.7,
        "corridor_offset_m": 45.854,
        "id": "line-1-0828-0834-s007008",
        "junction_group": null,
        "line": "line-1",
        "platform_length_m": 59.5
      },
      "type": "Feature"
    },
    {
      "geometry": {
        "coordinates": [
          40.537933018402,
          21.40421485080805
        ],
        "type": "Point"
      },
      "properties": {
        "anchor_kind": null,
        "anchor_name": null,
        "archetype": "standard",
        "chainage_m": 10826.5,
        "corridor_offset_m": 61.661,
        "id": "line-1-0734-0682-s010826",
        "junction_group": null,
        "line": "line-1",
        "platform_length_m": 59.5
      },
      "type": "Feature"
    },
    {
      "geometry": {
        "coordinates": [
          40.52307083171049,
          21.42509092610589
        ],
        "type": "Point"
      },
      "properties": {
        "anchor_kind": null,
        "anchor_name": null,
        "archetype": "standard",
        "chainage_m": 13831.2,
        "corridor_offset_m": 13.198,
        "id": "line-1-0618-0605-s013831",
        "junction_group": null,
        "line": "line-1",
        "platform_length_m": 59.5
      },
      "type": "Feature"
    },
    {
      "geometry": {
        "coordinates": [
          40.50975276831161,
          21.43444916675665
        ],
        "type": "Point"
      },
      "properties": {
        "anchor_kind": null,
        "anchor_name": null,
        "archetype": "interchange-elevated",
        "chainage_m": 15653.7,
        "corridor_offset_m": 59.913,
        "id": "line-1-0566-0536-s015654",
        "junction_group": 0,
        "line": "line-1",
        "platform_length_m": 59.5
      },
      "type": "Feature"
    },
    {
      "geometry": {
        "coordinates": [
          40.50241818267165,
          21.447766663067345
        ],
        "type": "Point"
      },
      "properties": {
        "anchor_kind": "amenity:hospital",
        "anchor_name": "مركز صحي شرق الحوية",
        "archetype": "major",
        "chainage_m": 17757.6,
        "corridor_offset_m": 79.136,
        "id": "line-1-0492-0498-s017758",
        "junction_group": null,
        "line": "line-1",
        "platform_length_m": 59.5
      },
      "type": "Feature"
    },
    {
      "geometry": {
        "coordinates": [
          40.489486150095914,
          21.450826087895475
        ],
        "type": "Point"
      },
      "properties": {
        "anchor_kind": "amenity:marketplace",
        "anchor_name": "سوبر ماركت أبو نايف",
        "archetype": "standard",
        "chainage_m": 19851.0,
        "corridor_offset_m": 61.816,
        "id": "line-1-0475-0431-s019851",
        "junction_group": null,
        "line": "line-1",
        "platform_length_m": 59.5
      },
      "type": "Feature"
    },
    {
      "geometry": {
        "coordinates": [
          40.46651731611813,
          21.476021351185977
        ],
        "type": "Point"
      },
      "properties": {
        "anchor_kind": "place:neighbourhood",
        "anchor_name": "الواسط",
        "archetype": "depot-terminal",
        "chainage_m": 25732.9,
        "corridor_offset_m": 0.0,
        "id": "line-1-0335-0312-s025733",
        "junction_group": null,
        "line": "line-1",
        "platform_length_m": 59.5
      },
      "type": "Feature"
    },
    {
      "geometry": {
        "coordinates": [
          40.510138799134765,
          21.378659655184826
        ],
        "type": "Point"
      },
      "properties": {
        "anchor_kind": "place:neighbourhood",
        "anchor_name": "النعيم",
        "archetype": "terminal",
        "chainage_m": 0.0,
        "corridor_offset_m": 0.0,
        "id": "line-2-0876-0538-s000000",
        "junction_group": null,
        "line": "line-2",
        "platform_length_m": 59.5
      },
      "type": "Feature"
    },
    {
      "geometry": {
        "coordinates": [
          40.49720676655904,
          21.400795493647195
        ],
        "type": "Point"
      },
      "properties": {
        "anchor_kind": null,
        "anchor_name": null,
        "archetype": "standard",
        "chainage_m": 3015.0,
        "corridor_offset_m": 0.637,
        "id": "line-2-0753-0471-s003015",
        "junction_group": null,
        "line": "line-2",
        "platform_length_m": 59.5
      },
      "type": "Feature"
    },
    {
      "geometry": {
        "coordinates": [
          40.48678393433382,
          21.42365119677501
        ],
        "type": "Point"
      },
      "properties": {
        "anchor_kind": "place:neighbourhood",
        "anchor_name": "الحوية",
        "archetype": "standard",
        "chainage_m": 6025.8,
        "corridor_offset_m": 1.058,
        "id": "line-2-0626-0417-s006026",
        "junction_group": null,
        "line": "line-2",
        "platform_length_m": 59.5
      },
      "type": "Feature"
    },
    {
      "geometry": {
        "coordinates": [
          40.473851901758096,
          21.438408422416586
        ],
        "type": "Point"
      },
      "properties": {
        "anchor_kind": null,
        "anchor_name": null,
        "archetype": "standard",
        "chainage_m": 9044.7,
        "corridor_offset_m": 3.259,
        "id": "line-2-0544-0350-s009045",
        "junction_group": null,
        "line": "line-2",
        "platform_length_m": 59.5
      },
      "type": "Feature"
    },
    {
      "geometry": {
        "coordinates": [
          40.4518481448382,
          21.4621639563762
        ],
        "type": "Point"
      },
      "properties": {
        "anchor_kind": "place:neighbourhood",
        "anchor_name": "ريحه",
        "archetype": "terminal",
        "chainage_m": 14522.0,
        "corridor_offset_m": 0.0,
        "id": "line-2-0412-0236-s014522",
        "junction_group": null,
        "line": "line-2",
        "platform_length_m": 59.5
      },
      "type": "Feature"
    },
    {
      "geometry": {
        "coordinates": [
          40.58695893294282,
          21.472601994025123
        ],
        "type": "Point"
      },
      "properties": {
        "anchor_kind": "place:neighbourhood",
        "anchor_name": "العواجية",
        "archetype": "terminal",
        "chainage_m": 0.0,
        "corridor_offset_m": 0.0,
        "id": "line-3-0354-0936-s000000",
        "junction_group": null,
        "line": "line-3",
        "platform_length_m": 59.5
      },
      "type": "Feature"
    },
    {
      "geometry": {
        "coordinates": [
          40.56630628390397,
          21.470802332361515
        ],
        "type": "Point"
      },
      "properties": {
        "anchor_kind": null,
        "anchor_name": null,
        "archetype": "halt",
        "chainage_m": 3494.5,
        "corridor_offset_m": 17.605,
        "id": "line-3-0364-0829-s003494",
        "junction_group": null,
        "line": "line-3",
        "platform_length_m": 55.5
      },
      "type": "Feature"
    },
    {
      "geometry": {
        "coordinates": [
          40.54005618792936,
          21.453525580390888
        ],
        "type": "Point"
      },
      "properties": {
        "anchor_kind": null,
        "anchor_name": null,
        "archetype": "standard",
        "chainage_m": 7009.7,
        "corridor_offset_m": 24.157,
        "id": "line-3-0460-0693-s007010",
        "junction_group": null,
        "line": "line-3",
        "platform_length_m": 59.5
      },
      "type": "Feature"
    },
    {
      "geometry": {
        "coordinates": [
          40.52403590876838,
          21.445787035237377
        ],
        "type": "Point"
      },
      "properties": {
        "anchor_kind": null,
        "anchor_name": null,
        "archetype": "standard",
        "chainage_m": 9026.0,
        "corridor_offset_m": 48.498,
        "id": "line-3-0503-0610-s009026",
        "junction_group": null,
        "line": "line-3",
        "platform_length_m": 59.5
      },
      "type": "Feature"
    },
    {
      "geometry": {
        "coordinates": [
          40.50975276831161,
          21.43444916675665
        ],
        "type": "Point"
      },
      "properties": {
        "anchor_kind": null,
        "anchor_name": null,
        "archetype": "interchange-elevated",
        "chainage_m": 11027.9,
        "corridor_offset_m": 76.76,
        "id": "line-3-0566-0536-s011028",
        "junction_group": 0,
        "line": "line-3",
        "platform_length_m": 59.5
      },
      "type": "Feature"
    },
    {
      "geometry": {
        "coordinates": [
          40.496627720324305,
          21.43390926825757
        ],
        "type": "Point"
      },
      "properties": {
        "anchor_kind": "amenity:university",
        "anchor_name": "جامعة الطائف",
        "archetype": "major",
        "chainage_m": 12462.4,
        "corridor_offset_m": 49.787,
        "id": "line-3-0569-0468-s012462",
        "junction_group": null,
        "line": "line-3",
        "platform_length_m": 59.5
      },
      "type": "Feature"
    },
    {
      "geometry": {
        "coordinates": [
          40.47269380928863,
          21.430489911096714
        ],
        "type": "Point"
      },
      "properties": {
        "anchor_kind": "amenity:university",
        "anchor_name": "Taif university Medicine College",
        "archetype": "major",
        "chainage_m": 15475.2,
        "corridor_offset_m": 49.657,
        "id": "line-3-0588-0344-s015475",
        "junction_group": null,
        "line": "line-3",
        "platform_length_m": 59.5
      },
      "type": "Feature"
    },
    {
      "geometry": {
        "coordinates": [
          40.44509260543297,
          21.417892279451465
        ],
        "type": "Point"
      },
      "properties": {
        "anchor_kind": "amenity:hospital",
        "anchor_name": "مستشفى الملك سلمان التخصصي",
        "archetype": "terminal",
        "chainage_m": 19239.2,
        "corridor_offset_m": 0.0,
        "id": "line-3-0658-0201-s019239",
        "junction_group": null,
        "line": "line-3",
        "platform_length_m": 59.5
      },
      "type": "Feature"
    }
  ],
  "type": "FeatureCollection"
}
