{
  "features": [
    {
      "geometry": {
        "coordinates": [
          33.82832806041622,
          31.14386040384408
        ],
        "type": "Point"
      },
      "properties": {
        "archetype": "main-heavy",
        "fleet_stalls": 3,
        "line": "line-1",
        "station": "line-1-0307-0518-s008463"
      },
      "type": "Feature"
    },
    {
      "geometry": {
        "coordinates": [
          33.8281181702322,
          31.132882467696074
        ],
        "type": "Point"
      },
      "properties": {
        "archetype": "main-heavy",
        "fleet_stalls": 2,
        "line": "line-2",
        "station": "line-2-0368-0517-s000000"
      },
      "type": "Feature"
    }
  ],
  "type": "FeatureCollection"
}
