{
  "features": [
    {
      "geometry": {
        "coordinates": [
          90.3907253501599,
          23.887818162185507
        ],
        "type": "Point"
      },
      "properties": {
        "id": "interchange-000",
        "junction_group": 0,
        "line_count": 2,
        "lines": "line-1,line-6",
        "platform_count": 2,
        "platforms": "line-1-1423-0652-s004078,line-6-1423-0651-s041652"
      },
      "type": "Feature"
    },
    {
      "geometry": {
        "coordinates": [
          90.40832683610975,
          23.897266385919444
        ],
        "type": "Point"
      },
      "properties": {
        "id": "interchange-001",
        "junction_group": 1,
        "line_count": 2,
        "lines": "line-1,line-6",
        "platform_count": 2,
        "platforms": "line-1-1367-0740-s006880,line-6-1374-0742-s039285"
      },
      "type": "Feature"
    },
    {
      "geometry": {
        "coordinates": [
          90.41835673313146,
          23.949366591080874
        ],
        "type": "Point"
      },
      "properties": {
        "id": "interchange-002",
        "junction_group": 2,
        "line_count": 2,
        "lines": "line-1,line-6",
        "platform_count": 2,
        "platforms": "line-1-1081-0792-s013013,line-6-1081-0792-s015322"
      },
      "type": "Feature"
    },
    {
      "geometry": {
        "coordinates": [
          90.42229002608116,
          23.967183241550586
        ],
        "type": "Point"
      },
      "properties": {
        "id": "interchange-003",
        "junction_group": 3,
        "line_count": 2,
        "lines": "line-1,line-2",
        "platform_count": 2,
        "platforms": "line-1-0989-0810-s015003,line-2-0975-0814-s018095"
      },
      "type": "Feature"
    },
    {
      "geometry": {
        "coordinates": [
          90.42632165135458,
          23.99057884317748
        ],
        "type": "Point"
      },
      "properties": {
        "id": "interchange-004",
        "junction_group": 4,
        "line_count": 2,
        "lines": "line-1,line-4",
        "platform_count": 2,
        "platforms": "line-1-0849-0836-s018018,line-4-0855-0829-s019458"
      },
      "type": "Feature"
    },
    {
      "geometry": {
        "coordinates": [
          90.30901118913008,
          24.011005003059424
        ],
        "type": "Point"
      },
      "properties": {
        "id": "interchange-005",
        "junction_group": 5,
        "line_count": 2,
        "lines": "line-2,line-6",
        "platform_count": 2,
        "platforms": "line-2-0738-0237-s004095,line-6-0739-0235-s000000"
      },
      "type": "Feature"
    },
    {
      "geometry": {
        "coordinates": [
          90.34244417920245,
          23.99822740524781
        ],
        "type": "Point"
      },
      "properties": {
        "id": "interchange-006",
        "junction_group": 6,
        "line_count": 2,
        "lines": "line-2,line-6",
        "platform_count": 2,
        "platforms": "line-2-0806-0408-s008188,line-6-0813-0404-s004370"
      },
      "type": "Feature"
    },
    {
      "geometry": {
        "coordinates": [
          90.36047177188851,
          23.99141868528717
        ],
        "type": "Point"
      },
      "properties": {
        "id": "interchange-007",
        "junction_group": 7,
        "line_count": 3,
        "lines": "line-2,line-5,line-6",
        "platform_count": 3,
        "platforms": "line-2-0846-0504-s010533,line-5-0826-0503-s015883,line-6-0870-0486-s006599"
      },
      "type": "Feature"
    },
    {
      "geometry": {
        "coordinates": [
          90.39705139632065,
          23.973722012261693
        ],
        "type": "Point"
      },
      "properties": {
        "id": "interchange-008",
        "junction_group": 8,
        "line_count": 3,
        "lines": "line-2,line-3,line-6",
        "platform_count": 3,
        "platforms": "line-2-0923-0691-s015087,line-3-0953-0684-s026070,line-6-0961-0676-s011328"
      },
      "type": "Feature"
    },
    {
      "geometry": {
        "coordinates": [
          90.34244417920245,
          23.924891192455817
        ],
        "type": "Point"
      },
      "properties": {
        "id": "interchange-009",
        "junction_group": 9,
        "line_count": 2,
        "lines": "line-3,line-6",
        "platform_count": 2,
        "platforms": "line-3-1217-0406-s034613,line-6-1217-0406-s049203"
      },
      "type": "Feature"
    },
    {
      "geometry": {
        "coordinates": [
          90.4889593415784,
          23.917692545801387
        ],
        "type": "Point"
      },
      "properties": {
        "id": "interchange-010",
        "junction_group": 10,
        "line_count": 2,
        "lines": "line-4,line-6",
        "platform_count": 2,
        "platforms": "line-4-1257-1151-s007919,line-6-1257-1151-s028920"
      },
      "type": "Feature"
    },
    {
      "geometry": {
        "coordinates": [
          90.47066952936233,
          23.938748587265593
        ],
        "type": "Point"
      },
      "properties": {
        "id": "interchange-011",
        "junction_group": 11,
        "line_count": 2,
        "lines": "line-4,line-6",
        "platform_count": 2,
        "platforms": "line-4-1140-1058-s011264,line-6-1140-1058-s021143"
      },
      "type": "Feature"
    },
    {
      "geometry": {
        "coordinates": [
          90.35670236614507,
          24.072913364287512
        ],
        "type": "Point"
      },
      "properties": {
        "id": "interchange-012",
        "junction_group": 12,
        "line_count": 2,
        "lines": "line-4,line-5",
        "platform_count": 2,
        "platforms": "line-4-0402-0465-s032483,line-5-0387-0492-s007012"
      },
      "type": "Feature"
    },
    {
      "geometry": {
        "coordinates": [
          90.3637822934545,
          23.903745167908433
        ],
        "type": "Point"
      },
      "properties": {
        "id": "interchange-013",
        "junction_group": 13,
        "line_count": 2,
        "lines": "line-5,line-6",
        "platform_count": 2,
        "platforms": "line-5-1335-0515-s026163,line-6-1334-0514-s045586"
      },
      "type": "Feature"
    }
  ],
  "type": "FeatureCollection"
}
