{
  "features": [
    {
      "geometry": {
        "coordinates": [
          32.333291843450745,
          30.587350350934024
        ],
        "type": "Point"
      },
      "properties": {
        "anchor_kind": "public_transport:station",
        "anchor_name": null,
        "archetype": "terminal",
        "chainage_m": 0.0,
        "corridor_offset_m": 0.0,
        "id": "line-1-0601-0847-s000000",
        "junction_group": null,
        "line": "line-1",
        "platform_length_m": 59.5
      },
      "type": "Feature"
    },
    {
      "geometry": {
        "coordinates": [
          32.31429814698583,
          30.587890249433105
        ],
        "type": "Point"
      },
      "properties": {
        "anchor_kind": "public_transport:station",
        "anchor_name": null,
        "archetype": "standard",
        "chainage_m": 2000.8,
        "corridor_offset_m": 1.591,
        "id": "line-1-0598-0756-s002001",
        "junction_group": null,
        "line": "line-1",
        "platform_length_m": 59.5
      },
      "type": "Feature"
    },
    {
      "geometry": {
        "coordinates": [
          32.30511438166213,
          30.592569369758483
        ],
        "type": "Point"
      },
      "properties": {
        "anchor_kind": "public_transport:station",
        "anchor_name": null,
        "archetype": "major",
        "chainage_m": 3227.9,
        "corridor_offset_m": 2.229,
        "id": "line-1-0572-0712-s003228",
        "junction_group": null,
        "line": "line-1",
        "platform_length_m": 59.5
      },
      "type": "Feature"
    },
    {
      "geometry": {
        "coordinates": [
          32.30448821584461,
          30.60066784724472
        ],
        "type": "Point"
      },
      "properties": {
        "anchor_kind": "amenity:college",
        "anchor_name": "جامعة قناة السويس القديمة",
        "archetype": "major",
        "chainage_m": 4431.6,
        "corridor_offset_m": 2.232,
        "id": "line-1-0527-0709-s004432",
        "junction_group": null,
        "line": "line-1",
        "platform_length_m": 59.5
      },
      "type": "Feature"
    },
    {
      "geometry": {
        "coordinates": [
          32.29530445052091,
          30.59886818558111
        ],
        "type": "Point"
      },
      "properties": {
        "anchor_kind": "place:neighbourhood",
        "anchor_name": "مساكن الاعلام",
        "archetype": "major",
        "chainage_m": 5649.8,
        "corridor_offset_m": 2.528,
        "id": "line-1-0537-0665-s005650",
        "junction_group": null,
        "line": "line-1",
        "platform_length_m": 59.5
      },
      "type": "Feature"
    },
    {
      "geometry": {
        "coordinates": [
          32.284659631622986,
          30.594728963754815
        ],
        "type": "Point"
      },
      "properties": {
        "anchor_kind": "place:neighbourhood",
        "anchor_name": "مساكن هيئة قناه السويس",
        "archetype": "major",
        "chainage_m": 6860.4,
        "corridor_offset_m": 3.301,
        "id": "line-1-0560-0614-s006860",
        "junction_group": null,
        "line": "line-1",
        "platform_length_m": 59.5
      },
      "type": "Feature"
    },
    {
      "geometry": {
        "coordinates": [
          32.27317992496837,
          30.597248490083864
        ],
        "type": "Point"
      },
      "properties": {
        "anchor_kind": "place:neighbourhood",
        "anchor_name": "العرايشيه الجديدة",
        "archetype": "interchange-elevated",
        "chainage_m": 8210.1,
        "corridor_offset_m": 7.927,
        "id": "line-1-0546-0559-s008210",
        "junction_group": 0,
        "line": "line-1",
        "platform_length_m": 59.5
      },
      "type": "Feature"
    },
    {
      "geometry": {
        "coordinates": [
          32.268379320367345,
          30.593109268257567
        ],
        "type": "Point"
      },
      "properties": {
        "anchor_kind": "public_transport:station",
        "anchor_name": "الإسماعيلية",
        "archetype": "interchange-elevated",
        "chainage_m": 9274.4,
        "corridor_offset_m": 1.0,
        "id": "line-1-0569-0536-s009274",
        "junction_group": 0,
        "line": "line-1",
        "platform_length_m": 59.5
      },
      "type": "Feature"
    },
    {
      "geometry": {
        "coordinates": [
          32.262535106070445,
          30.599408084080192
        ],
        "type": "Point"
      },
      "properties": {
        "anchor_kind": "place:neighbourhood",
        "anchor_name": "مساكن المشتل",
        "archetype": "major",
        "chainage_m": 10500.0,
        "corridor_offset_m": 1.154,
        "id": "line-1-0534-0508-s010500",
        "junction_group": null,
        "line": "line-1",
        "platform_length_m": 59.5
      },
      "type": "Feature"
    },
    {
      "geometry": {
        "coordinates": [
          32.249803067780775,
          30.61128585106
        ],
        "type": "Point"
      },
      "properties": {
        "anchor_kind": null,
        "anchor_name": null,
        "archetype": "standard",
        "chainage_m": 12512.8,
        "corridor_offset_m": 0.861,
        "id": "line-1-0468-0447-s012513",
        "junction_group": null,
        "line": "line-1",
        "platform_length_m": 59.5
      },
      "type": "Feature"
    },
    {
      "geometry": {
        "coordinates": [
          32.2437501315447,
          30.619924227045313
        ],
        "type": "Point"
      },
      "properties": {
        "anchor_kind": null,
        "anchor_name": null,
        "archetype": "standard",
        "chainage_m": 14023.4,
        "corridor_offset_m": 0.99,
        "id": "line-1-0420-0418-s014023",
        "junction_group": null,
        "line": "line-1",
        "platform_length_m": 59.5
      },
      "type": "Feature"
    },
    {
      "geometry": {
        "coordinates": [
          32.22997448355916,
          30.620464125544398
        ],
        "type": "Point"
      },
      "properties": {
        "anchor_kind": "amenity:university",
        "anchor_name": "الاسماعيلية المدينة التعليمية",
        "archetype": "terminal",
        "chainage_m": 15517.3,
        "corridor_offset_m": 0.0,
        "id": "line-1-0417-0352-s015517",
        "junction_group": null,
        "line": "line-1",
        "platform_length_m": 59.5
      },
      "type": "Feature"
    },
    {
      "geometry": {
        "coordinates": [
          32.34831982307134,
          30.66329607313825
        ],
        "type": "Point"
      },
      "properties": {
        "anchor_kind": "public_transport:station",
        "anchor_name": null,
        "archetype": "terminal",
        "chainage_m": 0.0,
        "corridor_offset_m": 0.0,
        "id": "line-2-0179-0919-s000000",
        "junction_group": null,
        "line": "line-2",
        "platform_length_m": 59.5
      },
      "type": "Feature"
    },
    {
      "geometry": {
        "coordinates": [
          32.32974357048477,
          30.657897088147426
        ],
        "type": "Point"
      },
      "properties": {
        "anchor_kind": null,
        "anchor_name": null,
        "archetype": "halt",
        "chainage_m": 3016.8,
        "corridor_offset_m": 24.625,
        "id": "line-2-0209-0830-s003017",
        "junction_group": null,
        "line": "line-2",
        "platform_length_m": 55.5
      },
      "type": "Feature"
    },
    {
      "geometry": {
        "coordinates": [
          32.32327319037035,
          30.637740877515025
        ],
        "type": "Point"
      },
      "properties": {
        "anchor_kind": null,
        "anchor_name": null,
        "archetype": "halt",
        "chainage_m": 6021.9,
        "corridor_offset_m": 54.229,
        "id": "line-2-0321-0799-s006022",
        "junction_group": null,
        "line": "line-2",
        "platform_length_m": 55.5
      },
      "type": "Feature"
    },
    {
      "geometry": {
        "coordinates": [
          32.315967922499226,
          30.622263787208002
        ],
        "type": "Point"
      },
      "properties": {
        "anchor_kind": "place:neighbourhood",
        "anchor_name": "مساكن الهيئة",
        "archetype": "standard",
        "chainage_m": 8031.9,
        "corridor_offset_m": 24.799,
        "id": "line-2-0407-0764-s008032",
        "junction_group": null,
        "line": "line-2",
        "platform_length_m": 59.5
      },
      "type": "Feature"
    },
    {
      "geometry": {
        "coordinates": [
          32.30135738675698,
          30.619744260878953
        ],
        "type": "Point"
      },
      "properties": {
        "anchor_kind": null,
        "anchor_name": null,
        "archetype": "standard",
        "chainage_m": 10033.5,
        "corridor_offset_m": 15.34,
        "id": "line-2-0421-0694-s010034",
        "junction_group": null,
        "line": "line-2",
        "platform_length_m": 59.5
      },
      "type": "Feature"
    },
    {
      "geometry": {
        "coordinates": [
          32.29133873367658,
          30.6213639563762
        ],
        "type": "Point"
      },
      "properties": {
        "anchor_kind": "amenity:hospital",
        "anchor_name": "التامين الصحي",
        "archetype": "major",
        "chainage_m": 11233.8,
        "corridor_offset_m": 29.986,
        "id": "line-2-0412-0646-s011234",
        "junction_group": null,
        "line": "line-2",
        "platform_length_m": 59.5
      },
      "type": "Feature"
    },
    {
      "geometry": {
        "coordinates": [
          32.28382474386629,
          30.61362541122269
        ],
        "type": "Point"
      },
      "properties": {
        "anchor_kind": "place:neighbourhood",
        "anchor_name": "عمارات المرحله 5",
        "archetype": "major",
        "chainage_m": 12443.7,
        "corridor_offset_m": 17.246,
        "id": "line-2-0455-0610-s012444",
        "junction_group": null,
        "line": "line-2",
        "platform_length_m": 59.5
      },
      "type": "Feature"
    },
    {
      "geometry": {
        "coordinates": [
          32.27610203211682,
          30.605346967570096
        ],
        "type": "Point"
      },
      "properties": {
        "anchor_kind": "place:neighbourhood",
        "anchor_name": "المساكن البيضاء",
        "archetype": "major",
        "chainage_m": 13670.2,
        "corridor_offset_m": 6.097,
        "id": "line-2-0501-0573-s013670",
        "junction_group": null,
        "line": "line-2",
        "platform_length_m": 59.5
      },
      "type": "Feature"
    },
    {
      "geometry": {
        "coordinates": [
          32.27317992496837,
          30.597248490083864
        ],
        "type": "Point"
      },
      "properties": {
        "anchor_kind": "place:neighbourhood",
        "anchor_name": "العرايشيه الجديدة",
        "archetype": "interchange-elevated",
        "chainage_m": 14980.8,
        "corridor_offset_m": 28.403,
        "id": "line-2-0546-0559-s014981",
        "junction_group": 0,
        "line": "line-2",
        "platform_length_m": 59.5
      },
      "type": "Feature"
    },
    {
      "geometry": {
        "coordinates": [
          32.27171887139414,
          30.58897004643127
        ],
        "type": "Point"
      },
      "properties": {
        "anchor_kind": "place:neighbourhood",
        "anchor_name": "مكه",
        "archetype": "interchange-elevated",
        "chainage_m": 16095.3,
        "corridor_offset_m": 11.039,
        "id": "line-2-0592-0552-s016095",
        "junction_group": 0,
        "line": "line-2",
        "platform_length_m": 59.5
      },
      "type": "Feature"
    },
    {
      "geometry": {
        "coordinates": [
          32.25836066728695,
          30.580331670445954
        ],
        "type": "Point"
      },
      "properties": {
        "anchor_kind": null,
        "anchor_name": null,
        "archetype": "standard",
        "chainage_m": 18106.7,
        "corridor_offset_m": 19.239,
        "id": "line-2-0640-0488-s018107",
        "junction_group": null,
        "line": "line-2",
        "platform_length_m": 59.5
      },
      "type": "Feature"
    },
    {
      "geometry": {
        "coordinates": [
          32.257317057591074,
          30.56413471547349
        ],
        "type": "Point"
      },
      "properties": {
        "anchor_kind": "place:neighbourhood",
        "anchor_name": "حي ابو عطوه",
        "archetype": "standard",
        "chainage_m": 20113.8,
        "corridor_offset_m": 11.603,
        "id": "line-2-0730-0483-s020114",
        "junction_group": null,
        "line": "line-2",
        "platform_length_m": 59.5
      },
      "type": "Feature"
    },
    {
      "geometry": {
        "coordinates": [
          32.243958853483875,
          30.555676305654536
        ],
        "type": "Point"
      },
      "properties": {
        "anchor_kind": "place:neighbourhood",
        "anchor_name": "قرية الخشاينة",
        "archetype": "depot-terminal",
        "chainage_m": 22545.2,
        "corridor_offset_m": 0.0,
        "id": "line-2-0777-0419-s022545",
        "junction_group": null,
        "line": "line-2",
        "platform_length_m": 59.5
      },
      "type": "Feature"
    },
    {
      "geometry": {
        "coordinates": [
          32.289877680102364,
          30.550637252996435
        ],
        "type": "Point"
      },
      "properties": {
        "anchor_kind": "place:neighbourhood",
        "anchor_name": "عزبه ناصر",
        "archetype": "terminal",
        "chainage_m": 0.0,
        "corridor_offset_m": 0.0,
        "id": "line-3-0805-0639-s000000",
        "junction_group": null,
        "line": "line-3",
        "platform_length_m": 59.5
      },
      "type": "Feature"
    },
    {
      "geometry": {
        "coordinates": [
          32.28152880253536,
          30.565394478638016
        ],
        "type": "Point"
      },
      "properties": {
        "anchor_kind": null,
        "anchor_name": null,
        "archetype": "standard",
        "chainage_m": 2016.2,
        "corridor_offset_m": 1.842,
        "id": "line-3-0723-0599-s002016",
        "junction_group": null,
        "line": "line-3",
        "platform_length_m": 59.5
      },
      "type": "Feature"
    },
    {
      "geometry": {
        "coordinates": [
          32.27401481272506,
          30.580691602778675
        ],
        "type": "Point"
      },
      "properties": {
        "anchor_kind": "amenity:marketplace",
        "anchor_name": "Fish market",
        "archetype": "standard",
        "chainage_m": 4031.0,
        "corridor_offset_m": 3.547,
        "id": "line-3-0638-0563-s004031",
        "junction_group": null,
        "line": "line-3",
        "platform_length_m": 59.5
      },
      "type": "Feature"
    },
    {
      "geometry": {
        "coordinates": [
          32.27735436375187,
          30.59076970809488
        ],
        "type": "Point"
      },
      "properties": {
        "anchor_kind": null,
        "anchor_name": null,
        "archetype": "interchange-elevated",
        "chainage_m": 5467.8,
        "corridor_offset_m": 4.953,
        "id": "line-3-0582-0579-s005468",
        "junction_group": 0,
        "line": "line-3",
        "platform_length_m": 59.5
      },
      "type": "Feature"
    },
    {
      "geometry": {
        "coordinates": [
          32.27317992496837,
          30.597248490083864
        ],
        "type": "Point"
      },
      "properties": {
        "anchor_kind": "place:neighbourhood",
        "anchor_name": "العرايشيه الجديدة",
        "archetype": "interchange-elevated",
        "chainage_m": 6400.4,
        "corridor_offset_m": 10.349,
        "id": "line-3-0546-0559-s006400",
        "junction_group": 0,
        "line": "line-3",
        "platform_length_m": 59.5
      },
      "type": "Feature"
    },
    {
      "geometry": {
        "coordinates": [
          32.26984037394157,
          30.607866493899145
        ],
        "type": "Point"
      },
      "properties": {
        "anchor_kind": "place:neighbourhood",
        "anchor_name": "مساكن الإحلال القديم",
        "archetype": "major",
        "chainage_m": 7904.1,
        "corridor_offset_m": 1.149,
        "id": "line-3-0487-0543-s007904",
        "junction_group": null,
        "line": "line-3",
        "platform_length_m": 59.5
      },
      "type": "Feature"
    },
    {
      "geometry": {
        "coordinates": [
          32.26984037394157,
          30.62154392254256
        ],
        "type": "Point"
      },
      "properties": {
        "anchor_kind": "amenity:university",
        "anchor_name": "جامعة قناة السويس",
        "archetype": "terminal",
        "chainage_m": 9636.6,
        "corridor_offset_m": 0.0,
        "id": "line-3-0411-0543-s009637",
        "junction_group": null,
        "line": "line-3",
        "platform_length_m": 59.5
      },
      "type": "Feature"
    }
  ],
  "type": "FeatureCollection"
}
