{
  "features": [
    {
      "geometry": {
        "coordinates": [
          13.57947087750696,
          -12.31855692329842
        ],
        "type": "Point"
      },
      "properties": {
        "archetype": "main-heavy",
        "fleet_stalls": 9,
        "line": "line-1",
        "station": "line-1-0386-0735-s019721"
      },
      "type": "Feature"
    },
    {
      "geometry": {
        "coordinates": [
          13.549860257141738,
          -12.374166468703883
        ],
        "type": "Point"
      },
      "properties": {
        "archetype": "main-heavy",
        "fleet_stalls": 4,
        "line": "line-2",
        "station": "line-2-0695-0574-s000000"
      },
      "type": "Feature"
    },
    {
      "geometry": {
        "coordinates": [
          13.575056871986678,
          -12.379025555195623
        ],
        "type": "Point"
      },
      "properties": {
        "archetype": "main-heavy",
        "fleet_stalls": 3,
        "line": "line-3",
        "station": "line-3-0722-0711-s000000"
      },
      "type": "Feature"
    },
    {
      "geometry": {
        "coordinates": [
          13.585356218200669,
          -12.37038717921031
        ],
        "type": "Point"
      },
      "properties": {
        "archetype": "main-heavy",
        "fleet_stalls": 3,
        "line": "line-4",
        "station": "line-4-0674-0767-s000000"
      },
      "type": "Feature"
    },
    {
      "geometry": {
        "coordinates": [
          13.59216114337777,
          -12.369847280711227
        ],
        "type": "Point"
      },
      "properties": {
        "archetype": "main-heavy",
        "fleet_stalls": 3,
        "line": "line-5",
        "station": "line-5-0671-0804-s000000"
      },
      "type": "Feature"
    },
    {
      "geometry": {
        "coordinates": [
          13.59657514889805,
          -12.369307382212146
        ],
        "type": "Point"
      },
      "properties": {
        "archetype": "main-heavy",
        "fleet_stalls": 4,
        "line": "line-6",
        "station": "line-6-0668-0828-s000000"
      },
      "type": "Feature"
    },
    {
      "geometry": {
        "coordinates": [
          13.59657514889805,
          -12.369307382212146
        ],
        "type": "Point"
      },
      "properties": {
        "archetype": "main-heavy",
        "fleet_stalls": 4,
        "line": "line-7",
        "station": "line-7-0668-0828-s000000"
      },
      "type": "Feature"
    },
    {
      "geometry": {
        "coordinates": [
          13.573217703019894,
          -12.37812572436382
        ],
        "type": "Point"
      },
      "properties": {
        "archetype": "main-heavy",
        "fleet_stalls": 4,
        "line": "line-8",
        "station": "line-8-0717-0701-s000000"
      },
      "type": "Feature"
    }
  ],
  "type": "FeatureCollection"
}
