{
  "features": [
    {
      "geometry": {
        "coordinates": [
          10.410138389056693,
          5.5173612496850595
        ],
        "type": "Point"
      },
      "properties": {
        "charger_bus_voltage_v": 650.0,
        "charger_contact_count": 2,
        "charger_efficiency": 0.98,
        "charger_max_current_a": 825.0,
        "charger_max_kw": 500.0,
        "grid_export_kw": 800.0,
        "grid_import_kw": 800.0,
        "line": "line-1",
        "pv_nameplate_kw": 300.0,
        "station": "line-1-0332-0510-s000000",
        "storage_capacity_kwh": 500.0,
        "storage_initial_soc": 0.6,
        "storage_max_charge_kw": 500.0,
        "storage_max_discharge_kw": 500.0,
        "storage_module_kwh": 500.0,
        "tier": "terminal"
      },
      "type": "Feature"
    },
    {
      "geometry": {
        "coordinates": [
          10.414831039625692,
          5.509262772198827
        ],
        "type": "Point"
      },
      "properties": {
        "charger_bus_voltage_v": 650.0,
        "charger_contact_count": 2,
        "charger_efficiency": 0.98,
        "charger_max_current_a": 825.0,
        "charger_max_kw": 500.0,
        "grid_export_kw": 500.0,
        "grid_import_kw": 500.0,
        "line": "line-1",
        "pv_nameplate_kw": 300.0,
        "station": "line-1-0377-0536-s002015",
        "storage_capacity_kwh": 500.0,
        "storage_initial_soc": 0.5,
        "storage_max_charge_kw": 500.0,
        "storage_max_discharge_kw": 500.0,
        "storage_module_kwh": 500.0,
        "tier": "standard"
      },
      "type": "Feature"
    },
    {
      "geometry": {
        "coordinates": [
          10.414109093384308,
          5.492885851060001
        ],
        "type": "Point"
      },
      "properties": {
        "charger_bus_voltage_v": 650.0,
        "charger_contact_count": 2,
        "charger_efficiency": 0.98,
        "charger_max_current_a": 825.0,
        "charger_max_kw": 500.0,
        "grid_export_kw": 500.0,
        "grid_import_kw": 500.0,
        "line": "line-1",
        "pv_nameplate_kw": 300.0,
        "station": "line-1-0468-0532-s004034",
        "storage_capacity_kwh": 500.0,
        "storage_initial_soc": 0.5,
        "storage_max_charge_kw": 500.0,
        "storage_max_discharge_kw": 500.0,
        "storage_module_kwh": 500.0,
        "tier": "standard"
      },
      "type": "Feature"
    },
    {
      "geometry": {
        "coordinates": [
          10.409055469694616,
          5.486587035237376
        ],
        "type": "Point"
      },
      "properties": {
        "charger_bus_voltage_v": 650.0,
        "charger_contact_count": 2,
        "charger_efficiency": 0.98,
        "charger_max_current_a": 825.0,
        "charger_max_kw": 500.0,
        "grid_export_kw": 600.0,
        "grid_import_kw": 600.0,
        "line": "line-1",
        "pv_nameplate_kw": 300.0,
        "station": "line-1-0503-0504-s005259",
        "storage_capacity_kwh": 500.0,
        "storage_initial_soc": 0.5,
        "storage_max_charge_kw": 500.0,
        "storage_max_discharge_kw": 500.0,
        "storage_module_kwh": 500.0,
        "tier": "major"
      },
      "type": "Feature"
    },
    {
      "geometry": {
        "coordinates": [
          10.416996878349845,
          5.477228794586618
        ],
        "type": "Point"
      },
      "properties": {
        "charger_bus_voltage_v": 650.0,
        "charger_contact_count": 2,
        "charger_efficiency": 0.98,
        "charger_max_current_a": 825.0,
        "charger_max_kw": 500.0,
        "grid_export_kw": 600.0,
        "grid_import_kw": 600.0,
        "line": "line-1",
        "pv_nameplate_kw": 300.0,
        "station": "line-1-0555-0548-s007179",
        "storage_capacity_kwh": 500.0,
        "storage_initial_soc": 0.5,
        "storage_max_charge_kw": 500.0,
        "storage_max_discharge_kw": 500.0,
        "storage_module_kwh": 500.0,
        "tier": "interchange"
      },
      "type": "Feature"
    },
    {
      "geometry": {
        "coordinates": [
          10.422230988599882,
          5.469310283266746
        ],
        "type": "Point"
      },
      "properties": {
        "charger_bus_voltage_v": 650.0,
        "charger_contact_count": 2,
        "charger_efficiency": 0.98,
        "charger_max_current_a": 825.0,
        "charger_max_kw": 500.0,
        "grid_export_kw": 500.0,
        "grid_import_kw": 500.0,
        "line": "line-1",
        "pv_nameplate_kw": 300.0,
        "station": "line-1-0599-0577-s008431",
        "storage_capacity_kwh": 500.0,
        "storage_initial_soc": 0.5,
        "storage_max_charge_kw": 500.0,
        "storage_max_discharge_kw": 500.0,
        "storage_module_kwh": 500.0,
        "tier": "standard"
      },
      "type": "Feature"
    },
    {
      "geometry": {
        "coordinates": [
          10.416094445548115,
          5.466430824604974
        ],
        "type": "Point"
      },
      "properties": {
        "charger_bus_voltage_v": 650.0,
        "charger_contact_count": 2,
        "charger_efficiency": 0.98,
        "charger_max_current_a": 825.0,
        "charger_max_kw": 500.0,
        "grid_export_kw": 500.0,
        "grid_import_kw": 500.0,
        "line": "line-1",
        "pv_nameplate_kw": 300.0,
        "station": "line-1-0615-0543-s009688",
        "storage_capacity_kwh": 500.0,
        "storage_initial_soc": 0.5,
        "storage_max_charge_kw": 500.0,
        "storage_max_discharge_kw": 500.0,
        "storage_module_kwh": 500.0,
        "tier": "standard"
      },
      "type": "Feature"
    },
    {
      "geometry": {
        "coordinates": [
          10.405806711608387,
          5.45779244861966
        ],
        "type": "Point"
      },
      "properties": {
        "charger_bus_voltage_v": 650.0,
        "charger_contact_count": 2,
        "charger_efficiency": 0.98,
        "charger_max_current_a": 825.0,
        "charger_max_kw": 500.0,
        "grid_export_kw": 500.0,
        "grid_import_kw": 500.0,
        "line": "line-1",
        "pv_nameplate_kw": 300.0,
        "station": "line-1-0663-0486-s011705",
        "storage_capacity_kwh": 500.0,
        "storage_initial_soc": 0.5,
        "storage_max_charge_kw": 500.0,
        "storage_max_discharge_kw": 500.0,
        "storage_module_kwh": 500.0,
        "tier": "standard"
      },
      "type": "Feature"
    },
    {
      "geometry": {
        "coordinates": [
          10.406348171289425,
          5.443755087643523
        ],
        "type": "Point"
      },
      "properties": {
        "charger_bus_voltage_v": 650.0,
        "charger_contact_count": 2,
        "charger_efficiency": 0.98,
        "charger_max_current_a": 825.0,
        "charger_max_kw": 500.0,
        "grid_export_kw": 500.0,
        "grid_import_kw": 500.0,
        "line": "line-1",
        "pv_nameplate_kw": 300.0,
        "station": "line-1-0741-0489-s013710",
        "storage_capacity_kwh": 500.0,
        "storage_initial_soc": 0.5,
        "storage_max_charge_kw": 500.0,
        "storage_max_discharge_kw": 500.0,
        "storage_module_kwh": 500.0,
        "tier": "standard"
      },
      "type": "Feature"
    },
    {
      "geometry": {
        "coordinates": [
          10.409777415936,
          5.431877320663715
        ],
        "type": "Point"
      },
      "properties": {
        "charger_bus_voltage_v": 650.0,
        "charger_contact_count": 2,
        "charger_efficiency": 0.98,
        "charger_max_current_a": 825.0,
        "charger_max_kw": 500.0,
        "grid_export_kw": 500.0,
        "grid_import_kw": 500.0,
        "line": "line-1",
        "pv_nameplate_kw": 300.0,
        "station": "line-1-0807-0508-s015718",
        "storage_capacity_kwh": 500.0,
        "storage_initial_soc": 0.5,
        "storage_max_charge_kw": 500.0,
        "storage_max_discharge_kw": 500.0,
        "storage_module_kwh": 500.0,
        "tier": "standard"
      },
      "type": "Feature"
    },
    {
      "geometry": {
        "coordinates": [
          10.405265251927348,
          5.3816667602490735
        ],
        "type": "Point"
      },
      "properties": {
        "charger_bus_voltage_v": 650.0,
        "charger_contact_count": 2,
        "charger_efficiency": 0.98,
        "charger_max_current_a": 825.0,
        "charger_max_kw": 500.0,
        "grid_export_kw": 800.0,
        "grid_import_kw": 800.0,
        "line": "line-1",
        "pv_nameplate_kw": 300.0,
        "station": "line-1-1086-0483-s023031",
        "storage_capacity_kwh": 500.0,
        "storage_initial_soc": 0.6,
        "storage_max_charge_kw": 500.0,
        "storage_max_discharge_kw": 500.0,
        "storage_module_kwh": 500.0,
        "tier": "terminal"
      },
      "type": "Feature"
    },
    {
      "geometry": {
        "coordinates": [
          10.329641383142324,
          5.532478407659361
        ],
        "type": "Point"
      },
      "properties": {
        "charger_bus_voltage_v": 650.0,
        "charger_contact_count": 2,
        "charger_efficiency": 0.98,
        "charger_max_current_a": 825.0,
        "charger_max_kw": 500.0,
        "grid_export_kw": 800.0,
        "grid_import_kw": 800.0,
        "line": "line-2",
        "pv_nameplate_kw": 300.0,
        "station": "line-2-0248-0064-s000000",
        "storage_capacity_kwh": 500.0,
        "storage_initial_soc": 0.6,
        "storage_max_charge_kw": 500.0,
        "storage_max_discharge_kw": 500.0,
        "storage_module_kwh": 500.0,
        "tier": "terminal"
      },
      "type": "Feature"
    },
    {
      "geometry": {
        "coordinates": [
          10.38559221684962,
          5.501704193211676
        ],
        "type": "Point"
      },
      "properties": {
        "charger_bus_voltage_v": 650.0,
        "charger_contact_count": 2,
        "charger_efficiency": 0.98,
        "charger_max_current_a": 825.0,
        "charger_max_kw": 500.0,
        "grid_export_kw": 500.0,
        "grid_import_kw": 500.0,
        "line": "line-2",
        "pv_nameplate_kw": 300.0,
        "station": "line-2-0419-0374-s008044",
        "storage_capacity_kwh": 500.0,
        "storage_initial_soc": 0.5,
        "storage_max_charge_kw": 500.0,
        "storage_max_discharge_kw": 500.0,
        "storage_module_kwh": 500.0,
        "tier": "standard"
      },
      "type": "Feature"
    },
    {
      "geometry": {
        "coordinates": [
          10.392450706142773,
          5.49270588489364
        ],
        "type": "Point"
      },
      "properties": {
        "charger_bus_voltage_v": 650.0,
        "charger_contact_count": 2,
        "charger_efficiency": 0.98,
        "charger_max_current_a": 825.0,
        "charger_max_kw": 500.0,
        "grid_export_kw": 500.0,
        "grid_import_kw": 500.0,
        "line": "line-2",
        "pv_nameplate_kw": 300.0,
        "station": "line-2-0469-0412-s010046",
        "storage_capacity_kwh": 500.0,
        "storage_initial_soc": 0.5,
        "storage_max_charge_kw": 500.0,
        "storage_max_discharge_kw": 500.0,
        "storage_module_kwh": 500.0,
        "tier": "standard"
      },
      "type": "Feature"
    },
    {
      "geometry": {
        "coordinates": [
          10.396421410470388,
          5.479388388582946
        ],
        "type": "Point"
      },
      "properties": {
        "charger_bus_voltage_v": 650.0,
        "charger_contact_count": 2,
        "charger_efficiency": 0.98,
        "charger_max_current_a": 825.0,
        "charger_max_kw": 500.0,
        "grid_export_kw": 500.0,
        "grid_import_kw": 500.0,
        "line": "line-2",
        "pv_nameplate_kw": 300.0,
        "station": "line-2-0543-0434-s012065",
        "storage_capacity_kwh": 500.0,
        "storage_initial_soc": 0.5,
        "storage_max_charge_kw": 500.0,
        "storage_max_discharge_kw": 500.0,
        "storage_module_kwh": 500.0,
        "tier": "standard"
      },
      "type": "Feature"
    },
    {
      "geometry": {
        "coordinates": [
          10.409596929375654,
          5.473629471259404
        ],
        "type": "Point"
      },
      "properties": {
        "charger_bus_voltage_v": 650.0,
        "charger_contact_count": 2,
        "charger_efficiency": 0.98,
        "charger_max_current_a": 825.0,
        "charger_max_kw": 500.0,
        "grid_export_kw": 500.0,
        "grid_import_kw": 500.0,
        "line": "line-2",
        "pv_nameplate_kw": 300.0,
        "station": "line-2-0575-0507-s014082",
        "storage_capacity_kwh": 500.0,
        "storage_initial_soc": 0.5,
        "storage_max_charge_kw": 500.0,
        "storage_max_discharge_kw": 500.0,
        "storage_module_kwh": 500.0,
        "tier": "standard"
      },
      "type": "Feature"
    },
    {
      "geometry": {
        "coordinates": [
          10.416996878349845,
          5.477228794586618
        ],
        "type": "Point"
      },
      "properties": {
        "charger_bus_voltage_v": 650.0,
        "charger_contact_count": 2,
        "charger_efficiency": 0.98,
        "charger_max_current_a": 825.0,
        "charger_max_kw": 500.0,
        "grid_export_kw": 600.0,
        "grid_import_kw": 600.0,
        "line": "line-2",
        "pv_nameplate_kw": 300.0,
        "station": "line-2-0555-0548-s015770",
        "storage_capacity_kwh": 500.0,
        "storage_initial_soc": 0.5,
        "storage_max_charge_kw": 500.0,
        "storage_max_discharge_kw": 500.0,
        "storage_module_kwh": 500.0,
        "tier": "interchange"
      },
      "type": "Feature"
    },
    {
      "geometry": {
        "coordinates": [
          10.42656266604819,
          5.481188050246554
        ],
        "type": "Point"
      },
      "properties": {
        "charger_bus_voltage_v": 650.0,
        "charger_contact_count": 2,
        "charger_efficiency": 0.98,
        "charger_max_current_a": 825.0,
        "charger_max_kw": 500.0,
        "grid_export_kw": 600.0,
        "grid_import_kw": 600.0,
        "line": "line-2",
        "pv_nameplate_kw": 300.0,
        "station": "line-2-0533-0601-s017149",
        "storage_capacity_kwh": 500.0,
        "storage_initial_soc": 0.5,
        "storage_max_charge_kw": 500.0,
        "storage_max_discharge_kw": 500.0,
        "storage_module_kwh": 500.0,
        "tier": "interchange"
      },
      "type": "Feature"
    },
    {
      "geometry": {
        "coordinates": [
          10.43721137310861,
          5.484787373573768
        ],
        "type": "Point"
      },
      "properties": {
        "charger_bus_voltage_v": 650.0,
        "charger_contact_count": 2,
        "charger_efficiency": 0.98,
        "charger_max_current_a": 825.0,
        "charger_max_kw": 500.0,
        "grid_export_kw": 500.0,
        "grid_import_kw": 500.0,
        "line": "line-2",
        "pv_nameplate_kw": 300.0,
        "station": "line-2-0513-0660-s018511",
        "storage_capacity_kwh": 500.0,
        "storage_initial_soc": 0.5,
        "storage_max_charge_kw": 500.0,
        "storage_max_discharge_kw": 500.0,
        "storage_module_kwh": 500.0,
        "tier": "standard"
      },
      "type": "Feature"
    },
    {
      "geometry": {
        "coordinates": [
          10.452913703858723,
          5.4804681855811115
        ],
        "type": "Point"
      },
      "properties": {
        "charger_bus_voltage_v": 650.0,
        "charger_contact_count": 2,
        "charger_efficiency": 0.98,
        "charger_max_current_a": 825.0,
        "charger_max_kw": 500.0,
        "grid_export_kw": 500.0,
        "grid_import_kw": 500.0,
        "line": "line-2",
        "pv_nameplate_kw": 300.0,
        "station": "line-2-0537-0747-s020517",
        "storage_capacity_kwh": 500.0,
        "storage_initial_soc": 0.5,
        "storage_max_charge_kw": 500.0,
        "storage_max_discharge_kw": 500.0,
        "storage_module_kwh": 500.0,
        "tier": "standard"
      },
      "type": "Feature"
    },
    {
      "geometry": {
        "coordinates": [
          10.46464533028122,
          5.4727296404276
        ],
        "type": "Point"
      },
      "properties": {
        "charger_bus_voltage_v": 650.0,
        "charger_contact_count": 2,
        "charger_efficiency": 0.98,
        "charger_max_current_a": 825.0,
        "charger_max_kw": 500.0,
        "grid_export_kw": 500.0,
        "grid_import_kw": 500.0,
        "line": "line-2",
        "pv_nameplate_kw": 300.0,
        "station": "line-2-0580-0812-s022533",
        "storage_capacity_kwh": 500.0,
        "storage_initial_soc": 0.5,
        "storage_max_charge_kw": 500.0,
        "storage_max_discharge_kw": 500.0,
        "storage_module_kwh": 500.0,
        "tier": "standard"
      },
      "type": "Feature"
    },
    {
      "geometry": {
        "coordinates": [
          10.476015983583025,
          5.47254967426124
        ],
        "type": "Point"
      },
      "properties": {
        "charger_bus_voltage_v": 650.0,
        "charger_contact_count": 2,
        "charger_efficiency": 0.98,
        "charger_max_current_a": 825.0,
        "charger_max_kw": 500.0,
        "grid_export_kw": 800.0,
        "grid_import_kw": 800.0,
        "line": "line-2",
        "pv_nameplate_kw": 300.0,
        "station": "line-2-0581-0875-s024042",
        "storage_capacity_kwh": 500.0,
        "storage_initial_soc": 0.6,
        "storage_max_charge_kw": 500.0,
        "storage_max_discharge_kw": 500.0,
        "storage_module_kwh": 500.0,
        "tier": "terminal"
      },
      "type": "Feature"
    },
    {
      "geometry": {
        "coordinates": [
          10.467533115246757,
          5.489646460065508
        ],
        "type": "Point"
      },
      "properties": {
        "charger_bus_voltage_v": 650.0,
        "charger_contact_count": 2,
        "charger_efficiency": 0.98,
        "charger_max_current_a": 825.0,
        "charger_max_kw": 500.0,
        "grid_export_kw": 800.0,
        "grid_import_kw": 800.0,
        "line": "line-3",
        "pv_nameplate_kw": 300.0,
        "station": "line-3-0486-0828-s000000",
        "storage_capacity_kwh": 500.0,
        "storage_initial_soc": 0.6,
        "storage_max_charge_kw": 500.0,
        "storage_max_discharge_kw": 500.0,
        "storage_module_kwh": 500.0,
        "tier": "terminal"
      },
      "type": "Feature"
    },
    {
      "geometry": {
        "coordinates": [
          10.451469811375954,
          5.489286527732786
        ],
        "type": "Point"
      },
      "properties": {
        "charger_bus_voltage_v": 650.0,
        "charger_contact_count": 2,
        "charger_efficiency": 0.98,
        "charger_max_current_a": 825.0,
        "charger_max_kw": 500.0,
        "grid_export_kw": 500.0,
        "grid_import_kw": 500.0,
        "line": "line-3",
        "pv_nameplate_kw": 300.0,
        "station": "line-3-0488-0739-s002019",
        "storage_capacity_kwh": 500.0,
        "storage_initial_soc": 0.5,
        "storage_max_charge_kw": 500.0,
        "storage_max_discharge_kw": 500.0,
        "storage_module_kwh": 500.0,
        "tier": "standard"
      },
      "type": "Feature"
    },
    {
      "geometry": {
        "coordinates": [
          10.439196725272417,
          5.4934257495590835
        ],
        "type": "Point"
      },
      "properties": {
        "charger_bus_voltage_v": 650.0,
        "charger_contact_count": 2,
        "charger_efficiency": 0.98,
        "charger_max_current_a": 825.0,
        "charger_max_kw": 500.0,
        "grid_export_kw": 500.0,
        "grid_import_kw": 500.0,
        "line": "line-3",
        "pv_nameplate_kw": 300.0,
        "station": "line-3-0465-0671-s004019",
        "storage_capacity_kwh": 500.0,
        "storage_initial_soc": 0.5,
        "storage_max_charge_kw": 500.0,
        "storage_max_discharge_kw": 500.0,
        "storage_module_kwh": 500.0,
        "tier": "standard"
      },
      "type": "Feature"
    },
    {
      "geometry": {
        "coordinates": [
          10.426021206367151,
          5.485507238239212
        ],
        "type": "Point"
      },
      "properties": {
        "charger_bus_voltage_v": 650.0,
        "charger_contact_count": 2,
        "charger_efficiency": 0.98,
        "charger_max_current_a": 825.0,
        "charger_max_kw": 500.0,
        "grid_export_kw": 600.0,
        "grid_import_kw": 600.0,
        "line": "line-3",
        "pv_nameplate_kw": 300.0,
        "station": "line-3-0509-0598-s006046",
        "storage_capacity_kwh": 500.0,
        "storage_initial_soc": 0.5,
        "storage_max_charge_kw": 500.0,
        "storage_max_discharge_kw": 500.0,
        "storage_module_kwh": 500.0,
        "tier": "interchange"
      },
      "type": "Feature"
    },
    {
      "geometry": {
        "coordinates": [
          10.416996878349845,
          5.477228794586618
        ],
        "type": "Point"
      },
      "properties": {
        "charger_bus_voltage_v": 650.0,
        "charger_contact_count": 2,
        "charger_efficiency": 0.98,
        "charger_max_current_a": 825.0,
        "charger_max_kw": 500.0,
        "grid_export_kw": 600.0,
        "grid_import_kw": 600.0,
        "line": "line-3",
        "pv_nameplate_kw": 300.0,
        "station": "line-3-0555-0548-s008022",
        "storage_capacity_kwh": 500.0,
        "storage_initial_soc": 0.5,
        "storage_max_charge_kw": 500.0,
        "storage_max_discharge_kw": 500.0,
        "storage_module_kwh": 500.0,
        "tier": "interchange"
      },
      "type": "Feature"
    },
    {
      "geometry": {
        "coordinates": [
          10.401655520720425,
          5.467150689270418
        ],
        "type": "Point"
      },
      "properties": {
        "charger_bus_voltage_v": 650.0,
        "charger_contact_count": 2,
        "charger_efficiency": 0.98,
        "charger_max_current_a": 825.0,
        "charger_max_kw": 500.0,
        "grid_export_kw": 500.0,
        "grid_import_kw": 500.0,
        "line": "line-3",
        "pv_nameplate_kw": 300.0,
        "station": "line-3-0611-0463-s010496",
        "storage_capacity_kwh": 500.0,
        "storage_initial_soc": 0.5,
        "storage_max_charge_kw": 500.0,
        "storage_max_discharge_kw": 500.0,
        "storage_module_kwh": 500.0,
        "tier": "standard"
      },
      "type": "Feature"
    },
    {
      "geometry": {
        "coordinates": [
          10.394977517987618,
          5.454193125292446
        ],
        "type": "Point"
      },
      "properties": {
        "charger_bus_voltage_v": 650.0,
        "charger_contact_count": 2,
        "charger_efficiency": 0.98,
        "charger_max_current_a": 825.0,
        "charger_max_kw": 500.0,
        "grid_export_kw": 500.0,
        "grid_import_kw": 500.0,
        "line": "line-3",
        "pv_nameplate_kw": 300.0,
        "station": "line-3-0683-0426-s012512",
        "storage_capacity_kwh": 500.0,
        "storage_initial_soc": 0.5,
        "storage_max_charge_kw": 500.0,
        "storage_max_discharge_kw": 500.0,
        "storage_module_kwh": 500.0,
        "tier": "standard"
      },
      "type": "Feature"
    },
    {
      "geometry": {
        "coordinates": [
          10.390104380858274,
          5.439615865817227
        ],
        "type": "Point"
      },
      "properties": {
        "charger_bus_voltage_v": 650.0,
        "charger_contact_count": 2,
        "charger_efficiency": 0.98,
        "charger_max_current_a": 825.0,
        "charger_max_kw": 500.0,
        "grid_export_kw": 500.0,
        "grid_import_kw": 500.0,
        "line": "line-3",
        "pv_nameplate_kw": 300.0,
        "station": "line-3-0764-0399-s014519",
        "storage_capacity_kwh": 500.0,
        "storage_initial_soc": 0.5,
        "storage_max_charge_kw": 500.0,
        "storage_max_discharge_kw": 500.0,
        "storage_module_kwh": 500.0,
        "tier": "standard"
      },
      "type": "Feature"
    },
    {
      "geometry": {
        "coordinates": [
          10.380358106599584,
          5.43799617031998
        ],
        "type": "Point"
      },
      "properties": {
        "charger_bus_voltage_v": 650.0,
        "charger_contact_count": 2,
        "charger_efficiency": 0.98,
        "charger_max_current_a": 825.0,
        "charger_max_kw": 500.0,
        "grid_export_kw": 500.0,
        "grid_import_kw": 500.0,
        "line": "line-3",
        "pv_nameplate_kw": 300.0,
        "station": "line-3-0773-0345-s016025",
        "storage_capacity_kwh": 500.0,
        "storage_initial_soc": 0.5,
        "storage_max_charge_kw": 500.0,
        "storage_max_discharge_kw": 500.0,
        "storage_module_kwh": 500.0,
        "tier": "standard"
      },
      "type": "Feature"
    },
    {
      "geometry": {
        "coordinates": [
          10.329099923461285,
          5.388865406903503
        ],
        "type": "Point"
      },
      "properties": {
        "charger_bus_voltage_v": 650.0,
        "charger_contact_count": 2,
        "charger_efficiency": 0.98,
        "charger_max_current_a": 825.0,
        "charger_max_kw": 500.0,
        "grid_export_kw": 3000.0,
        "grid_import_kw": 3000.0,
        "line": "line-3",
        "pv_nameplate_kw": 5000.0,
        "station": "line-3-1046-0061-s026438",
        "storage_capacity_kwh": 40000.0,
        "storage_initial_soc": 0.6,
        "storage_max_charge_kw": 10000.0,
        "storage_max_discharge_kw": 10000.0,
        "storage_module_kwh": 500.0,
        "tier": "depot-main"
      },
      "type": "Feature"
    }
  ],
  "type": "FeatureCollection"
}
