{
  "features": [
    {
      "geometry": {
        "coordinates": [
          44.18681983224341,
          13.994083482705252
        ],
        "type": "Point"
      },
      "properties": {
        "anchor_kind": "place:suburb",
        "anchor_name": "العكدة",
        "archetype": "terminal",
        "chainage_m": 0.0,
        "corridor_offset_m": 0.0,
        "id": "line-1-0398-0570-s000000",
        "junction_group": null,
        "line": "line-1",
        "platform_length_m": 59.5
      },
      "type": "Feature"
    },
    {
      "geometry": {
        "coordinates": [
          44.180154952382296,
          13.982925580390885
        ],
        "type": "Point"
      },
      "properties": {
        "anchor_kind": "place:suburb",
        "anchor_name": "جبل الشجاع",
        "archetype": "major",
        "chainage_m": 1611.4,
        "corridor_offset_m": 5.238,
        "id": "line-1-0460-0534-s001611",
        "junction_group": null,
        "line": "line-1",
        "platform_length_m": 59.5
      },
      "type": "Feature"
    },
    {
      "geometry": {
        "coordinates": [
          44.18385766341625,
          13.976986696900981
        ],
        "type": "Point"
      },
      "properties": {
        "anchor_kind": "place:suburb",
        "anchor_name": "حول حوائج",
        "archetype": "major",
        "chainage_m": 2823.3,
        "corridor_offset_m": 8.957,
        "id": "line-1-0493-0554-s002823",
        "junction_group": null,
        "line": "line-1",
        "platform_length_m": 59.5
      },
      "type": "Feature"
    },
    {
      "geometry": {
        "coordinates": [
          44.18330225676115,
          13.966188726919338
        ],
        "type": "Point"
      },
      "properties": {
        "anchor_kind": null,
        "anchor_name": null,
        "archetype": "interchange",
        "chainage_m": 4791.3,
        "corridor_offset_m": 24.111,
        "id": "line-1-0553-0551-s004791",
        "junction_group": 0,
        "line": "line-1",
        "platform_length_m": 59.5
      },
      "type": "Feature"
    },
    {
      "geometry": {
        "coordinates": [
          44.18256171455437,
          13.95161146744412
        ],
        "type": "Point"
      },
      "properties": {
        "anchor_kind": "amenity:hospital",
        "anchor_name": "مستشفى المجد",
        "archetype": "standard",
        "chainage_m": 7263.5,
        "corridor_offset_m": 19.746,
        "id": "line-1-0634-0547-s007263",
        "junction_group": null,
        "line": "line-1",
        "platform_length_m": 59.5
      },
      "type": "Feature"
    },
    {
      "geometry": {
        "coordinates": [
          44.167750870418566,
          13.946392448619658
        ],
        "type": "Point"
      },
      "properties": {
        "anchor_kind": null,
        "anchor_name": null,
        "archetype": "standard",
        "chainage_m": 9277.4,
        "corridor_offset_m": 16.373,
        "id": "line-1-0663-0467-s009277",
        "junction_group": null,
        "line": "line-1",
        "platform_length_m": 59.5
      },
      "type": "Feature"
    },
    {
      "geometry": {
        "coordinates": [
          44.157568415075204,
          13.937214174135262
        ],
        "type": "Point"
      },
      "properties": {
        "anchor_kind": null,
        "anchor_name": null,
        "archetype": "standard",
        "chainage_m": 11295.7,
        "corridor_offset_m": 10.261,
        "id": "line-1-0714-0412-s011296",
        "junction_group": null,
        "line": "line-1",
        "platform_length_m": 59.5
      },
      "type": "Feature"
    },
    {
      "geometry": {
        "coordinates": [
          44.15164407742089,
          13.92461654249001
        ],
        "type": "Point"
      },
      "properties": {
        "anchor_kind": "amenity:hospital",
        "anchor_name": "مستشفى جبله",
        "archetype": "standard",
        "chainage_m": 13307.0,
        "corridor_offset_m": 3.766,
        "id": "line-1-0784-0380-s013307",
        "junction_group": null,
        "line": "line-1",
        "platform_length_m": 59.5
      },
      "type": "Feature"
    },
    {
      "geometry": {
        "coordinates": [
          44.14405351980129,
          13.920657286830075
        ],
        "type": "Point"
      },
      "properties": {
        "anchor_kind": "place:suburb",
        "anchor_name": "حنان",
        "archetype": "terminal",
        "chainage_m": 14617.6,
        "corridor_offset_m": 0.0,
        "id": "line-1-0806-0339-s014618",
        "junction_group": null,
        "line": "line-1",
        "platform_length_m": 59.5
      },
      "type": "Feature"
    },
    {
      "geometry": {
        "coordinates": [
          44.1797846812789,
          13.92677613648634
        ],
        "type": "Point"
      },
      "properties": {
        "anchor_kind": "place:suburb",
        "anchor_name": "الظهرة",
        "archetype": "terminal",
        "chainage_m": 0.0,
        "corridor_offset_m": 0.0,
        "id": "line-2-0772-0532-s000000",
        "junction_group": null,
        "line": "line-2",
        "platform_length_m": 59.5
      },
      "type": "Feature"
    },
    {
      "geometry": {
        "coordinates": [
          44.178859003520415,
          13.941533362127918
        ],
        "type": "Point"
      },
      "properties": {
        "anchor_kind": "place:suburb",
        "anchor_name": "مفرق جبلة",
        "archetype": "standard",
        "chainage_m": 2009.9,
        "corridor_offset_m": 27.491,
        "id": "line-2-0690-0527-s002010",
        "junction_group": null,
        "line": "line-2",
        "platform_length_m": 59.5
      },
      "type": "Feature"
    },
    {
      "geometry": {
        "coordinates": [
          44.17700764800344,
          13.957010452434941
        ],
        "type": "Point"
      },
      "properties": {
        "anchor_kind": "place:suburb",
        "anchor_name": "مفرق جبلة",
        "archetype": "standard",
        "chainage_m": 4011.6,
        "corridor_offset_m": 58.167,
        "id": "line-2-0604-0517-s004012",
        "junction_group": null,
        "line": "line-2",
        "platform_length_m": 59.5
      },
      "type": "Feature"
    },
    {
      "geometry": {
        "coordinates": [
          44.18330225676115,
          13.966188726919338
        ],
        "type": "Point"
      },
      "properties": {
        "anchor_kind": null,
        "anchor_name": null,
        "archetype": "interchange",
        "chainage_m": 6198.1,
        "corridor_offset_m": 141.399,
        "id": "line-2-0553-0551-s006198",
        "junction_group": 0,
        "line": "line-2",
        "platform_length_m": 59.5
      },
      "type": "Feature"
    },
    {
      "geometry": {
        "coordinates": [
          44.17571169914156,
          13.962589403592125
        ],
        "type": "Point"
      },
      "properties": {
        "anchor_kind": "place:suburb",
        "anchor_name": "الظهار",
        "archetype": "major",
        "chainage_m": 7645.2,
        "corridor_offset_m": 163.812,
        "id": "line-2-0573-0510-s007645",
        "junction_group": null,
        "line": "line-2",
        "platform_length_m": 59.5
      },
      "type": "Feature"
    },
    {
      "geometry": {
        "coordinates": [
          44.165158972694805,
          13.971767678076521
        ],
        "type": "Point"
      },
      "properties": {
        "anchor_kind": "place:suburb",
        "anchor_name": "حارة المهدي",
        "archetype": "standard",
        "chainage_m": 9659.5,
        "corridor_offset_m": 184.215,
        "id": "line-2-0522-0453-s009659",
        "junction_group": null,
        "line": "line-2",
        "platform_length_m": 59.5
      },
      "type": "Feature"
    },
    {
      "geometry": {
        "coordinates": [
          44.158308957281996,
          13.985625072886297
        ],
        "type": "Point"
      },
      "properties": {
        "anchor_kind": null,
        "anchor_name": null,
        "archetype": "standard",
        "chainage_m": 11668.0,
        "corridor_offset_m": 220.208,
        "id": "line-2-0445-0416-s011668",
        "junction_group": null,
        "line": "line-2",
        "platform_length_m": 59.5
      },
      "type": "Feature"
    },
    {
      "geometry": {
        "coordinates": [
          44.14386838424959,
          13.995703178202497
        ],
        "type": "Point"
      },
      "properties": {
        "anchor_kind": null,
        "anchor_name": null,
        "archetype": "standard",
        "chainage_m": 13691.9,
        "corridor_offset_m": 185.424,
        "id": "line-2-0389-0338-s013692",
        "junction_group": null,
        "line": "line-2",
        "platform_length_m": 59.5
      },
      "type": "Feature"
    },
    {
      "geometry": {
        "coordinates": [
          44.12368860911457,
          14.013879761004931
        ],
        "type": "Point"
      },
      "properties": {
        "anchor_kind": null,
        "anchor_name": null,
        "archetype": "halt",
        "chainage_m": 16708.6,
        "corridor_offset_m": 108.838,
        "id": "line-2-0288-0229-s016709",
        "junction_group": null,
        "line": "line-2",
        "platform_length_m": 55.5
      },
      "type": "Feature"
    },
    {
      "geometry": {
        "coordinates": [
          44.092030429774304,
          14.045373840118057
        ],
        "type": "Point"
      },
      "properties": {
        "anchor_kind": null,
        "anchor_name": null,
        "archetype": "depot-terminal",
        "chainage_m": 21648.7,
        "corridor_offset_m": 0.0,
        "id": "line-2-0113-0058-s021649",
        "junction_group": null,
        "line": "line-2",
        "platform_length_m": 59.5
      },
      "type": "Feature"
    },
    {
      "geometry": {
        "coordinates": [
          44.187004967795104,
          13.903200568693086
        ],
        "type": "Point"
      },
      "properties": {
        "anchor_kind": "amenity:hospital",
        "anchor_name": "مركز صحي هدفان",
        "archetype": "terminal",
        "chainage_m": 0.0,
        "corridor_offset_m": 0.0,
        "id": "line-3-0903-0571-s000000",
        "junction_group": null,
        "line": "line-3",
        "platform_length_m": 59.5
      },
      "type": "Feature"
    },
    {
      "geometry": {
        "coordinates": [
          44.187004967795104,
          13.921197185329158
        ],
        "type": "Point"
      },
      "properties": {
        "anchor_kind": null,
        "anchor_name": null,
        "archetype": "standard",
        "chainage_m": 2000.0,
        "corridor_offset_m": 1.474,
        "id": "line-3-0803-0571-s002000",
        "junction_group": null,
        "line": "line-3",
        "platform_length_m": 59.5
      },
      "type": "Feature"
    },
    {
      "geometry": {
        "coordinates": [
          44.189596865518865,
          13.938293971133426
        ],
        "type": "Point"
      },
      "properties": {
        "anchor_kind": null,
        "anchor_name": null,
        "archetype": "standard",
        "chainage_m": 4016.0,
        "corridor_offset_m": 3.312,
        "id": "line-3-0708-0585-s004016",
        "junction_group": null,
        "line": "line-3",
        "platform_length_m": 59.5
      },
      "type": "Feature"
    },
    {
      "geometry": {
        "coordinates": [
          44.19200362769094,
          13.952151365943202
        ],
        "type": "Point"
      },
      "properties": {
        "anchor_kind": "place:suburb",
        "anchor_name": "مؤسسة المياه - الشركة الصين",
        "archetype": "standard",
        "chainage_m": 6028.2,
        "corridor_offset_m": 6.141,
        "id": "line-3-0631-0598-s006028",
        "junction_group": null,
        "line": "line-3",
        "platform_length_m": 59.5
      },
      "type": "Feature"
    },
    {
      "geometry": {
        "coordinates": [
          44.18330225676115,
          13.966188726919338
        ],
        "type": "Point"
      },
      "properties": {
        "anchor_kind": null,
        "anchor_name": null,
        "archetype": "interchange",
        "chainage_m": 8370.7,
        "corridor_offset_m": 9.034,
        "id": "line-3-0553-0551-s008371",
        "junction_group": 0,
        "line": "line-3",
        "platform_length_m": 59.5
      },
      "type": "Feature"
    },
    {
      "geometry": {
        "coordinates": [
          44.19533606762149,
          13.971227779577438
        ],
        "type": "Point"
      },
      "properties": {
        "anchor_kind": "place:suburb",
        "anchor_name": "الوطاء",
        "archetype": "major",
        "chainage_m": 10286.9,
        "corridor_offset_m": 3.673,
        "id": "line-3-0525-0616-s010287",
        "junction_group": null,
        "line": "line-3",
        "platform_length_m": 59.5
      },
      "type": "Feature"
    },
    {
      "geometry": {
        "coordinates": [
          44.19607660982828,
          13.98904443004715
        ],
        "type": "Point"
      },
      "properties": {
        "anchor_kind": null,
        "anchor_name": null,
        "archetype": "standard",
        "chainage_m": 12300.0,
        "corridor_offset_m": 2.132,
        "id": "line-3-0426-0620-s012300",
        "junction_group": null,
        "line": "line-3",
        "platform_length_m": 59.5
      },
      "type": "Feature"
    },
    {
      "geometry": {
        "coordinates": [
          44.20477798075806,
          13.997502839866105
        ],
        "type": "Point"
      },
      "properties": {
        "anchor_kind": "tourism:attraction",
        "anchor_name": "العلاية",
        "archetype": "terminal",
        "chainage_m": 13629.4,
        "corridor_offset_m": 0.0,
        "id": "line-3-0379-0667-s013629",
        "junction_group": null,
        "line": "line-3",
        "platform_length_m": 59.5
      },
      "type": "Feature"
    }
  ],
  "type": "FeatureCollection"
}
