{
  "features": [
    {
      "geometry": {
        "coordinates": [
          73.32242190572762,
          22.29193995968758
        ],
        "type": "Point"
      },
      "properties": {
        "anchor_kind": "amenity:hospital",
        "anchor_name": "Dhiraj General Hospital",
        "archetype": "terminal",
        "chainage_m": 0.0,
        "corridor_offset_m": 0.0,
        "id": "line-1-0885-1529-s000000",
        "junction_group": null,
        "line": "line-1",
        "platform_length_m": 85.0
      },
      "type": "Feature"
    },
    {
      "geometry": {
        "coordinates": [
          73.29562293678978,
          22.294099553683907
        ],
        "type": "Point"
      },
      "properties": {
        "anchor_kind": null,
        "anchor_name": null,
        "archetype": "halt",
        "chainage_m": 3010.5,
        "corridor_offset_m": 10.421,
        "id": "line-1-0873-1391-s003011",
        "junction_group": null,
        "line": "line-1",
        "platform_length_m": 81.0
      },
      "type": "Feature"
    },
    {
      "geometry": {
        "coordinates": [
          73.26785299071653,
          22.293199722852105
        ],
        "type": "Point"
      },
      "properties": {
        "anchor_kind": null,
        "anchor_name": null,
        "archetype": "halt",
        "chainage_m": 6011.4,
        "corridor_offset_m": 20.119,
        "id": "line-1-0878-1248-s006011",
        "junction_group": null,
        "line": "line-1",
        "platform_length_m": 81.0
      },
      "type": "Feature"
    },
    {
      "geometry": {
        "coordinates": [
          73.25289994283094,
          22.293199722852105
        ],
        "type": "Point"
      },
      "properties": {
        "anchor_kind": null,
        "anchor_name": null,
        "archetype": "standard",
        "chainage_m": 8030.2,
        "corridor_offset_m": 5.33,
        "id": "line-1-0878-1171-s008030",
        "junction_group": null,
        "line": "line-1",
        "platform_length_m": 85.0
      },
      "type": "Feature"
    },
    {
      "geometry": {
        "coordinates": [
          73.23600494067448,
          22.290680196523052
        ],
        "type": "Point"
      },
      "properties": {
        "anchor_kind": "amenity:hospital",
        "anchor_name": "Shree Krushna Children and Maternity Hospital",
        "archetype": "standard",
        "chainage_m": 10034.5,
        "corridor_offset_m": 14.741,
        "id": "line-1-0892-1084-s010034",
        "junction_group": null,
        "line": "line-1",
        "platform_length_m": 85.0
      },
      "type": "Feature"
    },
    {
      "geometry": {
        "coordinates": [
          73.21969252479927,
          22.288880534859445
        ],
        "type": "Point"
      },
      "properties": {
        "anchor_kind": null,
        "anchor_name": null,
        "archetype": "standard",
        "chainage_m": 12035.3,
        "corridor_offset_m": 6.4,
        "id": "line-1-0902-1000-s012035",
        "junction_group": null,
        "line": "line-1",
        "platform_length_m": 85.0
      },
      "type": "Feature"
    },
    {
      "geometry": {
        "coordinates": [
          73.20668143118452,
          22.28258171903682
        ],
        "type": "Point"
      },
      "properties": {
        "anchor_kind": "amenity:hospital",
        "anchor_name": "Yogini Hospital",
        "archetype": "standard",
        "chainage_m": 14039.0,
        "corridor_offset_m": 22.605,
        "id": "line-1-0937-0933-s014039",
        "junction_group": null,
        "line": "line-1",
        "platform_length_m": 85.0
      },
      "type": "Feature"
    },
    {
      "geometry": {
        "coordinates": [
          73.19405872842395,
          22.283301583702265
        ],
        "type": "Point"
      },
      "properties": {
        "anchor_kind": "amenity:hospital",
        "anchor_name": "Shruti Clinic",
        "archetype": "interchange-elevated",
        "chainage_m": 15372.1,
        "corridor_offset_m": 2.448,
        "id": "line-1-0933-0868-s015372",
        "junction_group": 0,
        "line": "line-1",
        "platform_length_m": 85.0
      },
      "type": "Feature"
    },
    {
      "geometry": {
        "coordinates": [
          73.1812418302363,
          22.283841482201346
        ],
        "type": "Point"
      },
      "properties": {
        "anchor_kind": null,
        "anchor_name": null,
        "archetype": "interchange-elevated",
        "chainage_m": 16717.0,
        "corridor_offset_m": 21.473,
        "id": "line-1-0930-0802-s016717",
        "junction_group": 1,
        "line": "line-1",
        "platform_length_m": 85.0
      },
      "type": "Feature"
    },
    {
      "geometry": {
        "coordinates": [
          73.17949407139253,
          22.293739621351186
        ],
        "type": "Point"
      },
      "properties": {
        "anchor_kind": null,
        "anchor_name": null,
        "archetype": "standard",
        "chainage_m": 18049.5,
        "corridor_offset_m": 14.795,
        "id": "line-1-0875-0793-s018050",
        "junction_group": null,
        "line": "line-1",
        "platform_length_m": 85.0
      },
      "type": "Feature"
    },
    {
      "geometry": {
        "coordinates": [
          73.17327981772578,
          22.298598707842924
        ],
        "type": "Point"
      },
      "properties": {
        "anchor_kind": "amenity:hospital",
        "anchor_name": "The Children's Hospital",
        "archetype": "interchange-elevated",
        "chainage_m": 19250.9,
        "corridor_offset_m": 28.772,
        "id": "line-1-0848-0761-s019251",
        "junction_group": 1,
        "line": "line-1",
        "platform_length_m": 85.0
      },
      "type": "Feature"
    },
    {
      "geometry": {
        "coordinates": [
          73.17211464516326,
          22.29895864017565
        ],
        "type": "Point"
      },
      "properties": {
        "anchor_kind": "amenity:hospital",
        "anchor_name": "Vadilal Eye Hospital",
        "archetype": "interchange-elevated",
        "chainage_m": 19387.5,
        "corridor_offset_m": 25.474,
        "id": "line-1-0846-0755-s019387",
        "junction_group": 1,
        "line": "line-1",
        "platform_length_m": 85.0
      },
      "type": "Feature"
    },
    {
      "geometry": {
        "coordinates": [
          73.16473521893401,
          22.296619080012956
        ],
        "type": "Point"
      },
      "properties": {
        "anchor_kind": "amenity:hospital",
        "anchor_name": "Bankers Heart Institute",
        "archetype": "major",
        "chainage_m": 20773.2,
        "corridor_offset_m": 16.171,
        "id": "line-1-0859-0717-s020773",
        "junction_group": null,
        "line": "line-1",
        "platform_length_m": 85.0
      },
      "type": "Feature"
    },
    {
      "geometry": {
        "coordinates": [
          73.15230671160053,
          22.29481941834935
        ],
        "type": "Point"
      },
      "properties": {
        "anchor_kind": "amenity:hospital",
        "anchor_name": "Shishu Children Hospital",
        "archetype": "interchange-elevated",
        "chainage_m": 22152.6,
        "corridor_offset_m": 8.567,
        "id": "line-1-0869-0653-s022153",
        "junction_group": 2,
        "line": "line-1",
        "platform_length_m": 85.0
      },
      "type": "Feature"
    },
    {
      "geometry": {
        "coordinates": [
          73.14939378019425,
          22.294999384515712
        ],
        "type": "Point"
      },
      "properties": {
        "anchor_kind": "amenity:hospital",
        "anchor_name": "Astha Children Hospital, Vadodara",
        "archetype": "interchange-elevated",
        "chainage_m": 22460.9,
        "corridor_offset_m": 12.939,
        "id": "line-1-0868-0638-s022461",
        "junction_group": 2,
        "line": "line-1",
        "platform_length_m": 85.0
      },
      "type": "Feature"
    },
    {
      "geometry": {
        "coordinates": [
          73.1323045826107,
          22.290680196523052
        ],
        "type": "Point"
      },
      "properties": {
        "anchor_kind": "amenity:hospital",
        "anchor_name": "Shashwat Hospital",
        "archetype": "standard",
        "chainage_m": 24488.0,
        "corridor_offset_m": 11.528,
        "id": "line-1-0892-0550-s024488",
        "junction_group": null,
        "line": "line-1",
        "platform_length_m": 85.0
      },
      "type": "Feature"
    },
    {
      "geometry": {
        "coordinates": [
          73.12220642040224,
          22.29265982435302
        ],
        "type": "Point"
      },
      "properties": {
        "anchor_kind": "amenity:university",
        "anchor_name": "Navrachana University",
        "archetype": "depot-terminal",
        "chainage_m": 25755.7,
        "corridor_offset_m": 0.0,
        "id": "line-1-0881-0498-s025756",
        "junction_group": null,
        "line": "line-1",
        "platform_length_m": 85.0
      },
      "type": "Feature"
    },
    {
      "geometry": {
        "coordinates": [
          73.16570619606944,
          22.371305039052658
        ],
        "type": "Point"
      },
      "properties": {
        "anchor_kind": "public_transport:station",
        "anchor_name": "Chhayapuri",
        "archetype": "terminal",
        "chainage_m": 0.0,
        "corridor_offset_m": 0.0,
        "id": "line-2-0444-0722-s000000",
        "junction_group": null,
        "line": "line-2",
        "platform_length_m": 85.0
      },
      "type": "Feature"
    },
    {
      "geometry": {
        "coordinates": [
          73.16745395491321,
          22.355468016412914
        ],
        "type": "Point"
      },
      "properties": {
        "anchor_kind": "amenity:hospital",
        "anchor_name": "Parth Hospital Child Hospital and Maternity Home",
        "archetype": "standard",
        "chainage_m": 2023.7,
        "corridor_offset_m": 20.976,
        "id": "line-2-0532-0731-s002024",
        "junction_group": null,
        "line": "line-2",
        "platform_length_m": 85.0
      },
      "type": "Feature"
    },
    {
      "geometry": {
        "coordinates": [
          73.1649294143611,
          22.345389911096714
        ],
        "type": "Point"
      },
      "properties": {
        "anchor_kind": null,
        "anchor_name": null,
        "archetype": "interchange-elevated",
        "chainage_m": 4130.2,
        "corridor_offset_m": 36.724,
        "id": "line-2-0588-0718-s004130",
        "junction_group": 3,
        "line": "line-2",
        "platform_length_m": 85.0
      },
      "type": "Feature"
    },
    {
      "geometry": {
        "coordinates": [
          73.1633758509444,
          22.3417905877695
        ],
        "type": "Point"
      },
      "properties": {
        "anchor_kind": null,
        "anchor_name": null,
        "archetype": "interchange-elevated",
        "chainage_m": 4596.5,
        "corridor_offset_m": 25.884,
        "id": "line-2-0608-0710-s004596",
        "junction_group": 3,
        "line": "line-2",
        "platform_length_m": 85.0
      },
      "type": "Feature"
    },
    {
      "geometry": {
        "coordinates": [
          73.17114366802784,
          22.33207241478602
        ],
        "type": "Point"
      },
      "properties": {
        "anchor_kind": "amenity:hospital",
        "anchor_name": "Khushbu Children Hospital",
        "archetype": "standard",
        "chainage_m": 6047.8,
        "corridor_offset_m": 30.601,
        "id": "line-2-0662-0750-s006048",
        "junction_group": null,
        "line": "line-2",
        "platform_length_m": 85.0
      },
      "type": "Feature"
    },
    {
      "geometry": {
        "coordinates": [
          73.1785230942571,
          22.31731518914444
        ],
        "type": "Point"
      },
      "properties": {
        "anchor_kind": "amenity:hospital",
        "anchor_name": "Kala Laser and Cosmetic Surgery Centre",
        "archetype": "major",
        "chainage_m": 8002.6,
        "corridor_offset_m": 28.759,
        "id": "line-2-0744-0788-s008003",
        "junction_group": null,
        "line": "line-2",
        "platform_length_m": 85.0
      },
      "type": "Feature"
    },
    {
      "geometry": {
        "coordinates": [
          73.18143602566339,
          22.30705711766188
        ],
        "type": "Point"
      },
      "properties": {
        "anchor_kind": "amenity:hospital",
        "anchor_name": "Akshar Orhopedic Hospital - Vadodara",
        "archetype": "major",
        "chainage_m": 9393.8,
        "corridor_offset_m": 28.529,
        "id": "line-2-0801-0803-s009394",
        "junction_group": null,
        "line": "line-2",
        "platform_length_m": 85.0
      },
      "type": "Feature"
    },
    {
      "geometry": {
        "coordinates": [
          73.19367033756978,
          22.303997692833747
        ],
        "type": "Point"
      },
      "properties": {
        "anchor_kind": "amenity:hospital",
        "anchor_name": "Kamat Eye Hospital",
        "archetype": "major",
        "chainage_m": 11638.3,
        "corridor_offset_m": 20.544,
        "id": "line-2-0818-0866-s011638",
        "junction_group": null,
        "line": "line-2",
        "platform_length_m": 85.0
      },
      "type": "Feature"
    },
    {
      "geometry": {
        "coordinates": [
          73.19425292385104,
          22.2872608393622
        ],
        "type": "Point"
      },
      "properties": {
        "anchor_kind": null,
        "anchor_name": null,
        "archetype": "interchange-elevated",
        "chainage_m": 13648.0,
        "corridor_offset_m": 34.616,
        "id": "line-2-0911-0869-s013648",
        "junction_group": 0,
        "line": "line-2",
        "platform_length_m": 85.0
      },
      "type": "Feature"
    },
    {
      "geometry": {
        "coordinates": [
          73.19813683239276,
          22.277722632545082
        ],
        "type": "Point"
      },
      "properties": {
        "anchor_kind": "amenity:hospital",
        "anchor_name": "Shivam Eye Hospital, Vadodara",
        "archetype": "major",
        "chainage_m": 14873.7,
        "corridor_offset_m": 29.264,
        "id": "line-2-0964-0889-s014874",
        "junction_group": null,
        "line": "line-2",
        "platform_length_m": 85.0
      },
      "type": "Feature"
    },
    {
      "geometry": {
        "coordinates": [
          73.20066137294486,
          22.26260547457078
        ],
        "type": "Point"
      },
      "properties": {
        "anchor_kind": "amenity:hospital",
        "anchor_name": "Gupta Hospital, Vadodara",
        "archetype": "standard",
        "chainage_m": 16876.8,
        "corridor_offset_m": 8.876,
        "id": "line-2-1048-0902-s016877",
        "junction_group": null,
        "line": "line-2",
        "platform_length_m": 85.0
      },
      "type": "Feature"
    },
    {
      "geometry": {
        "coordinates": [
          73.20202074093447,
          22.251447572256417
        ],
        "type": "Point"
      },
      "properties": {
        "anchor_kind": "amenity:hospital",
        "anchor_name": "Palash Hospital",
        "archetype": "terminal",
        "chainage_m": 18782.4,
        "corridor_offset_m": 0.0,
        "id": "line-2-1110-0909-s018782",
        "junction_group": null,
        "line": "line-2",
        "platform_length_m": 85.0
      },
      "type": "Feature"
    },
    {
      "geometry": {
        "coordinates": [
          73.13191619175653,
          22.316055425979915
        ],
        "type": "Point"
      },
      "properties": {
        "anchor_kind": "amenity:hospital",
        "anchor_name": "Cornea Eye Hospital",
        "archetype": "terminal",
        "chainage_m": 0.0,
        "corridor_offset_m": 0.0,
        "id": "line-3-0751-0548-s000000",
        "junction_group": null,
        "line": "line-3",
        "platform_length_m": 85.0
      },
      "type": "Feature"
    },
    {
      "geometry": {
        "coordinates": [
          73.14201435396498,
          22.31893488464169
        ],
        "type": "Point"
      },
      "properties": {
        "anchor_kind": null,
        "anchor_name": null,
        "archetype": "interchange-elevated",
        "chainage_m": 1405.7,
        "corridor_offset_m": 5.312,
        "id": "line-3-0735-0600-s001406",
        "junction_group": 2,
        "line": "line-3",
        "platform_length_m": 85.0
      },
      "type": "Feature"
    },
    {
      "geometry": {
        "coordinates": [
          73.14667504421504,
          22.320554580138932
        ],
        "type": "Point"
      },
      "properties": {
        "anchor_kind": "amenity:hospital",
        "anchor_name": "Anjaneya Orthopaedic Hospital",
        "archetype": "interchange-elevated",
        "chainage_m": 2005.1,
        "corridor_offset_m": 2.76,
        "id": "line-3-0726-0624-s002005",
        "junction_group": 2,
        "line": "line-3",
        "platform_length_m": 85.0
      },
      "type": "Feature"
    },
    {
      "geometry": {
        "coordinates": [
          73.15774418355892,
          22.32199430946982
        ],
        "type": "Point"
      },
      "properties": {
        "anchor_kind": "amenity:hospital",
        "anchor_name": "Rahul Children Hospital",
        "archetype": "interchange-elevated",
        "chainage_m": 3211.4,
        "corridor_offset_m": 2.252,
        "id": "line-3-0718-0681-s003211",
        "junction_group": 2,
        "line": "line-3",
        "platform_length_m": 85.0
      },
      "type": "Feature"
    },
    {
      "geometry": {
        "coordinates": [
          73.16026872411103,
          22.32217427563618
        ],
        "type": "Point"
      },
      "properties": {
        "anchor_kind": "amenity:hospital",
        "anchor_name": "Desai Eye Institute and Research Centre",
        "archetype": "interchange-elevated",
        "chainage_m": 3496.2,
        "corridor_offset_m": 6.073,
        "id": "line-3-0717-0694-s003496",
        "junction_group": 2,
        "line": "line-3",
        "platform_length_m": 85.0
      },
      "type": "Feature"
    },
    {
      "geometry": {
        "coordinates": [
          73.17250303601745,
          22.320554580138932
        ],
        "type": "Point"
      },
      "properties": {
        "anchor_kind": "amenity:hospital",
        "anchor_name": "Centre For Sight, Allkapuri 2",
        "archetype": "interchange-elevated",
        "chainage_m": 5234.5,
        "corridor_offset_m": 16.335,
        "id": "line-3-0726-0757-s005234",
        "junction_group": 2,
        "line": "line-3",
        "platform_length_m": 85.0
      },
      "type": "Feature"
    },
    {
      "geometry": {
        "coordinates": [
          73.19056321073641,
          22.323973937299787
        ],
        "type": "Point"
      },
      "properties": {
        "anchor_kind": "amenity:hospital",
        "anchor_name": "Eye-Q Super Speciality Eye Hospitals, BPC Road",
        "archetype": "standard",
        "chainage_m": 7251.9,
        "corridor_offset_m": 13.547,
        "id": "line-3-0707-0850-s007252",
        "junction_group": null,
        "line": "line-3",
        "platform_length_m": 85.0
      },
      "type": "Feature"
    },
    {
      "geometry": {
        "coordinates": [
          73.20668143118452,
          22.32739329446064
        ],
        "type": "Point"
      },
      "properties": {
        "anchor_kind": "amenity:hospital",
        "anchor_name": "Aayush Children Hospital",
        "archetype": "standard",
        "chainage_m": 9253.5,
        "corridor_offset_m": 10.482,
        "id": "line-3-0688-0933-s009254",
        "junction_group": null,
        "line": "line-3",
        "platform_length_m": 85.0
      },
      "type": "Feature"
    },
    {
      "geometry": {
        "coordinates": [
          73.22357643334098,
          22.32199430946982
        ],
        "type": "Point"
      },
      "properties": {
        "anchor_kind": "amenity:hospital",
        "anchor_name": "Pranayam Lung Institute And Research Centre Hospital",
        "archetype": "standard",
        "chainage_m": 11258.6,
        "corridor_offset_m": 7.191,
        "id": "line-3-0718-1020-s011259",
        "junction_group": null,
        "line": "line-3",
        "platform_length_m": 85.0
      },
      "type": "Feature"
    },
    {
      "geometry": {
        "coordinates": [
          73.23872367665368,
          22.31911485080805
        ],
        "type": "Point"
      },
      "properties": {
        "anchor_kind": "amenity:hospital",
        "anchor_name": "Ankur Children Hospital, Vihar Road",
        "archetype": "standard",
        "chainage_m": 13266.0,
        "corridor_offset_m": 4.376,
        "id": "line-3-0734-1098-s013266",
        "junction_group": null,
        "line": "line-3",
        "platform_length_m": 85.0
      },
      "type": "Feature"
    },
    {
      "geometry": {
        "coordinates": [
          73.25289994283094,
          22.321634377137098
        ],
        "type": "Point"
      },
      "properties": {
        "anchor_kind": null,
        "anchor_name": null,
        "archetype": "standard",
        "chainage_m": 15274.7,
        "corridor_offset_m": 1.901,
        "id": "line-3-0720-1171-s015275",
        "junction_group": null,
        "line": "line-3",
        "platform_length_m": 85.0
      },
      "type": "Feature"
    },
    {
      "geometry": {
        "coordinates": [
          73.26319230046647,
          22.32739329446064
        ],
        "type": "Point"
      },
      "properties": {
        "anchor_kind": "amenity:hospital",
        "anchor_name": "Pioneer Homoeopathic Medical College & Hospital",
        "archetype": "terminal",
        "chainage_m": 16682.7,
        "corridor_offset_m": 0.0,
        "id": "line-3-0688-1224-s016683",
        "junction_group": null,
        "line": "line-3",
        "platform_length_m": 85.0
      },
      "type": "Feature"
    },
    {
      "geometry": {
        "coordinates": [
          73.11288503990212,
          22.405498610661194
        ],
        "type": "Point"
      },
      "properties": {
        "anchor_kind": "public_transport:station",
        "anchor_name": "Ranoli",
        "archetype": "terminal",
        "chainage_m": 0.0,
        "corridor_offset_m": 0.0,
        "id": "line-4-0254-0450-s000000",
        "junction_group": null,
        "line": "line-4",
        "platform_length_m": 85.0
      },
      "type": "Feature"
    },
    {
      "geometry": {
        "coordinates": [
          73.13016843291275,
          22.384982467696073
        ],
        "type": "Point"
      },
      "properties": {
        "anchor_kind": null,
        "anchor_name": null,
        "archetype": "halt",
        "chainage_m": 3017.3,
        "corridor_offset_m": 14.141,
        "id": "line-4-0368-0539-s003017",
        "junction_group": null,
        "line": "line-4",
        "platform_length_m": 81.0
      },
      "type": "Feature"
    },
    {
      "geometry": {
        "coordinates": [
          73.14065498597539,
          22.370765140553576
        ],
        "type": "Point"
      },
      "properties": {
        "anchor_kind": "amenity:hospital",
        "anchor_name": "Beena Gopal Nursing and Maternity Hospital",
        "archetype": "interchange-elevated",
        "chainage_m": 5044.7,
        "corridor_offset_m": 8.94,
        "id": "line-4-0447-0593-s005045",
        "junction_group": 4,
        "line": "line-4",
        "platform_length_m": 85.0
      },
      "type": "Feature"
    },
    {
      "geometry": {
        "coordinates": [
          73.1429853311004,
          22.367525749559082
        ],
        "type": "Point"
      },
      "properties": {
        "anchor_kind": "public_transport:station",
        "anchor_name": "Bajva",
        "archetype": "interchange-elevated",
        "chainage_m": 5504.1,
        "corridor_offset_m": 6.639,
        "id": "line-4-0465-0605-s005504",
        "junction_group": 4,
        "line": "line-4",
        "platform_length_m": 85.0
      },
      "type": "Feature"
    },
    {
      "geometry": {
        "coordinates": [
          73.14648084878796,
          22.355827948745635
        ],
        "type": "Point"
      },
      "properties": {
        "anchor_kind": null,
        "anchor_name": null,
        "archetype": "standard",
        "chainage_m": 7069.2,
        "corridor_offset_m": 26.71,
        "id": "line-4-0530-0623-s007069",
        "junction_group": null,
        "line": "line-4",
        "platform_length_m": 85.0
      },
      "type": "Feature"
    },
    {
      "geometry": {
        "coordinates": [
          73.15094734361092,
          22.343230317100385
        ],
        "type": "Point"
      },
      "properties": {
        "anchor_kind": null,
        "anchor_name": null,
        "archetype": "interchange-elevated",
        "chainage_m": 8659.7,
        "corridor_offset_m": 46.462,
        "id": "line-4-0600-0646-s008660",
        "junction_group": 3,
        "line": "line-4",
        "platform_length_m": 85.0
      },
      "type": "Feature"
    },
    {
      "geometry": {
        "coordinates": [
          73.15308349330887,
          22.34035085843861
        ],
        "type": "Point"
      },
      "properties": {
        "anchor_kind": "amenity:hospital",
        "anchor_name": "Care Multispeciality Hospital",
        "archetype": "interchange-elevated",
        "chainage_m": 9070.8,
        "corridor_offset_m": 50.149,
        "id": "line-4-0616-0657-s009071",
        "junction_group": 3,
        "line": "line-4",
        "platform_length_m": 85.0
      },
      "type": "Feature"
    },
    {
      "geometry": {
        "coordinates": [
          73.15463705672555,
          22.337831332109563
        ],
        "type": "Point"
      },
      "properties": {
        "anchor_kind": null,
        "anchor_name": null,
        "archetype": "interchange-elevated",
        "chainage_m": 9417.1,
        "corridor_offset_m": 51.508,
        "id": "line-4-0630-0665-s009417",
        "junction_group": 3,
        "line": "line-4",
        "platform_length_m": 85.0
      },
      "type": "Feature"
    },
    {
      "geometry": {
        "coordinates": [
          73.1472576304963,
          22.331532516286938
        ],
        "type": "Point"
      },
      "properties": {
        "anchor_kind": null,
        "anchor_name": null,
        "archetype": "interchange-elevated",
        "chainage_m": 10589.1,
        "corridor_offset_m": 74.769,
        "id": "line-4-0665-0627-s010589",
        "junction_group": 3,
        "line": "line-4",
        "platform_length_m": 85.0
      },
      "type": "Feature"
    },
    {
      "geometry": {
        "coordinates": [
          73.15114153903801,
          22.3174951553108
        ],
        "type": "Point"
      },
      "properties": {
        "anchor_kind": "amenity:hospital",
        "anchor_name": "Manav Hospital, Vadodara",
        "archetype": "interchange-elevated",
        "chainage_m": 12314.7,
        "corridor_offset_m": 75.017,
        "id": "line-4-0743-0647-s012315",
        "junction_group": 2,
        "line": "line-4",
        "platform_length_m": 85.0
      },
      "type": "Feature"
    },
    {
      "geometry": {
        "coordinates": [
          73.15191832074635,
          22.313355933484505
        ],
        "type": "Point"
      },
      "properties": {
        "anchor_kind": "amenity:hospital",
        "anchor_name": "Unity Hospital, Vadodara",
        "archetype": "interchange-elevated",
        "chainage_m": 12824.4,
        "corridor_offset_m": 80.09,
        "id": "line-4-0766-0651-s012824",
        "junction_group": 2,
        "line": "line-4",
        "platform_length_m": 85.0
      },
      "type": "Feature"
    },
    {
      "geometry": {
        "coordinates": [
          73.15211251617345,
          22.307956948493683
        ],
        "type": "Point"
      },
      "properties": {
        "anchor_kind": "amenity:hospital",
        "anchor_name": "Madhuvan Maternity and Eye Hospital",
        "archetype": "interchange-elevated",
        "chainage_m": 13532.1,
        "corridor_offset_m": 87.0,
        "id": "line-4-0796-0652-s013532",
        "junction_group": 2,
        "line": "line-4",
        "platform_length_m": 85.0
      },
      "type": "Feature"
    },
    {
      "geometry": {
        "coordinates": [
          73.15191832074635,
          22.302917895835584
        ],
        "type": "Point"
      },
      "properties": {
        "anchor_kind": null,
        "anchor_name": null,
        "archetype": "interchange-elevated",
        "chainage_m": 14100.4,
        "corridor_offset_m": 71.335,
        "id": "line-4-0824-0651-s014100",
        "junction_group": 2,
        "line": "line-4",
        "platform_length_m": 85.0
      },
      "type": "Feature"
    },
    {
      "geometry": {
        "coordinates": [
          73.15288929788179,
          22.29032026419033
        ],
        "type": "Point"
      },
      "properties": {
        "anchor_kind": "amenity:hospital",
        "anchor_name": "Kalpana Group of Hospitals",
        "archetype": "interchange-elevated",
        "chainage_m": 15541.8,
        "corridor_offset_m": 26.726,
        "id": "line-4-0894-0656-s015542",
        "junction_group": 2,
        "line": "line-4",
        "platform_length_m": 85.0
      },
      "type": "Feature"
    },
    {
      "geometry": {
        "coordinates": [
          73.16473521893401,
          22.288340636360363
        ],
        "type": "Point"
      },
      "properties": {
        "anchor_kind": "amenity:hospital",
        "anchor_name": "Venus Super Speciality Hospital",
        "archetype": "interchange-elevated",
        "chainage_m": 17140.7,
        "corridor_offset_m": 41.67,
        "id": "line-4-0905-0717-s017141",
        "junction_group": 1,
        "line": "line-4",
        "platform_length_m": 85.0
      },
      "type": "Feature"
    },
    {
      "geometry": {
        "coordinates": [
          73.1649294143611,
          22.28492127919951
        ],
        "type": "Point"
      },
      "properties": {
        "anchor_kind": null,
        "anchor_name": null,
        "archetype": "interchange-elevated",
        "chainage_m": 17529.0,
        "corridor_offset_m": 31.731,
        "id": "line-4-0924-0718-s017529",
        "junction_group": 1,
        "line": "line-4",
        "platform_length_m": 85.0
      },
      "type": "Feature"
    },
    {
      "geometry": {
        "coordinates": [
          73.16376424179859,
          22.275203106216033
        ],
        "type": "Point"
      },
      "properties": {
        "anchor_kind": null,
        "anchor_name": null,
        "archetype": "interchange-elevated",
        "chainage_m": 18791.2,
        "corridor_offset_m": 23.78,
        "id": "line-4-0978-0712-s018791",
        "junction_group": 1,
        "line": "line-4",
        "platform_length_m": 85.0
      },
      "type": "Feature"
    },
    {
      "geometry": {
        "coordinates": [
          73.1758043582779,
          22.274483241550588
        ],
        "type": "Point"
      },
      "properties": {
        "anchor_kind": null,
        "anchor_name": null,
        "archetype": "interchange-elevated",
        "chainage_m": 20205.8,
        "corridor_offset_m": 8.597,
        "id": "line-4-0982-0774-s020206",
        "junction_group": 1,
        "line": "line-4",
        "platform_length_m": 85.0
      },
      "type": "Feature"
    },
    {
      "geometry": {
        "coordinates": [
          73.17774631254875,
          22.264225170068027
        ],
        "type": "Point"
      },
      "properties": {
        "anchor_kind": "amenity:hospital",
        "anchor_name": "Medistar Hospital",
        "archetype": "standard",
        "chainage_m": 21567.2,
        "corridor_offset_m": 20.639,
        "id": "line-4-1039-0784-s021567",
        "junction_group": null,
        "line": "line-4",
        "platform_length_m": 85.0
      },
      "type": "Feature"
    },
    {
      "geometry": {
        "coordinates": [
          73.18551412963218,
          22.259006151243565
        ],
        "type": "Point"
      },
      "properties": {
        "anchor_kind": null,
        "anchor_name": null,
        "archetype": "terminal",
        "chainage_m": 22945.2,
        "corridor_offset_m": 5.993,
        "id": "line-4-1068-0824-s022945",
        "junction_group": 5,
        "line": "line-4",
        "platform_length_m": 85.0
      },
      "type": "Feature"
    },
    {
      "geometry": {
        "coordinates": [
          73.20124395922613,
          22.351328794586617
        ],
        "type": "Point"
      },
      "properties": {
        "anchor_kind": "amenity:hospital",
        "anchor_name": "Schvijk hospital",
        "archetype": "terminal",
        "chainage_m": 0.0,
        "corridor_offset_m": 0.0,
        "id": "line-5-0555-0905-s000000",
        "junction_group": null,
        "line": "line-5",
        "platform_length_m": 85.0
      },
      "type": "Feature"
    },
    {
      "geometry": {
        "coordinates": [
          73.18570832505927,
          22.347729471259402
        ],
        "type": "Point"
      },
      "properties": {
        "anchor_kind": "amenity:hospital",
        "anchor_name": "Gopinathji Hospital",
        "archetype": "standard",
        "chainage_m": 2012.5,
        "corridor_offset_m": 4.667,
        "id": "line-5-0575-0825-s002013",
        "junction_group": null,
        "line": "line-5",
        "platform_length_m": 85.0
      },
      "type": "Feature"
    },
    {
      "geometry": {
        "coordinates": [
          73.17813470340293,
          22.33981095993953
        ],
        "type": "Point"
      },
      "properties": {
        "anchor_kind": "amenity:hospital",
        "anchor_name": "Dr. Bhavesh Patel's Hospital",
        "archetype": "major",
        "chainage_m": 3668.5,
        "corridor_offset_m": 9.798,
        "id": "line-5-0619-0786-s003669",
        "junction_group": null,
        "line": "line-5",
        "platform_length_m": 85.0
      },
      "type": "Feature"
    },
    {
      "geometry": {
        "coordinates": [
          73.1758043582779,
          22.324333869632508
        ],
        "type": "Point"
      },
      "properties": {
        "anchor_kind": null,
        "anchor_name": null,
        "archetype": "interchange-elevated",
        "chainage_m": 5670.2,
        "corridor_offset_m": 14.908,
        "id": "line-5-0705-0774-s005670",
        "junction_group": 2,
        "line": "line-5",
        "platform_length_m": 85.0
      },
      "type": "Feature"
    },
    {
      "geometry": {
        "coordinates": [
          73.16803654119447,
          22.316415358312636
        ],
        "type": "Point"
      },
      "properties": {
        "anchor_kind": "amenity:hospital",
        "anchor_name": "eye hosptial",
        "archetype": "interchange-elevated",
        "chainage_m": 6893.3,
        "corridor_offset_m": 34.646,
        "id": "line-5-0749-0734-s006893",
        "junction_group": 2,
        "line": "line-5",
        "platform_length_m": 85.0
      },
      "type": "Feature"
    },
    {
      "geometry": {
        "coordinates": [
          73.16473521893401,
          22.312816034985424
        ],
        "type": "Point"
      },
      "properties": {
        "anchor_kind": null,
        "anchor_name": null,
        "archetype": "interchange-elevated",
        "chainage_m": 7481.0,
        "corridor_offset_m": 33.133,
        "id": "line-5-0769-0717-s007481",
        "junction_group": 2,
        "line": "line-5",
        "platform_length_m": 85.0
      },
      "type": "Feature"
    },
    {
      "geometry": {
        "coordinates": [
          73.16395843722567,
          22.308316880826403
        ],
        "type": "Point"
      },
      "properties": {
        "anchor_kind": "amenity:hospital",
        "anchor_name": "Sankalp Eye Hospital and Retina Centre",
        "archetype": "interchange-elevated",
        "chainage_m": 8094.1,
        "corridor_offset_m": 36.914,
        "id": "line-5-0794-0713-s008094",
        "junction_group": 2,
        "line": "line-5",
        "platform_length_m": 85.0
      },
      "type": "Feature"
    },
    {
      "geometry": {
        "coordinates": [
          73.15133573446509,
          22.303457794334665
        ],
        "type": "Point"
      },
      "properties": {
        "anchor_kind": null,
        "anchor_name": null,
        "archetype": "interchange-elevated",
        "chainage_m": 9821.8,
        "corridor_offset_m": 33.044,
        "id": "line-5-0821-0648-s009822",
        "junction_group": 2,
        "line": "line-5",
        "platform_length_m": 85.0
      },
      "type": "Feature"
    },
    {
      "geometry": {
        "coordinates": [
          73.14861699848589,
          22.303277828168305
        ],
        "type": "Point"
      },
      "properties": {
        "anchor_kind": "amenity:hospital",
        "anchor_name": "Mangalam Hospital",
        "archetype": "interchange-elevated",
        "chainage_m": 10110.1,
        "corridor_offset_m": 37.978,
        "id": "line-5-0822-0634-s010110",
        "junction_group": 2,
        "line": "line-5",
        "platform_length_m": 85.0
      },
      "type": "Feature"
    },
    {
      "geometry": {
        "coordinates": [
          73.13152780090235,
          22.298598707842924
        ],
        "type": "Point"
      },
      "properties": {
        "anchor_kind": null,
        "anchor_name": null,
        "archetype": "standard",
        "chainage_m": 12120.6,
        "corridor_offset_m": 30.893,
        "id": "line-5-0848-0546-s012121",
        "junction_group": null,
        "line": "line-5",
        "platform_length_m": 85.0
      },
      "type": "Feature"
    },
    {
      "geometry": {
        "coordinates": [
          73.12783808778772,
          22.285281211532233
        ],
        "type": "Point"
      },
      "properties": {
        "anchor_kind": "amenity:hospital",
        "anchor_name": "Sterling Cancer Hospital",
        "archetype": "standard",
        "chainage_m": 14143.5,
        "corridor_offset_m": 65.197,
        "id": "line-5-0922-0527-s014143",
        "junction_group": null,
        "line": "line-5",
        "platform_length_m": 85.0
      },
      "type": "Feature"
    },
    {
      "geometry": {
        "coordinates": [
          73.1144386033188,
          22.284021448367707
        ],
        "type": "Point"
      },
      "properties": {
        "anchor_kind": null,
        "anchor_name": null,
        "archetype": "standard",
        "chainage_m": 16152.0,
        "corridor_offset_m": 40.82,
        "id": "line-5-0929-0458-s016152",
        "junction_group": null,
        "line": "line-5",
        "platform_length_m": 85.0
      },
      "type": "Feature"
    },
    {
      "geometry": {
        "coordinates": [
          73.10589400452703,
          22.265304967066193
        ],
        "type": "Point"
      },
      "properties": {
        "anchor_kind": null,
        "anchor_name": null,
        "archetype": "halt",
        "chainage_m": 19179.9,
        "corridor_offset_m": 60.745,
        "id": "line-5-1033-0414-s019180",
        "junction_group": null,
        "line": "line-5",
        "platform_length_m": 81.0
      },
      "type": "Feature"
    },
    {
      "geometry": {
        "coordinates": [
          73.0983203828707,
          22.25522686174999
        ],
        "type": "Point"
      },
      "properties": {
        "anchor_kind": null,
        "anchor_name": null,
        "archetype": "halt",
        "chainage_m": 21168.5,
        "corridor_offset_m": 9.017,
        "id": "line-5-1089-0375-s021168",
        "junction_group": null,
        "line": "line-5",
        "platform_length_m": 81.0
      },
      "type": "Feature"
    },
    {
      "geometry": {
        "coordinates": [
          73.0833673349851,
          22.246588485764676
        ],
        "type": "Point"
      },
      "properties": {
        "anchor_kind": "amenity:hospital",
        "anchor_name": "Urmi Children Hospital",
        "archetype": "terminal",
        "chainage_m": 23164.7,
        "corridor_offset_m": 0.0,
        "id": "line-5-1137-0298-s023165",
        "junction_group": null,
        "line": "line-5",
        "platform_length_m": 85.0
      },
      "type": "Feature"
    },
    {
      "geometry": {
        "coordinates": [
          73.14143176768373,
          22.368605546557248
        ],
        "type": "Point"
      },
      "properties": {
        "anchor_kind": "amenity:hospital",
        "anchor_name": "Beena Gopal Nursing and Maternity Hospital",
        "archetype": "interchange-elevated",
        "chainage_m": 0.0,
        "corridor_offset_m": 0.0,
        "id": "line-6-0459-0597-s000000",
        "junction_group": 4,
        "line": "line-6",
        "platform_length_m": 85.0
      },
      "type": "Feature"
    },
    {
      "geometry": {
        "coordinates": [
          73.1429853311004,
          22.367525749559082
        ],
        "type": "Point"
      },
      "properties": {
        "anchor_kind": "public_transport:station",
        "anchor_name": "Bajva",
        "archetype": "interchange-elevated",
        "chainage_m": 209.7,
        "corridor_offset_m": 6.652,
        "id": "line-6-0465-0605-s000210",
        "junction_group": 4,
        "line": "line-6",
        "platform_length_m": 85.0
      },
      "type": "Feature"
    },
    {
      "geometry": {
        "coordinates": [
          73.15599642471516,
          22.361406899902818
        ],
        "type": "Point"
      },
      "properties": {
        "anchor_kind": null,
        "anchor_name": null,
        "archetype": "standard",
        "chainage_m": 2007.1,
        "corridor_offset_m": 12.279,
        "id": "line-6-0499-0672-s002007",
        "junction_group": null,
        "line": "line-6",
        "platform_length_m": 85.0
      },
      "type": "Feature"
    },
    {
      "geometry": {
        "coordinates": [
          73.15910355154853,
          22.345389911096714
        ],
        "type": "Point"
      },
      "properties": {
        "anchor_kind": null,
        "anchor_name": null,
        "archetype": "interchange-elevated",
        "chainage_m": 3952.8,
        "corridor_offset_m": 11.04,
        "id": "line-6-0588-0688-s003953",
        "junction_group": 3,
        "line": "line-6",
        "platform_length_m": 85.0
      },
      "type": "Feature"
    },
    {
      "geometry": {
        "coordinates": [
          73.15852096526727,
          22.34197055393586
        ],
        "type": "Point"
      },
      "properties": {
        "anchor_kind": null,
        "anchor_name": null,
        "archetype": "interchange-elevated",
        "chainage_m": 4447.4,
        "corridor_offset_m": 34.874,
        "id": "line-6-0607-0685-s004447",
        "junction_group": 3,
        "line": "line-6",
        "platform_length_m": 85.0
      },
      "type": "Feature"
    },
    {
      "geometry": {
        "coordinates": [
          73.15852096526727,
          22.338551196775008
        ],
        "type": "Point"
      },
      "properties": {
        "anchor_kind": null,
        "anchor_name": null,
        "archetype": "interchange-elevated",
        "chainage_m": 4843.9,
        "corridor_offset_m": 37.544,
        "id": "line-6-0626-0685-s004844",
        "junction_group": 3,
        "line": "line-6",
        "platform_length_m": 85.0
      },
      "type": "Feature"
    },
    {
      "geometry": {
        "coordinates": [
          73.16026872411103,
          22.32217427563618
        ],
        "type": "Point"
      },
      "properties": {
        "anchor_kind": "amenity:hospital",
        "anchor_name": "Desai Eye Institute and Research Centre",
        "archetype": "interchange-elevated",
        "chainage_m": 7185.0,
        "corridor_offset_m": 59.746,
        "id": "line-6-0717-0694-s007185",
        "junction_group": 2,
        "line": "line-6",
        "platform_length_m": 85.0
      },
      "type": "Feature"
    },
    {
      "geometry": {
        "coordinates": [
          73.16473521893401,
          22.312816034985424
        ],
        "type": "Point"
      },
      "properties": {
        "anchor_kind": null,
        "anchor_name": null,
        "archetype": "interchange-elevated",
        "chainage_m": 8490.7,
        "corridor_offset_m": 63.382,
        "id": "line-6-0769-0717-s008491",
        "junction_group": 2,
        "line": "line-6",
        "platform_length_m": 85.0
      },
      "type": "Feature"
    },
    {
      "geometry": {
        "coordinates": [
          73.17425079486121,
          22.310656440989092
        ],
        "type": "Point"
      },
      "properties": {
        "anchor_kind": "amenity:hospital",
        "anchor_name": "Bina Clinic Eye Care Centre",
        "archetype": "major",
        "chainage_m": 9708.7,
        "corridor_offset_m": 55.737,
        "id": "line-6-0781-0766-s009709",
        "junction_group": null,
        "line": "line-6",
        "platform_length_m": 85.0
      },
      "type": "Feature"
    },
    {
      "geometry": {
        "coordinates": [
          73.17269723144453,
          22.301478166504697
        ],
        "type": "Point"
      },
      "properties": {
        "anchor_kind": "amenity:hospital",
        "anchor_name": "Dr. Kadam Eye Hospital & Institute",
        "archetype": "interchange-elevated",
        "chainage_m": 10919.8,
        "corridor_offset_m": 145.992,
        "id": "line-6-0832-0758-s010920",
        "junction_group": 1,
        "line": "line-6",
        "platform_length_m": 85.0
      },
      "type": "Feature"
    },
    {
      "geometry": {
        "coordinates": [
          73.17211464516326,
          22.29895864017565
        ],
        "type": "Point"
      },
      "properties": {
        "anchor_kind": "amenity:hospital",
        "anchor_name": "Vadilal Eye Hospital",
        "archetype": "interchange-elevated",
        "chainage_m": 11224.7,
        "corridor_offset_m": 147.231,
        "id": "line-6-0846-0755-s011225",
        "junction_group": 1,
        "line": "line-6",
        "platform_length_m": 85.0
      },
      "type": "Feature"
    },
    {
      "geometry": {
        "coordinates": [
          73.16978430003824,
          22.288880534859445
        ],
        "type": "Point"
      },
      "properties": {
        "anchor_kind": "amenity:hospital",
        "anchor_name": "Life Care Hospital",
        "archetype": "interchange-elevated",
        "chainage_m": 12444.1,
        "corridor_offset_m": 162.002,
        "id": "line-6-0902-0743-s012444",
        "junction_group": 1,
        "line": "line-6",
        "platform_length_m": 85.0
      },
      "type": "Feature"
    },
    {
      "geometry": {
        "coordinates": [
          73.17056108174658,
          22.28492127919951
        ],
        "type": "Point"
      },
      "properties": {
        "anchor_kind": null,
        "anchor_name": null,
        "archetype": "interchange-elevated",
        "chainage_m": 13023.5,
        "corridor_offset_m": 171.802,
        "id": "line-6-0924-0747-s013023",
        "junction_group": 1,
        "line": "line-6",
        "platform_length_m": 85.0
      },
      "type": "Feature"
    },
    {
      "geometry": {
        "coordinates": [
          73.17638694455916,
          22.278622463376884
        ],
        "type": "Point"
      },
      "properties": {
        "anchor_kind": null,
        "anchor_name": null,
        "archetype": "interchange-elevated",
        "chainage_m": 14187.7,
        "corridor_offset_m": 204.375,
        "id": "line-6-0959-0777-s014188",
        "junction_group": 1,
        "line": "line-6",
        "platform_length_m": 85.0
      },
      "type": "Feature"
    },
    {
      "geometry": {
        "coordinates": [
          73.1798824622467,
          22.278622463376884
        ],
        "type": "Point"
      },
      "properties": {
        "anchor_kind": null,
        "anchor_name": null,
        "archetype": "interchange-elevated",
        "chainage_m": 14592.6,
        "corridor_offset_m": 211.314,
        "id": "line-6-0959-0795-s014593",
        "junction_group": 1,
        "line": "line-6",
        "platform_length_m": 85.0
      },
      "type": "Feature"
    },
    {
      "geometry": {
        "coordinates": [
          73.18745608390304,
          22.26998408739157
        ],
        "type": "Point"
      },
      "properties": {
        "anchor_kind": "amenity:hospital",
        "anchor_name": "Shree Vraj Hospital and I.C.U",
        "archetype": "standard",
        "chainage_m": 16150.0,
        "corridor_offset_m": 218.296,
        "id": "line-6-1007-0834-s016150",
        "junction_group": null,
        "line": "line-6",
        "platform_length_m": 85.0
      },
      "type": "Feature"
    },
    {
      "geometry": {
        "coordinates": [
          73.18551412963218,
          22.259186117409925
        ],
        "type": "Point"
      },
      "properties": {
        "anchor_kind": null,
        "anchor_name": null,
        "archetype": "interchange-elevated",
        "chainage_m": 17456.3,
        "corridor_offset_m": 181.521,
        "id": "line-6-1067-0824-s017456",
        "junction_group": 5,
        "line": "line-6",
        "platform_length_m": 85.0
      },
      "type": "Feature"
    },
    {
      "geometry": {
        "coordinates": [
          73.17677533541332,
          22.25270733542094
        ],
        "type": "Point"
      },
      "properties": {
        "anchor_kind": null,
        "anchor_name": null,
        "archetype": "standard",
        "chainage_m": 18818.5,
        "corridor_offset_m": 158.095,
        "id": "line-6-1103-0779-s018819",
        "junction_group": null,
        "line": "line-6",
        "platform_length_m": 85.0
      },
      "type": "Feature"
    },
    {
      "geometry": {
        "coordinates": [
          73.17619274913207,
          22.24064960227477
        ],
        "type": "Point"
      },
      "properties": {
        "anchor_kind": null,
        "anchor_name": null,
        "archetype": "standard",
        "chainage_m": 20183.4,
        "corridor_offset_m": 108.005,
        "id": "line-6-1170-0776-s020183",
        "junction_group": null,
        "line": "line-6",
        "platform_length_m": 85.0
      },
      "type": "Feature"
    },
    {
      "geometry": {
        "coordinates": [
          73.1864851067676,
          22.235790515783034
        ],
        "type": "Point"
      },
      "properties": {
        "anchor_kind": "amenity:hospital",
        "anchor_name": "Aashray Nursing Home",
        "archetype": "standard",
        "chainage_m": 22202.8,
        "corridor_offset_m": 135.533,
        "id": "line-6-1197-0829-s022203",
        "junction_group": null,
        "line": "line-6",
        "platform_length_m": 85.0
      },
      "type": "Feature"
    },
    {
      "geometry": {
        "coordinates": [
          73.1744449902883,
          22.24046963610841
        ],
        "type": "Point"
      },
      "properties": {
        "anchor_kind": null,
        "anchor_name": null,
        "archetype": "standard",
        "chainage_m": 24220.2,
        "corridor_offset_m": 161.777,
        "id": "line-6-1171-0767-s024220",
        "junction_group": null,
        "line": "line-6",
        "platform_length_m": 85.0
      },
      "type": "Feature"
    },
    {
      "geometry": {
        "coordinates": [
          73.17327981772578,
          22.258106320411763
        ],
        "type": "Point"
      },
      "properties": {
        "anchor_kind": null,
        "anchor_name": null,
        "archetype": "standard",
        "chainage_m": 26229.9,
        "corridor_offset_m": 77.836,
        "id": "line-6-1073-0761-s026230",
        "junction_group": null,
        "line": "line-6",
        "platform_length_m": 85.0
      },
      "type": "Feature"
    },
    {
      "geometry": {
        "coordinates": [
          73.16357004637149,
          22.270703952057012
        ],
        "type": "Point"
      },
      "properties": {
        "anchor_kind": null,
        "anchor_name": null,
        "archetype": "interchange-elevated",
        "chainage_m": 28283.3,
        "corridor_offset_m": 85.567,
        "id": "line-6-1003-0711-s028283",
        "junction_group": 1,
        "line": "line-6",
        "platform_length_m": 85.0
      },
      "type": "Feature"
    },
    {
      "geometry": {
        "coordinates": [
          73.15308349330887,
          22.281501922038657
        ],
        "type": "Point"
      },
      "properties": {
        "anchor_kind": "amenity:hospital",
        "anchor_name": "Neuron - Neuro Surgical Hospital",
        "archetype": "standard",
        "chainage_m": 30246.9,
        "corridor_offset_m": 73.797,
        "id": "line-6-0943-0657-s030247",
        "junction_group": null,
        "line": "line-6",
        "platform_length_m": 85.0
      },
      "type": "Feature"
    },
    {
      "geometry": {
        "coordinates": [
          73.15230671160053,
          22.29481941834935
        ],
        "type": "Point"
      },
      "properties": {
        "anchor_kind": "amenity:hospital",
        "anchor_name": "Shishu Children Hospital",
        "archetype": "interchange-elevated",
        "chainage_m": 31760.1,
        "corridor_offset_m": 22.73,
        "id": "line-6-0869-0653-s031760",
        "junction_group": 2,
        "line": "line-6",
        "platform_length_m": 85.0
      },
      "type": "Feature"
    },
    {
      "geometry": {
        "coordinates": [
          73.15211251617345,
          22.29913860634201
        ],
        "type": "Point"
      },
      "properties": {
        "anchor_kind": "amenity:hospital",
        "anchor_name": "Swastik Hospital",
        "archetype": "interchange-elevated",
        "chainage_m": 32248.4,
        "corridor_offset_m": 6.237,
        "id": "line-6-0845-0652-s032248",
        "junction_group": 2,
        "line": "line-6",
        "platform_length_m": 85.0
      },
      "type": "Feature"
    },
    {
      "geometry": {
        "coordinates": [
          73.15133573446509,
          22.303457794334665
        ],
        "type": "Point"
      },
      "properties": {
        "anchor_kind": null,
        "anchor_name": null,
        "archetype": "interchange-elevated",
        "chainage_m": 32761.5,
        "corridor_offset_m": 11.066,
        "id": "line-6-0821-0648-s032762",
        "junction_group": 2,
        "line": "line-6",
        "platform_length_m": 85.0
      },
      "type": "Feature"
    },
    {
      "geometry": {
        "coordinates": [
          73.14686923964213,
          22.312816034985424
        ],
        "type": "Point"
      },
      "properties": {
        "anchor_kind": "amenity:hospital",
        "anchor_name": "Shivani Hospital",
        "archetype": "interchange-elevated",
        "chainage_m": 34008.6,
        "corridor_offset_m": 34.325,
        "id": "line-6-0769-0625-s034009",
        "junction_group": 2,
        "line": "line-6",
        "platform_length_m": 85.0
      },
      "type": "Feature"
    },
    {
      "geometry": {
        "coordinates": [
          73.14201435396498,
          22.31893488464169
        ],
        "type": "Point"
      },
      "properties": {
        "anchor_kind": null,
        "anchor_name": null,
        "archetype": "interchange-elevated",
        "chainage_m": 35001.2,
        "corridor_offset_m": 32.708,
        "id": "line-6-0735-0600-s035001",
        "junction_group": 2,
        "line": "line-6",
        "platform_length_m": 85.0
      },
      "type": "Feature"
    },
    {
      "geometry": {
        "coordinates": [
          73.14240274481915,
          22.331352550120577
        ],
        "type": "Point"
      },
      "properties": {
        "anchor_kind": null,
        "anchor_name": null,
        "archetype": "interchange-elevated",
        "chainage_m": 36622.0,
        "corridor_offset_m": 44.492,
        "id": "line-6-0666-0602-s036622",
        "junction_group": 3,
        "line": "line-6",
        "platform_length_m": 85.0
      },
      "type": "Feature"
    },
    {
      "geometry": {
        "coordinates": [
          73.14609245793378,
          22.34233048626858
        ],
        "type": "Point"
      },
      "properties": {
        "anchor_kind": null,
        "anchor_name": null,
        "archetype": "interchange-elevated",
        "chainage_m": 38258.8,
        "corridor_offset_m": 19.894,
        "id": "line-6-0605-0621-s038259",
        "junction_group": 3,
        "line": "line-6",
        "platform_length_m": 85.0
      },
      "type": "Feature"
    },
    {
      "geometry": {
        "coordinates": [
          73.13677107743366,
          22.355108084080193
        ],
        "type": "Point"
      },
      "properties": {
        "anchor_kind": null,
        "anchor_name": null,
        "archetype": "standard",
        "chainage_m": 40291.0,
        "corridor_offset_m": 4.691,
        "id": "line-6-0534-0573-s040291",
        "junction_group": null,
        "line": "line-6",
        "platform_length_m": 85.0
      },
      "type": "Feature"
    }
  ],
  "type": "FeatureCollection"
}
