{
  "features": [
    {
      "geometry": {
        "coordinates": [
          62.24253619353743,
          34.37578432854623
        ],
        "type": "Point"
      },
      "properties": {
        "archetype": "main-heavy",
        "fleet_stalls": 5,
        "line": "line-1",
        "station": "line-1-0423-0728-s000000"
      },
      "type": "Feature"
    },
    {
      "geometry": {
        "coordinates": [
          62.217945129886466,
          34.32611366663067
        ],
        "type": "Point"
      },
      "properties": {
        "archetype": "main-heavy",
        "fleet_stalls": 5,
        "line": "line-2",
        "station": "line-2-0699-0615-s000000"
      },
      "type": "Feature"
    },
    {
      "geometry": {
        "coordinates": [
          62.31870320484574,
          34.36444646006551
        ],
        "type": "Point"
      },
      "properties": {
        "archetype": "main-heavy",
        "fleet_stalls": 10,
        "line": "line-3",
        "station": "line-3-0486-1078-s020683"
      },
      "type": "Feature"
    },
    {
      "geometry": {
        "coordinates": [
          62.20597602810945,
          34.34698974192852
        ],
        "type": "Point"
      },
      "properties": {
        "archetype": "main-heavy",
        "fleet_stalls": 2,
        "line": "line-4",
        "station": "line-4-0583-0560-s000000"
      },
      "type": "Feature"
    },
    {
      "geometry": {
        "coordinates": [
          62.217945129886466,
          34.32611366663067
        ],
        "type": "Point"
      },
      "properties": {
        "archetype": "main-heavy",
        "fleet_stalls": 4,
        "line": "line-5",
        "station": "line-5-0699-0615-s000000"
      },
      "type": "Feature"
    },
    {
      "geometry": {
        "coordinates": [
          62.225561831017295,
          34.36228686606918
        ],
        "type": "Point"
      },
      "properties": {
        "archetype": "main-heavy",
        "fleet_stalls": 2,
        "line": "line-6",
        "station": "line-6-0498-0650-s000000"
      },
      "type": "Feature"
    },
    {
      "geometry": {
        "coordinates": [
          62.171374442972244,
          34.35796767807652
        ],
        "type": "Point"
      },
      "properties": {
        "archetype": "main-heavy",
        "fleet_stalls": 5,
        "line": "line-7",
        "station": "line-7-0522-0401-s000000"
      },
      "type": "Feature"
    },
    {
      "geometry": {
        "coordinates": [
          62.217945129886466,
          34.32611366663067
        ],
        "type": "Point"
      },
      "properties": {
        "archetype": "main-heavy",
        "fleet_stalls": 4,
        "line": "line-8",
        "station": "line-8-0699-0615-s000000"
      },
      "type": "Feature"
    },
    {
      "geometry": {
        "coordinates": [
          62.17790304394153,
          34.324673937299785
        ],
        "type": "Point"
      },
      "properties": {
        "archetype": "main-heavy",
        "fleet_stalls": 4,
        "line": "line-9",
        "station": "line-9-0707-0431-s000000"
      },
      "type": "Feature"
    },
    {
      "geometry": {
        "coordinates": [
          62.217945129886466,
          34.32611366663067
        ],
        "type": "Point"
      },
      "properties": {
        "archetype": "main-heavy",
        "fleet_stalls": 3,
        "line": "line-10",
        "station": "line-10-0699-0615-s000000"
      },
      "type": "Feature"
    }
  ],
  "type": "FeatureCollection"
}
