{
  "features": [
    {
      "geometry": {
        "coordinates": [
          69.2831044316259,
          34.61406615556276
        ],
        "type": "Point"
      },
      "properties": {
        "archetype": "main-heavy",
        "fleet_stalls": 7,
        "line": "line-1",
        "station": "line-1-0477-1068-s000000"
      },
      "type": "Feature"
    },
    {
      "geometry": {
        "coordinates": [
          69.27045112602525,
          34.48431054961667
        ],
        "type": "Point"
      },
      "properties": {
        "archetype": "main-heavy",
        "fleet_stalls": 7,
        "line": "line-2",
        "station": "line-2-1198-1010-s000000"
      },
      "type": "Feature"
    },
    {
      "geometry": {
        "coordinates": [
          69.08872347834684,
          34.531821617535904
        ],
        "type": "Point"
      },
      "properties": {
        "archetype": "main-heavy",
        "fleet_stalls": 6,
        "line": "line-3",
        "station": "line-3-0934-0177-s000000"
      },
      "type": "Feature"
    },
    {
      "geometry": {
        "coordinates": [
          69.09417748938161,
          34.46379440665155
        ],
        "type": "Point"
      },
      "properties": {
        "archetype": "main-heavy",
        "fleet_stalls": 7,
        "line": "line-4",
        "station": "line-4-1312-0202-s000000"
      },
      "type": "Feature"
    },
    {
      "geometry": {
        "coordinates": [
          69.37974950716196,
          34.51706439189433
        ],
        "type": "Point"
      },
      "properties": {
        "archetype": "main-heavy",
        "fleet_stalls": 8,
        "line": "line-5",
        "station": "line-5-1016-1511-s028645"
      },
      "type": "Feature"
    },
    {
      "geometry": {
        "coordinates": [
          69.33502661667687,
          34.48665010977936
        ],
        "type": "Point"
      },
      "properties": {
        "archetype": "main-heavy",
        "fleet_stalls": 5,
        "line": "line-6",
        "station": "line-6-1185-1306-s000000"
      },
      "type": "Feature"
    },
    {
      "geometry": {
        "coordinates": [
          69.14260910737033,
          34.55593708382824
        ],
        "type": "Point"
      },
      "properties": {
        "archetype": "main-heavy",
        "fleet_stalls": 4,
        "line": "line-7",
        "station": "line-7-0800-0424-s002579"
      },
      "type": "Feature"
    }
  ],
  "type": "FeatureCollection"
}
