{
  "features": [
    {
      "geometry": {
        "coordinates": [
          31.74528515690213,
          26.56650723823921
        ],
        "type": "Point"
      },
      "properties": {
        "charger_bus_voltage_v": 650.0,
        "charger_contact_count": 4,
        "charger_efficiency": 0.98,
        "charger_max_current_a": 1650.0,
        "charger_max_kw": 1000.0,
        "grid_export_kw": 6000.0,
        "grid_import_kw": 6000.0,
        "line": "line-1",
        "pv_nameplate_kw": 5000.0,
        "station": "line-1-0509-0798-s000000",
        "storage_capacity_kwh": 40000.0,
        "storage_initial_soc": 0.6,
        "storage_max_charge_kw": 10000.0,
        "storage_max_discharge_kw": 10000.0,
        "storage_module_kwh": 500.0,
        "tier": "depot-main"
      },
      "type": "Feature"
    },
    {
      "geometry": {
        "coordinates": [
          31.71555816476498,
          26.567767001403737
        ],
        "type": "Point"
      },
      "properties": {
        "charger_bus_voltage_v": 650.0,
        "charger_contact_count": 4,
        "charger_efficiency": 0.98,
        "charger_max_current_a": 1650.0,
        "charger_max_kw": 1000.0,
        "grid_export_kw": 1000.0,
        "grid_import_kw": 1000.0,
        "line": "line-1",
        "pv_nameplate_kw": 300.0,
        "station": "line-1-0502-0650-s003018",
        "storage_capacity_kwh": 1000.0,
        "storage_initial_soc": 0.5,
        "storage_max_charge_kw": 1000.0,
        "storage_max_discharge_kw": 1000.0,
        "storage_module_kwh": 500.0,
        "tier": "standard"
      },
      "type": "Feature"
    },
    {
      "geometry": {
        "coordinates": [
          31.68040800514335,
          26.569386696900985
        ],
        "type": "Point"
      },
      "properties": {
        "charger_bus_voltage_v": 650.0,
        "charger_contact_count": 4,
        "charger_efficiency": 0.98,
        "charger_max_current_a": 1650.0,
        "charger_max_kw": 1000.0,
        "grid_export_kw": 1600.0,
        "grid_import_kw": 1600.0,
        "line": "line-1",
        "pv_nameplate_kw": 300.0,
        "station": "line-1-0493-0475-s006593",
        "storage_capacity_kwh": 1000.0,
        "storage_initial_soc": 0.6,
        "storage_max_charge_kw": 1000.0,
        "storage_max_discharge_kw": 1000.0,
        "storage_module_kwh": 500.0,
        "tier": "terminal"
      },
      "type": "Feature"
    },
    {
      "geometry": {
        "coordinates": [
          31.706519552290846,
          26.557148997588452
        ],
        "type": "Point"
      },
      "properties": {
        "charger_bus_voltage_v": 650.0,
        "charger_contact_count": 4,
        "charger_efficiency": 0.98,
        "charger_max_current_a": 1650.0,
        "charger_max_kw": 1000.0,
        "grid_export_kw": 6000.0,
        "grid_import_kw": 6000.0,
        "line": "line-2",
        "pv_nameplate_kw": 5000.0,
        "station": "line-2-0561-0605-s000000",
        "storage_capacity_kwh": 40000.0,
        "storage_initial_soc": 0.6,
        "storage_max_charge_kw": 10000.0,
        "storage_max_discharge_kw": 10000.0,
        "storage_module_kwh": 500.0,
        "tier": "depot-main"
      },
      "type": "Feature"
    },
    {
      "geometry": {
        "coordinates": [
          31.70029295258644,
          26.544911298275924
        ],
        "type": "Point"
      },
      "properties": {
        "charger_bus_voltage_v": 650.0,
        "charger_contact_count": 4,
        "charger_efficiency": 0.98,
        "charger_max_current_a": 1650.0,
        "charger_max_kw": 1000.0,
        "grid_export_kw": 1200.0,
        "grid_import_kw": 1200.0,
        "line": "line-2",
        "pv_nameplate_kw": 300.0,
        "station": "line-2-0629-0574-s001617",
        "storage_capacity_kwh": 1000.0,
        "storage_initial_soc": 0.5,
        "storage_max_charge_kw": 1000.0,
        "storage_max_discharge_kw": 1000.0,
        "storage_module_kwh": 500.0,
        "tier": "major"
      },
      "type": "Feature"
    },
    {
      "geometry": {
        "coordinates": [
          31.687036320957713,
          26.51827630565454
        ],
        "type": "Point"
      },
      "properties": {
        "charger_bus_voltage_v": 650.0,
        "charger_contact_count": 4,
        "charger_efficiency": 0.98,
        "charger_max_current_a": 1650.0,
        "charger_max_kw": 1000.0,
        "grid_export_kw": 1000.0,
        "grid_import_kw": 1000.0,
        "line": "line-2",
        "pv_nameplate_kw": 300.0,
        "station": "line-2-0777-0508-s005124",
        "storage_capacity_kwh": 1000.0,
        "storage_initial_soc": 0.5,
        "storage_max_charge_kw": 1000.0,
        "storage_max_discharge_kw": 1000.0,
        "storage_module_kwh": 500.0,
        "tier": "standard"
      },
      "type": "Feature"
    },
    {
      "geometry": {
        "coordinates": [
          31.668758237954464,
          26.460867098585467
        ],
        "type": "Point"
      },
      "properties": {
        "charger_bus_voltage_v": 650.0,
        "charger_contact_count": 4,
        "charger_efficiency": 0.98,
        "charger_max_current_a": 1650.0,
        "charger_max_kw": 1000.0,
        "grid_export_kw": 1600.0,
        "grid_import_kw": 1600.0,
        "line": "line-2",
        "pv_nameplate_kw": 300.0,
        "station": "line-2-1096-0417-s012854",
        "storage_capacity_kwh": 1000.0,
        "storage_initial_soc": 0.6,
        "storage_max_charge_kw": 1000.0,
        "storage_max_discharge_kw": 1000.0,
        "storage_module_kwh": 500.0,
        "tier": "terminal"
      },
      "type": "Feature"
    },
    {
      "geometry": {
        "coordinates": [
          31.707322984510768,
          26.562547982579275
        ],
        "type": "Point"
      },
      "properties": {
        "charger_bus_voltage_v": 650.0,
        "charger_contact_count": 4,
        "charger_efficiency": 0.98,
        "charger_max_current_a": 1650.0,
        "charger_max_kw": 1000.0,
        "grid_export_kw": 1600.0,
        "grid_import_kw": 1600.0,
        "line": "line-3",
        "pv_nameplate_kw": 300.0,
        "station": "line-3-0531-0609-s000000",
        "storage_capacity_kwh": 1000.0,
        "storage_initial_soc": 0.6,
        "storage_max_charge_kw": 1000.0,
        "storage_max_discharge_kw": 1000.0,
        "storage_module_kwh": 500.0,
        "tier": "terminal"
      },
      "type": "Feature"
    },
    {
      "geometry": {
        "coordinates": [
          31.72640449973394,
          26.53915238095238
        ],
        "type": "Point"
      },
      "properties": {
        "charger_bus_voltage_v": 650.0,
        "charger_contact_count": 4,
        "charger_efficiency": 0.98,
        "charger_max_current_a": 1650.0,
        "charger_max_kw": 1000.0,
        "grid_export_kw": 1000.0,
        "grid_import_kw": 1000.0,
        "line": "line-3",
        "pv_nameplate_kw": 300.0,
        "station": "line-3-0661-0704-s003610",
        "storage_capacity_kwh": 1000.0,
        "storage_initial_soc": 0.5,
        "storage_max_charge_kw": 1000.0,
        "storage_max_discharge_kw": 1000.0,
        "storage_module_kwh": 500.0,
        "tier": "standard"
      },
      "type": "Feature"
    },
    {
      "geometry": {
        "coordinates": [
          31.7967048189772,
          26.475624324227045
        ],
        "type": "Point"
      },
      "properties": {
        "charger_bus_voltage_v": 650.0,
        "charger_contact_count": 4,
        "charger_efficiency": 0.98,
        "charger_max_current_a": 1650.0,
        "charger_max_kw": 1000.0,
        "grid_export_kw": 6000.0,
        "grid_import_kw": 6000.0,
        "line": "line-3",
        "pv_nameplate_kw": 5000.0,
        "station": "line-3-1014-1054-s014760",
        "storage_capacity_kwh": 40000.0,
        "storage_initial_soc": 0.6,
        "storage_max_charge_kw": 10000.0,
        "storage_max_discharge_kw": 10000.0,
        "storage_module_kwh": 500.0,
        "tier": "depot-main"
      },
      "type": "Feature"
    }
  ],
  "type": "FeatureCollection"
}
