{
  "features": [
    {
      "geometry": {
        "coordinates": [
          67.10293904522875,
          36.69454134902639
        ],
        "type": "Point"
      },
      "properties": {
        "id": "interchange-000",
        "junction_group": 0,
        "line_count": 2,
        "lines": "line-2,line-3",
        "platform_count": 4,
        "platforms": "line-2-0630-0517-s011977,line-2-0631-0514-s012045,line-3-0630-0517-s011599,line-3-0631-0514-s011531"
      },
      "type": "Feature"
    },
    {
      "geometry": {
        "coordinates": [
          67.000746400608,
          36.662687337580536
        ],
        "type": "Point"
      },
      "properties": {
        "id": "interchange-001",
        "junction_group": 1,
        "line_count": 2,
        "lines": "line-2,line-3",
        "platform_count": 4,
        "platforms": "line-2-0809-0030-s024197,line-2-0810-0072-s023083,line-3-0801-0064-s000000,line-3-0810-0072-s000258"
      },
      "type": "Feature"
    }
  ],
  "type": "FeatureCollection"
}
