{
  "features": [
    {
      "geometry": {
        "coordinates": [
          22.458910317978372,
          -5.976067894035921
        ],
        "type": "Point"
      },
      "properties": {
        "charger_bus_voltage_v": 650.0,
        "charger_contact_count": 6,
        "charger_efficiency": 0.98,
        "charger_max_current_a": 2475.0,
        "charger_max_kw": 1500.0,
        "grid_export_kw": 2400.0,
        "grid_import_kw": 2400.0,
        "line": "line-1",
        "pv_nameplate_kw": 300.0,
        "station": "line-1-1244-1036-s000000",
        "storage_capacity_kwh": 1500.0,
        "storage_initial_soc": 0.6,
        "storage_max_charge_kw": 1500.0,
        "storage_max_discharge_kw": 1500.0,
        "storage_module_kwh": 500.0,
        "tier": "terminal"
      },
      "type": "Feature"
    },
    {
      "geometry": {
        "coordinates": [
          22.450601900586182,
          -5.961490634560703
        ],
        "type": "Point"
      },
      "properties": {
        "charger_bus_voltage_v": 650.0,
        "charger_contact_count": 6,
        "charger_efficiency": 0.98,
        "charger_max_current_a": 2475.0,
        "charger_max_kw": 1500.0,
        "grid_export_kw": 1500.0,
        "grid_import_kw": 1500.0,
        "line": "line-1",
        "pv_nameplate_kw": 300.0,
        "station": "line-1-1163-0990-s002001",
        "storage_capacity_kwh": 1500.0,
        "storage_initial_soc": 0.5,
        "storage_max_charge_kw": 1500.0,
        "storage_max_discharge_kw": 1500.0,
        "storage_module_kwh": 500.0,
        "tier": "standard"
      },
      "type": "Feature"
    },
    {
      "geometry": {
        "coordinates": [
          22.445002749734922,
          -5.945653611920959
        ],
        "type": "Point"
      },
      "properties": {
        "charger_bus_voltage_v": 650.0,
        "charger_contact_count": 6,
        "charger_efficiency": 0.98,
        "charger_max_current_a": 2475.0,
        "charger_max_kw": 1500.0,
        "grid_export_kw": 1500.0,
        "grid_import_kw": 1500.0,
        "line": "line-1",
        "pv_nameplate_kw": 300.0,
        "station": "line-1-1075-0959-s004018",
        "storage_capacity_kwh": 1500.0,
        "storage_initial_soc": 0.5,
        "storage_max_charge_kw": 1500.0,
        "storage_max_discharge_kw": 1500.0,
        "storage_module_kwh": 500.0,
        "tier": "standard"
      },
      "type": "Feature"
    },
    {
      "geometry": {
        "coordinates": [
          22.436694332342732,
          -5.931436284778462
        ],
        "type": "Point"
      },
      "properties": {
        "charger_bus_voltage_v": 650.0,
        "charger_contact_count": 6,
        "charger_efficiency": 0.98,
        "charger_max_current_a": 2475.0,
        "charger_max_kw": 1500.0,
        "grid_export_kw": 1500.0,
        "grid_import_kw": 1500.0,
        "line": "line-1",
        "pv_nameplate_kw": 300.0,
        "station": "line-1-0996-0913-s006026",
        "storage_capacity_kwh": 1500.0,
        "storage_initial_soc": 0.5,
        "storage_max_charge_kw": 1500.0,
        "storage_max_discharge_kw": 1500.0,
        "storage_module_kwh": 500.0,
        "tier": "standard"
      },
      "type": "Feature"
    },
    {
      "geometry": {
        "coordinates": [
          22.419896879788958,
          -5.931616250944823
        ],
        "type": "Point"
      },
      "properties": {
        "charger_bus_voltage_v": 650.0,
        "charger_contact_count": 6,
        "charger_efficiency": 0.98,
        "charger_max_current_a": 2475.0,
        "charger_max_kw": 1500.0,
        "grid_export_kw": 1500.0,
        "grid_import_kw": 1500.0,
        "line": "line-1",
        "pv_nameplate_kw": 300.0,
        "station": "line-1-0997-0820-s008027",
        "storage_capacity_kwh": 1500.0,
        "storage_initial_soc": 0.5,
        "storage_max_charge_kw": 1500.0,
        "storage_max_discharge_kw": 1500.0,
        "storage_module_kwh": 500.0,
        "tier": "standard"
      },
      "type": "Feature"
    },
    {
      "geometry": {
        "coordinates": [
          22.408517960317045,
          -5.922078044127704
        ],
        "type": "Point"
      },
      "properties": {
        "charger_bus_voltage_v": 650.0,
        "charger_contact_count": 6,
        "charger_efficiency": 0.98,
        "charger_max_current_a": 2475.0,
        "charger_max_kw": 1500.0,
        "grid_export_kw": 1500.0,
        "grid_import_kw": 1500.0,
        "line": "line-1",
        "pv_nameplate_kw": 300.0,
        "station": "line-1-0944-0757-s010052",
        "storage_capacity_kwh": 1500.0,
        "storage_initial_soc": 0.5,
        "storage_max_charge_kw": 1500.0,
        "storage_max_discharge_kw": 1500.0,
        "storage_module_kwh": 500.0,
        "tier": "standard"
      },
      "type": "Feature"
    },
    {
      "geometry": {
        "coordinates": [
          22.406892400392486,
          -5.910200277147896
        ],
        "type": "Point"
      },
      "properties": {
        "charger_bus_voltage_v": 650.0,
        "charger_contact_count": 6,
        "charger_efficiency": 0.98,
        "charger_max_current_a": 2475.0,
        "charger_max_kw": 1500.0,
        "grid_export_kw": 1800.0,
        "grid_import_kw": 1800.0,
        "line": "line-1",
        "pv_nameplate_kw": 300.0,
        "station": "line-1-0878-0748-s011669",
        "storage_capacity_kwh": 1500.0,
        "storage_initial_soc": 0.5,
        "storage_max_charge_kw": 1500.0,
        "storage_max_discharge_kw": 1500.0,
        "storage_module_kwh": 500.0,
        "tier": "interchange"
      },
      "type": "Feature"
    },
    {
      "geometry": {
        "coordinates": [
          22.40743425370067,
          -5.9060610553216
        ],
        "type": "Point"
      },
      "properties": {
        "charger_bus_voltage_v": 650.0,
        "charger_contact_count": 6,
        "charger_efficiency": 0.98,
        "charger_max_current_a": 2475.0,
        "charger_max_kw": 1500.0,
        "grid_export_kw": 1800.0,
        "grid_import_kw": 1800.0,
        "line": "line-1",
        "pv_nameplate_kw": 300.0,
        "station": "line-1-0855-0751-s012170",
        "storage_capacity_kwh": 1500.0,
        "storage_initial_soc": 0.5,
        "storage_max_charge_kw": 1500.0,
        "storage_max_discharge_kw": 1500.0,
        "storage_module_kwh": 500.0,
        "tier": "interchange"
      },
      "type": "Feature"
    },
    {
      "geometry": {
        "coordinates": [
          22.404183133851554,
          -5.89364338984271
        ],
        "type": "Point"
      },
      "properties": {
        "charger_bus_voltage_v": 650.0,
        "charger_contact_count": 6,
        "charger_efficiency": 0.98,
        "charger_max_current_a": 2475.0,
        "charger_max_kw": 1500.0,
        "grid_export_kw": 1800.0,
        "grid_import_kw": 1800.0,
        "line": "line-1",
        "pv_nameplate_kw": 300.0,
        "station": "line-1-0786-0733-s013827",
        "storage_capacity_kwh": 1500.0,
        "storage_initial_soc": 0.5,
        "storage_max_charge_kw": 1500.0,
        "storage_max_discharge_kw": 1500.0,
        "storage_module_kwh": 500.0,
        "tier": "interchange"
      },
      "type": "Feature"
    },
    {
      "geometry": {
        "coordinates": [
          22.401293249541226,
          -5.894003322175432
        ],
        "type": "Point"
      },
      "properties": {
        "charger_bus_voltage_v": 650.0,
        "charger_contact_count": 6,
        "charger_efficiency": 0.98,
        "charger_max_current_a": 2475.0,
        "charger_max_kw": 1500.0,
        "grid_export_kw": 1800.0,
        "grid_import_kw": 1800.0,
        "line": "line-1",
        "pv_nameplate_kw": 300.0,
        "station": "line-1-0788-0717-s014163",
        "storage_capacity_kwh": 1500.0,
        "storage_initial_soc": 0.5,
        "storage_max_charge_kw": 1500.0,
        "storage_max_discharge_kw": 1500.0,
        "storage_module_kwh": 500.0,
        "tier": "interchange"
      },
      "type": "Feature"
    },
    {
      "geometry": {
        "coordinates": [
          22.400570778463646,
          -5.894003322175432
        ],
        "type": "Point"
      },
      "properties": {
        "charger_bus_voltage_v": 650.0,
        "charger_contact_count": 6,
        "charger_efficiency": 0.98,
        "charger_max_current_a": 2475.0,
        "charger_max_kw": 1500.0,
        "grid_export_kw": 9000.0,
        "grid_import_kw": 9000.0,
        "line": "line-1",
        "pv_nameplate_kw": 5000.0,
        "station": "line-1-0788-0713-s015879",
        "storage_capacity_kwh": 40000.0,
        "storage_initial_soc": 0.6,
        "storage_max_charge_kw": 10000.0,
        "storage_max_discharge_kw": 10000.0,
        "storage_module_kwh": 500.0,
        "tier": "depot-main"
      },
      "type": "Feature"
    },
    {
      "geometry": {
        "coordinates": [
          22.43217888810785,
          -5.897062747003564
        ],
        "type": "Point"
      },
      "properties": {
        "charger_bus_voltage_v": 650.0,
        "charger_contact_count": 6,
        "charger_efficiency": 0.98,
        "charger_max_current_a": 2475.0,
        "charger_max_kw": 1500.0,
        "grid_export_kw": 1500.0,
        "grid_import_kw": 1500.0,
        "line": "line-2",
        "pv_nameplate_kw": 300.0,
        "station": "line-2-0805-0888-s002005",
        "storage_capacity_kwh": 1500.0,
        "storage_initial_soc": 0.5,
        "storage_max_charge_kw": 1500.0,
        "storage_max_discharge_kw": 1500.0,
        "storage_module_kwh": 500.0,
        "tier": "standard"
      },
      "type": "Feature"
    },
    {
      "geometry": {
        "coordinates": [
          22.44825386958404,
          -5.897782611669006
        ],
        "type": "Point"
      },
      "properties": {
        "charger_bus_voltage_v": 650.0,
        "charger_contact_count": 6,
        "charger_efficiency": 0.98,
        "charger_max_current_a": 2475.0,
        "charger_max_kw": 1500.0,
        "grid_export_kw": 1500.0,
        "grid_import_kw": 1500.0,
        "line": "line-2",
        "pv_nameplate_kw": 300.0,
        "station": "line-2-0809-0977-s004012",
        "storage_capacity_kwh": 1500.0,
        "storage_initial_soc": 0.5,
        "storage_max_charge_kw": 1500.0,
        "storage_max_discharge_kw": 1500.0,
        "storage_module_kwh": 500.0,
        "tier": "standard"
      },
      "type": "Feature"
    },
    {
      "geometry": {
        "coordinates": [
          22.463245144443864,
          -5.895623017672678
        ],
        "type": "Point"
      },
      "properties": {
        "charger_bus_voltage_v": 650.0,
        "charger_contact_count": 6,
        "charger_efficiency": 0.98,
        "charger_max_current_a": 2475.0,
        "charger_max_kw": 1500.0,
        "grid_export_kw": 1500.0,
        "grid_import_kw": 1500.0,
        "line": "line-2",
        "pv_nameplate_kw": 300.0,
        "station": "line-2-0797-1060-s006024",
        "storage_capacity_kwh": 1500.0,
        "storage_initial_soc": 0.5,
        "storage_max_charge_kw": 1500.0,
        "storage_max_discharge_kw": 1500.0,
        "storage_module_kwh": 500.0,
        "tier": "standard"
      },
      "type": "Feature"
    },
    {
      "geometry": {
        "coordinates": [
          22.47010861968089,
          -5.905161224489796
        ],
        "type": "Point"
      },
      "properties": {
        "charger_bus_voltage_v": 650.0,
        "charger_contact_count": 6,
        "charger_efficiency": 0.98,
        "charger_max_current_a": 2475.0,
        "charger_max_kw": 1500.0,
        "grid_export_kw": 1500.0,
        "grid_import_kw": 1500.0,
        "line": "line-2",
        "pv_nameplate_kw": 300.0,
        "station": "line-2-0850-1098-s008024",
        "storage_capacity_kwh": 1500.0,
        "storage_initial_soc": 0.5,
        "storage_max_charge_kw": 1500.0,
        "storage_max_discharge_kw": 1500.0,
        "storage_module_kwh": 500.0,
        "tier": "standard"
      },
      "type": "Feature"
    },
    {
      "geometry": {
        "coordinates": [
          22.456381669206838,
          -5.899222340999892
        ],
        "type": "Point"
      },
      "properties": {
        "charger_bus_voltage_v": 650.0,
        "charger_contact_count": 6,
        "charger_efficiency": 0.98,
        "charger_max_current_a": 2475.0,
        "charger_max_kw": 1500.0,
        "grid_export_kw": 1500.0,
        "grid_import_kw": 1500.0,
        "line": "line-2",
        "pv_nameplate_kw": 300.0,
        "station": "line-2-0817-1022-s010032",
        "storage_capacity_kwh": 1500.0,
        "storage_initial_soc": 0.5,
        "storage_max_charge_kw": 1500.0,
        "storage_max_discharge_kw": 1500.0,
        "storage_module_kwh": 500.0,
        "tier": "standard"
      },
      "type": "Feature"
    },
    {
      "geometry": {
        "coordinates": [
          22.440126069961245,
          -5.903901461325272
        ],
        "type": "Point"
      },
      "properties": {
        "charger_bus_voltage_v": 650.0,
        "charger_contact_count": 6,
        "charger_efficiency": 0.98,
        "charger_max_current_a": 2475.0,
        "charger_max_kw": 1500.0,
        "grid_export_kw": 1500.0,
        "grid_import_kw": 1500.0,
        "line": "line-2",
        "pv_nameplate_kw": 300.0,
        "station": "line-2-0843-0932-s012048",
        "storage_capacity_kwh": 1500.0,
        "storage_initial_soc": 0.5,
        "storage_max_charge_kw": 1500.0,
        "storage_max_discharge_kw": 1500.0,
        "storage_module_kwh": 500.0,
        "tier": "standard"
      },
      "type": "Feature"
    },
    {
      "geometry": {
        "coordinates": [
          22.42694097279538,
          -5.912719803476946
        ],
        "type": "Point"
      },
      "properties": {
        "charger_bus_voltage_v": 650.0,
        "charger_contact_count": 6,
        "charger_efficiency": 0.98,
        "charger_max_current_a": 2475.0,
        "charger_max_kw": 1500.0,
        "grid_export_kw": 1500.0,
        "grid_import_kw": 1500.0,
        "line": "line-2",
        "pv_nameplate_kw": 300.0,
        "station": "line-2-0892-0859-s014063",
        "storage_capacity_kwh": 1500.0,
        "storage_initial_soc": 0.5,
        "storage_max_charge_kw": 1500.0,
        "storage_max_discharge_kw": 1500.0,
        "storage_module_kwh": 500.0,
        "tier": "standard"
      },
      "type": "Feature"
    },
    {
      "geometry": {
        "coordinates": [
          22.417729466556214,
          -5.908040683151568
        ],
        "type": "Point"
      },
      "properties": {
        "charger_bus_voltage_v": 650.0,
        "charger_contact_count": 6,
        "charger_efficiency": 0.98,
        "charger_max_current_a": 2475.0,
        "charger_max_kw": 1500.0,
        "grid_export_kw": 1500.0,
        "grid_import_kw": 1500.0,
        "line": "line-2",
        "pv_nameplate_kw": 300.0,
        "station": "line-2-0866-0808-s015326",
        "storage_capacity_kwh": 1500.0,
        "storage_initial_soc": 0.5,
        "storage_max_charge_kw": 1500.0,
        "storage_max_discharge_kw": 1500.0,
        "storage_module_kwh": 500.0,
        "tier": "standard"
      },
      "type": "Feature"
    },
    {
      "geometry": {
        "coordinates": [
          22.40743425370067,
          -5.9060610553216
        ],
        "type": "Point"
      },
      "properties": {
        "charger_bus_voltage_v": 650.0,
        "charger_contact_count": 6,
        "charger_efficiency": 0.98,
        "charger_max_current_a": 2475.0,
        "charger_max_kw": 1500.0,
        "grid_export_kw": 1800.0,
        "grid_import_kw": 1800.0,
        "line": "line-2",
        "pv_nameplate_kw": 300.0,
        "station": "line-2-0855-0751-s016569",
        "storage_capacity_kwh": 1500.0,
        "storage_initial_soc": 0.5,
        "storage_max_charge_kw": 1500.0,
        "storage_max_discharge_kw": 1500.0,
        "storage_module_kwh": 500.0,
        "tier": "interchange"
      },
      "type": "Feature"
    },
    {
      "geometry": {
        "coordinates": [
          22.404905604929137,
          -5.90588108915524
        ],
        "type": "Point"
      },
      "properties": {
        "charger_bus_voltage_v": 650.0,
        "charger_contact_count": 6,
        "charger_efficiency": 0.98,
        "charger_max_current_a": 2475.0,
        "charger_max_kw": 1500.0,
        "grid_export_kw": 1800.0,
        "grid_import_kw": 1800.0,
        "line": "line-2",
        "pv_nameplate_kw": 300.0,
        "station": "line-2-0854-0737-s016858",
        "storage_capacity_kwh": 1500.0,
        "storage_initial_soc": 0.5,
        "storage_max_charge_kw": 1500.0,
        "storage_max_discharge_kw": 1500.0,
        "storage_module_kwh": 500.0,
        "tier": "interchange"
      },
      "type": "Feature"
    },
    {
      "geometry": {
        "coordinates": [
          22.395874716459364,
          -5.9013819349962215
        ],
        "type": "Point"
      },
      "properties": {
        "charger_bus_voltage_v": 650.0,
        "charger_contact_count": 6,
        "charger_efficiency": 0.98,
        "charger_max_current_a": 2475.0,
        "charger_max_kw": 1500.0,
        "grid_export_kw": 1800.0,
        "grid_import_kw": 1800.0,
        "line": "line-2",
        "pv_nameplate_kw": 300.0,
        "station": "line-2-0829-0687-s018065",
        "storage_capacity_kwh": 1500.0,
        "storage_initial_soc": 0.5,
        "storage_max_charge_kw": 1500.0,
        "storage_max_discharge_kw": 1500.0,
        "storage_module_kwh": 500.0,
        "tier": "major"
      },
      "type": "Feature"
    },
    {
      "geometry": {
        "coordinates": [
          22.391901125532666,
          -5.895263085339956
        ],
        "type": "Point"
      },
      "properties": {
        "charger_bus_voltage_v": 650.0,
        "charger_contact_count": 6,
        "charger_efficiency": 0.98,
        "charger_max_current_a": 2475.0,
        "charger_max_kw": 1500.0,
        "grid_export_kw": 1800.0,
        "grid_import_kw": 1800.0,
        "line": "line-2",
        "pv_nameplate_kw": 300.0,
        "station": "line-2-0795-0665-s019284",
        "storage_capacity_kwh": 1500.0,
        "storage_initial_soc": 0.5,
        "storage_max_charge_kw": 1500.0,
        "storage_max_discharge_kw": 1500.0,
        "storage_module_kwh": 500.0,
        "tier": "major"
      },
      "type": "Feature"
    },
    {
      "geometry": {
        "coordinates": [
          22.404183133851554,
          -5.89364338984271
        ],
        "type": "Point"
      },
      "properties": {
        "charger_bus_voltage_v": 650.0,
        "charger_contact_count": 6,
        "charger_efficiency": 0.98,
        "charger_max_current_a": 2475.0,
        "charger_max_kw": 1500.0,
        "grid_export_kw": 1800.0,
        "grid_import_kw": 1800.0,
        "line": "line-2",
        "pv_nameplate_kw": 300.0,
        "station": "line-2-0786-0733-s020719",
        "storage_capacity_kwh": 1500.0,
        "storage_initial_soc": 0.5,
        "storage_max_charge_kw": 1500.0,
        "storage_max_discharge_kw": 1500.0,
        "storage_module_kwh": 500.0,
        "tier": "interchange"
      },
      "type": "Feature"
    },
    {
      "geometry": {
        "coordinates": [
          22.408879195855835,
          -5.894363254508153
        ],
        "type": "Point"
      },
      "properties": {
        "charger_bus_voltage_v": 650.0,
        "charger_contact_count": 6,
        "charger_efficiency": 0.98,
        "charger_max_current_a": 2475.0,
        "charger_max_kw": 1500.0,
        "grid_export_kw": 1800.0,
        "grid_import_kw": 1800.0,
        "line": "line-2",
        "pv_nameplate_kw": 300.0,
        "station": "line-2-0790-0759-s021288",
        "storage_capacity_kwh": 1500.0,
        "storage_initial_soc": 0.5,
        "storage_max_charge_kw": 1500.0,
        "storage_max_discharge_kw": 1500.0,
        "storage_module_kwh": 500.0,
        "tier": "interchange"
      },
      "type": "Feature"
    }
  ],
  "type": "FeatureCollection"
}
