{
  "features": [
    {
      "geometry": {
        "coordinates": [
          35.849419838486234,
          34.435648828420256
        ],
        "type": "Point"
      },
      "properties": {
        "id": "interchange-000",
        "junction_group": 0,
        "line_count": 3,
        "lines": "line-1,line-2,line-3",
        "platform_count": 3,
        "platforms": "line-1-0556-0550-s005091,line-2-0556-0550-s011177,line-3-0556-0550-s004198"
      },
      "type": "Feature"
    },
    {
      "geometry": {
        "coordinates": [
          35.88623446646838,
          34.40010551056402
        ],
        "type": "Point"
      },
      "properties": {
        "id": "interchange-001",
        "junction_group": 1,
        "line_count": 2,
        "lines": "line-1,line-3",
        "platform_count": 2,
        "platforms": "line-1-0748-0731-s011141,line-3-0759-0707-s009709"
      },
      "type": "Feature"
    }
  ],
  "type": "FeatureCollection"
}
