{
  "features": [
    {
      "geometry": {
        "coordinates": [
          9.81613518503448,
          3.9681062484252956
        ],
        "type": "Point"
      },
      "properties": {
        "id": "interchange-000",
        "junction_group": 0,
        "line_count": 2,
        "lines": "line-1,line-5",
        "platform_count": 2,
        "platforms": "line-1-1662-1471-s002864,line-5-1662-1471-s027697"
      },
      "type": "Feature"
    },
    {
      "geometry": {
        "coordinates": [
          9.78317464214538,
          3.995281139545765
        ],
        "type": "Point"
      },
      "properties": {
        "id": "interchange-001",
        "junction_group": 1,
        "line_count": 2,
        "lines": "line-1,line-5",
        "platform_count": 2,
        "platforms": "line-1-1511-1288-s008559,line-5-1511-1288-s033227"
      },
      "type": "Feature"
    },
    {
      "geometry": {
        "coordinates": [
          9.75723847724904,
          4.003559583198358
        ],
        "type": "Point"
      },
      "properties": {
        "id": "interchange-002",
        "junction_group": 2,
        "line_count": 2,
        "lines": "line-1,line-5",
        "platform_count": 2,
        "platforms": "line-1-1465-1144-s011820,line-5-1465-1144-s037043"
      },
      "type": "Feature"
    },
    {
      "geometry": {
        "coordinates": [
          9.718514342160754,
          4.020296436669906
        ],
        "type": "Point"
      },
      "properties": {
        "id": "interchange-003",
        "junction_group": 3,
        "line_count": 2,
        "lines": "line-1,line-5",
        "platform_count": 2,
        "platforms": "line-1-1372-0929-s016902,line-5-1372-0929-s043403"
      },
      "type": "Feature"
    },
    {
      "geometry": {
        "coordinates": [
          9.725808888537848,
          4.036043476226469
        ],
        "type": "Point"
      },
      "properties": {
        "id": "interchange-004",
        "junction_group": 4,
        "line_count": 2,
        "lines": "line-1,line-5",
        "platform_count": 2,
        "platforms": "line-1-1295-0967-s018774,line-5-1274-0972-s045735"
      },
      "type": "Feature"
    },
    {
      "geometry": {
        "coordinates": [
          9.715452433804934,
          4.04621156462585
        ],
        "type": "Point"
      },
      "properties": {
        "id": "interchange-005",
        "junction_group": 5,
        "line_count": 2,
        "lines": "line-1,line-5",
        "platform_count": 2,
        "platforms": "line-1-1234-0901-s021791,line-5-1222-0923-s047625"
      },
      "type": "Feature"
    },
    {
      "geometry": {
        "coordinates": [
          9.73526478198964,
          4.082204797897995
        ],
        "type": "Point"
      },
      "properties": {
        "id": "interchange-006",
        "junction_group": 6,
        "line_count": 2,
        "lines": "line-2,line-5",
        "platform_count": 2,
        "platforms": "line-2-1017-1030-s025381,line-5-1039-1014-s000869"
      },
      "type": "Feature"
    },
    {
      "geometry": {
        "coordinates": [
          9.757058364992815,
          4.068527369254579
        ],
        "type": "Point"
      },
      "properties": {
        "id": "interchange-007",
        "junction_group": 7,
        "line_count": 2,
        "lines": "line-2,line-5",
        "platform_count": 2,
        "platforms": "line-2-1104-1143-s028647,line-5-1104-1143-s004354"
      },
      "type": "Feature"
    },
    {
      "geometry": {
        "coordinates": [
          9.803167102586308,
          4.0196665550876425
        ],
        "type": "Point"
      },
      "properties": {
        "id": "interchange-008",
        "junction_group": 8,
        "line_count": 2,
        "lines": "line-2,line-5",
        "platform_count": 2,
        "platforms": "line-2-1363-1401-s039080,line-5-1388-1397-s021082"
      },
      "type": "Feature"
    },
    {
      "geometry": {
        "coordinates": [
          9.802176485177073,
          4.090483241550588
        ],
        "type": "Point"
      },
      "properties": {
        "id": "interchange-009",
        "junction_group": 9,
        "line_count": 2,
        "lines": "line-3,line-5",
        "platform_count": 2,
        "platforms": "line-3-0982-1385-s003917,line-5-0982-1402-s012029"
      },
      "type": "Feature"
    },
    {
      "geometry": {
        "coordinates": [
          9.73094208784025,
          4.005989126444228
        ],
        "type": "Point"
      },
      "properties": {
        "id": "interchange-010",
        "junction_group": 10,
        "line_count": 2,
        "lines": "line-3,line-5",
        "platform_count": 2,
        "platforms": "line-3-1457-1010-s023256,line-5-1446-0986-s041101"
      },
      "type": "Feature"
    },
    {
      "geometry": {
        "coordinates": [
          9.722476811797694,
          4.061328722600151
        ],
        "type": "Point"
      },
      "properties": {
        "id": "interchange-011",
        "junction_group": 11,
        "line_count": 2,
        "lines": "line-4,line-5",
        "platform_count": 2,
        "platforms": "line-4-1144-0951-s007459,line-5-1144-0951-s049533"
      },
      "type": "Feature"
    }
  ],
  "type": "FeatureCollection"
}
