{
  "features": [
    {
      "geometry": {
        "coordinates": [
          29.262189224332282,
          -1.7027469423748336
        ],
        "type": "Point"
      },
      "properties": {
        "archetype": "main-heavy",
        "fleet_stalls": 9,
        "line": "line-1",
        "station": "line-1-0681-0770-s019435"
      },
      "type": "Feature"
    },
    {
      "geometry": {
        "coordinates": [
          29.278725251118225,
          -1.750797908793147
        ],
        "type": "Point"
      },
      "properties": {
        "archetype": "main-heavy",
        "fleet_stalls": 8,
        "line": "line-2",
        "station": "line-2-0948-0862-s000000"
      },
      "type": "Feature"
    },
    {
      "geometry": {
        "coordinates": [
          29.270277498303667,
          -1.6575754346182918
        ],
        "type": "Point"
      },
      "properties": {
        "archetype": "main-heavy",
        "fleet_stalls": 6,
        "line": "line-3",
        "station": "line-3-0430-0815-s000000"
      },
      "type": "Feature"
    }
  ],
  "type": "FeatureCollection"
}
