{
  "features": [
    {
      "geometry": {
        "coordinates": [
          43.06720933596286,
          36.84717309145881
        ],
        "type": "Point"
      },
      "properties": {
        "anchor_kind": "place:town",
        "anchor_name": "ئێتیتا نوی",
        "archetype": "terminal",
        "chainage_m": 0.0,
        "corridor_offset_m": 0.0,
        "id": "line-1-0682-0744-s000000",
        "junction_group": null,
        "line": "line-1",
        "platform_length_m": 59.5
      },
      "type": "Feature"
    },
    {
      "geometry": {
        "coordinates": [
          43.04519924204162,
          36.849512651621495
        ],
        "type": "Point"
      },
      "properties": {
        "anchor_kind": null,
        "anchor_name": null,
        "archetype": "interchange",
        "chainage_m": 2795.4,
        "corridor_offset_m": 0.393,
        "id": "line-1-0669-0646-s002795",
        "junction_group": 0,
        "line": "line-1",
        "platform_length_m": 59.5
      },
      "type": "Feature"
    },
    {
      "geometry": {
        "coordinates": [
          43.022964555325274,
          36.85275204261599
        ],
        "type": "Point"
      },
      "properties": {
        "anchor_kind": null,
        "anchor_name": null,
        "archetype": "interchange",
        "chainage_m": 4924.5,
        "corridor_offset_m": 0.14,
        "id": "line-1-0651-0547-s004925",
        "junction_group": 1,
        "line": "line-1",
        "platform_length_m": 59.5
      },
      "type": "Feature"
    },
    {
      "geometry": {
        "coordinates": [
          42.99938231183823,
          36.856351365943205
        ],
        "type": "Point"
      },
      "properties": {
        "anchor_kind": "planning:residential",
        "anchor_name": "Residential planning stop; site release open",
        "archetype": "interchange",
        "chainage_m": 7190.2,
        "corridor_offset_m": 0.145,
        "id": "line-1-0631-0442-s007190",
        "junction_group": 2,
        "line": "line-1",
        "platform_length_m": 59.5
      },
      "type": "Feature"
    },
    {
      "geometry": {
        "coordinates": [
          42.98433459456555,
          36.85869092610589
        ],
        "type": "Point"
      },
      "properties": {
        "anchor_kind": null,
        "anchor_name": null,
        "archetype": "interchange",
        "chainage_m": 8637.9,
        "corridor_offset_m": 0.318,
        "id": "line-1-0618-0375-s008638",
        "junction_group": 3,
        "line": "line-1",
        "platform_length_m": 59.5
      },
      "type": "Feature"
    },
    {
      "geometry": {
        "coordinates": [
          42.96591798536615,
          36.8613904186013
        ],
        "type": "Point"
      },
      "properties": {
        "anchor_kind": "planning:residential",
        "anchor_name": "Residential planning stop; site release open",
        "archetype": "interchange",
        "chainage_m": 10402.2,
        "corridor_offset_m": 0.577,
        "id": "line-1-0603-0293-s010402",
        "junction_group": 4,
        "line": "line-1",
        "platform_length_m": 59.5
      },
      "type": "Feature"
    },
    {
      "geometry": {
        "coordinates": [
          42.9528916032495,
          36.86337004643127
        ],
        "type": "Point"
      },
      "properties": {
        "anchor_kind": null,
        "anchor_name": null,
        "archetype": "interchange",
        "chainage_m": 11653.3,
        "corridor_offset_m": 0.7,
        "id": "line-1-0592-0235-s011653",
        "junction_group": 5,
        "line": "line-1",
        "platform_length_m": 59.5
      },
      "type": "Feature"
    },
    {
      "geometry": {
        "coordinates": [
          42.93312743727941,
          36.86498974192852
        ],
        "type": "Point"
      },
      "properties": {
        "anchor_kind": "planning:residential",
        "anchor_name": "Residential planning stop; site release open",
        "archetype": "standard",
        "chainage_m": 13601.0,
        "corridor_offset_m": 0.908,
        "id": "line-1-0583-0147-s013601",
        "junction_group": null,
        "line": "line-1",
        "platform_length_m": 59.5
      },
      "type": "Feature"
    },
    {
      "geometry": {
        "coordinates": [
          42.92167320472856,
          36.85959075693769
        ],
        "type": "Point"
      },
      "properties": {
        "anchor_kind": "planning:residential",
        "anchor_name": "Residential planning stop; site release open",
        "archetype": "standard",
        "chainage_m": 15207.2,
        "corridor_offset_m": 0.412,
        "id": "line-1-0613-0096-s015207",
        "junction_group": null,
        "line": "line-1",
        "platform_length_m": 59.5
      },
      "type": "Feature"
    },
    {
      "geometry": {
        "coordinates": [
          42.903930373914505,
          36.864809775762154
        ],
        "type": "Point"
      },
      "properties": {
        "anchor_kind": "amenity:hospital",
        "anchor_name": "بنکەی تەندروستی تەناهی",
        "archetype": "terminal",
        "chainage_m": 17357.2,
        "corridor_offset_m": 0.0,
        "id": "line-1-0584-0017-s017357",
        "junction_group": null,
        "line": "line-1",
        "platform_length_m": 59.5
      },
      "type": "Feature"
    },
    {
      "geometry": {
        "coordinates": [
          42.921224019138336,
          36.87452794874564
        ],
        "type": "Point"
      },
      "properties": {
        "anchor_kind": "amenity:college",
        "anchor_name": "Technical Institute of Administraion - Duhok",
        "archetype": "terminal",
        "chainage_m": 0.0,
        "corridor_offset_m": 0.0,
        "id": "line-2-0530-0094-s000000",
        "junction_group": null,
        "line": "line-2",
        "platform_length_m": 59.5
      },
      "type": "Feature"
    },
    {
      "geometry": {
        "coordinates": [
          42.93222906609895,
          36.87596767807652
        ],
        "type": "Point"
      },
      "properties": {
        "anchor_kind": null,
        "anchor_name": null,
        "archetype": "interchange-elevated",
        "chainage_m": 1280.2,
        "corridor_offset_m": 0.456,
        "id": "line-2-0522-0143-s001280",
        "junction_group": 6,
        "line": "line-2",
        "platform_length_m": 59.5
      },
      "type": "Feature"
    },
    {
      "geometry": {
        "coordinates": [
          42.96187531505409,
          36.874707914911994
        ],
        "type": "Point"
      },
      "properties": {
        "anchor_kind": "planning:residential",
        "anchor_name": "Residential planning stop; site release open",
        "archetype": "interchange",
        "chainage_m": 3994.8,
        "corridor_offset_m": 0.055,
        "id": "line-2-0529-0275-s003995",
        "junction_group": 7,
        "line": "line-2",
        "platform_length_m": 59.5
      },
      "type": "Feature"
    },
    {
      "geometry": {
        "coordinates": [
          42.97939355307303,
          36.87380808408019
        ],
        "type": "Point"
      },
      "properties": {
        "anchor_kind": "planning:residential",
        "anchor_name": "Residential planning stop; site release open",
        "archetype": "standard",
        "chainage_m": 5596.2,
        "corridor_offset_m": 0.142,
        "id": "line-2-0534-0353-s005596",
        "junction_group": null,
        "line": "line-2",
        "platform_length_m": 59.5
      },
      "type": "Feature"
    },
    {
      "geometry": {
        "coordinates": [
          42.99713638388709,
          36.872728287082026
        ],
        "type": "Point"
      },
      "properties": {
        "anchor_kind": null,
        "anchor_name": null,
        "archetype": "standard",
        "chainage_m": 7225.9,
        "corridor_offset_m": 0.341,
        "id": "line-2-0540-0432-s007226",
        "junction_group": null,
        "line": "line-2",
        "platform_length_m": 59.5
      },
      "type": "Feature"
    },
    {
      "geometry": {
        "coordinates": [
          43.01443002911091,
          36.87182845625022
        ],
        "type": "Point"
      },
      "properties": {
        "anchor_kind": "planning:residential",
        "anchor_name": "Residential planning stop; site release open",
        "archetype": "standard",
        "chainage_m": 8807.4,
        "corridor_offset_m": 0.634,
        "id": "line-2-0545-0509-s008807",
        "junction_group": null,
        "line": "line-2",
        "platform_length_m": 59.5
      },
      "type": "Feature"
    },
    {
      "geometry": {
        "coordinates": [
          43.03172367433474,
          36.87074865925206
        ],
        "type": "Point"
      },
      "properties": {
        "anchor_kind": "planning:residential",
        "anchor_name": "Residential planning stop; site release open",
        "archetype": "standard",
        "chainage_m": 10397.1,
        "corridor_offset_m": 0.824,
        "id": "line-2-0551-0586-s010397",
        "junction_group": null,
        "line": "line-2",
        "platform_length_m": 59.5
      },
      "type": "Feature"
    },
    {
      "geometry": {
        "coordinates": [
          43.049241912353686,
          36.869668862253896
        ],
        "type": "Point"
      },
      "properties": {
        "anchor_kind": "planning:residential",
        "anchor_name": "Residential planning stop; site release open",
        "archetype": "standard",
        "chainage_m": 12006.8,
        "corridor_offset_m": 1.019,
        "id": "line-2-0557-0664-s012007",
        "junction_group": null,
        "line": "line-2",
        "platform_length_m": 59.5
      },
      "type": "Feature"
    },
    {
      "geometry": {
        "coordinates": [
          43.064289629626366,
          36.86444984342943
        ],
        "type": "Point"
      },
      "properties": {
        "anchor_kind": "planning:residential",
        "anchor_name": "Residential planning stop; site release open",
        "archetype": "interchange-elevated",
        "chainage_m": 13598.7,
        "corridor_offset_m": 0.685,
        "id": "line-2-0586-0731-s013599",
        "junction_group": 8,
        "line": "line-2",
        "platform_length_m": 59.5
      },
      "type": "Feature"
    },
    {
      "geometry": {
        "coordinates": [
          43.0770914189479,
          36.872368354749305
        ],
        "type": "Point"
      },
      "properties": {
        "anchor_kind": "planning:residential",
        "anchor_name": "Residential planning stop; site release open",
        "archetype": "halt",
        "chainage_m": 15202.6,
        "corridor_offset_m": 0.139,
        "id": "line-2-0542-0788-s015203",
        "junction_group": null,
        "line": "line-2",
        "platform_length_m": 55.5
      },
      "type": "Feature"
    },
    {
      "geometry": {
        "coordinates": [
          43.09191454342547,
          36.87398805024655
        ],
        "type": "Point"
      },
      "properties": {
        "anchor_kind": "tourism:attraction",
        "anchor_name": "مزرعة مهندس سردار",
        "archetype": "terminal",
        "chainage_m": 16597.2,
        "corridor_offset_m": 0.0,
        "id": "line-2-0533-0854-s016597",
        "junction_group": 9,
        "line": "line-2",
        "platform_length_m": 59.5
      },
      "type": "Feature"
    },
    {
      "geometry": {
        "coordinates": [
          42.90168444596336,
          36.85149227945146
        ],
        "type": "Point"
      },
      "properties": {
        "anchor_kind": "amenity:bus_station",
        "anchor_name": "تێرمینالا گشتییا نێڤدەولەتییا دهۆک",
        "archetype": "terminal",
        "chainage_m": 0.0,
        "corridor_offset_m": 0.0,
        "id": "line-3-0658-0007-s000000",
        "junction_group": null,
        "line": "line-3",
        "platform_length_m": 59.5
      },
      "type": "Feature"
    },
    {
      "geometry": {
        "coordinates": [
          42.91516001367024,
          36.849872583954216
        ],
        "type": "Point"
      },
      "properties": {
        "anchor_kind": null,
        "anchor_name": null,
        "archetype": "interchange-elevated",
        "chainage_m": 1589.7,
        "corridor_offset_m": 0.269,
        "id": "line-3-0667-0067-s001590",
        "junction_group": 10,
        "line": "line-3",
        "platform_length_m": 59.5
      },
      "type": "Feature"
    },
    {
      "geometry": {
        "coordinates": [
          42.94458166983026,
          36.856711298275926
        ],
        "type": "Point"
      },
      "properties": {
        "anchor_kind": null,
        "anchor_name": null,
        "archetype": "interchange",
        "chainage_m": 4758.8,
        "corridor_offset_m": 0.537,
        "id": "line-3-0629-0198-s004759",
        "junction_group": 11,
        "line": "line-3",
        "platform_length_m": 59.5
      },
      "type": "Feature"
    },
    {
      "geometry": {
        "coordinates": [
          42.96883769170264,
          36.85779109527409
        ],
        "type": "Point"
      },
      "properties": {
        "anchor_kind": null,
        "anchor_name": null,
        "archetype": "interchange",
        "chainage_m": 6968.5,
        "corridor_offset_m": 0.191,
        "id": "line-3-0623-0306-s006969",
        "junction_group": 4,
        "line": "line-3",
        "platform_length_m": 59.5
      },
      "type": "Feature"
    },
    {
      "geometry": {
        "coordinates": [
          42.98433459456555,
          36.85869092610589
        ],
        "type": "Point"
      },
      "properties": {
        "anchor_kind": null,
        "anchor_name": null,
        "archetype": "interchange",
        "chainage_m": 8389.9,
        "corridor_offset_m": 0.009,
        "id": "line-3-0618-0375-s008390",
        "junction_group": 3,
        "line": "line-3",
        "platform_length_m": 59.5
      },
      "type": "Feature"
    },
    {
      "geometry": {
        "coordinates": [
          42.9973609766822,
          36.85923082460497
        ],
        "type": "Point"
      },
      "properties": {
        "anchor_kind": "amenity:hospital",
        "anchor_name": "Dr. Saleem Andraws",
        "archetype": "interchange",
        "chainage_m": 9574.8,
        "corridor_offset_m": 0.231,
        "id": "line-3-0615-0433-s009575",
        "junction_group": 2,
        "line": "line-3",
        "platform_length_m": 59.5
      },
      "type": "Feature"
    },
    {
      "geometry": {
        "coordinates": [
          43.02386292650573,
          36.8604905877695
        ],
        "type": "Point"
      },
      "properties": {
        "anchor_kind": "planning:residential",
        "anchor_name": "Residential planning stop; site release open",
        "archetype": "standard",
        "chainage_m": 11992.8,
        "corridor_offset_m": 0.617,
        "id": "line-3-0608-0551-s011993",
        "junction_group": null,
        "line": "line-3",
        "platform_length_m": 59.5
      },
      "type": "Feature"
    },
    {
      "geometry": {
        "coordinates": [
          43.03935982936864,
          36.86121045243494
        ],
        "type": "Point"
      },
      "properties": {
        "anchor_kind": null,
        "anchor_name": null,
        "archetype": "interchange",
        "chainage_m": 13405.9,
        "corridor_offset_m": 0.801,
        "id": "line-3-0604-0620-s013406",
        "junction_group": 12,
        "line": "line-3",
        "platform_length_m": 59.5
      },
      "type": "Feature"
    },
    {
      "geometry": {
        "coordinates": [
          43.05889940254362,
          36.86193031710038
        ],
        "type": "Point"
      },
      "properties": {
        "anchor_kind": "planning:residential",
        "anchor_name": "Residential planning stop; site release open",
        "archetype": "interchange-elevated",
        "chainage_m": 15207.4,
        "corridor_offset_m": 1.136,
        "id": "line-3-0600-0707-s015207",
        "junction_group": 8,
        "line": "line-3",
        "platform_length_m": 59.5
      },
      "type": "Feature"
    },
    {
      "geometry": {
        "coordinates": [
          43.0755192693821,
          36.862110283266745
        ],
        "type": "Point"
      },
      "properties": {
        "anchor_kind": "planning:residential",
        "anchor_name": "Residential planning stop; site release open",
        "archetype": "halt",
        "chainage_m": 16803.9,
        "corridor_offset_m": 1.227,
        "id": "line-3-0599-0781-s016804",
        "junction_group": null,
        "line": "line-3",
        "platform_length_m": 55.5
      },
      "type": "Feature"
    },
    {
      "geometry": {
        "coordinates": [
          43.088321058703634,
          36.872728287082026
        ],
        "type": "Point"
      },
      "properties": {
        "anchor_kind": "tourism:attraction",
        "anchor_name": "Shadan farm",
        "archetype": "depot-terminal",
        "chainage_m": 19163.9,
        "corridor_offset_m": 0.0,
        "id": "line-3-0540-0838-s019164",
        "junction_group": 9,
        "line": "line-3",
        "platform_length_m": 59.5
      },
      "type": "Feature"
    },
    {
      "geometry": {
        "coordinates": [
          42.96883769170264,
          36.85779109527409
        ],
        "type": "Point"
      },
      "properties": {
        "anchor_kind": "tourism:attraction",
        "anchor_name": "باخچێ گیانەوەرا یا سەری",
        "archetype": "terminal",
        "chainage_m": 0.0,
        "corridor_offset_m": 0.0,
        "id": "line-4-0623-0306-s000000",
        "junction_group": 4,
        "line": "line-4",
        "platform_length_m": 59.5
      },
      "type": "Feature"
    },
    {
      "geometry": {
        "coordinates": [
          42.9697360628831,
          36.84609329446064
        ],
        "type": "Point"
      },
      "properties": {
        "anchor_kind": "planning:residential-priority",
        "anchor_name": "Residential planning stop; site release open",
        "archetype": "standard",
        "chainage_m": 1333.1,
        "corridor_offset_m": 0.991,
        "id": "line-4-0688-0310-s001333",
        "junction_group": null,
        "line": "line-4",
        "platform_length_m": 59.5
      },
      "type": "Feature"
    },
    {
      "geometry": {
        "coordinates": [
          42.987029708106924,
          36.846273260627
        ],
        "type": "Point"
      },
      "properties": {
        "anchor_kind": "place:neighbourhood",
        "anchor_name": "Raza",
        "archetype": "terminal",
        "chainage_m": 2881.4,
        "corridor_offset_m": 0.0,
        "id": "line-4-0687-0387-s002881",
        "junction_group": null,
        "line": "line-4",
        "platform_length_m": 59.5
      },
      "type": "Feature"
    },
    {
      "geometry": {
        "coordinates": [
          42.91516001367024,
          36.849872583954216
        ],
        "type": "Point"
      },
      "properties": {
        "anchor_kind": null,
        "anchor_name": null,
        "archetype": "terminal",
        "chainage_m": 0.0,
        "corridor_offset_m": 0.0,
        "id": "line-5-0667-0067-s000000",
        "junction_group": 10,
        "line": "line-5",
        "platform_length_m": 59.5
      },
      "type": "Feature"
    },
    {
      "geometry": {
        "coordinates": [
          42.91516001367024,
          36.83727495230897
        ],
        "type": "Point"
      },
      "properties": {
        "anchor_kind": "planning:residential-priority",
        "anchor_name": "Residential planning stop; site release open",
        "archetype": "halt",
        "chainage_m": 1400.0,
        "corridor_offset_m": 0.211,
        "id": "line-5-0737-0067-s001400",
        "junction_group": null,
        "line": "line-5",
        "platform_length_m": 55.5
      },
      "type": "Feature"
    },
    {
      "geometry": {
        "coordinates": [
          42.91516001367024,
          36.822517726667385
        ],
        "type": "Point"
      },
      "properties": {
        "anchor_kind": null,
        "anchor_name": null,
        "archetype": "halt",
        "chainage_m": 3040.0,
        "corridor_offset_m": 0.458,
        "id": "line-5-0819-0067-s003040",
        "junction_group": null,
        "line": "line-5",
        "platform_length_m": 55.5
      },
      "type": "Feature"
    },
    {
      "geometry": {
        "coordinates": [
          42.92010105516276,
          36.809560162689415
        ],
        "type": "Point"
      },
      "properties": {
        "anchor_kind": "planning:residential-priority",
        "anchor_name": "Residential planning stop; site release open",
        "archetype": "halt",
        "chainage_m": 4662.3,
        "corridor_offset_m": 0.215,
        "id": "line-5-0891-0089-s004662",
        "junction_group": null,
        "line": "line-5",
        "platform_length_m": 55.5
      },
      "type": "Feature"
    },
    {
      "geometry": {
        "coordinates": [
          42.91403704969466,
          36.79660259871144
        ],
        "type": "Point"
      },
      "properties": {
        "anchor_kind": "place:suburb",
        "anchor_name": "دوميز",
        "archetype": "terminal",
        "chainage_m": 6325.9,
        "corridor_offset_m": 0.0,
        "id": "line-5-0963-0062-s006326",
        "junction_group": null,
        "line": "line-5",
        "platform_length_m": 59.5
      },
      "type": "Feature"
    },
    {
      "geometry": {
        "coordinates": [
          42.93222906609895,
          36.87596767807652
        ],
        "type": "Point"
      },
      "properties": {
        "anchor_kind": "leisure:stadium",
        "anchor_name": "جھێ وەرزسێ یێ قوتابخانا زرکا",
        "archetype": "terminal",
        "chainage_m": 0.0,
        "corridor_offset_m": 0.0,
        "id": "line-6-0522-0143-s000000",
        "junction_group": 6,
        "line": "line-6",
        "platform_length_m": 59.5
      },
      "type": "Feature"
    },
    {
      "geometry": {
        "coordinates": [
          42.91403704969466,
          36.89126480221718
        ],
        "type": "Point"
      },
      "properties": {
        "anchor_kind": null,
        "anchor_name": null,
        "archetype": "terminal",
        "chainage_m": 2628.8,
        "corridor_offset_m": 0.0,
        "id": "line-6-0437-0062-s002629",
        "junction_group": null,
        "line": "line-6",
        "platform_length_m": 59.5
      },
      "type": "Feature"
    },
    {
      "geometry": {
        "coordinates": [
          43.03935982936864,
          36.86121045243494
        ],
        "type": "Point"
      },
      "properties": {
        "anchor_kind": null,
        "anchor_name": null,
        "archetype": "terminal",
        "chainage_m": 0.0,
        "corridor_offset_m": 0.0,
        "id": "line-7-0604-0620-s000000",
        "junction_group": 12,
        "line": "line-7",
        "platform_length_m": 59.5
      },
      "type": "Feature"
    },
    {
      "geometry": {
        "coordinates": [
          43.04519924204162,
          36.849512651621495
        ],
        "type": "Point"
      },
      "properties": {
        "anchor_kind": null,
        "anchor_name": null,
        "archetype": "interchange",
        "chainage_m": 1515.4,
        "corridor_offset_m": 0.124,
        "id": "line-7-0669-0646-s001515",
        "junction_group": 0,
        "line": "line-7",
        "platform_length_m": 59.5
      },
      "type": "Feature"
    },
    {
      "geometry": {
        "coordinates": [
          43.049241912353686,
          36.846273260627
        ],
        "type": "Point"
      },
      "properties": {
        "anchor_kind": "amenity:hospital",
        "anchor_name": "مستشفى نزاركي",
        "archetype": "terminal",
        "chainage_m": 2024.5,
        "corridor_offset_m": 0.0,
        "id": "line-7-0687-0664-s002025",
        "junction_group": 0,
        "line": "line-7",
        "platform_length_m": 59.5
      },
      "type": "Feature"
    },
    {
      "geometry": {
        "coordinates": [
          42.9973609766822,
          36.85923082460497
        ],
        "type": "Point"
      },
      "properties": {
        "anchor_kind": "amenity:hospital",
        "anchor_name": "Dr. Saleem Andraws",
        "archetype": "terminal",
        "chainage_m": 0.0,
        "corridor_offset_m": 0.0,
        "id": "line-8-0615-0433-s000000",
        "junction_group": 2,
        "line": "line-8",
        "platform_length_m": 59.5
      },
      "type": "Feature"
    },
    {
      "geometry": {
        "coordinates": [
          42.9805165170486,
          36.865169708094875
        ],
        "type": "Point"
      },
      "properties": {
        "anchor_kind": "amenity:college",
        "anchor_name": "المعهد التقني",
        "archetype": "major",
        "chainage_m": 1808.5,
        "corridor_offset_m": 0.362,
        "id": "line-8-0582-0358-s001809",
        "junction_group": null,
        "line": "line-8",
        "platform_length_m": 59.5
      },
      "type": "Feature"
    },
    {
      "geometry": {
        "coordinates": [
          42.96457042859546,
          36.87326818558111
        ],
        "type": "Point"
      },
      "properties": {
        "anchor_kind": "planning:residential-priority",
        "anchor_name": "Residential planning stop; site release open",
        "archetype": "interchange",
        "chainage_m": 3601.3,
        "corridor_offset_m": 0.535,
        "id": "line-8-0537-0287-s003601",
        "junction_group": 7,
        "line": "line-8",
        "platform_length_m": 59.5
      },
      "type": "Feature"
    },
    {
      "geometry": {
        "coordinates": [
          42.9528916032495,
          36.86337004643127
        ],
        "type": "Point"
      },
      "properties": {
        "anchor_kind": null,
        "anchor_name": null,
        "archetype": "interchange",
        "chainage_m": 5132.1,
        "corridor_offset_m": 0.336,
        "id": "line-8-0592-0235-s005132",
        "junction_group": 5,
        "line": "line-8",
        "platform_length_m": 59.5
      },
      "type": "Feature"
    },
    {
      "geometry": {
        "coordinates": [
          42.94458166983026,
          36.856711298275926
        ],
        "type": "Point"
      },
      "properties": {
        "anchor_kind": null,
        "anchor_name": null,
        "archetype": "interchange",
        "chainage_m": 6178.6,
        "corridor_offset_m": 0.199,
        "id": "line-8-0629-0198-s006179",
        "junction_group": 11,
        "line": "line-8",
        "platform_length_m": 59.5
      },
      "type": "Feature"
    },
    {
      "geometry": {
        "coordinates": [
          42.932004473303834,
          36.84663319295972
        ],
        "type": "Point"
      },
      "properties": {
        "anchor_kind": null,
        "anchor_name": null,
        "archetype": "terminal",
        "chainage_m": 7762.5,
        "corridor_offset_m": 0.0,
        "id": "line-8-0685-0142-s007763",
        "junction_group": null,
        "line": "line-8",
        "platform_length_m": 59.5
      },
      "type": "Feature"
    },
    {
      "geometry": {
        "coordinates": [
          43.022964555325274,
          36.85275204261599
        ],
        "type": "Point"
      },
      "properties": {
        "anchor_kind": "place:neighbourhood",
        "anchor_name": "بەروشكێ",
        "archetype": "terminal",
        "chainage_m": 0.0,
        "corridor_offset_m": 0.0,
        "id": "line-9-0651-0547-s000000",
        "junction_group": 1,
        "line": "line-9",
        "platform_length_m": 59.5
      },
      "type": "Feature"
    },
    {
      "geometry": {
        "coordinates": [
          43.02094322016924,
          36.84159414030162
        ],
        "type": "Point"
      },
      "properties": {
        "anchor_kind": "planning:residential-priority",
        "anchor_name": "Residential planning stop; site release open",
        "archetype": "standard",
        "chainage_m": 1314.6,
        "corridor_offset_m": 0.392,
        "id": "line-9-0713-0538-s001315",
        "junction_group": null,
        "line": "line-9",
        "platform_length_m": 59.5
      },
      "type": "Feature"
    },
    {
      "geometry": {
        "coordinates": [
          43.00117905419915,
          36.82395745599827
        ],
        "type": "Point"
      },
      "properties": {
        "anchor_kind": "planning:residential",
        "anchor_name": "Residential planning stop; site release open",
        "archetype": "halt",
        "chainage_m": 4003.6,
        "corridor_offset_m": 0.1,
        "id": "line-9-0811-0450-s004004",
        "junction_group": null,
        "line": "line-9",
        "platform_length_m": 55.5
      },
      "type": "Feature"
    },
    {
      "geometry": {
        "coordinates": [
          43.00117905419915,
          36.809560162689415
        ],
        "type": "Point"
      },
      "properties": {
        "anchor_kind": "planning:residential",
        "anchor_name": "Residential planning stop; site release open",
        "archetype": "halt",
        "chainage_m": 5603.6,
        "corridor_offset_m": 0.647,
        "id": "line-9-0891-0450-s005604",
        "junction_group": null,
        "line": "line-9",
        "platform_length_m": 55.5
      },
      "type": "Feature"
    },
    {
      "geometry": {
        "coordinates": [
          42.99017400723853,
          36.79876219270777
        ],
        "type": "Point"
      },
      "properties": {
        "anchor_kind": "planning:residential",
        "anchor_name": "Residential planning stop; site release open",
        "archetype": "halt",
        "chainage_m": 7209.5,
        "corridor_offset_m": 0.444,
        "id": "line-9-0951-0401-s007210",
        "junction_group": null,
        "line": "line-9",
        "platform_length_m": 55.5
      },
      "type": "Feature"
    },
    {
      "geometry": {
        "coordinates": [
          42.97580006835119,
          36.78724435806068
        ],
        "type": "Point"
      },
      "properties": {
        "anchor_kind": "place:town",
        "anchor_name": "شاريا",
        "archetype": "terminal",
        "chainage_m": 9019.7,
        "corridor_offset_m": 0.0,
        "id": "line-9-1015-0337-s009020",
        "junction_group": null,
        "line": "line-9",
        "platform_length_m": 59.5
      },
      "type": "Feature"
    }
  ],
  "type": "FeatureCollection"
}
