{
  "features": [
    {
      "geometry": {
        "coordinates": [
          24.95548545011341,
          12.055767339740129
        ],
        "type": "Point"
      },
      "properties": {
        "archetype": "main-heavy",
        "fleet_stalls": 8,
        "line": "line-1",
        "station": "line-1-0512-0958-s016444"
      },
      "type": "Feature"
    },
    {
      "geometry": {
        "coordinates": [
          24.890819744907443,
          12.08600165568873
        ],
        "type": "Point"
      },
      "properties": {
        "archetype": "main-heavy",
        "fleet_stalls": 6,
        "line": "line-2",
        "station": "line-2-0344-0606-s000000"
      },
      "type": "Feature"
    },
    {
      "geometry": {
        "coordinates": [
          24.9147019655801,
          12.015094986142605
        ],
        "type": "Point"
      },
      "properties": {
        "archetype": "main-heavy",
        "fleet_stalls": 6,
        "line": "line-3",
        "station": "line-3-0738-0736-s000000"
      },
      "type": "Feature"
    },
    {
      "geometry": {
        "coordinates": [
          24.896147317211344,
          12.047668862253897
        ],
        "type": "Point"
      },
      "properties": {
        "archetype": "main-heavy",
        "fleet_stalls": 3,
        "line": "line-4",
        "station": "line-4-0557-0635-s000000"
      },
      "type": "Feature"
    },
    {
      "geometry": {
        "coordinates": [
          24.892840548195128,
          12.072324227045316
        ],
        "type": "Point"
      },
      "properties": {
        "archetype": "main-heavy",
        "fleet_stalls": 2,
        "line": "line-5",
        "station": "line-5-0420-0617-s000000"
      },
      "type": "Feature"
    },
    {
      "geometry": {
        "coordinates": [
          24.864365592777727,
          12.045329302091206
        ],
        "type": "Point"
      },
      "properties": {
        "archetype": "main-heavy",
        "fleet_stalls": 3,
        "line": "line-6",
        "station": "line-6-0570-0462-s000000"
      },
      "type": "Feature"
    },
    {
      "geometry": {
        "coordinates": [
          24.89118716368702,
          12.084022027858762
        ],
        "type": "Point"
      },
      "properties": {
        "archetype": "main-heavy",
        "fleet_stalls": 3,
        "line": "line-7",
        "station": "line-7-0355-0608-s000000"
      },
      "type": "Feature"
    },
    {
      "geometry": {
        "coordinates": [
          24.890819744907443,
          12.08600165568873
        ],
        "type": "Point"
      },
      "properties": {
        "archetype": "main-heavy",
        "fleet_stalls": 3,
        "line": "line-8",
        "station": "line-8-0344-0606-s000000"
      },
      "type": "Feature"
    },
    {
      "geometry": {
        "coordinates": [
          24.913599709241364,
          12.040110283266745
        ],
        "type": "Point"
      },
      "properties": {
        "archetype": "main-heavy",
        "fleet_stalls": 3,
        "line": "line-9",
        "station": "line-9-0599-0730-s000000"
      },
      "type": "Feature"
    },
    {
      "geometry": {
        "coordinates": [
          24.92664307591643,
          12.04604916675665
        ],
        "type": "Point"
      },
      "properties": {
        "archetype": "main-heavy",
        "fleet_stalls": 2,
        "line": "line-10",
        "station": "line-10-0566-0801-s000000"
      },
      "type": "Feature"
    },
    {
      "geometry": {
        "coordinates": [
          24.867304943014364,
          12.019054241802541
        ],
        "type": "Point"
      },
      "properties": {
        "archetype": "main-heavy",
        "fleet_stalls": 2,
        "line": "line-11",
        "station": "line-11-0716-0478-s000000"
      },
      "type": "Feature"
    },
    {
      "geometry": {
        "coordinates": [
          24.83846256881738,
          12.06098635856459
        ],
        "type": "Point"
      },
      "properties": {
        "archetype": "main-heavy",
        "fleet_stalls": 3,
        "line": "line-12",
        "station": "line-12-0483-0321-s000000"
      },
      "type": "Feature"
    }
  ],
  "type": "FeatureCollection"
}
