{
  "features": [
    {
      "geometry": {
        "coordinates": [
          47.79058341547887,
          30.42219162797394
        ],
        "type": "Point"
      },
      "properties": {
        "archetype": "main-heavy",
        "fleet_stalls": 10,
        "line": "line-1",
        "station": "line-1-1821-1153-s000000"
      },
      "type": "Feature"
    },
    {
      "geometry": {
        "coordinates": [
          47.83500844148407,
          30.458364827412446
        ],
        "type": "Point"
      },
      "properties": {
        "archetype": "main-heavy",
        "fleet_stalls": 5,
        "line": "line-2",
        "station": "line-2-1620-1366-s000000"
      },
      "type": "Feature"
    },
    {
      "geometry": {
        "coordinates": [
          47.67295095225383,
          30.546908181261923
        ],
        "type": "Point"
      },
      "properties": {
        "archetype": "main-heavy",
        "fleet_stalls": 10,
        "line": "line-3",
        "station": "line-3-1128-0589-s038893"
      },
      "type": "Feature"
    },
    {
      "geometry": {
        "coordinates": [
          47.712161773328845,
          30.557346218910844
        ],
        "type": "Point"
      },
      "properties": {
        "archetype": "main-heavy",
        "fleet_stalls": 10,
        "line": "line-4",
        "station": "line-4-1070-0777-s000000"
      },
      "type": "Feature"
    },
    {
      "geometry": {
        "coordinates": [
          47.62268601672682,
          30.36262282690854
        ],
        "type": "Point"
      },
      "properties": {
        "archetype": "main-heavy",
        "fleet_stalls": 10,
        "line": "line-5",
        "station": "line-5-2152-0348-s000000"
      },
      "type": "Feature"
    },
    {
      "geometry": {
        "coordinates": [
          47.7580467767145,
          30.569403952057012
        ],
        "type": "Point"
      },
      "properties": {
        "archetype": "main-heavy",
        "fleet_stalls": 7,
        "line": "line-6",
        "station": "line-6-1003-0997-s000000"
      },
      "type": "Feature"
    },
    {
      "geometry": {
        "coordinates": [
          47.78224068759057,
          30.56904401972429
        ],
        "type": "Point"
      },
      "properties": {
        "archetype": "main-heavy",
        "fleet_stalls": 6,
        "line": "line-7",
        "station": "line-7-1005-1113-s005168"
      },
      "type": "Feature"
    }
  ],
  "type": "FeatureCollection"
}
