{
  "features": [
    {
      "geometry": {
        "coordinates": [
          15.752463223410638,
          -12.753395637620127
        ],
        "type": "Point"
      },
      "properties": {
        "id": "interchange-000",
        "junction_group": 0,
        "line_count": 2,
        "lines": "line-1,line-3",
        "platform_count": 2,
        "platforms": "line-1-0424-0623-s009098,line-3-0424-0623-s003478"
      },
      "type": "Feature"
    },
    {
      "geometry": {
        "coordinates": [
          15.758911038678276,
          -12.779850664075154
        ],
        "type": "Point"
      },
      "properties": {
        "id": "interchange-001",
        "junction_group": 1,
        "line_count": 2,
        "lines": "line-2,line-3",
        "platform_count": 2,
        "platforms": "line-2-0571-0658-s004001,line-3-0571-0658-s006708"
      },
      "type": "Feature"
    }
  ],
  "type": "FeatureCollection"
}
