{
  "features": [
    {
      "geometry": {
        "coordinates": [
          43.875510956111796,
          26.416817798653856
        ],
        "type": "Point"
      },
      "properties": {
        "archetype": "main-heavy",
        "fleet_stalls": 11,
        "line": "line-1",
        "station": "line-1-0230-0021-s026440"
      },
      "type": "Feature"
    },
    {
      "geometry": {
        "coordinates": [
          43.93125262118526,
          26.404040200842243
        ],
        "type": "Point"
      },
      "properties": {
        "archetype": "main-heavy",
        "fleet_stalls": 7,
        "line": "line-2",
        "station": "line-2-0301-0299-s000000"
      },
      "type": "Feature"
    },
    {
      "geometry": {
        "coordinates": [
          43.95691784826944,
          26.28940175287046
        ],
        "type": "Point"
      },
      "properties": {
        "archetype": "main-heavy",
        "fleet_stalls": 8,
        "line": "line-3",
        "station": "line-3-0938-0427-s000000"
      },
      "type": "Feature"
    }
  ],
  "type": "FeatureCollection"
}
