{
  "features": [
    {
      "geometry": {
        "coordinates": [
          -1.390339737457999,
          12.54739049058777
        ],
        "type": "Point"
      },
      "properties": {
        "archetype": "main-heavy",
        "fleet_stalls": 8,
        "line": "line-1",
        "station": "line-1-0014-1411-s033799"
      },
      "type": "Feature"
    },
    {
      "geometry": {
        "coordinates": [
          -1.410207472742828,
          12.392619587517547
        ],
        "type": "Point"
      },
      "properties": {
        "archetype": "main-heavy",
        "fleet_stalls": 5,
        "line": "line-2",
        "station": "line-2-0874-1303-s000000"
      },
      "type": "Feature"
    },
    {
      "geometry": {
        "coordinates": [
          -1.5479938961533548,
          12.277261274880324
        ],
        "type": "Point"
      },
      "properties": {
        "archetype": "main-heavy",
        "fleet_stalls": 6,
        "line": "line-3",
        "station": "line-3-1515-0554-s000000"
      },
      "type": "Feature"
    },
    {
      "geometry": {
        "coordinates": [
          -1.5803709462471502,
          12.504198610661197
        ],
        "type": "Point"
      },
      "properties": {
        "archetype": "main-heavy",
        "fleet_stalls": 7,
        "line": "line-4",
        "station": "line-4-0254-0378-s000000"
      },
      "type": "Feature"
    },
    {
      "geometry": {
        "coordinates": [
          -1.4937255451438682,
          12.310015117157976
        ],
        "type": "Point"
      },
      "properties": {
        "archetype": "main-heavy",
        "fleet_stalls": 7,
        "line": "line-5",
        "station": "line-5-1333-0849-s000000"
      },
      "type": "Feature"
    },
    {
      "geometry": {
        "coordinates": [
          -1.59269630054422,
          12.425373429795199
        ],
        "type": "Point"
      },
      "properties": {
        "archetype": "main-heavy",
        "fleet_stalls": 4,
        "line": "line-6",
        "station": "line-6-0692-0311-s000000"
      },
      "type": "Feature"
    }
  ],
  "type": "FeatureCollection"
}
