{
  "features": [
    {
      "geometry": {
        "coordinates": [
          35.69795746610608,
          -7.761848936399957
        ],
        "type": "Point"
      },
      "properties": {
        "id": "interchange-000",
        "junction_group": 0,
        "line_count": 2,
        "lines": "line-1,line-3",
        "platform_count": 2,
        "platforms": "line-1-0326-0420-s003018,line-3-0327-0419-s002702"
      },
      "type": "Feature"
    },
    {
      "geometry": {
        "coordinates": [
          35.67556354452489,
          -7.776336212791995
        ],
        "type": "Point"
      },
      "properties": {
        "id": "interchange-001",
        "junction_group": 1,
        "line_count": 2,
        "lines": "line-1,line-2",
        "platform_count": 2,
        "platforms": "line-1-0407-0296-s006281,line-2-0407-0296-s004080"
      },
      "type": "Feature"
    }
  ],
  "type": "FeatureCollection"
}
