{
  "features": [
    {
      "geometry": {
        "coordinates": [
          12.361180546348574,
          -6.157858974912718
        ],
        "type": "Point"
      },
      "properties": {
        "id": "interchange-000",
        "junction_group": 0,
        "line_count": 4,
        "lines": "line-1,line-3,line-4,line-5",
        "platform_count": 10,
        "platforms": "line-1-0493-0331-s005676,line-1-0495-0334-s005738,line-1-0510-0350-s006243,line-3-0511-0351-s004005,line-4-0495-0334-s006723,line-4-0502-0326-s006511,line-4-0513-0324-s006275,line-5-0493-0331-s000000,line-5-0502-0326-s000221,line-5-0513-0324-s000458"
      },
      "type": "Feature"
    },
    {
      "geometry": {
        "coordinates": [
          12.368571056977041,
          -6.170330630241515
        ],
        "type": "Point"
      },
      "properties": {
        "id": "interchange-001",
        "junction_group": 1,
        "line_count": 2,
        "lines": "line-2,line-3",
        "platform_count": 2,
        "platforms": "line-2-0572-0374-s000681,line-3-0572-0374-s005439"
      },
      "type": "Feature"
    },
    {
      "geometry": {
        "coordinates": [
          12.36278875037286,
          -6.155033506100853
        ],
        "type": "Point"
      },
      "properties": {
        "id": "interchange-002",
        "junction_group": 2,
        "line_count": 2,
        "lines": "line-3,line-4",
        "platform_count": 2,
        "platforms": "line-3-0487-0342-s003437,line-4-0487-0342-s006950"
      },
      "type": "Feature"
    },
    {
      "geometry": {
        "coordinates": [
          12.370920119034988,
          -6.176449479897779
        ],
        "type": "Point"
      },
      "properties": {
        "id": "interchange-003",
        "junction_group": 3,
        "line_count": 2,
        "lines": "line-3,line-6",
        "platform_count": 2,
        "platforms": "line-3-0606-0387-s006239,line-6-0606-0387-s000000"
      },
      "type": "Feature"
    },
    {
      "geometry": {
        "coordinates": [
          12.369835936546705,
          -6.187427416045784
        ],
        "type": "Point"
      },
      "properties": {
        "id": "interchange-004",
        "junction_group": 4,
        "line_count": 2,
        "lines": "line-3,line-4",
        "platform_count": 2,
        "platforms": "line-3-0667-0381-s007658,line-4-0667-0381-s000000"
      },
      "type": "Feature"
    }
  ],
  "type": "FeatureCollection"
}
