{
  "features": [
    {
      "geometry": {
        "coordinates": [
          80.55218434924961,
          7.265613328294281
        ],
        "type": "Point"
      },
      "properties": {
        "archetype": "main-heavy",
        "fleet_stalls": 12,
        "line": "line-1",
        "station": "line-1-0689-0101-s022168"
      },
      "type": "Feature"
    },
    {
      "geometry": {
        "coordinates": [
          80.57482517344864,
          7.228180365691251
        ],
        "type": "Point"
      },
      "properties": {
        "archetype": "main-heavy",
        "fleet_stalls": 11,
        "line": "line-2",
        "station": "line-2-0897-0226-s000000"
      },
      "type": "Feature"
    },
    {
      "geometry": {
        "coordinates": [
          80.68676140828867,
          7.269212651621496
        ],
        "type": "Point"
      },
      "properties": {
        "archetype": "main-heavy",
        "fleet_stalls": 9,
        "line": "line-3",
        "station": "line-3-0669-0844-s000000"
      },
      "type": "Feature"
    },
    {
      "geometry": {
        "coordinates": [
          80.60326204864263,
          7.363874855127237
        ],
        "type": "Point"
      },
      "properties": {
        "archetype": "main-heavy",
        "fleet_stalls": 2,
        "line": "line-4",
        "station": "line-4-0143-0383-s000000"
      },
      "type": "Feature"
    },
    {
      "geometry": {
        "coordinates": [
          80.63858173439313,
          7.322122704531548
        ],
        "type": "Point"
      },
      "properties": {
        "archetype": "main-heavy",
        "fleet_stalls": 2,
        "line": "line-5",
        "station": "line-5-0375-0578-s000000"
      },
      "type": "Feature"
    },
    {
      "geometry": {
        "coordinates": [
          80.66538847024479,
          7.330221182017781
        ],
        "type": "Point"
      },
      "properties": {
        "archetype": "main-heavy",
        "fleet_stalls": 2,
        "line": "line-6",
        "station": "line-6-0330-0726-s000000"
      },
      "type": "Feature"
    },
    {
      "geometry": {
        "coordinates": [
          80.62409160690575,
          7.338139693337653
        ],
        "type": "Point"
      },
      "properties": {
        "archetype": "main-heavy",
        "fleet_stalls": 2,
        "line": "line-7",
        "station": "line-7-0286-0498-s000000"
      },
      "type": "Feature"
    },
    {
      "geometry": {
        "coordinates": [
          80.59511135193098,
          7.245097185329159
        ],
        "type": "Point"
      },
      "properties": {
        "archetype": "main-heavy",
        "fleet_stalls": 2,
        "line": "line-8",
        "station": "line-8-0803-0338-s000000"
      },
      "type": "Feature"
    },
    {
      "geometry": {
        "coordinates": [
          80.57717981916535,
          7.226380704027643
        ],
        "type": "Point"
      },
      "properties": {
        "archetype": "main-heavy",
        "fleet_stalls": 3,
        "line": "line-9",
        "station": "line-9-0907-0239-s000000"
      },
      "type": "Feature"
    },
    {
      "geometry": {
        "coordinates": [
          80.71248138457878,
          7.2890089299211756
        ],
        "type": "Point"
      },
      "properties": {
        "archetype": "main-heavy",
        "fleet_stalls": 3,
        "line": "line-10",
        "station": "line-10-0559-0986-s000000"
      },
      "type": "Feature"
    },
    {
      "geometry": {
        "coordinates": [
          80.65669439375236,
          7.3194232120361375
        ],
        "type": "Point"
      },
      "properties": {
        "archetype": "main-heavy",
        "fleet_stalls": 4,
        "line": "line-11",
        "station": "line-11-0390-0678-s000000"
      },
      "type": "Feature"
    },
    {
      "geometry": {
        "coordinates": [
          80.61992569525313,
          7.342638847496671
        ],
        "type": "Point"
      },
      "properties": {
        "archetype": "main-heavy",
        "fleet_stalls": 3,
        "line": "line-12",
        "station": "line-12-0261-0475-s000000"
      },
      "type": "Feature"
    },
    {
      "geometry": {
        "coordinates": [
          80.6860369019143,
          7.284329809595796
        ],
        "type": "Point"
      },
      "properties": {
        "archetype": "main-heavy",
        "fleet_stalls": 4,
        "line": "line-13",
        "station": "line-13-0585-0840-s000000"
      },
      "type": "Feature"
    },
    {
      "geometry": {
        "coordinates": [
          80.56468208420749,
          7.2665131591260845
        ],
        "type": "Point"
      },
      "properties": {
        "archetype": "main-heavy",
        "fleet_stalls": 5,
        "line": "line-14",
        "station": "line-14-0684-0170-s000000"
      },
      "type": "Feature"
    },
    {
      "geometry": {
        "coordinates": [
          80.60960147941837,
          7.262373937299788
        ],
        "type": "Point"
      },
      "properties": {
        "archetype": "main-heavy",
        "fleet_stalls": 2,
        "line": "line-15",
        "station": "line-15-0707-0418-s000000"
      },
      "type": "Feature"
    },
    {
      "geometry": {
        "coordinates": [
          80.55218434924961,
          7.2665131591260845
        ],
        "type": "Point"
      },
      "properties": {
        "archetype": "main-heavy",
        "fleet_stalls": 3,
        "line": "line-16",
        "station": "line-16-0684-0101-s000000"
      },
      "type": "Feature"
    },
    {
      "geometry": {
        "coordinates": [
          80.66104143199857,
          7.29764730590649
        ],
        "type": "Point"
      },
      "properties": {
        "archetype": "main-heavy",
        "fleet_stalls": 2,
        "line": "line-17",
        "station": "line-17-0511-0702-s000000"
      },
      "type": "Feature"
    },
    {
      "geometry": {
        "coordinates": [
          80.61159387194789,
          7.2729919411150705
        ],
        "type": "Point"
      },
      "properties": {
        "archetype": "main-heavy",
        "fleet_stalls": 2,
        "line": "line-18",
        "station": "line-18-0648-0429-s000000"
      },
      "type": "Feature"
    }
  ],
  "type": "FeatureCollection"
}
