{
  "features": [
    {
      "geometry": {
        "coordinates": [
          80.67462592651799,
          7.28253014793219
        ],
        "type": "Point"
      },
      "properties": {
        "id": "interchange-000",
        "junction_group": 0,
        "line_count": 2,
        "lines": "line-1,line-3",
        "platform_count": 2,
        "platforms": "line-1-0595-0777-s006836,line-3-0595-0777-s002222"
      },
      "type": "Feature"
    },
    {
      "geometry": {
        "coordinates": [
          80.61920118887876,
          7.274071738113235
        ],
        "type": "Point"
      },
      "properties": {
        "id": "interchange-001",
        "junction_group": 1,
        "line_count": 2,
        "lines": "line-1,line-2",
        "platform_count": 2,
        "platforms": "line-1-0642-0471-s013345,line-2-0642-0471-s008843"
      },
      "type": "Feature"
    },
    {
      "geometry": {
        "coordinates": [
          80.64917764011828,
          7.310424903718101
        ],
        "type": "Point"
      },
      "properties": {
        "id": "interchange-002",
        "junction_group": 2,
        "line_count": 2,
        "lines": "line-2,line-3",
        "platform_count": 2,
        "platforms": "line-2-0441-0636-s014722,line-3-0439-0637-s006947"
      },
      "type": "Feature"
    }
  ],
  "type": "FeatureCollection"
}
