{
  "features": [
    {
      "geometry": {
        "coordinates": [
          42.60230866382832,
          16.83397901234568
        ],
        "type": "Point"
      },
      "properties": {
        "anchor_kind": "amenity:college",
        "anchor_name": "كلية الطب",
        "archetype": "terminal",
        "chainage_m": 0.0,
        "corridor_offset_m": 0.0,
        "id": "line-1-0857-0824-s000000",
        "junction_group": null,
        "line": "line-1",
        "platform_length_m": 59.5
      },
      "type": "Feature"
    },
    {
      "geometry": {
        "coordinates": [
          42.58541020446562,
          16.86691282078969
        ],
        "type": "Point"
      },
      "properties": {
        "anchor_kind": "place:neighbourhood",
        "anchor_name": "السويس 1",
        "archetype": "interchange",
        "chainage_m": 4499.3,
        "corridor_offset_m": 1.489,
        "id": "line-1-0674-0734-s004499",
        "junction_group": 0,
        "line": "line-1",
        "platform_length_m": 59.5
      },
      "type": "Feature"
    },
    {
      "geometry": {
        "coordinates": [
          42.57414456489048,
          16.888688726919337
        ],
        "type": "Point"
      },
      "properties": {
        "anchor_kind": "place:neighbourhood",
        "anchor_name": "المطار",
        "archetype": "interchange",
        "chainage_m": 7510.1,
        "corridor_offset_m": 2.44,
        "id": "line-1-0553-0674-s007510",
        "junction_group": 1,
        "line": "line-1",
        "platform_length_m": 59.5
      },
      "type": "Feature"
    },
    {
      "geometry": {
        "coordinates": [
          42.562878925315346,
          16.910824565381706
        ],
        "type": "Point"
      },
      "properties": {
        "anchor_kind": null,
        "anchor_name": null,
        "archetype": "interchange",
        "chainage_m": 10525.7,
        "corridor_offset_m": 3.031,
        "id": "line-1-0430-0614-s010526",
        "junction_group": 2,
        "line": "line-1",
        "platform_length_m": 59.5
      },
      "type": "Feature"
    },
    {
      "geometry": {
        "coordinates": [
          42.549735679144355,
          16.93619979483857
        ],
        "type": "Point"
      },
      "properties": {
        "anchor_kind": null,
        "anchor_name": null,
        "archetype": "standard",
        "chainage_m": 14031.1,
        "corridor_offset_m": 1.963,
        "id": "line-1-0289-0544-s014031",
        "junction_group": null,
        "line": "line-1",
        "platform_length_m": 59.5
      },
      "type": "Feature"
    },
    {
      "geometry": {
        "coordinates": [
          42.54673150859098,
          16.96103512579635
        ],
        "type": "Point"
      },
      "properties": {
        "anchor_kind": null,
        "anchor_name": null,
        "archetype": "standard",
        "chainage_m": 17532.9,
        "corridor_offset_m": 0.727,
        "id": "line-1-0151-0528-s017533",
        "junction_group": null,
        "line": "line-1",
        "platform_length_m": 59.5
      },
      "type": "Feature"
    },
    {
      "geometry": {
        "coordinates": [
          42.55273984969772,
          16.977951945434256
        ],
        "type": "Point"
      },
      "properties": {
        "anchor_kind": "amenity:college",
        "anchor_name": "كلية الصحة العامة وطب المناطق الحارة",
        "archetype": "depot-terminal",
        "chainage_m": 19954.0,
        "corridor_offset_m": 0.0,
        "id": "line-1-0057-0560-s019954",
        "junction_group": null,
        "line": "line-1",
        "platform_length_m": 59.5
      },
      "type": "Feature"
    },
    {
      "geometry": {
        "coordinates": [
          42.534151544398746,
          16.893187881078354
        ],
        "type": "Point"
      },
      "properties": {
        "anchor_kind": "public_transport:station",
        "anchor_name": "جيزان",
        "archetype": "terminal",
        "chainage_m": 0.0,
        "corridor_offset_m": 0.0,
        "id": "line-2-0528-0461-s000000",
        "junction_group": null,
        "line": "line-2",
        "platform_length_m": 59.5
      },
      "type": "Feature"
    },
    {
      "geometry": {
        "coordinates": [
          42.54767031188891,
          16.89678720440557
        ],
        "type": "Point"
      },
      "properties": {
        "anchor_kind": "amenity:marketplace",
        "anchor_name": null,
        "archetype": "major",
        "chainage_m": 1605.7,
        "corridor_offset_m": 0.794,
        "id": "line-2-0508-0533-s001606",
        "junction_group": null,
        "line": "line-2",
        "platform_length_m": 59.5
      },
      "type": "Feature"
    },
    {
      "geometry": {
        "coordinates": [
          42.57151591565628,
          16.90326598639456
        ],
        "type": "Point"
      },
      "properties": {
        "anchor_kind": null,
        "anchor_name": null,
        "archetype": "standard",
        "chainage_m": 4479.1,
        "corridor_offset_m": 1.358,
        "id": "line-2-0472-0660-s004479",
        "junction_group": null,
        "line": "line-2",
        "platform_length_m": 59.5
      },
      "type": "Feature"
    },
    {
      "geometry": {
        "coordinates": [
          42.59573704074282,
          16.909924734549904
        ],
        "type": "Point"
      },
      "properties": {
        "anchor_kind": "place:neighbourhood",
        "anchor_name": "النسيم",
        "archetype": "terminal",
        "chainage_m": 7365.6,
        "corridor_offset_m": 0.0,
        "id": "line-2-0435-0789-s007366",
        "junction_group": null,
        "line": "line-2",
        "platform_length_m": 59.5
      },
      "type": "Feature"
    },
    {
      "geometry": {
        "coordinates": [
          42.646807940150104,
          16.81670226037505
        ],
        "type": "Point"
      },
      "properties": {
        "anchor_kind": "amenity:marketplace",
        "anchor_name": "سوق المواشي",
        "archetype": "terminal",
        "chainage_m": 0.0,
        "corridor_offset_m": 0.0,
        "id": "line-3-0953-1061-s000000",
        "junction_group": null,
        "line": "line-3",
        "platform_length_m": 59.5
      },
      "type": "Feature"
    },
    {
      "geometry": {
        "coordinates": [
          42.60681491965837,
          16.84711654249001
        ],
        "type": "Point"
      },
      "properties": {
        "anchor_kind": "amenity:college",
        "anchor_name": "كلية التقنية بجازان",
        "archetype": "standard",
        "chainage_m": 6572.7,
        "corridor_offset_m": 2.167,
        "id": "line-3-0784-0848-s006573",
        "junction_group": null,
        "line": "line-3",
        "platform_length_m": 59.5
      },
      "type": "Feature"
    },
    {
      "geometry": {
        "coordinates": [
          42.5895409389765,
          16.870872076449626
        ],
        "type": "Point"
      },
      "properties": {
        "anchor_kind": null,
        "anchor_name": null,
        "archetype": "interchange",
        "chainage_m": 10150.6,
        "corridor_offset_m": 2.156,
        "id": "line-3-0652-0756-s010151",
        "junction_group": 0,
        "line": "line-3",
        "platform_length_m": 59.5
      },
      "type": "Feature"
    },
    {
      "geometry": {
        "coordinates": [
          42.57489560752882,
          16.890488388582945
        ],
        "type": "Point"
      },
      "properties": {
        "anchor_kind": "place:neighbourhood",
        "anchor_name": "المطار",
        "archetype": "interchange",
        "chainage_m": 13164.2,
        "corridor_offset_m": 2.159,
        "id": "line-3-0543-0678-s013164",
        "junction_group": 1,
        "line": "line-3",
        "platform_length_m": 59.5
      },
      "type": "Feature"
    },
    {
      "geometry": {
        "coordinates": [
          42.564193249932444,
          16.905065648058162
        ],
        "type": "Point"
      },
      "properties": {
        "anchor_kind": null,
        "anchor_name": null,
        "archetype": "interchange",
        "chainage_m": 15361.8,
        "corridor_offset_m": 0.09,
        "id": "line-3-0462-0621-s015362",
        "junction_group": 2,
        "line": "line-3",
        "platform_length_m": 59.5
      },
      "type": "Feature"
    },
    {
      "geometry": {
        "coordinates": [
          42.55367865299565,
          16.919462941367023
        ],
        "type": "Point"
      },
      "properties": {
        "anchor_kind": "place:neighbourhood",
        "anchor_name": "الشاطئ",
        "archetype": "terminal",
        "chainage_m": 17566.4,
        "corridor_offset_m": 0.0,
        "id": "line-3-0382-0565-s017566",
        "junction_group": null,
        "line": "line-3",
        "platform_length_m": 59.5
      },
      "type": "Feature"
    }
  ],
  "type": "FeatureCollection"
}
