{
  "features": [
    {
      "geometry": {
        "coordinates": [
          35.26942837550948,
          0.5123489975884533
        ],
        "type": "Point"
      },
      "properties": {
        "id": "interchange-000",
        "junction_group": 0,
        "line_count": 2,
        "lines": "line-1,line-2",
        "platform_count": 2,
        "platforms": "line-1-0562-0539-s005504,line-2-0560-0559-s005310"
      },
      "type": "Feature"
    },
    {
      "geometry": {
        "coordinates": [
          35.2855087933586,
          0.5220671705719324
        ],
        "type": "Point"
      },
      "properties": {
        "id": "interchange-001",
        "junction_group": 1,
        "line_count": 2,
        "lines": "line-2,line-3",
        "platform_count": 2,
        "platforms": "line-2-0515-0653-s003011,line-3-0499-0624-s016810"
      },
      "type": "Feature"
    }
  ],
  "type": "FeatureCollection"
}
