{
  "features": [
    {
      "geometry": {
        "coordinates": [
          35.29835516069059,
          0.4813948169744088
        ],
        "type": "Point"
      },
      "properties": {
        "anchor_kind": "amenity:university",
        "anchor_name": "Moi University School of Law-Annex",
        "archetype": "terminal",
        "chainage_m": 0.0,
        "corridor_offset_m": 0.0,
        "id": "line-1-0733-0710-s000000",
        "junction_group": null,
        "line": "line-1",
        "platform_length_m": 59.5
      },
      "type": "Feature"
    },
    {
      "geometry": {
        "coordinates": [
          35.28110689126583,
          0.4986715689450383
        ],
        "type": "Point"
      },
      "properties": {
        "anchor_kind": null,
        "anchor_name": null,
        "archetype": "standard",
        "chainage_m": 3019.9,
        "corridor_offset_m": 0.66,
        "id": "line-1-0637-0614-s003020",
        "junction_group": null,
        "line": "line-1",
        "platform_length_m": 59.5
      },
      "type": "Feature"
    },
    {
      "geometry": {
        "coordinates": [
          35.267631680777725,
          0.5121690314220926
        ],
        "type": "Point"
      },
      "properties": {
        "anchor_kind": null,
        "anchor_name": null,
        "archetype": "interchange",
        "chainage_m": 5504.4,
        "corridor_offset_m": 1.943,
        "id": "line-1-0562-0539-s005504",
        "junction_group": 0,
        "line": "line-1",
        "platform_length_m": 59.5
      },
      "type": "Feature"
    },
    {
      "geometry": {
        "coordinates": [
          35.24661035241629,
          0.5330451067199367
        ],
        "type": "Point"
      },
      "properties": {
        "anchor_kind": "shop:mall",
        "anchor_name": "Pilot Shopping Centre",
        "archetype": "standard",
        "chainage_m": 9063.1,
        "corridor_offset_m": 1.159,
        "id": "line-1-0446-0422-s009063",
        "junction_group": null,
        "line": "line-1",
        "platform_length_m": 59.5
      },
      "type": "Feature"
    },
    {
      "geometry": {
        "coordinates": [
          35.21624621144977,
          0.5632794226685383
        ],
        "type": "Point"
      },
      "properties": {
        "anchor_kind": null,
        "anchor_name": null,
        "archetype": "halt",
        "chainage_m": 14561.3,
        "corridor_offset_m": 0.04,
        "id": "line-1-0278-0253-s014561",
        "junction_group": null,
        "line": "line-1",
        "platform_length_m": 55.5
      },
      "type": "Feature"
    },
    {
      "geometry": {
        "coordinates": [
          35.1777969441904,
          0.5845154302991037
        ],
        "type": "Point"
      },
      "properties": {
        "anchor_kind": "public_transport:station",
        "anchor_name": "Leseru/Kitale Junction",
        "archetype": "terminal",
        "chainage_m": 20073.8,
        "corridor_offset_m": 0.0,
        "id": "line-1-0160-0039-s020074",
        "junction_group": null,
        "line": "line-1",
        "platform_length_m": 59.5
      },
      "type": "Feature"
    },
    {
      "geometry": {
        "coordinates": [
          35.31003367644695,
          0.5312454450563293
        ],
        "type": "Point"
      },
      "properties": {
        "anchor_kind": "place:suburb",
        "anchor_name": "Munyaka Estate",
        "archetype": "terminal",
        "chainage_m": 0.0,
        "corridor_offset_m": 0.0,
        "id": "line-2-0456-0775-s000000",
        "junction_group": null,
        "line": "line-2",
        "platform_length_m": 59.5
      },
      "type": "Feature"
    },
    {
      "geometry": {
        "coordinates": [
          35.28811400071964,
          0.5206274412410467
        ],
        "type": "Point"
      },
      "properties": {
        "anchor_kind": null,
        "anchor_name": null,
        "archetype": "interchange",
        "chainage_m": 3010.8,
        "corridor_offset_m": 2.358,
        "id": "line-2-0515-0653-s003011",
        "junction_group": 1,
        "line": "line-2",
        "platform_length_m": 59.5
      },
      "type": "Feature"
    },
    {
      "geometry": {
        "coordinates": [
          35.27122507024122,
          0.512528963754814
        ],
        "type": "Point"
      },
      "properties": {
        "anchor_kind": null,
        "anchor_name": null,
        "archetype": "interchange",
        "chainage_m": 5310.4,
        "corridor_offset_m": 0.795,
        "id": "line-2-0560-0559-s005310",
        "junction_group": 0,
        "line": "line-2",
        "platform_length_m": 59.5
      },
      "type": "Feature"
    },
    {
      "geometry": {
        "coordinates": [
          35.25415647028963,
          0.5042505201022207
        ],
        "type": "Point"
      },
      "properties": {
        "anchor_kind": null,
        "anchor_name": null,
        "archetype": "standard",
        "chainage_m": 7650.1,
        "corridor_offset_m": 4.678,
        "id": "line-2-0606-0464-s007650",
        "junction_group": null,
        "line": "line-2",
        "platform_length_m": 59.5
      },
      "type": "Feature"
    },
    {
      "geometry": {
        "coordinates": [
          35.20941877146914,
          0.4819347154734909
        ],
        "type": "Point"
      },
      "properties": {
        "anchor_kind": "amenity:hospital",
        "anchor_name": null,
        "archetype": "terminal",
        "chainage_m": 13797.9,
        "corridor_offset_m": 0.0,
        "id": "line-2-0730-0215-s013798",
        "junction_group": null,
        "line": "line-2",
        "platform_length_m": 59.5
      },
      "type": "Feature"
    },
    {
      "geometry": {
        "coordinates": [
          35.174562893673254,
          0.6032319116006191
        ],
        "type": "Point"
      },
      "properties": {
        "anchor_kind": "amenity:marketplace",
        "anchor_name": "Baraka Farmhouse Cheese",
        "archetype": "terminal",
        "chainage_m": 0.0,
        "corridor_offset_m": 0.0,
        "id": "line-3-0056-0021-s000000",
        "junction_group": null,
        "line": "line-3",
        "platform_length_m": 59.5
      },
      "type": "Feature"
    },
    {
      "geometry": {
        "coordinates": [
          35.1997166199177,
          0.5906342799553683
        ],
        "type": "Point"
      },
      "properties": {
        "anchor_kind": null,
        "anchor_name": null,
        "archetype": "halt",
        "chainage_m": 3514.6,
        "corridor_offset_m": 0.649,
        "id": "line-3-0126-0161-s003515",
        "junction_group": null,
        "line": "line-3",
        "platform_length_m": 55.5
      },
      "type": "Feature"
    },
    {
      "geometry": {
        "coordinates": [
          35.221995634591366,
          0.5735374941510996
        ],
        "type": "Point"
      },
      "properties": {
        "anchor_kind": null,
        "anchor_name": null,
        "archetype": "halt",
        "chainage_m": 7012.5,
        "corridor_offset_m": 0.61,
        "id": "line-3-0221-0285-s007013",
        "junction_group": null,
        "line": "line-3",
        "platform_length_m": 55.5
      },
      "type": "Feature"
    },
    {
      "geometry": {
        "coordinates": [
          35.264217960787406,
          0.5388040240434797
        ],
        "type": "Point"
      },
      "properties": {
        "anchor_kind": "place:suburb",
        "anchor_name": "Kamkunji",
        "archetype": "standard",
        "chainage_m": 13803.4,
        "corridor_offset_m": 0.823,
        "id": "line-3-0414-0520-s013803",
        "junction_group": null,
        "line": "line-3",
        "platform_length_m": 59.5
      },
      "type": "Feature"
    },
    {
      "geometry": {
        "coordinates": [
          35.28290358599757,
          0.5235068999028182
        ],
        "type": "Point"
      },
      "properties": {
        "anchor_kind": "leisure:stadium",
        "anchor_name": "Kipchoge Keino Stadium",
        "archetype": "interchange",
        "chainage_m": 16810.2,
        "corridor_offset_m": 0.973,
        "id": "line-3-0499-0624-s016810",
        "junction_group": 1,
        "line": "line-3",
        "platform_length_m": 59.5
      },
      "type": "Feature"
    },
    {
      "geometry": {
        "coordinates": [
          35.305002931198054,
          0.5051503509340244
        ],
        "type": "Point"
      },
      "properties": {
        "anchor_kind": "amenity:college",
        "anchor_name": "Rift Valley Technical Training Institute",
        "archetype": "depot-terminal",
        "chainage_m": 20373.0,
        "corridor_offset_m": 0.0,
        "id": "line-3-0601-0747-s020373",
        "junction_group": null,
        "line": "line-3",
        "platform_length_m": 59.5
      },
      "type": "Feature"
    }
  ],
  "type": "FeatureCollection"
}
