{
  "features": [
    {
      "geometry": {
        "coordinates": [
          -6.319758942452353,
          32.37529556563366
        ],
        "type": "Point"
      },
      "properties": {
        "anchor_kind": "amenity:college",
        "anchor_name": "faculté polydisciplinaire Beni Mellal",
        "archetype": "terminal",
        "chainage_m": 0.0,
        "corridor_offset_m": 0.0,
        "id": "line-1-0164-0517-s000000",
        "junction_group": null,
        "line": "line-1",
        "platform_length_m": 49.0
      },
      "type": "Feature"
    },
    {
      "geometry": {
        "coordinates": [
          -6.342086113548977,
          32.35064020084224
        ],
        "type": "Point"
      },
      "properties": {
        "anchor_kind": null,
        "anchor_name": null,
        "archetype": "interchange",
        "chainage_m": 3867.6,
        "corridor_offset_m": 0.543,
        "id": "line-1-0301-0412-s003868",
        "junction_group": 0,
        "line": "line-1",
        "platform_length_m": 49.0
      },
      "type": "Feature"
    },
    {
      "geometry": {
        "coordinates": [
          -6.352292820336006,
          32.339122366195156
        ],
        "type": "Point"
      },
      "properties": {
        "anchor_kind": null,
        "anchor_name": null,
        "archetype": "major",
        "chainage_m": 5650.7,
        "corridor_offset_m": 0.359,
        "id": "line-1-0365-0364-s005651",
        "junction_group": null,
        "line": "line-1",
        "platform_length_m": 49.0
      },
      "type": "Feature"
    },
    {
      "geometry": {
        "coordinates": [
          -6.368878718864926,
          32.32094578339272
        ],
        "type": "Point"
      },
      "properties": {
        "anchor_kind": "amenity:hospital",
        "anchor_name": "Pharmacie Achorouk صيدلية الشروق",
        "archetype": "terminal",
        "chainage_m": 8527.7,
        "corridor_offset_m": 0.0,
        "id": "line-1-0466-0286-s008528",
        "junction_group": null,
        "line": "line-1",
        "platform_length_m": 49.0
      },
      "type": "Feature"
    },
    {
      "geometry": {
        "coordinates": [
          -6.369941917488575,
          32.33588297520066
        ],
        "type": "Point"
      },
      "properties": {
        "anchor_kind": "amenity:university",
        "anchor_name": "Université Sultan Moulay Slimane",
        "archetype": "terminal",
        "chainage_m": 0.0,
        "corridor_offset_m": 0.0,
        "id": "line-2-0383-0281-s000000",
        "junction_group": null,
        "line": "line-2",
        "platform_length_m": 49.0
      },
      "type": "Feature"
    },
    {
      "geometry": {
        "coordinates": [
          -6.352505460060735,
          32.355139355001256
        ],
        "type": "Point"
      },
      "properties": {
        "anchor_kind": "amenity:college",
        "anchor_name": "Ecole al amal",
        "archetype": "interchange",
        "chainage_m": 3018.5,
        "corridor_offset_m": 3.76,
        "id": "line-2-0276-0363-s003018",
        "junction_group": 0,
        "line": "line-2",
        "platform_length_m": 49.0
      },
      "type": "Feature"
    },
    {
      "geometry": {
        "coordinates": [
          -6.321034780800732,
          32.39995093042508
        ],
        "type": "Point"
      },
      "properties": {
        "anchor_kind": "aeroway:aerodrome",
        "anchor_name": "Aéroport Beni Mellal ⴰⵣⴰⴳⵯⵣ ⵏ ⴰⵢⵜ ⵎⵍⵍⴰⵍ مطار بني ملال",
        "archetype": "depot-terminal",
        "chainage_m": 9671.4,
        "corridor_offset_m": 0.0,
        "id": "line-2-0027-0511-s009671",
        "junction_group": null,
        "line": "line-2",
        "platform_length_m": 49.0
      },
      "type": "Feature"
    },
    {
      "geometry": {
        "coordinates": [
          -6.352930739510194,
          32.32904426087895
        ],
        "type": "Point"
      },
      "properties": {
        "anchor_kind": "amenity:hospital",
        "anchor_name": null,
        "archetype": "terminal",
        "chainage_m": 0.0,
        "corridor_offset_m": 0.0,
        "id": "line-3-0421-0361-s000000",
        "junction_group": null,
        "line": "line-3",
        "platform_length_m": 49.0
      },
      "type": "Feature"
    },
    {
      "geometry": {
        "coordinates": [
          -6.345488349144653,
          32.35351965950401
        ],
        "type": "Point"
      },
      "properties": {
        "anchor_kind": null,
        "anchor_name": null,
        "archetype": "interchange",
        "chainage_m": 3009.9,
        "corridor_offset_m": 0.958,
        "id": "line-3-0285-0396-s003010",
        "junction_group": 0,
        "line": "line-3",
        "platform_length_m": 49.0
      },
      "type": "Feature"
    },
    {
      "geometry": {
        "coordinates": [
          -6.327626612267354,
          32.396711539430584
        ],
        "type": "Point"
      },
      "properties": {
        "anchor_kind": "aeroway:terminal",
        "anchor_name": "New terminal",
        "archetype": "terminal",
        "chainage_m": 8825.0,
        "corridor_offset_m": 0.0,
        "id": "line-3-0045-0480-s008825",
        "junction_group": null,
        "line": "line-3",
        "platform_length_m": 49.0
      },
      "type": "Feature"
    }
  ],
  "type": "FeatureCollection"
}
