{
  "features": [
    {
      "geometry": {
        "coordinates": [
          85.22471353938218,
          25.698799625670375
        ],
        "type": "Point"
      },
      "properties": {
        "anchor_kind": "amenity:college",
        "anchor_name": "Institute of Hotel Management Catering Technology and applied nutrition",
        "archetype": "terminal",
        "chainage_m": 0.0,
        "corridor_offset_m": 0.0,
        "id": "line-1-0284-1127-s000000",
        "junction_group": null,
        "line": "line-1",
        "platform_length_m": 85.0
      },
      "type": "Feature"
    },
    {
      "geometry": {
        "coordinates": [
          85.20876934146594,
          25.699699456502177
        ],
        "type": "Point"
      },
      "properties": {
        "anchor_kind": null,
        "anchor_name": null,
        "archetype": "interchange",
        "chainage_m": 2661.3,
        "corridor_offset_m": 110.64,
        "id": "line-1-0279-1047-s002661",
        "junction_group": 0,
        "line": "line-1",
        "platform_length_m": 85.0
      },
      "type": "Feature"
    },
    {
      "geometry": {
        "coordinates": [
          85.17648234068552,
          25.67774358420617
        ],
        "type": "Point"
      },
      "properties": {
        "anchor_kind": null,
        "anchor_name": null,
        "archetype": "standard",
        "chainage_m": 7005.7,
        "corridor_offset_m": 20.664,
        "id": "line-1-0401-0885-s007006",
        "junction_group": null,
        "line": "line-1",
        "platform_length_m": 85.0
      },
      "type": "Feature"
    },
    {
      "geometry": {
        "coordinates": [
          85.1599402353474,
          25.666405715725443
        ],
        "type": "Point"
      },
      "properties": {
        "anchor_kind": null,
        "anchor_name": null,
        "archetype": "standard",
        "chainage_m": 9433.7,
        "corridor_offset_m": 140.755,
        "id": "line-1-0464-0802-s009434",
        "junction_group": null,
        "line": "line-1",
        "platform_length_m": 85.0
      },
      "type": "Feature"
    },
    {
      "geometry": {
        "coordinates": [
          85.13642254342093,
          25.65038872691934
        ],
        "type": "Point"
      },
      "properties": {
        "anchor_kind": null,
        "anchor_name": null,
        "archetype": "interchange",
        "chainage_m": 12659.9,
        "corridor_offset_m": 126.703,
        "id": "line-1-0553-0684-s012660",
        "junction_group": 1,
        "line": "line-1",
        "platform_length_m": 85.0
      },
      "type": "Feature"
    },
    {
      "geometry": {
        "coordinates": [
          85.1123069440726,
          25.634011805780514
        ],
        "type": "Point"
      },
      "properties": {
        "anchor_kind": "tourism:attraction",
        "anchor_name": "Sadaquat Gandhi Ashram",
        "archetype": "interchange",
        "chainage_m": 16032.9,
        "corridor_offset_m": 171.94,
        "id": "line-1-0644-0563-s016033",
        "junction_group": 2,
        "line": "line-1",
        "platform_length_m": 85.0
      },
      "type": "Feature"
    },
    {
      "geometry": {
        "coordinates": [
          85.07045342454244,
          25.60557715149552
        ],
        "type": "Point"
      },
      "properties": {
        "anchor_kind": null,
        "anchor_name": null,
        "archetype": "standard",
        "chainage_m": 21776.1,
        "corridor_offset_m": 148.926,
        "id": "line-1-0802-0353-s021776",
        "junction_group": null,
        "line": "line-1",
        "platform_length_m": 85.0
      },
      "type": "Feature"
    },
    {
      "geometry": {
        "coordinates": [
          85.03677130644435,
          25.58362127919951
        ],
        "type": "Point"
      },
      "properties": {
        "anchor_kind": "amenity:hospital",
        "anchor_name": "DR Seema saroj",
        "archetype": "depot-terminal",
        "chainage_m": 27504.6,
        "corridor_offset_m": 0.0,
        "id": "line-1-0924-0184-s027505",
        "junction_group": null,
        "line": "line-1",
        "platform_length_m": 85.0
      },
      "type": "Feature"
    },
    {
      "geometry": {
        "coordinates": [
          85.17708024810737,
          25.562025339236225
        ],
        "type": "Point"
      },
      "properties": {
        "anchor_kind": "amenity:hospital",
        "anchor_name": "Lokpriye Hospital",
        "archetype": "terminal",
        "chainage_m": 0.0,
        "corridor_offset_m": 0.0,
        "id": "line-2-1044-0888-s000000",
        "junction_group": null,
        "line": "line-2",
        "platform_length_m": 85.0
      },
      "type": "Feature"
    },
    {
      "geometry": {
        "coordinates": [
          85.16233186503484,
          25.584521110031314
        ],
        "type": "Point"
      },
      "properties": {
        "anchor_kind": "amenity:hospital",
        "anchor_name": "Ford Hospital",
        "archetype": "interchange-elevated",
        "chainage_m": 3831.4,
        "corridor_offset_m": 5.955,
        "id": "line-2-0919-0814-s003831",
        "junction_group": 3,
        "line": "line-2",
        "platform_length_m": 85.0
      },
      "type": "Feature"
    },
    {
      "geometry": {
        "coordinates": [
          85.15675139576416,
          25.592079689018465
        ],
        "type": "Point"
      },
      "properties": {
        "anchor_kind": "amenity:hospital",
        "anchor_name": "Sundari Devi Hospital",
        "archetype": "major",
        "chainage_m": 5101.3,
        "corridor_offset_m": 2.271,
        "id": "line-2-0877-0786-s005101",
        "junction_group": null,
        "line": "line-2",
        "platform_length_m": 85.0
      },
      "type": "Feature"
    },
    {
      "geometry": {
        "coordinates": [
          85.15176883391533,
          25.617274952308964
        ],
        "type": "Point"
      },
      "properties": {
        "anchor_kind": "tourism:attraction",
        "anchor_name": "Sahid Kargil Chowk",
        "archetype": "standard",
        "chainage_m": 8120.1,
        "corridor_offset_m": 1.805,
        "id": "line-2-0737-0761-s008120",
        "junction_group": null,
        "line": "line-2",
        "platform_length_m": 85.0
      },
      "type": "Feature"
    },
    {
      "geometry": {
        "coordinates": [
          85.14519185227488,
          25.649488896087536
        ],
        "type": "Point"
      },
      "properties": {
        "anchor_kind": null,
        "anchor_name": null,
        "archetype": "standard",
        "chainage_m": 11973.5,
        "corridor_offset_m": 0.485,
        "id": "line-2-0558-0728-s011974",
        "junction_group": null,
        "line": "line-2",
        "platform_length_m": 85.0
      },
      "type": "Feature"
    },
    {
      "geometry": {
        "coordinates": [
          85.13861487063443,
          25.68296260303063
        ],
        "type": "Point"
      },
      "properties": {
        "anchor_kind": null,
        "anchor_name": null,
        "archetype": "interchange",
        "chainage_m": 15966.9,
        "corridor_offset_m": 0.333,
        "id": "line-2-0372-0695-s015967",
        "junction_group": 4,
        "line": "line-2",
        "platform_length_m": 85.0
      },
      "type": "Feature"
    },
    {
      "geometry": {
        "coordinates": [
          85.13522672857722,
          25.699699456502177
        ],
        "type": "Point"
      },
      "properties": {
        "anchor_kind": "public_transport:station",
        "anchor_name": "Bharpura Pahleza Ghat Junction",
        "archetype": "terminal",
        "chainage_m": 17979.4,
        "corridor_offset_m": 0.0,
        "id": "line-2-0279-0678-s017979",
        "junction_group": null,
        "line": "line-2",
        "platform_length_m": 85.0
      },
      "type": "Feature"
    },
    {
      "geometry": {
        "coordinates": [
          85.1535625561809,
          25.69843969333765
        ],
        "type": "Point"
      },
      "properties": {
        "anchor_kind": null,
        "anchor_name": null,
        "archetype": "terminal",
        "chainage_m": 0.0,
        "corridor_offset_m": 5.998,
        "id": "line-3-0286-0770-s000000",
        "junction_group": 5,
        "line": "line-3",
        "platform_length_m": 85.0
      },
      "type": "Feature"
    },
    {
      "geometry": {
        "coordinates": [
          85.16910814914925,
          25.674324227045314
        ],
        "type": "Point"
      },
      "properties": {
        "anchor_kind": null,
        "anchor_name": null,
        "archetype": "standard",
        "chainage_m": 4413.0,
        "corridor_offset_m": 3.697,
        "id": "line-3-0420-0848-s004413",
        "junction_group": null,
        "line": "line-3",
        "platform_length_m": 85.0
      },
      "type": "Feature"
    },
    {
      "geometry": {
        "coordinates": [
          85.17668164315947,
          25.656867508908324
        ],
        "type": "Point"
      },
      "properties": {
        "anchor_kind": null,
        "anchor_name": null,
        "archetype": "standard",
        "chainage_m": 6691.3,
        "corridor_offset_m": 3.818,
        "id": "line-3-0517-0886-s006691",
        "junction_group": null,
        "line": "line-3",
        "platform_length_m": 85.0
      },
      "type": "Feature"
    },
    {
      "geometry": {
        "coordinates": [
          85.1940209583934,
          25.616915019976243
        ],
        "type": "Point"
      },
      "properties": {
        "anchor_kind": null,
        "anchor_name": null,
        "archetype": "standard",
        "chainage_m": 11945.7,
        "corridor_offset_m": 1.647,
        "id": "line-3-0739-0973-s011946",
        "junction_group": null,
        "line": "line-3",
        "platform_length_m": 85.0
      },
      "type": "Feature"
    },
    {
      "geometry": {
        "coordinates": [
          85.2067763167264,
          25.587400568693084
        ],
        "type": "Point"
      },
      "properties": {
        "anchor_kind": "place:suburb",
        "anchor_name": "Ranipur",
        "archetype": "terminal",
        "chainage_m": 15802.8,
        "corridor_offset_m": 0.0,
        "id": "line-3-0903-1037-s015803",
        "junction_group": null,
        "line": "line-3",
        "platform_length_m": 85.0
      },
      "type": "Feature"
    },
    {
      "geometry": {
        "coordinates": [
          85.20199305735153,
          25.736412554439767
        ],
        "type": "Point"
      },
      "properties": {
        "anchor_kind": "amenity:marketplace",
        "anchor_name": "Madaarpur Haat (pethiya)",
        "archetype": "terminal",
        "chainage_m": 0.0,
        "corridor_offset_m": 0.0,
        "id": "line-4-0075-1013-s000000",
        "junction_group": null,
        "line": "line-4",
        "platform_length_m": 85.0
      },
      "type": "Feature"
    },
    {
      "geometry": {
        "coordinates": [
          85.20179375487757,
          25.715896411474642
        ],
        "type": "Point"
      },
      "properties": {
        "anchor_kind": null,
        "anchor_name": null,
        "archetype": "interchange-elevated",
        "chainage_m": 2518.8,
        "corridor_offset_m": 134.464,
        "id": "line-4-0189-1012-s002519",
        "junction_group": 6,
        "line": "line-4",
        "platform_length_m": 85.0
      },
      "type": "Feature"
    },
    {
      "geometry": {
        "coordinates": [
          85.18784258170085,
          25.692140877515026
        ],
        "type": "Point"
      },
      "properties": {
        "anchor_kind": "amenity:marketplace",
        "anchor_name": "Maheshwari chauk",
        "archetype": "standard",
        "chainage_m": 5797.3,
        "corridor_offset_m": 186.532,
        "id": "line-4-0321-0942-s005797",
        "junction_group": null,
        "line": "line-4",
        "platform_length_m": 85.0
      },
      "type": "Feature"
    },
    {
      "geometry": {
        "coordinates": [
          85.1752865258418,
          25.669285174387216
        ],
        "type": "Point"
      },
      "properties": {
        "anchor_kind": null,
        "anchor_name": null,
        "archetype": "standard",
        "chainage_m": 8929.5,
        "corridor_offset_m": 149.211,
        "id": "line-4-0448-0879-s008930",
        "junction_group": null,
        "line": "line-4",
        "platform_length_m": 85.0
      },
      "type": "Feature"
    },
    {
      "geometry": {
        "coordinates": [
          85.16332837740461,
          25.647329302091208
        ],
        "type": "Point"
      },
      "properties": {
        "anchor_kind": null,
        "anchor_name": null,
        "archetype": "standard",
        "chainage_m": 11936.9,
        "corridor_offset_m": 92.623,
        "id": "line-4-0570-0819-s011937",
        "junction_group": null,
        "line": "line-4",
        "platform_length_m": 85.0
      },
      "type": "Feature"
    },
    {
      "geometry": {
        "coordinates": [
          85.15137022896742,
          25.6253734297952
        ],
        "type": "Point"
      },
      "properties": {
        "anchor_kind": null,
        "anchor_name": null,
        "archetype": "standard",
        "chainage_m": 14944.2,
        "corridor_offset_m": 40.035,
        "id": "line-4-0692-0759-s014944",
        "junction_group": null,
        "line": "line-4",
        "platform_length_m": 85.0
      },
      "type": "Feature"
    },
    {
      "geometry": {
        "coordinates": [
          85.13921277805628,
          25.603597523665552
        ],
        "type": "Point"
      },
      "properties": {
        "anchor_kind": "public_transport:station",
        "anchor_name": "Patna Junction",
        "archetype": "standard",
        "chainage_m": 17963.3,
        "corridor_offset_m": 33.039,
        "id": "line-4-0813-0698-s017963",
        "junction_group": null,
        "line": "line-4",
        "platform_length_m": 85.0
      },
      "type": "Feature"
    },
    {
      "geometry": {
        "coordinates": [
          85.13084207415025,
          25.58812043335853
        ],
        "type": "Point"
      },
      "properties": {
        "anchor_kind": "amenity:college",
        "anchor_name": "Chandragupt Institute of Management Patna",
        "archetype": "interchange",
        "chainage_m": 20078.1,
        "corridor_offset_m": 62.956,
        "id": "line-4-0899-0656-s020078",
        "junction_group": 7,
        "line": "line-4",
        "platform_length_m": 85.0
      },
      "type": "Feature"
    },
    {
      "geometry": {
        "coordinates": [
          85.12027904303073,
          25.584341143864954
        ],
        "type": "Point"
      },
      "properties": {
        "anchor_kind": "amenity:hospital",
        "anchor_name": "N.S. Emergency Hospital",
        "archetype": "terminal",
        "chainage_m": 21491.4,
        "corridor_offset_m": 0.0,
        "id": "line-4-0920-0603-s021491",
        "junction_group": null,
        "line": "line-4",
        "platform_length_m": 85.0
      },
      "type": "Feature"
    },
    {
      "geometry": {
        "coordinates": [
          85.14578975969674,
          25.597118741676564
        ],
        "type": "Point"
      },
      "properties": {
        "anchor_kind": "amenity:hospital",
        "anchor_name": "Magalam Hospital",
        "archetype": "terminal",
        "chainage_m": 0.0,
        "corridor_offset_m": 0.0,
        "id": "line-5-0849-0731-s000000",
        "junction_group": null,
        "line": "line-5",
        "platform_length_m": 85.0
      },
      "type": "Feature"
    },
    {
      "geometry": {
        "coordinates": [
          85.13423021620746,
          25.609896339488177
        ],
        "type": "Point"
      },
      "properties": {
        "anchor_kind": "amenity:hospital",
        "anchor_name": null,
        "archetype": "standard",
        "chainage_m": 2052.8,
        "corridor_offset_m": 61.585,
        "id": "line-5-0778-0673-s002053",
        "junction_group": null,
        "line": "line-5",
        "platform_length_m": 85.0
      },
      "type": "Feature"
    },
    {
      "geometry": {
        "coordinates": [
          85.12286997519212,
          25.622673937299787
        ],
        "type": "Point"
      },
      "properties": {
        "anchor_kind": "amenity:marketplace",
        "anchor_name": null,
        "archetype": "interchange",
        "chainage_m": 4085.6,
        "corridor_offset_m": 113.775,
        "id": "line-5-0707-0616-s004086",
        "junction_group": 8,
        "line": "line-5",
        "platform_length_m": 85.0
      },
      "type": "Feature"
    },
    {
      "geometry": {
        "coordinates": [
          85.11210764159866,
          25.634731670445955
        ],
        "type": "Point"
      },
      "properties": {
        "anchor_kind": "shop:mall",
        "anchor_name": "Swati Chandra Market",
        "archetype": "interchange",
        "chainage_m": 6013.5,
        "corridor_offset_m": 171.264,
        "id": "line-5-0640-0562-s006014",
        "junction_group": 2,
        "line": "line-5",
        "platform_length_m": 85.0
      },
      "type": "Feature"
    },
    {
      "geometry": {
        "coordinates": [
          85.09536623378659,
          25.653448151747472
        ],
        "type": "Point"
      },
      "properties": {
        "anchor_kind": null,
        "anchor_name": null,
        "archetype": "standard",
        "chainage_m": 9012.0,
        "corridor_offset_m": 263.355,
        "id": "line-5-0536-0478-s009012",
        "junction_group": null,
        "line": "line-5",
        "platform_length_m": 85.0
      },
      "type": "Feature"
    },
    {
      "geometry": {
        "coordinates": [
          85.07284505422987,
          25.67864341503797
        ],
        "type": "Point"
      },
      "properties": {
        "anchor_kind": null,
        "anchor_name": null,
        "archetype": "halt",
        "chainage_m": 13041.0,
        "corridor_offset_m": 384.024,
        "id": "line-5-0396-0365-s013041",
        "junction_group": null,
        "line": "line-5",
        "platform_length_m": 81.0
      },
      "type": "Feature"
    },
    {
      "geometry": {
        "coordinates": [
          85.03537618912668,
          25.71553647914192
        ],
        "type": "Point"
      },
      "properties": {
        "anchor_kind": null,
        "anchor_name": null,
        "archetype": "halt",
        "chainage_m": 18874.2,
        "corridor_offset_m": 278.735,
        "id": "line-5-0191-0177-s018874",
        "junction_group": null,
        "line": "line-5",
        "platform_length_m": 81.0
      },
      "type": "Feature"
    },
    {
      "geometry": {
        "coordinates": [
          85.00428500318999,
          25.746670625922327
        ],
        "type": "Point"
      },
      "properties": {
        "anchor_kind": "amenity:hospital",
        "anchor_name": "Nayan Jyoti Eye Hospital",
        "archetype": "terminal",
        "chainage_m": 24684.3,
        "corridor_offset_m": 0.0,
        "id": "line-5-0018-0021-s024684",
        "junction_group": null,
        "line": "line-5",
        "platform_length_m": 85.0
      },
      "type": "Feature"
    },
    {
      "geometry": {
        "coordinates": [
          85.20159445240361,
          25.716076377641002
        ],
        "type": "Point"
      },
      "properties": {
        "anchor_kind": null,
        "anchor_name": null,
        "archetype": "interchange-elevated",
        "chainage_m": 2548.8,
        "corridor_offset_m": 89.706,
        "id": "line-6-0188-1011-s002549",
        "junction_group": 6,
        "line": "line-6",
        "platform_length_m": 85.0
      },
      "type": "Feature"
    },
    {
      "geometry": {
        "coordinates": [
          85.21175887857522,
          25.69538026850952
        ],
        "type": "Point"
      },
      "properties": {
        "anchor_kind": "shop:mall",
        "anchor_name": "Cinekrishna Mall",
        "archetype": "interchange",
        "chainage_m": 5376.3,
        "corridor_offset_m": 85.589,
        "id": "line-6-0303-1062-s005376",
        "junction_group": 0,
        "line": "line-6",
        "platform_length_m": 85.0
      },
      "type": "Feature"
    },
    {
      "geometry": {
        "coordinates": [
          85.22451423690823,
          25.669465140553577
        ],
        "type": "Point"
      },
      "properties": {
        "anchor_kind": null,
        "anchor_name": null,
        "archetype": "standard",
        "chainage_m": 8868.5,
        "corridor_offset_m": 54.102,
        "id": "line-6-0447-1126-s008869",
        "junction_group": null,
        "line": "line-6",
        "platform_length_m": 85.0
      },
      "type": "Feature"
    },
    {
      "geometry": {
        "coordinates": [
          85.2165421379501,
          25.642470215599467
        ],
        "type": "Point"
      },
      "properties": {
        "anchor_kind": null,
        "anchor_name": null,
        "archetype": "standard",
        "chainage_m": 12381.3,
        "corridor_offset_m": 26.957,
        "id": "line-6-0597-1086-s012381",
        "junction_group": null,
        "line": "line-6",
        "platform_length_m": 85.0
      },
      "type": "Feature"
    },
    {
      "geometry": {
        "coordinates": [
          85.20358747714315,
          25.594599215347515
        ],
        "type": "Point"
      },
      "properties": {
        "anchor_kind": null,
        "anchor_name": null,
        "archetype": "standard",
        "chainage_m": 18942.0,
        "corridor_offset_m": 65.844,
        "id": "line-6-0863-1021-s018942",
        "junction_group": null,
        "line": "line-6",
        "platform_length_m": 85.0
      },
      "type": "Feature"
    },
    {
      "geometry": {
        "coordinates": [
          85.17548582831576,
          25.586320771694922
        ],
        "type": "Point"
      },
      "properties": {
        "anchor_kind": "amenity:hospital",
        "anchor_name": "Sri Vinayak Hospital, Patna",
        "archetype": "standard",
        "chainage_m": 22423.3,
        "corridor_offset_m": 144.907,
        "id": "line-6-0909-0880-s022423",
        "junction_group": null,
        "line": "line-6",
        "platform_length_m": 85.0
      },
      "type": "Feature"
    },
    {
      "geometry": {
        "coordinates": [
          85.16233186503484,
          25.584521110031314
        ],
        "type": "Point"
      },
      "properties": {
        "anchor_kind": "amenity:hospital",
        "anchor_name": "Ford Hospital",
        "archetype": "interchange-elevated",
        "chainage_m": 23814.6,
        "corridor_offset_m": 108.973,
        "id": "line-6-0919-0814-s023815",
        "junction_group": 3,
        "line": "line-6",
        "platform_length_m": 85.0
      },
      "type": "Feature"
    },
    {
      "geometry": {
        "coordinates": [
          85.14638766711859,
          25.583801245365873
        ],
        "type": "Point"
      },
      "properties": {
        "anchor_kind": "amenity:hospital",
        "anchor_name": "mediglobe multispecialty hospital",
        "archetype": "standard",
        "chainage_m": 25430.5,
        "corridor_offset_m": 23.626,
        "id": "line-6-0923-0734-s025430",
        "junction_group": null,
        "line": "line-6",
        "platform_length_m": 85.0
      },
      "type": "Feature"
    },
    {
      "geometry": {
        "coordinates": [
          85.13084207415025,
          25.58812043335853
        ],
        "type": "Point"
      },
      "properties": {
        "anchor_kind": "amenity:college",
        "anchor_name": "Chandragupt Institute of Management Patna",
        "archetype": "interchange",
        "chainage_m": 27193.9,
        "corridor_offset_m": 8.696,
        "id": "line-6-0899-0656-s027194",
        "junction_group": 7,
        "line": "line-6",
        "platform_length_m": 85.0
      },
      "type": "Feature"
    },
    {
      "geometry": {
        "coordinates": [
          85.12207276529631,
          25.593879350682073
        ],
        "type": "Point"
      },
      "properties": {
        "anchor_kind": "amenity:hospital",
        "anchor_name": "Akshat Seva Sadan",
        "archetype": "standard",
        "chainage_m": 28444.4,
        "corridor_offset_m": 66.512,
        "id": "line-6-0867-0612-s028444",
        "junction_group": null,
        "line": "line-6",
        "platform_length_m": 85.0
      },
      "type": "Feature"
    },
    {
      "geometry": {
        "coordinates": [
          85.09138018430752,
          25.589200230356692
        ],
        "type": "Point"
      },
      "properties": {
        "anchor_kind": "aeroway:aerodrome",
        "anchor_name": "Jayprakash Narayan International Airport",
        "archetype": "standard",
        "chainage_m": 31940.6,
        "corridor_offset_m": 88.652,
        "id": "line-6-0893-0458-s031941",
        "junction_group": null,
        "line": "line-6",
        "platform_length_m": 85.0
      },
      "type": "Feature"
    },
    {
      "geometry": {
        "coordinates": [
          85.11031391933307,
          25.60593708382824
        ],
        "type": "Point"
      },
      "properties": {
        "anchor_kind": null,
        "anchor_name": null,
        "archetype": "standard",
        "chainage_m": 35444.6,
        "corridor_offset_m": 101.456,
        "id": "line-6-0800-0553-s035445",
        "junction_group": null,
        "line": "line-6",
        "platform_length_m": 85.0
      },
      "type": "Feature"
    },
    {
      "geometry": {
        "coordinates": [
          85.12286997519212,
          25.622673937299787
        ],
        "type": "Point"
      },
      "properties": {
        "anchor_kind": "amenity:marketplace",
        "anchor_name": null,
        "archetype": "interchange",
        "chainage_m": 37990.5,
        "corridor_offset_m": 192.705,
        "id": "line-6-0707-0616-s037990",
        "junction_group": 8,
        "line": "line-6",
        "platform_length_m": 85.0
      },
      "type": "Feature"
    },
    {
      "geometry": {
        "coordinates": [
          85.12964625930653,
          25.63599143361048
        ],
        "type": "Point"
      },
      "properties": {
        "anchor_kind": null,
        "anchor_name": null,
        "archetype": "standard",
        "chainage_m": 39930.7,
        "corridor_offset_m": 209.155,
        "id": "line-6-0633-0650-s039931",
        "junction_group": null,
        "line": "line-6",
        "platform_length_m": 85.0
      },
      "type": "Feature"
    },
    {
      "geometry": {
        "coordinates": [
          85.13642254342093,
          25.65038872691934
        ],
        "type": "Point"
      },
      "properties": {
        "anchor_kind": null,
        "anchor_name": null,
        "archetype": "interchange",
        "chainage_m": 41882.7,
        "corridor_offset_m": 202.431,
        "id": "line-6-0553-0684-s041883",
        "junction_group": 1,
        "line": "line-6",
        "platform_length_m": 85.0
      },
      "type": "Feature"
    },
    {
      "geometry": {
        "coordinates": [
          85.14060789537395,
          25.683322535363352
        ],
        "type": "Point"
      },
      "properties": {
        "anchor_kind": null,
        "anchor_name": null,
        "archetype": "interchange",
        "chainage_m": 45716.7,
        "corridor_offset_m": 70.917,
        "id": "line-6-0370-0705-s045717",
        "junction_group": 4,
        "line": "line-6",
        "platform_length_m": 85.0
      },
      "type": "Feature"
    },
    {
      "geometry": {
        "coordinates": [
          85.1535625561809,
          25.69843969333765
        ],
        "type": "Point"
      },
      "properties": {
        "anchor_kind": null,
        "anchor_name": null,
        "archetype": "interchange",
        "chainage_m": 48064.0,
        "corridor_offset_m": 130.633,
        "id": "line-6-0286-0770-s048064",
        "junction_group": 5,
        "line": "line-6",
        "platform_length_m": 85.0
      },
      "type": "Feature"
    },
    {
      "geometry": {
        "coordinates": [
          85.17588443326366,
          25.720395565633662
        ],
        "type": "Point"
      },
      "properties": {
        "anchor_kind": null,
        "anchor_name": null,
        "archetype": "halt",
        "chainage_m": 51513.9,
        "corridor_offset_m": 35.022,
        "id": "line-6-0164-0882-s051514",
        "junction_group": null,
        "line": "line-6",
        "platform_length_m": 81.0
      },
      "type": "Feature"
    }
  ],
  "type": "FeatureCollection"
}
