{
  "features": [
    {
      "geometry": {
        "coordinates": [
          31.01245497018438,
          -29.83173273224634
        ],
        "type": "Point"
      },
      "properties": {
        "id": "interchange-000",
        "junction_group": 0,
        "line_count": 2,
        "lines": "line-1,line-8",
        "platform_count": 2,
        "platforms": "line-1-1101-1208-s014078,line-8-1101-1208-s022699"
      },
      "type": "Feature"
    },
    {
      "geometry": {
        "coordinates": [
          31.005411470816345,
          -29.84469029622431
        ],
        "type": "Point"
      },
      "properties": {
        "id": "interchange-001",
        "junction_group": 1,
        "line_count": 2,
        "lines": "line-1,line-7",
        "platform_count": 2,
        "platforms": "line-1-1173-1174-s015835,line-7-1173-1174-s024523"
      },
      "type": "Feature"
    },
    {
      "geometry": {
        "coordinates": [
          30.98876084547206,
          -29.842676924738146
        ],
        "type": "Point"
      },
      "properties": {
        "id": "interchange-002",
        "junction_group": 2,
        "line_count": 6,
        "lines": "line-1,line-3,line-5,line-7,line-8,line-9",
        "platform_count": 16,
        "platforms": "line-1-1229-1148-s017199,line-3-1112-1058-s023827,line-3-1144-1057-s024475,line-3-1199-1056-s025584,line-5-1199-1056-s007497,line-5-1213-1099-s006511,line-5-1229-1148-s005387,line-7-1109-1058-s021579,line-7-1132-1100-s022657,line-7-1140-1114-s023027,line-8-1127-1117-s020663,line-8-1132-1100-s020270,line-8-1144-1057-s019287,line-9-1127-1117-s043430,line-9-1140-1114-s043715,line-9-1213-1099-s045305"
      },
      "type": "Feature"
    },
    {
      "geometry": {
        "coordinates": [
          30.991352093646423,
          -29.88866202953845
        ],
        "type": "Point"
      },
      "properties": {
        "id": "interchange-003",
        "junction_group": 3,
        "line_count": 5,
        "lines": "line-1,line-3,line-4,line-6,line-9",
        "platform_count": 30,
        "platforms": "line-1-1375-1078-s020787,line-1-1404-1064-s021483,line-1-1435-1049-s022251,line-3-1368-1051-s029005,line-3-1396-1050-s029573,line-3-1406-1050-s029773,line-3-1435-1049-s030362,line-4-1396-1124-s014622,line-4-1404-1064-s013356,line-4-1406-1046-s012979,line-4-1406-1050-s013059,line-4-1407-1205-s020023,line-4-1409-1126-s014939,line-4-1440-1204-s019305,line-4-1447-1148-s015881,line-4-1495-1152-s016909,line-4-1505-1184-s017632,line-6-1368-1051-s022973,line-6-1371-1061-s023198,line-6-1375-1078-s023571,line-6-1396-1124-s025489,line-6-1407-1205-s030849,line-6-1409-1126-s025765,line-6-1440-1204-s030131,line-6-1447-1148-s026708,line-6-1495-1152-s027736,line-6-1505-1184-s028459,line-9-1371-1061-s048785,line-9-1396-1050-s049388,line-9-1406-1046-s049621"
      },
      "type": "Feature"
    },
    {
      "geometry": {
        "coordinates": [
          30.948441990633718,
          -29.94853077421445
        ],
        "type": "Point"
      },
      "properties": {
        "id": "interchange-004",
        "junction_group": 4,
        "line_count": 2,
        "lines": "line-1,line-9",
        "platform_count": 2,
        "platforms": "line-1-1750-0899-s029969,line-9-1750-0899-s057907"
      },
      "type": "Feature"
    },
    {
      "geometry": {
        "coordinates": [
          30.93891255031226,
          -29.965987492351438
        ],
        "type": "Point"
      },
      "properties": {
        "id": "interchange-005",
        "junction_group": 5,
        "line_count": 2,
        "lines": "line-1,line-9",
        "platform_count": 2,
        "platforms": "line-1-1847-0853-s032349,line-9-1847-0853-s061602"
      },
      "type": "Feature"
    },
    {
      "geometry": {
        "coordinates": [
          30.904316538710447,
          -29.929274394413852
        ],
        "type": "Point"
      },
      "properties": {
        "id": "interchange-006",
        "junction_group": 6,
        "line_count": 2,
        "lines": "line-2,line-9",
        "platform_count": 2,
        "platforms": "line-2-1643-0686-s004040,line-9-1643-0686-s067710"
      },
      "type": "Feature"
    },
    {
      "geometry": {
        "coordinates": [
          30.923996904591718,
          -29.892561296476263
        ],
        "type": "Point"
      },
      "properties": {
        "id": "interchange-007",
        "junction_group": 7,
        "line_count": 2,
        "lines": "line-2,line-4",
        "platform_count": 2,
        "platforms": "line-2-1439-0781-s009001,line-4-1439-0781-s007406"
      },
      "type": "Feature"
    },
    {
      "geometry": {
        "coordinates": [
          30.9360122858666,
          -29.870245491847534
        ],
        "type": "Point"
      },
      "properties": {
        "id": "interchange-008",
        "junction_group": 8,
        "line_count": 2,
        "lines": "line-2,line-6",
        "platform_count": 2,
        "platforms": "line-2-1315-0839-s012008,line-6-1315-0839-s018294"
      },
      "type": "Feature"
    },
    {
      "geometry": {
        "coordinates": [
          30.954242519525042,
          -29.844210386447347
        ],
        "type": "Point"
      },
      "properties": {
        "id": "interchange-009",
        "junction_group": 9,
        "line_count": 3,
        "lines": "line-2,line-5,line-8",
        "platform_count": 6,
        "platforms": "line-2-1153-0916-s015985,line-2-1189-0898-s015087,line-5-1153-0916-s010704,line-5-1169-0967-s009537,line-8-1169-0967-s017280,line-8-1189-0898-s015723"
      },
      "type": "Feature"
    },
    {
      "geometry": {
        "coordinates": [
          30.961286018893073,
          -29.823454288593744
        ],
        "type": "Point"
      },
      "properties": {
        "id": "interchange-010",
        "junction_group": 10,
        "line_count": 2,
        "lines": "line-2,line-7",
        "platform_count": 2,
        "platforms": "line-2-1055-0961-s018359,line-7-1055-0961-s019122"
      },
      "type": "Feature"
    },
    {
      "geometry": {
        "coordinates": [
          30.98303800223553,
          -29.783141867328943
        ],
        "type": "Point"
      },
      "properties": {
        "id": "interchange-011",
        "junction_group": 11,
        "line_count": 2,
        "lines": "line-2,line-3",
        "platform_count": 2,
        "platforms": "line-2-0831-1066-s023826,line-3-0831-1066-s018141"
      },
      "type": "Feature"
    },
    {
      "geometry": {
        "coordinates": [
          31.015976719868394,
          -29.718534013605442
        ],
        "type": "Point"
      },
      "properties": {
        "id": "interchange-012",
        "junction_group": 12,
        "line_count": 2,
        "lines": "line-2,line-9",
        "platform_count": 2,
        "platforms": "line-2-0472-1225-s032584,line-9-0472-1225-s024832"
      },
      "type": "Feature"
    },
    {
      "geometry": {
        "coordinates": [
          30.98469529620448,
          -29.72753232192348
        ],
        "type": "Point"
      },
      "properties": {
        "id": "interchange-013",
        "junction_group": 13,
        "line_count": 2,
        "lines": "line-3,line-9",
        "platform_count": 2,
        "platforms": "line-3-0522-1074-s011894,line-9-0522-1074-s021102"
      },
      "type": "Feature"
    },
    {
      "geometry": {
        "coordinates": [
          30.886293466798126,
          -29.89670051830256
        ],
        "type": "Point"
      },
      "properties": {
        "id": "interchange-014",
        "junction_group": 14,
        "line_count": 2,
        "lines": "line-4,line-9",
        "platform_count": 2,
        "platforms": "line-4-1462-0599-s003575,line-9-1462-0599-s072519"
      },
      "type": "Feature"
    },
    {
      "geometry": {
        "coordinates": [
          31.02981512450912,
          -29.89061766187957
        ],
        "type": "Point"
      },
      "properties": {
        "id": "interchange-015",
        "junction_group": 15,
        "line_count": 2,
        "lines": "line-4,line-6",
        "platform_count": 5,
        "platforms": "line-4-1423-1273-s023877,line-4-1429-1293-s024480,line-6-1423-1273-s032342,line-6-1429-1293-s032791,line-6-1437-1327-s033538"
      },
      "type": "Feature"
    },
    {
      "geometry": {
        "coordinates": [
          30.86288418948672,
          -29.815535777273872
        ],
        "type": "Point"
      },
      "properties": {
        "id": "interchange-016",
        "junction_group": 16,
        "line_count": 2,
        "lines": "line-5,line-9",
        "platform_count": 2,
        "platforms": "line-5-1011-0486-s020548,line-9-1011-0486-s003498"
      },
      "type": "Feature"
    },
    {
      "geometry": {
        "coordinates": [
          30.86764890964745,
          -29.855488266205956
        ],
        "type": "Point"
      },
      "properties": {
        "id": "interchange-017",
        "junction_group": 17,
        "line_count": 2,
        "lines": "line-6,line-9",
        "platform_count": 2,
        "platforms": "line-6-1233-0509-s011015,line-9-1233-0509-s077939"
      },
      "type": "Feature"
    },
    {
      "geometry": {
        "coordinates": [
          30.892922642673923,
          -29.861067217363136
        ],
        "type": "Point"
      },
      "properties": {
        "id": "interchange-018",
        "junction_group": 18,
        "line_count": 2,
        "lines": "line-6,line-8",
        "platform_count": 2,
        "platforms": "line-6-1264-0631-s013712,line-8-1264-0631-s009703"
      },
      "type": "Feature"
    },
    {
      "geometry": {
        "coordinates": [
          30.884429011083057,
          -29.786201292157077
        ],
        "type": "Point"
      },
      "properties": {
        "id": "interchange-019",
        "junction_group": 19,
        "line_count": 2,
        "lines": "line-7,line-9",
        "platform_count": 2,
        "platforms": "line-7-0848-0590-s009694,line-9-0848-0590-s007807"
      },
      "type": "Feature"
    },
    {
      "geometry": {
        "coordinates": [
          30.873242276792652,
          -29.865926303854877
        ],
        "type": "Point"
      },
      "properties": {
        "id": "interchange-020",
        "junction_group": 20,
        "line_count": 2,
        "lines": "line-8,line-9",
        "platform_count": 2,
        "platforms": "line-8-1291-0536-s007579,line-9-1291-0536-s076520"
      },
      "type": "Feature"
    }
  ],
  "type": "FeatureCollection"
}
