{
  "features": [
    {
      "geometry": {
        "coordinates": [
          31.147057672174014,
          30.943363751214775
        ],
        "type": "Point"
      },
      "properties": {
        "id": "interchange-000",
        "junction_group": 0,
        "line_count": 2,
        "lines": "line-1,line-8",
        "platform_count": 2,
        "platforms": "line-1-0700-0463-s000000,line-8-0703-0450-s002398"
      },
      "type": "Feature"
    },
    {
      "geometry": {
        "coordinates": [
          31.18969812356879,
          30.951732177950547
        ],
        "type": "Point"
      },
      "properties": {
        "id": "interchange-001",
        "junction_group": 1,
        "line_count": 2,
        "lines": "line-1,line-2",
        "platform_count": 2,
        "platforms": "line-1-0655-0660-s004313,line-2-0655-0660-s014793"
      },
      "type": "Feature"
    },
    {
      "geometry": {
        "coordinates": [
          31.24326933768802,
          30.96223020432159
        ],
        "type": "Point"
      },
      "properties": {
        "id": "interchange-002",
        "junction_group": 2,
        "line_count": 2,
        "lines": "line-1,line-6",
        "platform_count": 3,
        "platforms": "line-1-0594-0921-s010038,line-1-0598-0913-s009839,line-6-0598-0913-s005801"
      },
      "type": "Feature"
    },
    {
      "geometry": {
        "coordinates": [
          31.15952502774153,
          30.959020807688155
        ],
        "type": "Point"
      },
      "properties": {
        "id": "interchange-003",
        "junction_group": 3,
        "line_count": 3,
        "lines": "line-3,line-4,line-8",
        "platform_count": 4,
        "platforms": "line-3-0611-0520-s001380,line-3-0618-0512-s001127,line-4-0611-0520-s000000,line-8-0618-0512-s000000"
      },
      "type": "Feature"
    },
    {
      "geometry": {
        "coordinates": [
          31.182364384999662,
          30.972968185581113
        ],
        "type": "Point"
      },
      "properties": {
        "id": "interchange-004",
        "junction_group": 4,
        "line_count": 2,
        "lines": "line-3,line-5",
        "platform_count": 2,
        "platforms": "line-3-0537-0625-s004257,line-5-0537-0625-s000000"
      },
      "type": "Feature"
    },
    {
      "geometry": {
        "coordinates": [
          31.19001242665032,
          30.97755732282331
        ],
        "type": "Point"
      },
      "properties": {
        "id": "interchange-005",
        "junction_group": 5,
        "line_count": 3,
        "lines": "line-3,line-6,line-7",
        "platform_count": 4,
        "platforms": "line-3-0505-0671-s005501,line-3-0518-0652-s004978,line-6-0505-0671-s000000,line-7-0518-0652-s000000"
      },
      "type": "Feature"
    },
    {
      "geometry": {
        "coordinates": [
          31.163715735495312,
          30.981606561566426
        ],
        "type": "Point"
      },
      "properties": {
        "id": "interchange-006",
        "junction_group": 6,
        "line_count": 2,
        "lines": "line-4,line-5",
        "platform_count": 2,
        "platforms": "line-4-0489-0536-s003086,line-5-0489-0536-s002283"
      },
      "type": "Feature"
    }
  ],
  "type": "FeatureCollection"
}
