{
  "features": [
    {
      "geometry": {
        "coordinates": [
          37.40686539616425,
          -3.3143611525033294
        ],
        "type": "Point"
      },
      "properties": {
        "charger_bus_voltage_v": 650.0,
        "charger_contact_count": 2,
        "charger_efficiency": 0.98,
        "charger_max_current_a": 825.0,
        "charger_max_kw": 500.0,
        "grid_export_kw": 800.0,
        "grid_import_kw": 800.0,
        "line": "line-1",
        "pv_nameplate_kw": 300.0,
        "station": "line-1-0261-0745-s000000",
        "storage_capacity_kwh": 500.0,
        "storage_initial_soc": 0.6,
        "storage_max_charge_kw": 500.0,
        "storage_max_discharge_kw": 500.0,
        "storage_module_kwh": 500.0,
        "tier": "terminal"
      },
      "type": "Feature"
    },
    {
      "geometry": {
        "coordinates": [
          37.375191204715684,
          -3.333437566137566
        ],
        "type": "Point"
      },
      "properties": {
        "charger_bus_voltage_v": 650.0,
        "charger_contact_count": 2,
        "charger_efficiency": 0.98,
        "charger_max_current_a": 825.0,
        "charger_max_kw": 500.0,
        "grid_export_kw": 500.0,
        "grid_import_kw": 500.0,
        "line": "line-1",
        "pv_nameplate_kw": 300.0,
        "station": "line-1-0367-0569-s004854",
        "storage_capacity_kwh": 500.0,
        "storage_initial_soc": 0.5,
        "storage_max_charge_kw": 500.0,
        "storage_max_discharge_kw": 500.0,
        "storage_module_kwh": 500.0,
        "tier": "standard"
      },
      "type": "Feature"
    },
    {
      "geometry": {
        "coordinates": [
          37.35233539611359,
          -3.339916348126552
        ],
        "type": "Point"
      },
      "properties": {
        "charger_bus_voltage_v": 650.0,
        "charger_contact_count": 2,
        "charger_efficiency": 0.98,
        "charger_max_current_a": 825.0,
        "charger_max_kw": 500.0,
        "grid_export_kw": 500.0,
        "grid_import_kw": 500.0,
        "line": "line-1",
        "pv_nameplate_kw": 300.0,
        "station": "line-1-0403-0442-s007855",
        "storage_capacity_kwh": 500.0,
        "storage_initial_soc": 0.5,
        "storage_max_charge_kw": 500.0,
        "storage_max_discharge_kw": 500.0,
        "storage_module_kwh": 500.0,
        "tier": "standard"
      },
      "type": "Feature"
    },
    {
      "geometry": {
        "coordinates": [
          37.341177442307846,
          -3.3352372278011733
        ],
        "type": "Point"
      },
      "properties": {
        "charger_bus_voltage_v": 650.0,
        "charger_contact_count": 2,
        "charger_efficiency": 0.98,
        "charger_max_current_a": 825.0,
        "charger_max_kw": 500.0,
        "grid_export_kw": 600.0,
        "grid_import_kw": 600.0,
        "line": "line-1",
        "pv_nameplate_kw": 300.0,
        "station": "line-1-0377-0380-s010443",
        "storage_capacity_kwh": 500.0,
        "storage_initial_soc": 0.5,
        "storage_max_charge_kw": 500.0,
        "storage_max_discharge_kw": 500.0,
        "storage_module_kwh": 500.0,
        "tier": "interchange"
      },
      "type": "Feature"
    },
    {
      "geometry": {
        "coordinates": [
          37.330739356489566,
          -3.346575096281899
        ],
        "type": "Point"
      },
      "properties": {
        "charger_bus_voltage_v": 650.0,
        "charger_contact_count": 2,
        "charger_efficiency": 0.98,
        "charger_max_current_a": 825.0,
        "charger_max_kw": 500.0,
        "grid_export_kw": 500.0,
        "grid_import_kw": 500.0,
        "line": "line-1",
        "pv_nameplate_kw": 300.0,
        "station": "line-1-0440-0322-s012848",
        "storage_capacity_kwh": 500.0,
        "storage_initial_soc": 0.5,
        "storage_max_charge_kw": 500.0,
        "storage_max_discharge_kw": 500.0,
        "storage_module_kwh": 500.0,
        "tier": "standard"
      },
      "type": "Feature"
    },
    {
      "geometry": {
        "coordinates": [
          37.31778173271515,
          -3.3548535399344925
        ],
        "type": "Point"
      },
      "properties": {
        "charger_bus_voltage_v": 650.0,
        "charger_contact_count": 2,
        "charger_efficiency": 0.98,
        "charger_max_current_a": 825.0,
        "charger_max_kw": 500.0,
        "grid_export_kw": 3000.0,
        "grid_import_kw": 3000.0,
        "line": "line-1",
        "pv_nameplate_kw": 5000.0,
        "station": "line-1-0486-0250-s015261",
        "storage_capacity_kwh": 40000.0,
        "storage_initial_soc": 0.6,
        "storage_max_charge_kw": 10000.0,
        "storage_max_discharge_kw": 10000.0,
        "storage_module_kwh": 500.0,
        "tier": "depot-main"
      },
      "type": "Feature"
    },
    {
      "geometry": {
        "coordinates": [
          37.324980412589824,
          -3.295104772702732
        ],
        "type": "Point"
      },
      "properties": {
        "charger_bus_voltage_v": 650.0,
        "charger_contact_count": 2,
        "charger_efficiency": 0.98,
        "charger_max_current_a": 825.0,
        "charger_max_kw": 500.0,
        "grid_export_kw": 800.0,
        "grid_import_kw": 800.0,
        "line": "line-2",
        "pv_nameplate_kw": 300.0,
        "station": "line-2-0154-0290-s000000",
        "storage_capacity_kwh": 500.0,
        "storage_initial_soc": 0.6,
        "storage_max_charge_kw": 500.0,
        "storage_max_discharge_kw": 500.0,
        "storage_module_kwh": 500.0,
        "tier": "terminal"
      },
      "type": "Feature"
    },
    {
      "geometry": {
        "coordinates": [
          37.33793803636424,
          -3.3156209156678544
        ],
        "type": "Point"
      },
      "properties": {
        "charger_bus_voltage_v": 650.0,
        "charger_contact_count": 2,
        "charger_efficiency": 0.98,
        "charger_max_current_a": 825.0,
        "charger_max_kw": 500.0,
        "grid_export_kw": 500.0,
        "grid_import_kw": 500.0,
        "line": "line-2",
        "pv_nameplate_kw": 300.0,
        "station": "line-2-0268-0362-s003099",
        "storage_capacity_kwh": 500.0,
        "storage_initial_soc": 0.5,
        "storage_max_charge_kw": 500.0,
        "storage_max_discharge_kw": 500.0,
        "storage_module_kwh": 500.0,
        "tier": "standard"
      },
      "type": "Feature"
    },
    {
      "geometry": {
        "coordinates": [
          37.341177442307846,
          -3.3352372278011733
        ],
        "type": "Point"
      },
      "properties": {
        "charger_bus_voltage_v": 650.0,
        "charger_contact_count": 2,
        "charger_efficiency": 0.98,
        "charger_max_current_a": 825.0,
        "charger_max_kw": 500.0,
        "grid_export_kw": 600.0,
        "grid_import_kw": 600.0,
        "line": "line-2",
        "pv_nameplate_kw": 300.0,
        "station": "line-2-0377-0380-s005528",
        "storage_capacity_kwh": 500.0,
        "storage_initial_soc": 0.5,
        "storage_max_charge_kw": 500.0,
        "storage_max_discharge_kw": 500.0,
        "storage_module_kwh": 500.0,
        "tier": "interchange"
      },
      "type": "Feature"
    },
    {
      "geometry": {
        "coordinates": [
          37.34585658422638,
          -3.351974081272721
        ],
        "type": "Point"
      },
      "properties": {
        "charger_bus_voltage_v": 650.0,
        "charger_contact_count": 2,
        "charger_efficiency": 0.98,
        "charger_max_current_a": 825.0,
        "charger_max_kw": 500.0,
        "grid_export_kw": 600.0,
        "grid_import_kw": 600.0,
        "line": "line-2",
        "pv_nameplate_kw": 300.0,
        "station": "line-2-0470-0406-s008091",
        "storage_capacity_kwh": 500.0,
        "storage_initial_soc": 0.5,
        "storage_max_charge_kw": 500.0,
        "storage_max_discharge_kw": 500.0,
        "storage_module_kwh": 500.0,
        "tier": "major"
      },
      "type": "Feature"
    },
    {
      "geometry": {
        "coordinates": [
          37.338837871348574,
          -3.3706905625742363
        ],
        "type": "Point"
      },
      "properties": {
        "charger_bus_voltage_v": 650.0,
        "charger_contact_count": 2,
        "charger_efficiency": 0.98,
        "charger_max_current_a": 825.0,
        "charger_max_kw": 500.0,
        "grid_export_kw": 800.0,
        "grid_import_kw": 800.0,
        "line": "line-2",
        "pv_nameplate_kw": 300.0,
        "station": "line-2-0574-0367-s011067",
        "storage_capacity_kwh": 500.0,
        "storage_initial_soc": 0.6,
        "storage_max_charge_kw": 500.0,
        "storage_max_discharge_kw": 500.0,
        "storage_module_kwh": 500.0,
        "tier": "terminal"
      },
      "type": "Feature"
    },
    {
      "geometry": {
        "coordinates": [
          37.328399785530294,
          -3.3188603066623474
        ],
        "type": "Point"
      },
      "properties": {
        "charger_bus_voltage_v": 650.0,
        "charger_contact_count": 2,
        "charger_efficiency": 0.98,
        "charger_max_current_a": 825.0,
        "charger_max_kw": 500.0,
        "grid_export_kw": 800.0,
        "grid_import_kw": 800.0,
        "line": "line-3",
        "pv_nameplate_kw": 300.0,
        "station": "line-3-0286-0309-s000000",
        "storage_capacity_kwh": 500.0,
        "storage_initial_soc": 0.6,
        "storage_max_charge_kw": 500.0,
        "storage_max_discharge_kw": 500.0,
        "storage_module_kwh": 500.0,
        "tier": "terminal"
      },
      "type": "Feature"
    },
    {
      "geometry": {
        "coordinates": [
          37.341177442307846,
          -3.3352372278011733
        ],
        "type": "Point"
      },
      "properties": {
        "charger_bus_voltage_v": 650.0,
        "charger_contact_count": 2,
        "charger_efficiency": 0.98,
        "charger_max_current_a": 825.0,
        "charger_max_kw": 500.0,
        "grid_export_kw": 600.0,
        "grid_import_kw": 600.0,
        "line": "line-3",
        "pv_nameplate_kw": 300.0,
        "station": "line-3-0377-0380-s003422",
        "storage_capacity_kwh": 500.0,
        "storage_initial_soc": 0.5,
        "storage_max_charge_kw": 500.0,
        "storage_max_discharge_kw": 500.0,
        "storage_module_kwh": 500.0,
        "tier": "interchange"
      },
      "type": "Feature"
    },
    {
      "geometry": {
        "coordinates": [
          37.3870690265089,
          -3.3274986826476622
        ],
        "type": "Point"
      },
      "properties": {
        "charger_bus_voltage_v": 650.0,
        "charger_contact_count": 2,
        "charger_efficiency": 0.98,
        "charger_max_current_a": 825.0,
        "charger_max_kw": 500.0,
        "grid_export_kw": 800.0,
        "grid_import_kw": 800.0,
        "line": "line-3",
        "pv_nameplate_kw": 300.0,
        "station": "line-3-0334-0635-s009753",
        "storage_capacity_kwh": 500.0,
        "storage_initial_soc": 0.6,
        "storage_max_charge_kw": 500.0,
        "storage_max_discharge_kw": 500.0,
        "storage_module_kwh": 500.0,
        "tier": "terminal"
      },
      "type": "Feature"
    }
  ],
  "type": "FeatureCollection"
}
