{
  "features": [
    {
      "geometry": {
        "coordinates": [
          13.101640593405127,
          11.89843984450923
        ],
        "type": "Point"
      },
      "properties": {
        "id": "interchange-000",
        "junction_group": 0,
        "line_count": 2,
        "lines": "line-1,line-5",
        "platform_count": 4,
        "platforms": "line-1-0437-0534-s001679,line-1-0450-0544-s002022,line-5-0429-0542-s006070,line-5-0437-0534-s005844"
      },
      "type": "Feature"
    },
    {
      "geometry": {
        "coordinates": [
          13.153680775650681,
          11.839198838961133
        ],
        "type": "Point"
      },
      "properties": {
        "id": "interchange-001",
        "junction_group": 1,
        "line_count": 3,
        "lines": "line-1,line-2,line-3",
        "platform_count": 7,
        "platforms": "line-1-0733-0821-s011079,line-1-0776-0842-s012302,line-2-0757-0806-s011828,line-2-0757-0865-s013041,line-2-0798-0805-s010752,line-3-0753-0810-s013972,line-3-0798-0805-s015102"
      },
      "type": "Feature"
    },
    {
      "geometry": {
        "coordinates": [
          13.215663967437564,
          11.777787527144895
        ],
        "type": "Point"
      },
      "properties": {
        "id": "interchange-002",
        "junction_group": 2,
        "line_count": 2,
        "lines": "line-1,line-5",
        "platform_count": 3,
        "platforms": "line-1-1111-1154-s023443,line-5-1104-1171-s035746,line-5-1111-1154-s036155"
      },
      "type": "Feature"
    },
    {
      "geometry": {
        "coordinates": [
          13.082091106953094,
          11.809221617535902
        ],
        "type": "Point"
      },
      "properties": {
        "id": "interchange-003",
        "junction_group": 3,
        "line_count": 2,
        "lines": "line-2,line-5",
        "platform_count": 2,
        "platforms": "line-2-0934-0432-s000000,line-5-0934-0432-s054425"
      },
      "type": "Feature"
    },
    {
      "geometry": {
        "coordinates": [
          13.130827150643373,
          11.834326897743225
        ],
        "type": "Point"
      },
      "properties": {
        "id": "interchange-004",
        "junction_group": 4,
        "line_count": 2,
        "lines": "line-2,line-4",
        "platform_count": 2,
        "platforms": "line-2-0793-0702-s008187,line-4-0796-0693-s005234"
      },
      "type": "Feature"
    },
    {
      "geometry": {
        "coordinates": [
          13.225454007601336,
          11.860811918559312
        ],
        "type": "Point"
      },
      "properties": {
        "id": "interchange-005",
        "junction_group": 5,
        "line_count": 2,
        "lines": "line-2,line-5",
        "platform_count": 3,
        "platforms": "line-2-0639-1211-s022248,line-5-0639-1211-s025170,line-5-0664-1217-s025720"
      },
      "type": "Feature"
    },
    {
      "geometry": {
        "coordinates": [
          13.187578789717742,
          11.921160573012273
        ],
        "type": "Point"
      },
      "properties": {
        "id": "interchange-006",
        "junction_group": 6,
        "line_count": 2,
        "lines": "line-3,line-5",
        "platform_count": 3,
        "platforms": "line-3-0306-1013-s000000,line-3-0324-0994-s002015,line-5-0306-1013-s016870"
      },
      "type": "Feature"
    },
    {
      "geometry": {
        "coordinates": [
          13.132341547481207,
          11.799143512219704
        ],
        "type": "Point"
      },
      "properties": {
        "id": "interchange-007",
        "junction_group": 7,
        "line_count": 2,
        "lines": "line-3,line-5",
        "platform_count": 4,
        "platforms": "line-3-0984-0702-s019819,line-3-1008-0687-s020423,line-5-0984-0702-s048045,line-5-0984-0732-s047429"
      },
      "type": "Feature"
    },
    {
      "geometry": {
        "coordinates": [
          13.15129445336076,
          11.806522125040491
        ],
        "type": "Point"
      },
      "properties": {
        "id": "interchange-008",
        "junction_group": 8,
        "line_count": 2,
        "lines": "line-4,line-5",
        "platform_count": 2,
        "platforms": "line-4-0949-0809-s009810,line-5-0949-0809-s045332"
      },
      "type": "Feature"
    }
  ],
  "type": "FeatureCollection"
}
