{
  "features": [
    {
      "geometry": {
        "coordinates": [
          32.65293186033393,
          0.3457096065939604
        ],
        "type": "Point"
      },
      "properties": {
        "id": "interchange-000",
        "junction_group": 0,
        "line_count": 2,
        "lines": "line-1,line-6",
        "platform_count": 3,
        "platforms": "line-1-0579-1111-s007048,line-1-0579-1138-s006425,line-6-0579-1138-s027063"
      },
      "type": "Feature"
    },
    {
      "geometry": {
        "coordinates": [
          32.584371614292834,
          0.3270651117589893
        ],
        "type": "Point"
      },
      "properties": {
        "id": "interchange-001",
        "junction_group": 1,
        "line_count": 5,
        "lines": "line-1,line-2,line-3,line-4,line-5",
        "platform_count": 15,
        "platforms": "line-1-0668-0685-s017914,line-1-0671-0751-s016169,line-1-0680-0798-s015105,line-2-0604-0702-s014489,line-2-0671-0751-s011688,line-2-0720-0778-s010357,line-2-0762-0777-s008999,line-3-0623-0720-s014114,line-3-0673-0708-s012899,line-3-0698-0690-s011690,line-4-0669-0692-s017968,line-4-0671-0751-s019442,line-4-0704-0799-s020710,line-5-0672-0820-s012082,line-5-0753-0789-s014083"
      },
      "type": "Feature"
    },
    {
      "geometry": {
        "coordinates": [
          32.5139907607398,
          0.3044373657752343
        ],
        "type": "Point"
      },
      "properties": {
        "id": "interchange-002",
        "junction_group": 2,
        "line_count": 2,
        "lines": "line-1,line-6",
        "platform_count": 3,
        "platforms": "line-1-0799-0371-s027187,line-1-0813-0348-s027808,line-6-0813-0348-s060545"
      },
      "type": "Feature"
    },
    {
      "geometry": {
        "coordinates": [
          32.58884271150022,
          0.2686326684868959
        ],
        "type": "Point"
      },
      "properties": {
        "id": "interchange-003",
        "junction_group": 3,
        "line_count": 3,
        "lines": "line-2,line-5,line-6",
        "platform_count": 7,
        "platforms": "line-2-1014-0784-s000000,line-5-0984-0760-s020561,line-5-0986-0754-s020698,line-5-1010-0772-s021492,line-5-1033-0780-s022164,line-6-1010-0772-s046243,line-6-1014-0784-s045953"
      },
      "type": "Feature"
    },
    {
      "geometry": {
        "coordinates": [
          32.59040836551657,
          0.2994583018392542
        ],
        "type": "Point"
      },
      "properties": {
        "id": "interchange-004",
        "junction_group": 4,
        "line_count": 2,
        "lines": "line-2,line-5",
        "platform_count": 2,
        "platforms": "line-2-0841-0795-s006020,line-5-0831-0767-s016100"
      },
      "type": "Feature"
    },
    {
      "geometry": {
        "coordinates": [
          32.55303800079815,
          0.3885415541878127
        ],
        "type": "Point"
      },
      "properties": {
        "id": "interchange-005",
        "junction_group": 5,
        "line_count": 2,
        "lines": "line-2,line-6",
        "platform_count": 3,
        "platforms": "line-2-0345-0571-s021804,line-6-0333-0577-s009062,line-6-0345-0571-s008772"
      },
      "type": "Feature"
    },
    {
      "geometry": {
        "coordinates": [
          32.55501431816307,
          0.26521973868912646
        ],
        "type": "Point"
      },
      "properties": {
        "id": "interchange-006",
        "junction_group": 6,
        "line_count": 2,
        "lines": "line-3,line-6",
        "platform_count": 4,
        "platforms": "line-3-1006-0594-s001362,line-3-1033-0576-s000000,line-6-1033-0576-s052059,line-6-1033-0590-s051779"
      },
      "type": "Feature"
    },
    {
      "geometry": {
        "coordinates": [
          32.59472033067639,
          0.39723991889524773
        ],
        "type": "Point"
      },
      "properties": {
        "id": "interchange-007",
        "junction_group": 7,
        "line_count": 2,
        "lines": "line-3,line-6",
        "platform_count": 3,
        "platforms": "line-3-0293-0800-s023009,line-6-0292-0815-s015091,line-6-0293-0800-s014766"
      },
      "type": "Feature"
    },
    {
      "geometry": {
        "coordinates": [
          32.52219547222445,
          0.3572874299631669
        ],
        "type": "Point"
      },
      "properties": {
        "id": "interchange-008",
        "junction_group": 8,
        "line_count": 2,
        "lines": "line-4,line-6",
        "platform_count": 3,
        "platforms": "line-4-0512-0404-s009762,line-6-0512-0404-s003248,line-6-0520-0396-s003022"
      },
      "type": "Feature"
    },
    {
      "geometry": {
        "coordinates": [
          32.65442907045887,
          0.311336068819062
        ],
        "type": "Point"
      },
      "properties": {
        "id": "interchange-009",
        "junction_group": 9,
        "line_count": 2,
        "lines": "line-4,line-6",
        "platform_count": 3,
        "platforms": "line-4-0772-1138-s031810,line-6-0766-1136-s031184,line-6-0772-1138-s031321"
      },
      "type": "Feature"
    },
    {
      "geometry": {
        "coordinates": [
          32.625047818967104,
          0.39235683691466006
        ],
        "type": "Point"
      },
      "properties": {
        "id": "interchange-010",
        "junction_group": 10,
        "line_count": 2,
        "lines": "line-5,line-6",
        "platform_count": 5,
        "platforms": "line-5-0300-0965-s000000,line-5-0355-0978-s001712,line-6-0292-0954-s018103,line-6-0300-0965-s018453,line-6-0352-1007-s020230"
      },
      "type": "Feature"
    }
  ],
  "type": "FeatureCollection"
}
