{
  "features": [
    {
      "geometry": {
        "coordinates": [
          15.0070676783078,
          -7.60147272792715
        ],
        "type": "Point"
      },
      "properties": {
        "anchor_kind": "amenity:university",
        "anchor_name": "Universidade Kimpa Vita",
        "archetype": "terminal",
        "chainage_m": 0.0,
        "corridor_offset_m": 0.0,
        "id": "line-1-0510-0252-s000000",
        "junction_group": null,
        "line": "line-1",
        "platform_length_m": 59.5
      },
      "type": "Feature"
    },
    {
      "geometry": {
        "coordinates": [
          15.039150367656239,
          -7.621089040060468
        ],
        "type": "Point"
      },
      "properties": {
        "anchor_kind": null,
        "anchor_name": null,
        "archetype": "standard",
        "chainage_m": 4653.9,
        "corridor_offset_m": 0.056,
        "id": "line-1-0619-0429-s004654",
        "junction_group": null,
        "line": "line-1",
        "platform_length_m": 59.5
      },
      "type": "Feature"
    },
    {
      "geometry": {
        "coordinates": [
          15.055463599528327,
          -7.630987179210308
        ],
        "type": "Point"
      },
      "properties": {
        "anchor_kind": "amenity:marketplace",
        "anchor_name": null,
        "archetype": "depot-terminal",
        "chainage_m": 7014.9,
        "corridor_offset_m": 0.0,
        "id": "line-1-0674-0519-s007015",
        "junction_group": null,
        "line": "line-1",
        "platform_length_m": 59.5
      },
      "type": "Feature"
    }
  ],
  "type": "FeatureCollection"
}
