{
  "features": [
    {
      "geometry": {
        "coordinates": [
          -89.28328885802937,
          13.684476118489723
        ],
        "type": "Point"
      },
      "properties": {
        "id": "interchange-000",
        "junction_group": 0,
        "line_count": 2,
        "lines": "line-1,line-6",
        "platform_count": 4,
        "platforms": "line-1-0913-0350-s004443,line-1-0916-0365-s004768,line-6-0916-0365-s066198,line-6-0932-0361-s065845"
      },
      "type": "Feature"
    },
    {
      "geometry": {
        "coordinates": [
          -89.20574941951034,
          13.699838230412682
        ],
        "type": "Point"
      },
      "properties": {
        "id": "interchange-001",
        "junction_group": 1,
        "line_count": 4,
        "lines": "line-1,line-3,line-4,line-5",
        "platform_count": 9,
        "platforms": "line-1-0820-0798-s015188,line-1-0832-0746-s013881,line-3-0820-0798-s026302,line-3-0872-0789-s024785,line-4-0820-0798-s015294,line-4-0846-0769-s014336,line-5-0806-0755-s015190,line-5-0838-0780-s014267,line-5-0851-0783-s013983"
      },
      "type": "Feature"
    },
    {
      "geometry": {
        "coordinates": [
          -89.10206385697263,
          13.701302955044453
        ],
        "type": "Point"
      },
      "properties": {
        "id": "interchange-002",
        "junction_group": 2,
        "line_count": 2,
        "lines": "line-1,line-6",
        "platform_count": 4,
        "platforms": "line-1-0824-1345-s030191,line-1-0832-1331-s029845,line-6-0815-1354-s030783,line-6-0832-1331-s031396"
      },
      "type": "Feature"
    },
    {
      "geometry": {
        "coordinates": [
          -89.17700409337901,
          13.80053929861186
        ],
        "type": "Point"
      },
      "properties": {
        "id": "interchange-003",
        "junction_group": 3,
        "line_count": 2,
        "lines": "line-2,line-6",
        "platform_count": 3,
        "platforms": "line-2-0267-0936-s001976,line-2-0289-0933-s002440,line-6-0267-0936-s013647"
      },
      "type": "Feature"
    },
    {
      "geometry": {
        "coordinates": [
          -89.21953649158618,
          13.719524529388474
        ],
        "type": "Point"
      },
      "properties": {
        "id": "interchange-004",
        "junction_group": 4,
        "line_count": 3,
        "lines": "line-2,line-3,line-5",
        "platform_count": 4,
        "platforms": "line-2-0704-0714-s015012,line-2-0738-0687-s016219,line-3-0736-0699-s029622,line-5-0720-0720-s017616"
      },
      "type": "Feature"
    },
    {
      "geometry": {
        "coordinates": [
          -89.25226794585869,
          13.675792750962819
        ],
        "type": "Point"
      },
      "properties": {
        "id": "interchange-005",
        "junction_group": 5,
        "line_count": 2,
        "lines": "line-2,line-4",
        "platform_count": 2,
        "platforms": "line-2-0962-0534-s023459,line-4-0973-0522-s007063"
      },
      "type": "Feature"
    },
    {
      "geometry": {
        "coordinates": [
          -89.26784774824546,
          13.648662851383941
        ],
        "type": "Point"
      },
      "properties": {
        "id": "interchange-006",
        "junction_group": 6,
        "line_count": 2,
        "lines": "line-2,line-6",
        "platform_count": 4,
        "platforms": "line-2-1118-0452-s028182,line-2-1119-0427-s028690,line-6-1118-0444-s059726,line-6-1118-0452-s059566"
      },
      "type": "Feature"
    },
    {
      "geometry": {
        "coordinates": [
          -89.12448582776665,
          13.636470143613
        ],
        "type": "Point"
      },
      "properties": {
        "id": "interchange-007",
        "junction_group": 7,
        "line_count": 2,
        "lines": "line-3,line-6",
        "platform_count": 2,
        "platforms": "line-3-1186-1219-s011902,line-6-1186-1219-s040830"
      },
      "type": "Feature"
    },
    {
      "geometry": {
        "coordinates": [
          -89.27908184907626,
          13.739590756937694
        ],
        "type": "Point"
      },
      "properties": {
        "id": "interchange-008",
        "junction_group": 8,
        "line_count": 2,
        "lines": "line-3,line-6",
        "platform_count": 2,
        "platforms": "line-3-0613-0383-s038450,line-6-0613-0383-s073920"
      },
      "type": "Feature"
    },
    {
      "geometry": {
        "coordinates": [
          -89.28470352257844,
          13.65173127452039
        ],
        "type": "Point"
      },
      "properties": {
        "id": "interchange-009",
        "junction_group": 9,
        "line_count": 2,
        "lines": "line-4,line-6",
        "platform_count": 5,
        "platforms": "line-4-1087-0349-s002031,line-4-1113-0355-s000000,line-6-1087-0349-s062166,line-6-1106-0355-s061737,line-6-1113-0355-s061597"
      },
      "type": "Feature"
    },
    {
      "geometry": {
        "coordinates": [
          -89.1296636849397,
          13.749668862253897
        ],
        "type": "Point"
      },
      "properties": {
        "id": "interchange-010",
        "junction_group": 10,
        "line_count": 2,
        "lines": "line-4,line-6",
        "platform_count": 2,
        "platforms": "line-4-0557-1191-s027426,line-6-0557-1191-s022998"
      },
      "type": "Feature"
    },
    {
      "geometry": {
        "coordinates": [
          -89.17728147858469,
          13.620993053305979
        ],
        "type": "Point"
      },
      "properties": {
        "id": "interchange-011",
        "junction_group": 11,
        "line_count": 2,
        "lines": "line-5,line-6",
        "platform_count": 4,
        "platforms": "line-5-1272-0938-s002004,line-5-1273-0935-s000000,line-6-1271-0923-s047674,line-6-1272-0938-s047349"
      },
      "type": "Feature"
    },
    {
      "geometry": {
        "coordinates": [
          -89.23759735053504,
          13.789321407575377
        ],
        "type": "Point"
      },
      "properties": {
        "id": "interchange-012",
        "junction_group": 12,
        "line_count": 2,
        "lines": "line-5,line-6",
        "platform_count": 3,
        "platforms": "line-5-0342-0602-s026774,line-6-0326-0618-s006032,line-6-0342-0602-s005579"
      },
      "type": "Feature"
    }
  ],
  "type": "FeatureCollection"
}
